{
"type": "FeatureCollection",
"name": "crests_2026_07_2026-07-21",
"crs": { "type": "name", "properties": { "name": "urn:ogc:def:crs:EPSG::32733" } },
"features": [
{ "type": "Feature", "properties": { "id": 0, "reference_id": 5, "dune_id": 5, "dune_name": "The Star Dune", "acquisition_date": "2026-07-21", "length_m": 938.27780546815802 }, "geometry": { "type": "LineString", "coordinates": [ [ 533651.628543837927282, 7262041.078100949525833 ], [ 533654.129336780519225, 7262036.078100949525833 ], [ 533657.968647089437582, 7262028.683442020788789 ], [ 533662.664807373774238, 7262019.677239574491978 ], [ 533667.881498891045339, 7262009.944359513930976 ], [ 533673.671070924960077, 7261999.993520701304078 ], [ 533680.0, 7261989.999553894624114 ], [ 533686.329821285791695, 7261980.0 ], [ 533692.129675285541452, 7261970.0 ], [ 533697.423233035369776, 7261960.0 ], [ 533702.489618766237982, 7261950.0 ], [ 533707.499207057408057, 7261940.0 ], [ 533712.499900731956586, 7261930.0 ], [ 533717.499207057291642, 7261920.0 ], [ 533722.489618766237982, 7261910.0 ], [ 533727.423233035253361, 7261900.0 ], [ 533732.128783074906096, 7261890.0 ], [ 533736.318647109437734, 7261880.0 ], [ 533739.912851801607758, 7261870.0 ], [ 533743.22397924575489, 7261860.0 ], [ 533746.340995462262072, 7261850.0 ], [ 533748.994628659565933, 7261840.000000000931323 ], [ 533751.638825803645886, 7261830.0 ], [ 533755.669840209186077, 7261820.000892210751772 ], [ 533762.075635517016053, 7261810.011174177750945 ], [ 533770.545414054067805, 7261800.088040409609675 ], [ 533780.099214585614391, 7261790.458265855908394 ], [ 533790.012066387105733, 7261781.628543838858604 ], [ 533800.000892210751772, 7261774.128444570116699 ], [ 533810.0, 7261767.958365123718977 ], [ 533820.0, 7261762.587941141799092 ], [ 533830.0, 7261757.511273443698883 ], [ 533840.0, 7261752.500792942941189 ], [ 533850.0, 7261747.500099267810583 ], [ 533860.0, 7261742.499900732189417 ], [ 533870.0, 7261737.500099267810583 ], [ 533880.0, 7261732.500792942941189 ], [ 533890.0, 7261727.510381233878434 ], [ 533900.0, 7261722.576766964048147 ], [ 533910.0, 7261717.871216924861073 ], [ 533920.0, 7261713.681352891027927 ], [ 533930.0, 7261710.088040409609675 ], [ 533940.0, 7261706.787194930948317 ], [ 533950.0, 7261703.747044946998358 ], [ 533960.0, 7261701.464529407210648 ], [ 533970.0, 7261700.000892210751772 ], [ 533980.0, 7261698.546644769608974 ], [ 533990.0, 7261696.340995462611318 ], [ 534000.0, 7261693.670178714208305 ], [ 534010.0, 7261691.529329253360629 ], [ 534020.0, 7261690.35994348116219 ], [ 534030.0, 7261689.64005651883781 ], [ 534040.0, 7261688.470670748502016 ], [ 534050.0, 7261686.33071349747479 ], [ 534060.0, 7261683.670178715139627 ], [ 534070.0, 7261681.539611218497157 ], [ 534080.0, 7261680.435917503200471 ], [ 534090.0, 7261680.0 ], [ 534100.0, 7261679.564082497730851 ], [ 534110.0, 7261678.460388781502843 ], [ 534120.0, 7261676.328929075039923 ], [ 534130.0, 7261673.659004537388682 ], [ 534140.0, 7261671.452463019639254 ], [ 534150.0, 7261669.9888258241117 ], [ 534160.0, 7261668.458604360930622 ], [ 534170.0, 7261665.881837395951152 ], [ 534180.0, 7261662.032245121896267 ], [ 534190.0, 7261657.335192626342177 ], [ 534200.0, 7261652.117608899250627 ], [ 534210.0, 7261646.318647109903395 ], [ 534220.0, 7261639.92313376814127 ], [ 534230.0, 7261633.299061057157815 ], [ 534240.0, 7261626.688872555270791 ], [ 534250.0, 7261619.9888258241117 ], [ 534259.999107789248228, 7261613.222194824367762 ], [ 534269.988825823529623, 7261606.242673087865114 ], [ 534279.911959590855986, 7261598.448322394862771 ], [ 534289.54084193368908, 7261589.552016110159457 ], [ 534298.360281985718757, 7261579.912851802073419 ], [ 534305.78440723172389, 7261569.9888258241117 ], [ 534311.595435407944024, 7261559.999107790179551 ], [ 534315.881837395951152, 7261550.000892210751772 ], [ 534318.894521863316186, 7261540.012066386640072 ], [ 534321.528437041561119, 7261530.099214585497975 ], [ 534325.122641733847558, 7261520.546306265518069 ], [ 534329.988825823529623, 7261512.086809692904353 ], [ 534334.788425646489486, 7261505.756988408043981 ] ] } },
{ "type": "Feature", "properties": { "id": 1, "reference_id": 5, "dune_id": 5, "dune_name": "The Star Dune", "acquisition_date": "2026-07-21", "length_m": 186.61431311531081 }, "geometry": { "type": "LineString", "coordinates": [ [ 534334.342226177919656, 7261305.756988408043981 ], [ 534328.459496571333148, 7261312.086809693835676 ], [ 534321.540503428666852, 7261320.546306264586747 ], [ 534315.657773822080344, 7261330.099214585497975 ], [ 534312.074743306264281, 7261340.012066386640072 ], [ 534310.546306264703162, 7261350.000892210751772 ], [ 534310.110388762084767, 7261360.0 ], [ 534310.099214585614391, 7261370.0 ], [ 534310.447983889840543, 7261380.0 ], [ 534311.540503428666852, 7261390.0 ], [ 534313.670178714208305, 7261400.0 ], [ 534316.329821285791695, 7261410.0 ], [ 534318.459496571216732, 7261420.0 ], [ 534319.552908320794813, 7261430.0 ], [ 534319.912851801607758, 7261439.999107789248228 ], [ 534319.988825823529623, 7261449.987933613359928 ], [ 534319.999107789364643, 7261459.900785414502025 ], [ 534320.0, 7261469.453693736344576 ], [ 534320.0, 7261477.913190307095647 ], [ 534320.0, 7261484.243011591956019 ] ] } },
{ "type": "Feature", "properties": { "id": 2, "reference_id": 3, "dune_id": 3, "dune_name": "Big Mommy Dune", "acquisition_date": "2026-07-21", "length_m": 1018.8557030501501 }, "geometry": { "type": "LineString", "coordinates": [ [ 530044.243011592305265, 7260610.0 ], [ 530037.91319030651357, 7260610.0 ], [ 530029.453693735180423, 7260610.0 ], [ 530019.900785414502025, 7260610.0 ], [ 530009.987933612894267, 7260610.0 ], [ 529999.999107789364643, 7260610.0 ], [ 529990.0, 7260610.0 ], [ 529980.0, 7260610.0 ], [ 529970.0, 7260610.0 ], [ 529960.0, 7260610.0 ], [ 529950.0, 7260610.0 ], [ 529940.0, 7260610.0 ], [ 529930.0, 7260610.0 ], [ 529920.0, 7260610.0 ], [ 529910.0, 7260610.0 ], [ 529900.0, 7260610.0 ], [ 529890.0, 7260610.0 ], [ 529880.0, 7260610.0 ], [ 529870.0, 7260610.0 ], [ 529860.0, 7260610.0 ], [ 529850.0, 7260610.0 ], [ 529840.0, 7260610.0 ], [ 529830.0, 7260610.0 ], [ 529820.0, 7260610.0 ], [ 529810.0, 7260610.0 ], [ 529800.0, 7260610.0 ], [ 529790.0, 7260610.0 ], [ 529780.0, 7260610.0 ], [ 529770.0, 7260610.000892210751772 ], [ 529760.0, 7260610.011174176819623 ], [ 529750.0, 7260610.087148198857903 ], [ 529740.0, 7260610.447091680020094 ], [ 529730.0, 7260611.540503429248929 ], [ 529720.0, 7260613.670178715139627 ], [ 529710.0, 7260616.329821286723018 ], [ 529700.0, 7260618.459496571682394 ], [ 529690.0, 7260619.552908320911229 ], [ 529680.0, 7260619.913744012825191 ], [ 529670.0, 7260620.0 ], [ 529660.0, 7260620.086255988106132 ], [ 529650.0, 7260620.447091679088771 ], [ 529640.0, 7260621.540503429248929 ], [ 529630.0, 7260623.670178714208305 ], [ 529620.0, 7260626.330713496543467 ], [ 529610.0, 7260628.470670747570693 ], [ 529600.0, 7260629.64005651883781 ], [ 529590.0, 7260630.35994348116219 ], [ 529580.0, 7260631.530221463181078 ], [ 529570.0, 7260633.680460680276155 ], [ 529560.0, 7260636.416969483718276 ], [ 529550.0, 7260638.906588250771165 ], [ 529540.0, 7260641.094303959980607 ], [ 529530.0, 7260643.594204693101346 ], [ 529520.0, 7260646.405795307829976 ], [ 529510.0, 7260648.906588250771165 ], [ 529500.000000000116415, 7260651.10458592697978 ], [ 529490.0, 7260653.670178714208305 ], [ 529480.0, 7260656.766630999743938 ], [ 529470.0, 7260660.010281966067851 ], [ 529460.0, 7260663.310235233977437 ], [ 529450.0, 7260666.689764766953886 ], [ 529440.000000000116415, 7260669.989718034863472 ], [ 529430.0, 7260673.234261211007833 ], [ 529420.0, 7260676.34188767336309 ], [ 529410.0, 7260678.994628659449518 ], [ 529400.0, 7260681.638825803995132 ], [ 529390.0, 7260685.669840209186077 ], [ 529380.0, 7260692.075635517016053 ], [ 529370.0, 7260700.545414054766297 ], [ 529360.0, 7260710.099214585497975 ], [ 529350.0, 7260720.012066386640072 ], [ 529340.000892210751772, 7260730.000892210751772 ], [ 529330.011174176470377, 7260740.0 ], [ 529320.087148198508658, 7260750.0 ], [ 529310.447983889956959, 7260760.0 ], [ 529301.551677605253644, 7260770.0 ], [ 529293.757326912600547, 7260780.000000000931323 ], [ 529286.777805175632238, 7260790.0 ], [ 529280.011174176470377, 7260800.0 ], [ 529273.310235233511776, 7260810.0 ], [ 529266.690656977239996, 7260820.0 ], [ 529260.0, 7260830.0 ], [ 529253.309343022876419, 7260840.0 ], [ 529246.690656977239996, 7260850.0 ], [ 529240.0, 7260860.0 ], [ 529233.31023523339536, 7260870.0 ], [ 529226.700938943075016, 7260880.0 ], [ 529220.075974022038281, 7260890.0 ], [ 529213.670178714208305, 7260900.0 ], [ 529207.794350692536682, 7260910.0 ], [ 529202.206541518098675, 7260919.999107789248228 ], [ 529196.340995462262072, 7260929.987933613359928 ], [ 529190.012066387222148, 7260939.900785414502025 ], [ 529183.758219123352319, 7260949.453693735413253 ], [ 529178.328590570134111, 7260957.913190307095647 ], [ 529174.20531080244109, 7260964.243011592887342 ] ] } },
{ "type": "Feature", "properties": { "id": 3, "reference_id": 3, "dune_id": 3, "dune_name": "Big Mommy Dune", "acquisition_date": "2026-07-21", "length_m": 130.66109594826048 }, "geometry": { "type": "LineString", "coordinates": [ [ 530204.243011592305265, 7260580.0111741758883 ], [ 530197.91319030651357, 7260580.087148198857903 ], [ 530189.453693735180423, 7260580.447091679088771 ], [ 530179.900785414385609, 7260581.541395640000701 ], [ 530169.987933612894267, 7260583.681352891027927 ], [ 530159.999107789364643, 7260586.416969484649599 ], [ 530150.0, 7260588.906588250771165 ], [ 530140.0, 7260591.093411749228835 ], [ 530130.0, 7260593.583030516281724 ], [ 530120.000892210751772, 7260596.318647108972073 ], [ 530110.012066387222148, 7260598.458604360930622 ], [ 530100.099214585614391, 7260599.552908321842551 ], [ 530090.546306264819577, 7260599.912851802073419 ], [ 530082.08680969348643, 7260599.9888258241117 ], [ 530075.756988407694735, 7260599.999107789248228 ] ] } },
{ "type": "Feature", "properties": { "id": 4, "reference_id": 8, "dune_id": 8, "dune_name": "Inverted Y Dune", "acquisition_date": "2026-07-21", "length_m": 421.12526601703735 }, "geometry": { "type": "LineString", "coordinates": [ [ 530264.243011592421681, 7261221.628543838858604 ], [ 530257.913190306629986, 7261224.129336780868471 ], [ 530249.453693735180423, 7261227.969539299607277 ], [ 530239.900785414502025, 7261232.675981549546123 ], [ 530229.987933612777852, 7261237.969539300538599 ], [ 530219.999107789248228, 7261244.129336779937148 ], [ 530210.000892210751772, 7261251.628543837927282 ], [ 530200.011174176586792, 7261260.458265855908394 ], [ 530190.088040409144014, 7261270.088040409609675 ], [ 530180.458265855675563, 7261280.0111741758883 ], [ 530171.628543837927282, 7261290.000892210751772 ], [ 530164.129336780519225, 7261300.0 ], [ 530157.968647089553997, 7261310.000000000931323 ], [ 530152.664807373890653, 7261320.0 ], [ 530147.882391101680696, 7261330.0 ], [ 530143.681352890678681, 7261340.0 ], [ 530140.076866232673638, 7261350.0 ], [ 530136.700938943075016, 7261360.0 ], [ 530133.311127444147132, 7261370.0 ], [ 530130.01028196583502, 7261380.0 ], [ 530126.766630999278277, 7261390.0 ], [ 530123.670178714208305, 7261400.0 ], [ 530121.104585926048458, 7261410.0 ], [ 530118.907480461173691, 7261420.0 ], [ 530116.416969484300353, 7261430.0 ], [ 530113.680460680043325, 7261440.0 ], [ 530111.530221462948248, 7261450.0 ], [ 530110.359943480812944, 7261460.0 ], [ 530109.640056519303471, 7261470.000000000931323 ], [ 530108.470670747803524, 7261480.0 ], [ 530106.330713496543467, 7261490.0 ], [ 530103.670178714208305, 7261500.0 ], [ 530101.540503428783268, 7261510.0 ], [ 530100.447091679205187, 7261520.0 ], [ 530100.086702093132772, 7261529.999553894624114 ], [ 530100.005587088293396, 7261539.993520701304078 ], [ 530099.957318111439236, 7261549.944359513930976 ], [ 530099.776454160455614, 7261559.6772395754233 ], [ 530099.229748285608366, 7261568.683442020788789 ], [ 530098.164910642895848, 7261576.078100949525833 ], [ 530096.835089357104152, 7261581.078100949525833 ] ] } },
{ "type": "Feature", "properties": { "id": 5, "reference_id": 8, "dune_id": 8, "dune_name": "Inverted Y Dune", "acquisition_date": "2026-07-21", "length_m": 167.56071821893215 }, "geometry": { "type": "LineString", "coordinates": [ [ 530554.243011592305265, 7261174.205310802906752 ], [ 530547.91319030651357, 7261178.328590570017695 ], [ 530539.453693735296838, 7261183.757326913066208 ], [ 530529.900785414385609, 7261190.0 ], [ 530519.987933612894267, 7261196.242673086933792 ], [ 530509.999107789248228, 7261201.671409429982305 ], [ 530500.0, 7261205.794689197093248 ], [ 530490.0, 7261208.36117419693619 ], [ 530480.0, 7261209.540841934271157 ], [ 530470.0, 7261209.911959591321647 ], [ 530460.0, 7261209.9888258241117 ], [ 530450.0, 7261209.999107790179551 ], [ 530440.000892210751772, 7261210.000000000931323 ], [ 530430.012066387222148, 7261210.000000000931323 ], [ 530420.099214585614391, 7261210.000000000931323 ], [ 530410.546306264819577, 7261210.000000000931323 ], [ 530402.08680969348643, 7261210.000000000931323 ], [ 530395.756988407694735, 7261210.000000000931323 ] ] } },
{ "type": "Feature", "properties": { "id": 6, "reference_id": 9, "dune_id": 9, "dune_name": "Inverted Y Dune", "acquisition_date": "2026-07-21", "length_m": 767.43327867796177 }, "geometry": { "type": "LineString", "coordinates": [ [ 530092.618604378192686, 7261588.921006839722395 ], [ 530089.748279663734138, 7261593.910724874585867 ], [ 530085.013263306696899, 7261601.22940978128463 ], [ 530078.136736146174371, 7261609.874776534736156 ], [ 530069.497267834376544, 7261618.503962881863117 ], [ 530059.906372502679005, 7261626.248260175809264 ], [ 530049.988379718270153, 7261633.212358963675797 ], [ 530039.999107789364643, 7261639.912851801142097 ], [ 530030.0, 7261646.328929075971246 ], [ 530020.0, 7261652.205649306997657 ], [ 530010.0, 7261657.794350693002343 ], [ 530000.0, 7261663.670178715139627 ], [ 529990.0, 7261670.075974022038281 ], [ 529980.0, 7261676.700938943773508 ], [ 529970.0, 7261683.311127444729209 ], [ 529960.0, 7261690.011174176819623 ], [ 529950.0, 7261696.777805175632238 ], [ 529940.0, 7261703.757326913066208 ], [ 529930.0, 7261711.551677605137229 ], [ 529920.0, 7261720.447983889840543 ], [ 529910.0, 7261730.087148198857903 ], [ 529900.0, 7261740.011174176819623 ], [ 529890.0, 7261750.000892210751772 ], [ 529880.0, 7261760.0 ], [ 529870.0, 7261770.0 ], [ 529860.000892210751772, 7261780.0 ], [ 529850.011174176470377, 7261790.0 ], [ 529840.087148198392242, 7261800.0 ], [ 529830.447983889840543, 7261810.0 ], [ 529821.552569815889001, 7261820.0 ], [ 529813.768501089187339, 7261830.0 ], [ 529806.864953374140896, 7261840.000000000931323 ], [ 529800.45915806631092, 7261850.0 ], [ 529794.861912838649005, 7261860.0 ], [ 529790.447983889840543, 7261870.0 ], [ 529786.777805175632238, 7261880.0 ], [ 529783.32051719923038, 7261890.0 ], [ 529780.000892210751772, 7261900.0 ], [ 529776.689764766488224, 7261910.0 ], [ 529773.299061056924984, 7261920.0 ], [ 529769.923133767442778, 7261930.0 ], [ 529766.31953932007309, 7261940.0 ], [ 529762.129675285425037, 7261950.0 ], [ 529757.433515001088381, 7261960.0 ], [ 529752.566484998911619, 7261970.0 ], [ 529747.869432503823191, 7261980.0 ], [ 529743.670178714208305, 7261990.0 ], [ 529740.000892210751772, 7262000.0 ], [ 529736.340103251626715, 7262010.0 ], [ 529732.20654151821509, 7262020.0 ], [ 529727.793458481901325, 7262030.0 ], [ 529723.6598967484897, 7262040.0 ], [ 529719.999107789248228, 7262050.0 ], [ 529716.329821285791695, 7262060.0 ], [ 529712.129675285425037, 7262070.0 ], [ 529707.423233035369776, 7262080.0 ], [ 529702.490510976873338, 7262090.0 ], [ 529697.509489023126662, 7262100.0 ], [ 529692.576766964630224, 7262110.0 ], [ 529687.871216925210319, 7262120.0 ], [ 529683.680460680043325, 7262130.0 ], [ 529680.076866232673638, 7262140.0 ], [ 529676.700938943075016, 7262149.999107789248228 ], [ 529673.311127444147132, 7262159.987933613359928 ], [ 529670.011174176470377, 7262169.900785414502025 ], [ 529666.777805175632238, 7262179.453693735413253 ], [ 529663.757326912600547, 7262187.913190307095647 ], [ 529661.551677605137229, 7262194.243011591956019 ] ] } },
{ "type": "Feature", "properties": { "id": 7, "reference_id": 7, "dune_id": 7, "dune_name": "Inverted Y Dune", "acquisition_date": "2026-07-21", "length_m": 585.54357016963479 }, "geometry": { "type": "LineString", "coordinates": [ [ 530614.254185768775642, 7261365.756988408043981 ], [ 530608.000338505022228, 7261372.086809692904353 ], [ 530599.901677625137381, 7261380.546306265518069 ], [ 530591.452463019639254, 7261390.099214585497975 ], [ 530583.745260525494814, 7261400.012066387571394 ], [ 530576.776912964996882, 7261410.000892210751772 ], [ 530570.011174176470377, 7261420.0 ], [ 530563.310235233511776, 7261430.0 ], [ 530556.690656977239996, 7261440.0 ], [ 530550.0, 7261450.0 ], [ 530543.309343022760004, 7261460.0 ], [ 530536.689764766488224, 7261470.000000000931323 ], [ 530529.988825823529623, 7261480.0 ], [ 530523.222194824367762, 7261490.0 ], [ 530516.242673087399453, 7261500.0 ], [ 530508.448322394862771, 7261510.0 ], [ 530499.552016110159457, 7261520.0 ], [ 530489.912851801607758, 7261529.999107789248228 ], [ 530479.988825823529623, 7261539.9888258241117 ], [ 530469.999107789364643, 7261549.912851801142097 ], [ 530460.0, 7261559.552016111090779 ], [ 530450.0, 7261568.448322394862771 ], [ 530440.0, 7261576.241780877113342 ], [ 530430.000000000116415, 7261583.211912859231234 ], [ 530420.0, 7261589.911959591321647 ], [ 530410.0, 7261596.317754898220301 ], [ 530400.0, 7261602.118501110002398 ], [ 530390.0, 7261607.346366802230477 ], [ 530380.0, 7261612.118501109071076 ], [ 530370.0, 7261616.318647109903395 ], [ 530360.0, 7261619.92313376814127 ], [ 530350.0, 7261623.299061057157815 ], [ 530340.0, 7261626.688872555270791 ], [ 530330.0, 7261629.989718034863472 ], [ 530320.0, 7261633.233369001187384 ], [ 530310.0, 7261636.329821285791695 ], [ 530300.0, 7261638.895414074882865 ], [ 530290.0, 7261641.092519538477063 ], [ 530280.0, 7261643.583030516281724 ], [ 530270.0, 7261646.318647109903395 ], [ 530260.0, 7261648.458604361861944 ], [ 530250.0, 7261649.552908321842551 ], [ 530240.0, 7261649.912851802073419 ], [ 530230.0, 7261649.9888258241117 ], [ 530220.0, 7261649.998215579427779 ], [ 530210.0, 7261649.9888258241117 ], [ 530200.0, 7261649.912851802073419 ], [ 530190.000892210751772, 7261649.552908321842551 ], [ 530180.012066387222148, 7261648.459496572613716 ], [ 530170.099214585614391, 7261646.329821286723018 ], [ 530160.546306264819577, 7261643.670178715139627 ], [ 530152.08680969348643, 7261641.540503429248929 ], [ 530145.75698840781115, 7261640.447091680020094 ] ] } },
{ "type": "Feature", "properties": { "id": 8, "reference_id": 4, "dune_id": 4, "dune_name": "The Star Dune", "acquisition_date": "2026-07-21", "length_m": 267.62585759196213 }, "geometry": { "type": "LineString", "coordinates": [ [ 533005.756988407694735, 7261870.447091680020094 ], [ 533012.08680969348643, 7261871.541395640000701 ], [ 533020.546306264819577, 7261873.681352891027927 ], [ 533030.099214585614391, 7261876.416969484649599 ], [ 533040.012066387105733, 7261878.906588250771165 ], [ 533050.000892210751772, 7261881.093411749228835 ], [ 533060.0, 7261883.583922726102173 ], [ 533070.0, 7261886.329821285791695 ], [ 533080.0, 7261888.545752558857203 ], [ 533090.0, 7261890.000892210751772 ], [ 533100.0, 7261891.464529407210648 ], [ 533110.0, 7261893.746152736246586 ], [ 533120.0, 7261896.776912964880466 ], [ 533130.0, 7261900.0111741758883 ], [ 533140.0, 7261903.310235233977437 ], [ 533150.0, 7261906.689764766953886 ], [ 533160.0, 7261909.989718034863472 ], [ 533170.0, 7261913.233369002118707 ], [ 533180.0, 7261916.329821286723018 ], [ 533190.0, 7261918.895414073951542 ], [ 533200.0, 7261921.093411749228835 ], [ 533210.0, 7261923.594204692170024 ], [ 533219.999107789364643, 7261926.405795307829976 ], [ 533229.987933612894267, 7261928.905696040019393 ], [ 533239.900785414502025, 7261931.093411750160158 ], [ 533249.453693735296838, 7261933.583030516281724 ], [ 533257.913190306629986, 7261936.318647108972073 ], [ 533264.243011592305265, 7261938.458604360930622 ] ] } },
{ "type": "Feature", "properties": { "id": 9, "reference_id": 4, "dune_id": 4, "dune_name": "The Star Dune", "acquisition_date": "2026-07-21", "length_m": 124.75821409084092 }, "geometry": { "type": "LineString", "coordinates": [ [ 533484.243011592421681, 7262008.372348373755813 ], [ 533477.913190306629986, 7262005.881837395951152 ], [ 533469.453693735180423, 7262002.118501109071076 ], [ 533459.900785414385609, 7261997.783176516182721 ], [ 533449.987933612894267, 7261993.670178715139627 ], [ 533439.999107789364643, 7261990.086255988106132 ], [ 533430.0, 7261986.776912964880466 ], [ 533420.0, 7261983.671070924960077 ], [ 533410.000892210751772, 7261981.104585926048458 ], [ 533400.012066387222148, 7261978.907480461522937 ], [ 533390.099214585614391, 7261976.416969484649599 ], [ 533380.546306264819577, 7261973.681352891027927 ], [ 533372.08680969348643, 7261971.541395640000701 ], [ 533365.756988407694735, 7261970.447091680020094 ] ] } },
{ "type": "Feature", "properties": { "id": 10, "reference_id": 4, "dune_id": 4, "dune_name": "The Star Dune", "acquisition_date": "2026-07-21", "length_m": 109.76914154459106 }, "geometry": { "type": "LineString", "coordinates": [ [ 533525.756988407694735, 7262030.458265855908394 ], [ 533532.086809693602845, 7262031.62765162717551 ], [ 533540.546306264819577, 7262034.117270394228399 ], [ 533550.099214585614391, 7262037.871216925792396 ], [ 533560.012066387105733, 7262042.140849461778998 ], [ 533570.000892210751772, 7262045.969877805560827 ], [ 533579.999553894740529, 7262048.819440051913261 ], [ 533589.993520701071247, 7262051.082237573340535 ], [ 533599.94435951358173, 7262053.582138305529952 ], [ 533609.677239574841224, 7262056.318647109903395 ], [ 533618.683442020905204, 7262058.458604361861944 ], [ 533626.078100949409418, 7262059.552908321842551 ], [ 533631.078100949525833, 7262059.912851803004742 ] ] } },
{ "type": "Feature", "properties": { "id": 11, "reference_id": 1, "dune_id": 1, "dune_name": "Big Mommy Dune", "acquisition_date": "2026-07-21", "length_m": 429.32396201362934 }, "geometry": { "type": "LineString", "coordinates": [ [ 529088.001230715774, 7261905.756988408043981 ], [ 529084.701277447980829, 7261912.086809693835676 ], [ 529079.54084193368908, 7261920.546306264586747 ], [ 529073.571856339229271, 7261930.099214585497975 ], [ 529067.782284305430949, 7261940.012066387571394 ], [ 529062.205649307463318, 7261950.000892210751772 ], [ 529056.340103251626715, 7261960.0 ], [ 529050.000892210635357, 7261970.0 ], [ 529043.670178714208305, 7261980.0 ], [ 529037.870324714574963, 7261990.0 ], [ 529032.577659175381996, 7262000.0 ], [ 529027.520663199597038, 7262010.0 ], [ 529022.577659175381996, 7262020.0 ], [ 529017.870324714574963, 7262030.0 ], [ 529013.670178714208305, 7262040.0 ], [ 529010.0, 7262050.0 ], [ 529006.32982128590811, 7262060.0 ], [ 529002.129675285541452, 7262070.0 ], [ 528997.423233035369776, 7262080.0 ], [ 528992.489618766237982, 7262090.0 ], [ 528987.498314846656285, 7262100.0 ], [ 528982.488726555602625, 7262110.0 ], [ 528977.4120588588994, 7262120.0 ], [ 528972.041634876397438, 7262130.0 ], [ 528965.871555430116132, 7262139.999107789248228 ], [ 528958.371456162189133, 7262149.9888258241117 ], [ 528949.541734144324437, 7262159.912851801142097 ], [ 528939.911959590972401, 7262169.552016111090779 ], [ 528929.988825823529623, 7262178.448322394862771 ], [ 528919.999107789364643, 7262186.242673087865114 ], [ 528910.0, 7262193.222194824367762 ], [ 528900.0, 7262199.9888258241117 ], [ 528890.0, 7262206.688872556202114 ], [ 528880.000892210751772, 7262213.298168846406043 ], [ 528870.012066387105733, 7262219.911959591321647 ], [ 528860.099214585614391, 7262226.231498911045492 ], [ 528850.546306264819577, 7262231.670517219230533 ], [ 528842.086809693370014, 7262235.794689197093248 ], [ 528835.756988407694735, 7262238.361174196004868 ] ] } },
{ "type": "Feature", "properties": { "id": 12, "reference_id": 1, "dune_id": 1, "dune_name": "Big Mommy Dune", "acquisition_date": "2026-07-21", "length_m": 703.35598987925084 }, "geometry": { "type": "LineString", "coordinates": [ [ 529180.0, 7261035.756988408043981 ], [ 529180.0, 7261042.086809693835676 ], [ 529180.0, 7261050.546306265518069 ], [ 529179.999107789364643, 7261060.099214585497975 ], [ 529179.988825823529623, 7261070.012066387571394 ], [ 529179.912851801607758, 7261080.000892210751772 ], [ 529179.552908320794813, 7261090.0 ], [ 529178.458604360581376, 7261100.0 ], [ 529176.318647109321319, 7261110.0 ], [ 529173.583030515816063, 7261120.000000000931323 ], [ 529171.092519538942724, 7261130.0 ], [ 529168.895414074067958, 7261140.0 ], [ 529166.328929075156339, 7261150.0 ], [ 529163.223087035119534, 7261160.0 ], [ 529159.91374401235953, 7261170.0 ], [ 529156.328929075156339, 7261180.0 ], [ 529152.205649307463318, 7261190.0 ], [ 529147.793458481901325, 7261200.0 ], [ 529143.659896748373285, 7261210.000000000931323 ], [ 529139.999107789364643, 7261220.0 ], [ 529136.329821285791695, 7261230.0 ], [ 529132.130567496176809, 7261240.0 ], [ 529127.433515001204796, 7261250.0 ], [ 529122.566484998911619, 7261260.0 ], [ 529117.870324714574963, 7261270.0 ], [ 529113.680460680043325, 7261280.0 ], [ 529110.076866232673638, 7261290.0 ], [ 529106.700046732323244, 7261300.0 ], [ 529103.299953267676756, 7261310.000000000931323 ], [ 529099.923133767442778, 7261320.0 ], [ 529096.31953932007309, 7261330.0 ], [ 529092.129675285541452, 7261340.0 ], [ 529087.433515001088381, 7261350.0 ], [ 529082.566484998911619, 7261360.0 ], [ 529077.869432503823191, 7261370.0 ], [ 529073.670178714208305, 7261380.0 ], [ 529070.000892210751772, 7261390.0 ], [ 529066.340103251626715, 7261400.0 ], [ 529062.206541518098675, 7261410.0 ], [ 529057.794350692536682, 7261420.0 ], [ 529053.671070924960077, 7261430.0 ], [ 529050.086255987756886, 7261440.0 ], [ 529046.776912964880466, 7261450.0 ], [ 529043.671070924843661, 7261460.0 ], [ 529041.103693715296686, 7261470.000000000931323 ], [ 529038.896306284703314, 7261480.0 ], [ 529036.329821285791695, 7261490.0 ], [ 529033.234261211473495, 7261500.0 ], [ 529030.000892210751772, 7261510.0 ], [ 529026.776020754361525, 7261520.0 ], [ 529023.746152736246586, 7261530.0 ], [ 529021.464529406744987, 7261540.0 ], [ 529020.000892210751772, 7261550.0 ], [ 529018.54664476972539, 7261560.000000000931323 ], [ 529016.340995462378487, 7261570.0 ], [ 529013.671070924960077, 7261580.0 ], [ 529011.540503428783268, 7261590.0 ], [ 529010.447091679205187, 7261600.0 ], [ 529010.088040409144014, 7261610.0 ], [ 529010.022348352940753, 7261620.0 ], [ 529010.088040409144014, 7261630.0 ], [ 529010.447983889840543, 7261640.0 ], [ 529011.552569815889001, 7261650.0 ], [ 529013.768501089187339, 7261659.999107789248228 ], [ 529016.864061163505539, 7261669.987933613359928 ], [ 529020.447091679205187, 7261679.900785414502025 ], [ 529024.763590463786386, 7261689.453693735413253 ], [ 529029.912851801607758, 7261697.913190307095647 ], [ 529034.778143680654466, 7261704.243011592887342 ] ] } },
{ "type": "Feature", "properties": { "id": 13, "reference_id": 1, "dune_id": 1, "dune_name": "Big Mommy Dune", "acquisition_date": "2026-07-21", "length_m": 85.755446720522443 }, "geometry": { "type": "LineString", "coordinates": [ [ 529098.37234837282449, 7261834.243011591956019 ], [ 529095.881837395951152, 7261827.913190307095647 ], [ 529092.118501109071076, 7261819.453693735413253 ], [ 529087.782284305430949, 7261809.900785414502025 ], [ 529083.659004537737928, 7261799.9888258241117 ], [ 529080.0, 7261790.0111741758883 ], [ 529076.340995462262072, 7261780.099214585497975 ], [ 529072.217715694569051, 7261770.546306265518069 ], [ 529067.881498891045339, 7261762.086809692904353 ], [ 529064.118162604048848, 7261755.756988408043981 ] ] } },
{ "type": "Feature", "properties": { "id": 14, "reference_id": 6, "dune_id": 6, "dune_name": "The Star Dune", "acquisition_date": "2026-07-21", "length_m": 866.79610654033468 }, "geometry": { "type": "LineString", "coordinates": [ [ 533546.776912964996882, 7262924.243011591956019 ], [ 533545.211574353626929, 7262917.913190307095647 ], [ 533545.221856319345534, 7262909.453693736344576 ], [ 533546.864061163505539, 7262899.900785414502025 ], [ 533548.994628659682348, 7262889.987933613359928 ], [ 533551.115760102518834, 7262879.999107789248228 ], [ 533553.671070924960077, 7262870.000000000931323 ], [ 533556.766630999278277, 7262860.0 ], [ 533560.010281965718605, 7262850.0 ], [ 533563.310235233511776, 7262840.0 ], [ 533566.68976476660464, 7262830.0 ], [ 533569.98971803416498, 7262820.0 ], [ 533573.233369000838138, 7262810.0 ], [ 533576.32982128590811, 7262800.0 ], [ 533578.895414074067958, 7262790.0 ], [ 533581.092519538942724, 7262780.0 ], [ 533583.583030515816063, 7262770.0 ], [ 533586.31953932007309, 7262760.0 ], [ 533588.469778537051752, 7262750.0 ], [ 533589.640056519303471, 7262740.0 ], [ 533590.359943480696529, 7262730.0 ], [ 533591.529329252196476, 7262720.0 ], [ 533593.669286503456533, 7262710.0 ], [ 533596.329821285791695, 7262700.0 ], [ 533598.459496571216732, 7262690.0 ], [ 533599.552908320794813, 7262680.0 ], [ 533599.913744012243114, 7262670.0 ], [ 533600.0, 7262660.0 ], [ 533600.086255987756886, 7262650.0 ], [ 533600.447091679205187, 7262640.0 ], [ 533601.540503428783268, 7262630.0 ], [ 533603.671070924960077, 7262620.0 ], [ 533606.340995462378487, 7262610.0 ], [ 533608.54664476972539, 7262600.000000000931323 ], [ 533610.0, 7262590.0 ], [ 533611.454247441026382, 7262580.0 ], [ 533613.670178714208305, 7262570.0 ], [ 533616.416077273664996, 7262560.0 ], [ 533618.907480461173691, 7262550.0 ], [ 533621.104585925932042, 7262540.0 ], [ 533623.670178714208305, 7262530.0 ], [ 533626.766630999161862, 7262520.0 ], [ 533630.01028196583502, 7262510.0 ], [ 533633.310235233511776, 7262500.0 ], [ 533636.68976476660464, 7262490.0 ], [ 533639.989718034281395, 7262480.0 ], [ 533643.233369000838138, 7262470.0 ], [ 533646.329821285791695, 7262460.0 ], [ 533648.896306284703314, 7262450.0 ], [ 533651.103693715413101, 7262440.0 ], [ 533653.670178714208305, 7262430.0 ], [ 533656.765738788526505, 7262420.0 ], [ 533659.999107789248228, 7262410.0 ], [ 533663.223087035119534, 7262400.0 ], [ 533666.242673087399453, 7262390.0 ], [ 533668.448322394862771, 7262380.0 ], [ 533669.552016110159457, 7262370.0 ], [ 533669.912851801607758, 7262360.0 ], [ 533669.988825823646039, 7262350.0 ], [ 533669.999107789364643, 7262340.000000000931323 ], [ 533670.0, 7262330.0 ], [ 533669.999107789364643, 7262320.0 ], [ 533669.988825823646039, 7262310.0 ], [ 533669.912851801607758, 7262300.0 ], [ 533669.552908320911229, 7262290.0 ], [ 533668.459496571333148, 7262280.0 ], [ 533666.329821285791695, 7262270.0 ], [ 533663.670178714208305, 7262260.0 ], [ 533661.540503428783268, 7262250.0 ], [ 533660.44619946856983, 7262240.0 ], [ 533660.075974022038281, 7262230.0 ], [ 533659.924025977961719, 7262220.0 ], [ 533659.553800531546585, 7262210.0 ], [ 533658.459496571216732, 7262200.0 ], [ 533656.329821285791695, 7262190.0 ], [ 533653.670178714208305, 7262180.0 ], [ 533651.540503428783268, 7262170.0 ], [ 533650.447091679205187, 7262160.0 ], [ 533650.087148198508658, 7262150.0 ], [ 533650.011174176470377, 7262140.0 ], [ 533650.000892210751772, 7262130.0 ], [ 533650.0, 7262120.000892210751772 ], [ 533650.0, 7262110.012066386640072 ], [ 533650.0, 7262100.099214585497975 ], [ 533650.0, 7262090.546306265518069 ], [ 533650.0, 7262082.086809693835676 ], [ 533650.0, 7262075.756988408043981 ] ] } },
{ "type": "Feature", "properties": { "id": 15, "reference_id": 2, "dune_id": 2, "dune_name": "Big Mommy Dune", "acquisition_date": "2026-07-21", "length_m": 772.65854325666646 }, "geometry": { "type": "LineString", "coordinates": [ [ 528425.756988407694735, 7260655.309004518203437 ], [ 528432.08680969348643, 7260660.535132088698447 ], [ 528440.546306264819577, 7260666.788979352451861 ], [ 528450.099214585614391, 7260673.322301620617509 ], [ 528460.012066387105733, 7260680.0111741758883 ], [ 528470.000892210751772, 7260686.766630999743938 ], [ 528480.0, 7260693.670178715139627 ], [ 528490.0, 7260701.103693716228008 ], [ 528500.0, 7260708.896306284703314 ], [ 528510.0, 7260716.329821286723018 ], [ 528520.0, 7260723.233369001187384 ], [ 528530.0, 7260729.989718034863472 ], [ 528540.0, 7260736.689764766953886 ], [ 528550.0, 7260743.309343023225665 ], [ 528560.0, 7260750.0 ], [ 528570.0, 7260756.689764766953886 ], [ 528580.0, 7260763.299061057157815 ], [ 528590.0, 7260769.923133767209947 ], [ 528600.0, 7260776.319539319723845 ], [ 528610.0, 7260782.128783075138927 ], [ 528620.0, 7260787.423233035951853 ], [ 528630.0, 7260792.489618767052889 ], [ 528640.0, 7260797.499207057990134 ], [ 528650.0, 7260802.499900732189417 ], [ 528660.0, 7260807.500099267810583 ], [ 528670.0, 7260812.499900732189417 ], [ 528680.0, 7260817.499207057058811 ], [ 528690.0, 7260822.489618766121566 ], [ 528700.0, 7260827.423233035951853 ], [ 528710.0, 7260832.128783075138927 ], [ 528720.0, 7260836.319539319723845 ], [ 528730.0, 7260839.92313376814127 ], [ 528740.0, 7260843.299953267909586 ], [ 528750.0, 7260846.700046733021736 ], [ 528760.0, 7260850.075974022038281 ], [ 528770.0, 7260853.670178714208305 ], [ 528780.0, 7260857.794350693002343 ], [ 528790.0, 7260862.205649307928979 ], [ 528800.0, 7260866.329821286723018 ], [ 528810.0, 7260869.924025978893042 ], [ 528820.0, 7260873.299061057157815 ], [ 528830.0, 7260876.688872556202114 ], [ 528840.0, 7260879.989718034863472 ], [ 528850.0, 7260883.233369002118707 ], [ 528860.0, 7260886.329821286723018 ], [ 528870.0, 7260888.896306284703314 ], [ 528880.0, 7260891.103693716228008 ], [ 528890.0, 7260893.670178714208305 ], [ 528900.0, 7260896.765738788992167 ], [ 528910.0, 7260900.0 ], [ 528920.0, 7260903.234261211939156 ], [ 528930.0, 7260906.329821286723018 ], [ 528940.0, 7260908.895414074882865 ], [ 528950.0, 7260911.093411749228835 ], [ 528960.0, 7260913.594204692170024 ], [ 528970.0, 7260916.405795307829976 ], [ 528980.0, 7260918.905696040019393 ], [ 528990.0, 7260921.094303959980607 ], [ 529000.0, 7260923.594204692170024 ], [ 529010.0, 7260926.405795307829976 ], [ 529020.0, 7260928.906588250771165 ], [ 529030.0, 7260931.10458592697978 ], [ 529040.0, 7260933.671070924960077 ], [ 529050.0, 7260936.776912964880466 ], [ 529060.0, 7260940.087148198857903 ], [ 529070.0, 7260943.681352891027927 ], [ 529079.999107789248228, 7260947.870324715040624 ], [ 529089.987933612894267, 7260952.565592788159847 ], [ 529099.900785414502025, 7260957.422340825200081 ], [ 529109.453693735296838, 7260962.042527087032795 ], [ 529117.91319030651357, 7260965.871555430814624 ], [ 529124.243011592421681, 7260968.371456163004041 ] ] } }
]
}
