{
"type": "FeatureCollection",
"name": "crests_2017_04_2017-04-10",
"crs": { "type": "name", "properties": { "name": "urn:ogc:def:crs:EPSG::32733" } },
"features": [
{ "type": "Feature", "properties": { "id": 0, "reference_id": 4, "dune_id": 4, "dune_name": "The Star Dune", "acquisition_date": "2017-04-10", "length_m": 607.88807916178303 }, "geometry": { "type": "LineString", "coordinates": [ [ 533584.243011592305265, 7262048.448322394862771 ], [ 533577.91319030651357, 7262046.241780877113342 ], [ 533569.453693735180423, 7262043.211912859231234 ], [ 533559.900785414385609, 7262039.911959590390325 ], [ 533549.987933612894267, 7262036.318647109903395 ], [ 533539.999107789364643, 7262032.128783075138927 ], [ 533530.0, 7262027.423233035951853 ], [ 533520.0, 7262022.490510976873338 ], [ 533510.0, 7262017.509489024057984 ], [ 533500.0, 7262012.576766964048147 ], [ 533490.0, 7262007.870324714109302 ], [ 533480.0, 7262003.670178715139627 ], [ 533470.0, 7262000.000892210751772 ], [ 533460.0, 7261996.340995462611318 ], [ 533450.0, 7261992.216823484748602 ], [ 533440.0, 7261987.870324715040624 ], [ 533430.0, 7261984.031014405190945 ], [ 533420.0, 7261981.180559948086739 ], [ 533410.0, 7261978.916870215907693 ], [ 533400.000000000116415, 7261976.406687518581748 ], [ 533390.0, 7261973.594204692170024 ], [ 533380.000000000116415, 7261971.093411749228835 ], [ 533370.0, 7261968.895414074882865 ], [ 533360.0, 7261966.329821286723018 ], [ 533350.0, 7261963.234261211939156 ], [ 533340.0, 7261960.0 ], [ 533330.0, 7261956.765738788992167 ], [ 533320.0, 7261953.669286504387856 ], [ 533310.0, 7261951.093411749228835 ], [ 533300.0, 7261948.819440051913261 ], [ 533290.0, 7261945.958703627809882 ], [ 533280.0, 7261942.053701262921095 ], [ 533270.0, 7261937.424125246703625 ], [ 533260.0, 7261932.576766964048147 ], [ 533250.0, 7261927.956580702215433 ], [ 533240.0, 7261924.117270393297076 ], [ 533230.0, 7261921.541395640000701 ], [ 533220.0, 7261920.011174176819623 ], [ 533210.0, 7261918.546644769608974 ], [ 533200.0, 7261916.329821286723018 ], [ 533190.0, 7261913.583922727033496 ], [ 533180.0, 7261911.092519539408386 ], [ 533170.0, 7261908.895414074882865 ], [ 533160.0, 7261906.329821286723018 ], [ 533150.0, 7261903.234261211939156 ], [ 533140.0, 7261900.0 ], [ 533130.0, 7261896.765738788992167 ], [ 533120.0, 7261893.670178715139627 ], [ 533110.0, 7261891.10458592697978 ], [ 533100.0, 7261888.907480461522937 ], [ 533090.0, 7261886.416969484649599 ], [ 533080.0, 7261883.680460680276155 ], [ 533070.0, 7261881.530221462249756 ], [ 533060.0, 7261880.35994348116219 ], [ 533050.000892210751772, 7261879.640056519769132 ], [ 533040.012066387105733, 7261878.470670748502016 ], [ 533030.099214585614391, 7261876.33071349747479 ], [ 533020.546306264819577, 7261873.670178715139627 ], [ 533012.08680969348643, 7261871.540503429248929 ], [ 533005.756988407694735, 7261870.447091680020094 ] ] } },
{ "type": "Feature", "properties": { "id": 1, "reference_id": 1, "dune_id": 1, "dune_name": "Big Mommy Dune", "acquisition_date": "2017-04-10", "length_m": 712.74080918298864 }, "geometry": { "type": "LineString", "coordinates": [ [ 529020.0, 7261555.756988408043981 ], [ 529020.0, 7261562.086809693835676 ], [ 529020.0, 7261570.546306264586747 ], [ 529020.0, 7261580.099214585497975 ], [ 529020.0, 7261590.012066387571394 ], [ 529020.0, 7261600.000892210751772 ], [ 529020.0, 7261610.0 ], [ 529020.000892210751772, 7261620.0 ], [ 529020.011174176470377, 7261630.0 ], [ 529020.087148198508658, 7261640.0 ], [ 529020.447983889840543, 7261650.0 ], [ 529021.551677605137229, 7261660.0 ], [ 529023.758219123352319, 7261670.0 ], [ 529026.788087141467258, 7261680.0 ], [ 529030.088040409144014, 7261690.0 ], [ 529033.681352890795097, 7261700.0 ], [ 529037.871216925210319, 7261710.0 ], [ 529042.577659175381996, 7261720.0 ], [ 529047.520663199597038, 7261730.000000000931323 ], [ 529052.577659175381996, 7261740.0 ], [ 529057.870324714574963, 7261750.0 ], [ 529063.669286503572948, 7261760.0 ], [ 529069.989718034281395, 7261770.0 ], [ 529076.252955053118058, 7261780.0 ], [ 529081.758557628258131, 7261790.0 ], [ 529086.241780876647681, 7261800.0 ], [ 529089.901677625020966, 7261810.0 ], [ 529093.211020647897385, 7261820.0 ], [ 529096.24088866612874, 7261830.0 ], [ 529098.437148218392394, 7261840.000000000931323 ], [ 529099.463975701015443, 7261850.0 ], [ 529099.453693735413253, 7261860.0 ], [ 529098.350000019883737, 7261870.0 ], [ 529095.793796986807138, 7261880.0 ], [ 529091.670517219230533, 7261890.0 ], [ 529086.231498910929076, 7261900.0 ], [ 529079.911959590855986, 7261910.0 ], [ 529073.299061056924984, 7261920.0 ], [ 529066.700046732323244, 7261930.0 ], [ 529060.075974022038281, 7261940.0 ], [ 529053.670178714208305, 7261950.0 ], [ 529047.794350692536682, 7261960.0 ], [ 529042.206541518098675, 7261970.0 ], [ 529036.340995462378487, 7261980.0 ], [ 529030.012066387222148, 7261990.0 ], [ 529023.757326912600547, 7262000.0 ], [ 529018.317416393663734, 7262010.0 ], [ 529014.117270393413492, 7262020.0 ], [ 529011.180559947970323, 7262030.0 ], [ 529008.830614228500053, 7262040.0 ], [ 529005.959595839376561, 7262050.0 ], [ 529002.052809052867815, 7262060.0 ], [ 528997.412951069651172, 7262070.0 ], [ 528992.488726555602625, 7262080.0 ], [ 528987.498314846656285, 7262090.0 ], [ 528982.488726555602625, 7262100.0 ], [ 528977.4120588588994, 7262110.0 ], [ 528972.041634876397438, 7262120.0 ], [ 528965.871555430116132, 7262130.0 ], [ 528958.371456162189133, 7262140.0 ], [ 528949.542626355076209, 7262149.999107789248228 ], [ 528939.924025978078134, 7262159.987933613359928 ], [ 528930.088040409144014, 7262169.900785414502025 ], [ 528920.545414054067805, 7262179.453693735413253 ], [ 528912.086809693602845, 7262187.913190307095647 ], [ 528905.756988407694735, 7262194.243011591956019 ] ] } },
{ "type": "Feature", "properties": { "id": 2, "reference_id": 1, "dune_id": 1, "dune_name": "Big Mommy Dune", "acquisition_date": "2017-04-10", "length_m": 552.88184083131148 }, "geometry": { "type": "LineString", "coordinates": [ [ 529180.0, 7260998.921899050474167 ], [ 529180.0, 7261003.921899050474167 ], [ 529180.0, 7261011.316557979211211 ], [ 529180.0, 7261020.322760425508022 ], [ 529180.0, 7261030.055640487000346 ], [ 529180.0, 7261040.006479299627244 ], [ 529180.0, 7261050.000446105375886 ], [ 529180.0, 7261060.0 ], [ 529180.0, 7261070.0 ], [ 529179.999107789364643, 7261080.0 ], [ 529179.988825823529623, 7261090.0 ], [ 529179.912851801607758, 7261100.0 ], [ 529179.552016110159457, 7261110.0 ], [ 529178.448322394862771, 7261120.000000000931323 ], [ 529176.242673087399453, 7261130.0 ], [ 529173.222194824367762, 7261140.0 ], [ 529169.988825823529623, 7261150.0 ], [ 529166.688872555969283, 7261160.0 ], [ 529163.299061057041399, 7261170.0 ], [ 529159.924025978078134, 7261180.0 ], [ 529156.329821285791695, 7261190.0 ], [ 529152.205649307463318, 7261200.0 ], [ 529147.793458481901325, 7261210.000000000931323 ], [ 529143.659896748373285, 7261220.0 ], [ 529140.0, 7261230.0 ], [ 529136.340103251626715, 7261240.0 ], [ 529132.205649307463318, 7261250.0 ], [ 529127.783176516182721, 7261260.0 ], [ 529123.583922726451419, 7261270.0 ], [ 529119.639164308668114, 7261280.0 ], [ 529115.236409536213614, 7261290.0 ], [ 529110.000892210751772, 7261300.0 ], [ 529104.773872429504991, 7261310.000000000931323 ], [ 529100.436809713486582, 7261320.0 ], [ 529096.776020754361525, 7261330.0 ], [ 529093.310235233511776, 7261340.0 ], [ 529089.924918188713491, 7261350.0 ], [ 529086.329821285791695, 7261360.0 ], [ 529082.205649307463318, 7261370.0 ], [ 529077.79345848178491, 7261380.0 ], [ 529073.659896748373285, 7261390.0 ], [ 529070.0, 7261400.0 ], [ 529066.340103251626715, 7261410.0 ], [ 529062.206541518098675, 7261420.0 ], [ 529057.794350692536682, 7261430.0 ], [ 529053.670178714208305, 7261440.0 ], [ 529050.075974021921866, 7261450.0 ], [ 529046.700938942958601, 7261460.0 ], [ 529043.311127444147132, 7261470.000000000931323 ], [ 529040.011174176470377, 7261479.999107789248228 ], [ 529036.777805175632238, 7261489.987933613359928 ], [ 529033.757326912600547, 7261499.900785414502025 ], [ 529031.551677605253644, 7261509.453693735413253 ], [ 529030.447983889840543, 7261517.913190307095647 ], [ 529030.087148198508658, 7261524.243011592887342 ] ] } },
{ "type": "Feature", "properties": { "id": 3, "reference_id": 3, "dune_id": 3, "dune_name": "Big Mommy Dune", "acquisition_date": "2017-04-10", "length_m": 141.81245207770343 }, "geometry": { "type": "LineString", "coordinates": [ [ 529614.243011592421681, 7260630.087148198857903 ], [ 529607.91319030651357, 7260630.447091680020094 ], [ 529599.453693735180423, 7260631.540503429248929 ], [ 529589.900785414502025, 7260633.671070925891399 ], [ 529579.987933612894267, 7260636.340995462611318 ], [ 529569.999107789248228, 7260638.546644769608974 ], [ 529560.0, 7260640.0 ], [ 529550.0, 7260641.454247441142797 ], [ 529540.0, 7260643.670178715139627 ], [ 529530.0, 7260646.416077273897827 ], [ 529520.000892210751772, 7260648.906588250771165 ], [ 529510.012066387105733, 7260651.093411749228835 ], [ 529500.099214585614391, 7260653.583030516281724 ], [ 529490.546306264819577, 7260656.318647109903395 ], [ 529482.08680969348643, 7260658.458604361861944 ], [ 529475.756988407694735, 7260659.552908320911229 ] ] } },
{ "type": "Feature", "properties": { "id": 4, "reference_id": 3, "dune_id": 3, "dune_name": "Big Mommy Dune", "acquisition_date": "2017-04-10", "length_m": 58.486023184610531 }, "geometry": { "type": "LineString", "coordinates": [ [ 529704.243011592305265, 7260620.0 ], [ 529697.91319030651357, 7260620.0 ], [ 529689.454585945932195, 7260620.0 ], [ 529679.912851801607758, 7260620.0 ], [ 529670.087148198508658, 7260620.0 ], [ 529660.545414054067805, 7260620.0 ], [ 529652.08680969348643, 7260620.0 ], [ 529645.756988407694735, 7260620.0 ] ] } },
{ "type": "Feature", "properties": { "id": 5, "reference_id": 3, "dune_id": 3, "dune_name": "Big Mommy Dune", "acquisition_date": "2017-04-10", "length_m": 308.48602318461053 }, "geometry": { "type": "LineString", "coordinates": [ [ 529735.756988407694735, 7260610.0 ], [ 529742.08680969348643, 7260610.0 ], [ 529750.546306264819577, 7260610.0 ], [ 529760.099214585614391, 7260610.0 ], [ 529770.012066387222148, 7260610.0 ], [ 529780.000892210751772, 7260610.0 ], [ 529790.0, 7260610.0 ], [ 529800.0, 7260610.0 ], [ 529810.0, 7260610.0 ], [ 529820.0, 7260610.0 ], [ 529830.0, 7260610.0 ], [ 529840.0, 7260610.0 ], [ 529850.0, 7260610.0 ], [ 529860.0, 7260610.0 ], [ 529870.0, 7260610.0 ], [ 529880.0, 7260610.0 ], [ 529890.0, 7260610.0 ], [ 529900.0, 7260610.0 ], [ 529910.0, 7260610.0 ], [ 529920.0, 7260610.0 ], [ 529930.0, 7260610.0 ], [ 529940.0, 7260610.0 ], [ 529950.0, 7260610.0 ], [ 529960.0, 7260610.0 ], [ 529970.0, 7260610.0 ], [ 529980.0, 7260610.0 ], [ 529990.0, 7260610.0 ], [ 529999.999107789364643, 7260610.0 ], [ 530009.987933612894267, 7260610.0 ], [ 530019.900785414502025, 7260610.0 ], [ 530029.453693735180423, 7260610.0 ], [ 530037.91319030651357, 7260610.0 ], [ 530044.243011592305265, 7260610.0 ] ] } },
{ "type": "Feature", "properties": { "id": 6, "reference_id": 3, "dune_id": 3, "dune_name": "Big Mommy Dune", "acquisition_date": "2017-04-10", "length_m": 79.443761977511144 }, "geometry": { "type": "LineString", "coordinates": [ [ 530085.756988407694735, 7260599.999107789248228 ], [ 530092.08680969348643, 7260599.9888258241117 ], [ 530100.546306264819577, 7260599.912851802073419 ], [ 530110.099214585614391, 7260599.552908321842551 ], [ 530120.011174176470377, 7260598.459496571682394 ], [ 530129.988825823529623, 7260596.329821285791695 ], [ 530139.900785414502025, 7260593.670178714208305 ], [ 530149.453693735296838, 7260591.540503429248929 ], [ 530157.91319030651357, 7260590.447091680020094 ], [ 530164.243011592305265, 7260590.087148198857903 ] ] } },
{ "type": "Feature", "properties": { "id": 7, "reference_id": 3, "dune_id": 3, "dune_name": "Big Mommy Dune", "acquisition_date": "2017-04-10", "length_m": 358.26338002242863 }, "geometry": { "type": "LineString", "coordinates": [ [ 529374.243011592305265, 7260695.756988408043981 ], [ 529367.91319030651357, 7260702.086809693835676 ], [ 529359.453693735180423, 7260710.546306265518069 ], [ 529349.901677625253797, 7260720.099214585497975 ], [ 529339.999107789364643, 7260730.012066388502717 ], [ 529330.086255987756886, 7260740.000892210751772 ], [ 529320.447983889956959, 7260750.0 ], [ 529311.551677605253644, 7260760.0 ], [ 529303.757326912600547, 7260770.0 ], [ 529296.777805175632238, 7260780.000000000931323 ], [ 529290.011174176470377, 7260790.0 ], [ 529283.311127444263548, 7260800.0 ], [ 529276.700938943075016, 7260810.0 ], [ 529270.075974022038281, 7260820.0 ], [ 529263.670178714208305, 7260830.0 ], [ 529257.794350692653097, 7260840.0 ], [ 529252.205649307463318, 7260850.0 ], [ 529246.32982128590811, 7260860.0 ], [ 529239.924025977961719, 7260870.0 ], [ 529233.299953267676756, 7260880.0 ], [ 529226.700046732323244, 7260890.0 ], [ 529220.075974022038281, 7260900.0 ], [ 529213.670178714208305, 7260910.0 ], [ 529207.795242903288454, 7260920.0 ], [ 529202.217715694569051, 7260930.0 ], [ 529196.428143660654314, 7260939.999553894624114 ], [ 529190.45915806631092, 7260949.993520701304078 ], [ 529185.298722552019171, 7260959.944359514862299 ], [ 529181.998769284342416, 7260969.6772395754233 ], [ 529180.535132088349201, 7260978.683442020788789 ], [ 529180.098322374862619, 7260986.078100949525833 ], [ 529180.012066387222148, 7260991.078100949525833 ] ] } },
{ "type": "Feature", "properties": { "id": 8, "reference_id": 8, "dune_id": 8, "dune_name": "Inverted Y Dune", "acquisition_date": "2017-04-10", "length_m": 425.39750764752665 }, "geometry": { "type": "LineString", "coordinates": [ [ 530264.243011592421681, 7261221.639718014746904 ], [ 530257.913190306629986, 7261224.216484978795052 ], [ 530249.453693735180423, 7261228.416630979627371 ], [ 530239.900785414502025, 7261234.216484978795052 ], [ 530229.987933612777852, 7261241.639718014746904 ], [ 530219.999107789248228, 7261250.459158066660166 ], [ 530210.000892210751772, 7261260.088040409609675 ], [ 530200.011174176586792, 7261270.011174176819623 ], [ 530190.088040409144014, 7261280.000892210751772 ], [ 530180.45915806631092, 7261290.0 ], [ 530171.638825803645886, 7261300.0 ], [ 530164.20531080244109, 7261310.000000000931323 ], [ 530158.329482780885883, 7261320.0 ], [ 530153.768501089187339, 7261330.0 ], [ 530150.088040409144014, 7261340.0 ], [ 530146.701831153710373, 7261350.0 ], [ 530143.311127444263548, 7261360.0 ], [ 530140.01028196583502, 7261370.0 ], [ 530136.766630999278277, 7261380.0 ], [ 530133.670178714208305, 7261390.0 ], [ 530131.104585926048458, 7261400.0 ], [ 530128.907480461173691, 7261410.0 ], [ 530126.416077273664996, 7261420.0 ], [ 530123.670178714208305, 7261430.0 ], [ 530121.454247441026382, 7261440.0 ], [ 530120.0, 7261450.0 ], [ 530118.54664476972539, 7261460.0 ], [ 530116.340995462262072, 7261470.000000000931323 ], [ 530113.671070924960077, 7261480.0 ], [ 530111.540503428666852, 7261490.0 ], [ 530110.447091679205187, 7261500.0 ], [ 530110.086255987756886, 7261510.0 ], [ 530110.0, 7261520.0 ], [ 530109.913744012243114, 7261530.0 ], [ 530109.552908320911229, 7261539.999553894624114 ], [ 530108.459496571333148, 7261549.993520701304078 ], [ 530106.329821285791695, 7261559.944359513930976 ], [ 530103.670178714208305, 7261569.6772395754233 ], [ 530101.540503428783268, 7261578.683442020788789 ], [ 530100.447091679205187, 7261586.078100949525833 ], [ 530100.087148198508658, 7261591.078100949525833 ] ] } },
{ "type": "Feature", "properties": { "id": 9, "reference_id": 9, "dune_id": 9, "dune_name": "Inverted Y Dune", "acquisition_date": "2017-04-10", "length_m": 742.16226601166875 }, "geometry": { "type": "LineString", "coordinates": [ [ 530097.91319030651357, 7261598.834750852547586 ], [ 530094.243011592421681, 7261603.473915160633624 ], [ 530087.913190306629986, 7261609.764880374073982 ], [ 530079.453693735180423, 7261616.565433513373137 ], [ 530069.900785414502025, 7261623.277835311368108 ], [ 530059.987933612894267, 7261629.995305122807622 ], [ 530049.999107789364643, 7261636.689318661578 ], [ 530040.0, 7261643.299061058089137 ], [ 530030.0, 7261649.924025977961719 ], [ 530020.0, 7261656.329821285791695 ], [ 530010.0, 7261662.205649307928979 ], [ 530000.0, 7261667.794350693002343 ], [ 529990.0, 7261673.670178714208305 ], [ 529980.0, 7261680.075974022038281 ], [ 529970.0, 7261686.700938943773508 ], [ 529960.0, 7261693.311127444729209 ], [ 529950.0, 7261700.011174177750945 ], [ 529940.0, 7261706.777805175632238 ], [ 529930.0, 7261713.757326913066208 ], [ 529920.0, 7261721.551677605137229 ], [ 529910.0, 7261730.447983890771866 ], [ 529900.0, 7261740.087148198857903 ], [ 529890.0, 7261750.011174176819623 ], [ 529880.0, 7261760.000892210751772 ], [ 529870.000892210751772, 7261770.0 ], [ 529860.011174176470377, 7261780.0 ], [ 529850.087148198392242, 7261790.0 ], [ 529840.447091679205187, 7261800.0 ], [ 529831.541395639418624, 7261810.0 ], [ 529823.682245101314038, 7261820.0 ], [ 529816.428143660770729, 7261830.0 ], [ 529808.994628659682348, 7261840.000000000931323 ], [ 529801.552569815889001, 7261850.0 ], [ 529795.222748530097306, 7261860.0 ], [ 529790.534239877597429, 7261870.0 ], [ 529786.864061163389124, 7261880.0 ], [ 529783.682245101314038, 7261890.0 ], [ 529781.104585926048458, 7261900.0 ], [ 529778.896306284703314, 7261910.0 ], [ 529776.328929075039923, 7261920.0 ], [ 529773.223087035119534, 7261930.0 ], [ 529769.913744012243114, 7261940.0 ], [ 529766.328929075156339, 7261950.0 ], [ 529762.204757096711546, 7261960.0 ], [ 529757.783176516182721, 7261970.0 ], [ 529753.583922726451419, 7261980.0 ], [ 529749.639164308668114, 7261990.0 ], [ 529745.236409536330029, 7262000.0 ], [ 529740.000892210751772, 7262010.0 ], [ 529734.773872429504991, 7262020.0 ], [ 529730.436809713370167, 7262030.0 ], [ 529726.776020754361525, 7262040.0 ], [ 529723.310235233511776, 7262050.0 ], [ 529719.924025978078134, 7262060.0 ], [ 529716.31953932007309, 7262070.0 ], [ 529712.128783074789681, 7262080.0 ], [ 529707.423233035369776, 7262090.0 ], [ 529702.490510976873338, 7262100.0 ], [ 529697.509489023126662, 7262110.0 ], [ 529692.576766964630224, 7262120.0 ], [ 529687.871216925210319, 7262129.999107789248228 ], [ 529683.681352890678681, 7262139.987933613359928 ], [ 529680.088040409144014, 7262149.900785414502025 ], [ 529676.788087141467258, 7262159.453693735413253 ], [ 529673.758219123352319, 7262167.913190307095647 ], [ 529671.551677605253644, 7262174.243011591956019 ] ] } },
{ "type": "Feature", "properties": { "id": 10, "reference_id": 2, "dune_id": 2, "dune_name": "Big Mommy Dune", "acquisition_date": "2017-04-10", "length_m": 605.56711659926691 }, "geometry": { "type": "LineString", "coordinates": [ [ 528582.086809693370014, 7260755.298722552135587 ], [ 528585.756988407578319, 7260760.458265855908394 ], [ 528592.086809693602845, 7260766.417861695401371 ], [ 528600.546306264819577, 7260772.140849461778998 ], [ 528610.099214585614391, 7260777.424125246703625 ], [ 528620.012066387105733, 7260782.489618767052889 ], [ 528630.000892210751772, 7260787.499207057058811 ], [ 528640.0, 7260792.499900732189417 ], [ 528650.0, 7260797.500099267810583 ], [ 528660.0, 7260802.499900732189417 ], [ 528670.0, 7260807.500099267810583 ], [ 528680.0, 7260812.499900732189417 ], [ 528690.0, 7260817.499207057058811 ], [ 528700.0, 7260822.489618766121566 ], [ 528710.0, 7260827.423233035951853 ], [ 528720.0, 7260832.129675285890698 ], [ 528730.0, 7260836.329821286723018 ], [ 528740.0, 7260839.999107789248228 ], [ 528750.0, 7260843.659896748140454 ], [ 528760.0, 7260847.793458482250571 ], [ 528770.0, 7260852.205649306997657 ], [ 528780.0, 7260856.329821285791695 ], [ 528790.0, 7260859.924025978893042 ], [ 528800.0, 7260863.299061058089137 ], [ 528810.0, 7260866.689764767885208 ], [ 528820.0, 7260870.0 ], [ 528830.0, 7260873.309343023225665 ], [ 528840.0, 7260876.690656977705657 ], [ 528850.0, 7260880.0 ], [ 528860.0, 7260883.309343023225665 ], [ 528870.0, 7260886.689764766022563 ], [ 528880.0, 7260889.989718034863472 ], [ 528890.0, 7260893.233369001187384 ], [ 528900.0, 7260896.329821285791695 ], [ 528910.0, 7260898.895414073951542 ], [ 528920.0, 7260901.093411750160158 ], [ 528930.0, 7260903.594204693101346 ], [ 528940.0, 7260906.405795308761299 ], [ 528950.0, 7260908.905696040019393 ], [ 528960.0, 7260911.094303959980607 ], [ 528970.0, 7260913.594204692170024 ], [ 528980.0, 7260916.405795307829976 ], [ 528990.0, 7260918.906588250771165 ], [ 529000.0, 7260921.104585926048458 ], [ 529010.0, 7260923.671070925891399 ], [ 529020.0, 7260926.776912964880466 ], [ 529030.0, 7260930.086255988106132 ], [ 529040.0, 7260933.671070924960077 ], [ 529050.0, 7260937.794350693002343 ], [ 529060.0, 7260942.205649306997657 ], [ 529070.0, 7260946.329821285791695 ], [ 529080.0, 7260949.924025978893042 ], [ 529090.0, 7260953.299061058089137 ], [ 529099.999107789364643, 7260956.688872556202114 ], [ 529109.987933612894267, 7260959.9888258241117 ], [ 529119.900785414385609, 7260963.222194824367762 ], [ 529129.453693735296838, 7260966.242673087865114 ], [ 529137.913190306629986, 7260968.448322394862771 ], [ 529144.243011592421681, 7260969.552016110159457 ] ] } },
{ "type": "Feature", "properties": { "id": 11, "reference_id": 5, "dune_id": 5, "dune_name": "The Star Dune", "acquisition_date": "2017-04-10", "length_m": 1141.7845231907281 }, "geometry": { "type": "LineString", "coordinates": [ [ 534334.702169658616185, 7261305.756988408043981 ], [ 534329.552908320794813, 7261312.086809693835676 ], [ 534323.671070924843661, 7261320.546306264586747 ], [ 534318.328590570134111, 7261330.099214585497975 ], [ 534314.291566790314391, 7261340.012066386640072 ], [ 534312.085917482734658, 7261350.000892210751772 ], [ 534311.999661494977772, 7261360.0 ], [ 534313.758219123352319, 7261370.0 ], [ 534316.340995462262072, 7261380.0 ], [ 534318.461280992603861, 7261390.0 ], [ 534319.56408249726519, 7261400.0 ], [ 534320.0, 7261410.0 ], [ 534320.43591750273481, 7261420.0 ], [ 534321.539611218031496, 7261430.0 ], [ 534323.670178714208305, 7261440.0 ], [ 534326.329821285791695, 7261450.0 ], [ 534328.459496571333148, 7261460.0 ], [ 534329.552908320794813, 7261470.000000000931323 ], [ 534329.912851801607758, 7261480.0 ], [ 534329.988825823529623, 7261490.0 ], [ 534329.998215578729287, 7261500.0 ], [ 534329.987933612894267, 7261510.0 ], [ 534329.900785414385609, 7261520.0 ], [ 534329.453693735296838, 7261530.0 ], [ 534327.91319030651357, 7261540.0 ], [ 534324.243011592421681, 7261550.0 ], [ 534317.91319030651357, 7261560.000000000931323 ], [ 534309.453693735296838, 7261569.999107789248228 ], [ 534299.900785414502025, 7261579.9888258241117 ], [ 534289.987933612894267, 7261589.912851802073419 ], [ 534279.999107789248228, 7261599.552016111090779 ], [ 534270.0, 7261608.448322394862771 ], [ 534260.0, 7261616.242673087865114 ], [ 534250.0, 7261623.222194824367762 ], [ 534240.0, 7261629.9888258241117 ], [ 534230.0, 7261636.688872556202114 ], [ 534220.0, 7261643.298168847337365 ], [ 534210.0, 7261649.911959591321647 ], [ 534200.0, 7261656.231498911976814 ], [ 534190.0, 7261661.671409429982305 ], [ 534180.0, 7261665.805863374844193 ], [ 534170.0, 7261668.448322394862771 ], [ 534160.0, 7261669.987933613359928 ], [ 534150.0, 7261671.452463019639254 ], [ 534140.0, 7261673.659004537388682 ], [ 534130.0, 7261676.328929075039923 ], [ 534120.0, 7261678.460388781502843 ], [ 534110.0, 7261679.564082497730851 ], [ 534100.0, 7261680.0 ], [ 534090.0, 7261680.435917503200471 ], [ 534080.0, 7261681.539611218497157 ], [ 534070.0, 7261683.670178715139627 ], [ 534060.0, 7261686.33071349747479 ], [ 534050.0, 7261688.470670748502016 ], [ 534040.0, 7261689.64005651883781 ], [ 534030.0, 7261690.35994348116219 ], [ 534020.0, 7261691.529329253360629 ], [ 534010.0, 7261693.670178714208305 ], [ 534000.0, 7261696.340995462611318 ], [ 533990.0, 7261698.546644769608974 ], [ 533980.0, 7261700.000892210751772 ], [ 533970.0, 7261701.464529407210648 ], [ 533960.0, 7261703.747044946998358 ], [ 533950.0, 7261706.787194930948317 ], [ 533940.0, 7261710.088040409609675 ], [ 533930.0, 7261713.681352891027927 ], [ 533920.0, 7261717.870324714109302 ], [ 533910.0, 7261722.566484998911619 ], [ 533900.0, 7261727.433515001088381 ], [ 533890.0, 7261732.13056749664247 ], [ 533880.0, 7261736.329821286723018 ], [ 533870.0, 7261740.0 ], [ 533860.0, 7261743.671070925891399 ], [ 533850.0, 7261747.881498891860247 ], [ 533840.0, 7261752.664807373657823 ], [ 533830.0, 7261757.96864709071815 ], [ 533820.0, 7261764.129336779937148 ], [ 533810.000892210635357, 7261771.628543837927282 ], [ 533800.012066387105733, 7261780.458265855908394 ], [ 533790.098322374979034, 7261790.088040409609675 ], [ 533780.535132088232785, 7261800.011174176819623 ], [ 533771.998769284342416, 7261810.000892210751772 ], [ 533765.298722552019171, 7261820.0 ], [ 533760.45915806631092, 7261830.0 ], [ 533756.428143660770729, 7261840.000000000931323 ], [ 533752.217715694569051, 7261850.0 ], [ 533747.795242903288454, 7261860.0 ], [ 533743.670178714208305, 7261870.0 ], [ 533740.075081811286509, 7261880.0 ], [ 533736.689764766488224, 7261890.0 ], [ 533733.223087035119534, 7261900.0 ], [ 533729.552908320794813, 7261910.0 ], [ 533725.149261337937787, 7261920.0 ], [ 533719.628882342833094, 7261930.0 ], [ 533713.593312481534667, 7261940.0 ], [ 533707.859150538104586, 7261950.0 ], [ 533702.565592788276263, 7261960.0 ], [ 533697.433515001204796, 7261970.0 ], [ 533692.130567496176809, 7261980.0 ], [ 533686.330267391167581, 7261989.999553894624114 ], [ 533680.005587088293396, 7261999.993520701304078 ], [ 533673.714645024156198, 7262009.944359513930976 ], [ 533668.105044730589725, 7262019.677239574491978 ], [ 533663.435059088165872, 7262028.683442020788789 ], [ 533659.803736446541734, 7262036.078100949525833 ], [ 533657.294247423415072, 7262041.078100949525833 ] ] } },
{ "type": "Feature", "properties": { "id": 12, "reference_id": 6, "dune_id": 6, "dune_name": "The Star Dune", "acquisition_date": "2017-04-10", "length_m": 896.06362144099785 }, "geometry": { "type": "LineString", "coordinates": [ [ 533653.165802853647619, 7262048.921899050474167 ], [ 533651.846263533574529, 7262053.921899050474167 ], [ 533650.857399912783876, 7262061.316557979211211 ], [ 533650.670637518749572, 7262070.322760425508022 ], [ 533651.584077527979389, 7262080.055640487000346 ], [ 533653.675765802385285, 7262090.006479298695922 ], [ 533656.330267391167581, 7262100.000446105375886 ], [ 533658.459496571216732, 7262110.0 ], [ 533659.552908320911229, 7262120.0 ], [ 533659.912851801607758, 7262130.0 ], [ 533659.988825823529623, 7262140.0 ], [ 533659.999107789248228, 7262150.0 ], [ 533660.0, 7262160.0 ], [ 533660.0, 7262170.0 ], [ 533660.0, 7262180.0 ], [ 533660.000892210751772, 7262190.0 ], [ 533660.011174176470377, 7262200.0 ], [ 533660.087148198392242, 7262210.0 ], [ 533660.447091679088771, 7262220.0 ], [ 533661.540503428783268, 7262230.0 ], [ 533663.671070924960077, 7262240.0 ], [ 533666.340995462378487, 7262250.0 ], [ 533668.546644769841805, 7262260.0 ], [ 533670.0, 7262270.0 ], [ 533671.453355230391026, 7262280.0 ], [ 533673.659004537737928, 7262290.0 ], [ 533676.328929075156339, 7262300.0 ], [ 533678.458604360697791, 7262310.0 ], [ 533679.541734144324437, 7262320.0 ], [ 533679.825703603215516, 7262330.0 ], [ 533679.541734144324437, 7262340.000000000931323 ], [ 533678.457712149946019, 7262350.0 ], [ 533676.318647109437734, 7262360.0 ], [ 533673.583030515816063, 7262370.0 ], [ 533671.093411749578081, 7262380.0 ], [ 533668.905696039786562, 7262390.0 ], [ 533666.405795307829976, 7262400.0 ], [ 533663.594204692286439, 7262410.0 ], [ 533661.093411749578081, 7262420.0 ], [ 533658.895414073951542, 7262430.0 ], [ 533656.329821285791695, 7262440.0 ], [ 533653.233369000838138, 7262450.0 ], [ 533649.989718034281395, 7262460.0 ], [ 533646.689764766488224, 7262470.0 ], [ 533643.310235233511776, 7262480.0 ], [ 533640.01028196583502, 7262490.0 ], [ 533636.766630999278277, 7262500.0 ], [ 533633.670178714208305, 7262510.0 ], [ 533631.104585926048458, 7262520.0 ], [ 533628.906588250421919, 7262530.0 ], [ 533626.405795307713561, 7262540.0 ], [ 533623.594204692170024, 7262550.0 ], [ 533621.094303960213438, 7262560.0 ], [ 533618.906588250421919, 7262570.0 ], [ 533616.416969484183937, 7262580.0 ], [ 533613.680460680043325, 7262590.0 ], [ 533611.530221462948248, 7262600.000000000931323 ], [ 533610.359943480696529, 7262610.0 ], [ 533609.640056519303471, 7262620.0 ], [ 533608.470670747803524, 7262630.0 ], [ 533606.330713496543467, 7262640.0 ], [ 533603.670178714208305, 7262650.0 ], [ 533601.540503428783268, 7262660.0 ], [ 533600.44619946856983, 7262670.0 ], [ 533600.075974022038281, 7262680.0 ], [ 533599.924025978078134, 7262690.0 ], [ 533599.553800531546585, 7262700.0 ], [ 533598.459496571216732, 7262710.0 ], [ 533596.329821285791695, 7262720.0 ], [ 533593.669286503456533, 7262730.0 ], [ 533591.529329252196476, 7262740.0 ], [ 533590.359051270061173, 7262750.0 ], [ 533589.628882342716679, 7262760.0 ], [ 533588.38263033865951, 7262770.0 ], [ 533585.872447640867904, 7262780.0 ], [ 533582.04252708714921, 7262790.0 ], [ 533577.423233035369776, 7262800.0 ], [ 533572.575874753994867, 7262810.0 ], [ 533567.946298736496828, 7262820.0 ], [ 533564.041296371491626, 7262830.0 ], [ 533561.18145215860568, 7262840.0 ], [ 533558.917762426892295, 7262850.0 ], [ 533556.417861694935709, 7262860.0 ], [ 533553.681352890795097, 7262870.000000000931323 ], [ 533551.54139563953504, 7262879.999107789248228 ], [ 533550.447091679205187, 7262889.987933613359928 ], [ 533550.087148198392242, 7262899.900785414502025 ], [ 533550.011174176470377, 7262909.453693736344576 ], [ 533550.000892210751772, 7262917.913190307095647 ], [ 533550.0, 7262924.243011591956019 ] ] } },
{ "type": "Feature", "properties": { "id": 13, "reference_id": 7, "dune_id": 7, "dune_name": "Inverted Y Dune", "acquisition_date": "2017-04-10", "length_m": 600.92757487640779 }, "geometry": { "type": "LineString", "coordinates": [ [ 530185.756988407694735, 7261650.0 ], [ 530192.086809693370014, 7261650.0 ], [ 530200.546306264819577, 7261650.0 ], [ 530210.099214585614391, 7261650.0 ], [ 530220.012066387105733, 7261649.999107790179551 ], [ 530230.000892210635357, 7261649.9888258241117 ], [ 530240.0, 7261649.912851802073419 ], [ 530250.0, 7261649.552908321842551 ], [ 530260.0, 7261648.458604361861944 ], [ 530270.0, 7261646.318647109903395 ], [ 530280.0, 7261643.583030516281724 ], [ 530290.0, 7261641.092519538477063 ], [ 530300.0, 7261638.895414074882865 ], [ 530310.0, 7261636.328929075971246 ], [ 530320.0, 7261633.223087035119534 ], [ 530330.0, 7261629.913744011893868 ], [ 530340.0, 7261626.328929075039923 ], [ 530350.0, 7261622.205649307928979 ], [ 530360.0, 7261617.793458482250571 ], [ 530370.0, 7261613.659004538320005 ], [ 530380.0, 7261609.9888258241117 ], [ 530390.0, 7261606.252955053001642 ], [ 530400.0, 7261601.758557628840208 ], [ 530410.0, 7261596.241780877113342 ], [ 530420.0, 7261589.901677625253797 ], [ 530430.000000000116415, 7261583.211020648479462 ], [ 530440.0, 7261576.241780877113342 ], [ 530450.0, 7261568.448322394862771 ], [ 530460.0, 7261559.552016111090779 ], [ 530469.999107789364643, 7261549.912851801142097 ], [ 530479.988825823529623, 7261539.9888258241117 ], [ 530489.912851801607758, 7261529.999107789248228 ], [ 530499.552016110159457, 7261520.0 ], [ 530508.448322394862771, 7261510.0 ], [ 530516.242673087399453, 7261500.0 ], [ 530523.222194824367762, 7261490.0 ], [ 530529.988825823529623, 7261480.0 ], [ 530536.689764766488224, 7261470.000000000931323 ], [ 530543.309343022760004, 7261460.0 ], [ 530550.0, 7261450.0 ], [ 530556.690656977239996, 7261440.0 ], [ 530563.310235233511776, 7261430.0 ], [ 530570.011174176470377, 7261420.0 ], [ 530576.777805175632238, 7261410.0 ], [ 530583.757326912600547, 7261400.0 ], [ 530591.551677605137229, 7261390.0 ], [ 530600.447983889840543, 7261380.0 ], [ 530610.086255987756886, 7261370.000892210751772 ], [ 530619.999107789364643, 7261360.012066386640072 ], [ 530629.901677625137381, 7261350.099214585497975 ], [ 530639.453693735296838, 7261340.546306265518069 ], [ 530647.913190306629986, 7261332.086809693835676 ], [ 530654.243011592305265, 7261325.756988408043981 ] ] } }
]
}
