{
"type": "FeatureCollection",
"name": "crests_2019_09_2019-09-09",
"crs": { "type": "name", "properties": { "name": "urn:ogc:def:crs:EPSG::32733" } },
"features": [
{ "type": "Feature", "properties": { "id": 0, "reference_id": 4, "dune_id": 4, "dune_name": "The Star Dune", "acquisition_date": "2019-09-09", "length_m": 195.11753872722815 }, "geometry": { "type": "LineString", "coordinates": [ [ 533005.756988407694735, 7261870.087148198857903 ], [ 533012.08680969348643, 7261870.447091680020094 ], [ 533020.546306264819577, 7261871.540503429248929 ], [ 533030.099214585614391, 7261873.671070925891399 ], [ 533040.012066387105733, 7261876.340995462611318 ], [ 533050.000892210751772, 7261878.546644769608974 ], [ 533060.0, 7261880.0 ], [ 533070.0, 7261881.454247441142797 ], [ 533080.0, 7261883.670178714208305 ], [ 533090.0, 7261886.416077273897827 ], [ 533100.0, 7261888.907480461522937 ], [ 533110.0, 7261891.10458592697978 ], [ 533120.0, 7261893.670178715139627 ], [ 533130.0, 7261896.766630999743938 ], [ 533140.0, 7261900.010281965136528 ], [ 533149.999107789364643, 7261903.310235233977437 ], [ 533159.987933612894267, 7261906.689764766953886 ], [ 533169.900785414502025, 7261909.9888258241117 ], [ 533179.453693735180423, 7261913.222194824367762 ], [ 533187.91319030651357, 7261916.242673087865114 ], [ 533194.243011592305265, 7261918.448322394862771 ] ] } },
{ "type": "Feature", "properties": { "id": 1, "reference_id": 4, "dune_id": 4, "dune_name": "The Star Dune", "acquisition_date": "2019-09-09", "length_m": 112.75457832936642 }, "geometry": { "type": "LineString", "coordinates": [ [ 533334.243011592421681, 7261959.552016111090779 ], [ 533327.91319030651357, 7261958.448322394862771 ], [ 533319.453693735296838, 7261956.242673087865114 ], [ 533309.900785414502025, 7261953.222194824367762 ], [ 533299.987933612894267, 7261949.9888258241117 ], [ 533289.999107789248228, 7261946.689764766022563 ], [ 533280.0, 7261943.310235233977437 ], [ 533270.000892210751772, 7261940.011174176819623 ], [ 533260.012066387222148, 7261936.777805175632238 ], [ 533250.099214585614391, 7261933.757326912134886 ], [ 533240.546306264819577, 7261931.551677605137229 ], [ 533232.086809693602845, 7261930.447983889840543 ], [ 533225.756988407694735, 7261930.087148198857903 ] ] } },
{ "type": "Feature", "properties": { "id": 2, "reference_id": 4, "dune_id": 4, "dune_name": "The Star Dune", "acquisition_date": "2019-09-09", "length_m": 114.58641025469952 }, "geometry": { "type": "LineString", "coordinates": [ [ 533474.243011592421681, 7262006.241780877113342 ], [ 533467.91319030651357, 7262003.211912859231234 ], [ 533459.453693735296838, 7261999.912851801142097 ], [ 533449.900785414385609, 7261996.329821286723018 ], [ 533439.987933612777852, 7261992.21593127399683 ], [ 533429.999107789364643, 7261987.870324715040624 ], [ 533420.0, 7261984.031014405190945 ], [ 533410.000892210751772, 7261981.180559948086739 ], [ 533400.012066387222148, 7261978.917762426659465 ], [ 533390.099214585614391, 7261976.417861695401371 ], [ 533380.546306264819577, 7261973.681352891027927 ], [ 533372.08680969348643, 7261971.541395640000701 ], [ 533365.756988407694735, 7261970.447091680020094 ] ] } },
{ "type": "Feature", "properties": { "id": 3, "reference_id": 5, "dune_id": 5, "dune_name": "The Star Dune", "acquisition_date": "2019-09-09", "length_m": 877.18781660681771 }, "geometry": { "type": "LineString", "coordinates": [ [ 533657.293355212779716, 7262041.078100949525833 ], [ 533659.793454480706714, 7262036.078100949525833 ], [ 533663.359085066244006, 7262028.683442020788789 ], [ 533667.745101249776781, 7262019.677239574491978 ], [ 533672.621233274578117, 7262009.944359513930976 ], [ 533677.875911802751943, 7261999.993520701304078 ], [ 533683.670624819584191, 7261989.999553894624114 ], [ 533690.0, 7261980.0 ], [ 533696.32982128590811, 7261970.0 ], [ 533702.129675285541452, 7261960.0 ], [ 533707.42234082473442, 7261950.0 ], [ 533712.479336800519377, 7261940.0 ], [ 533717.42234082473442, 7261930.0 ], [ 533722.128783074906096, 7261920.0 ], [ 533726.319539319956675, 7261910.0 ], [ 533729.923133767326362, 7261900.0 ], [ 533733.299061057041399, 7261890.0 ], [ 533736.689764766488224, 7261880.0 ], [ 533740.000892210751772, 7261870.0 ], [ 533743.321409409865737, 7261860.0 ], [ 533746.788979352102615, 7261850.0 ], [ 533750.535132088349201, 7261840.000000000931323 ], [ 533755.309004517854191, 7261830.0 ], [ 533761.999661495094188, 7261820.000892210751772 ], [ 533770.535132088349201, 7261810.011174177750945 ], [ 533780.098322374979034, 7261800.087148198857903 ], [ 533790.012066387105733, 7261790.447983890771866 ], [ 533800.000892210751772, 7261781.552569815889001 ], [ 533810.0, 7261773.768501089885831 ], [ 533820.0, 7261766.864953374490142 ], [ 533830.0, 7261760.458265855908394 ], [ 533840.0, 7261754.851630872115493 ], [ 533850.0, 7261750.37111765705049 ], [ 533860.0, 7261746.406687518581748 ], [ 533870.0, 7261742.139957251027226 ], [ 533880.0, 7261737.424125246703625 ], [ 533890.0, 7261732.490510977804661 ], [ 533900.0, 7261727.509489023126662 ], [ 533910.0, 7261722.576766964048147 ], [ 533920.0, 7261717.871216924861073 ], [ 533930.0, 7261713.681352891027927 ], [ 533940.0, 7261710.088040409609675 ], [ 533950.0, 7261706.787194930948317 ], [ 533960.0, 7261703.747044946998358 ], [ 533970.0, 7261701.464529407210648 ], [ 533980.0, 7261700.000892210751772 ], [ 533990.0, 7261698.546644769608974 ], [ 534000.0, 7261696.340995462611318 ], [ 534010.0, 7261693.671070924960077 ], [ 534020.0, 7261691.540503429248929 ], [ 534030.0, 7261690.446199469268322 ], [ 534040.0, 7261690.075974022038281 ], [ 534050.0, 7261689.924025978893042 ], [ 534060.0, 7261689.553800532594323 ], [ 534070.0, 7261688.458604361861944 ], [ 534080.0, 7261686.318647108972073 ], [ 534090.0, 7261683.583030516281724 ], [ 534100.0, 7261681.093411750160158 ], [ 534110.0, 7261678.906588250771165 ], [ 534120.0, 7261676.416077273897827 ], [ 534130.0, 7261673.670178714208305 ], [ 534140.0, 7261671.453355230391026 ], [ 534150.0, 7261669.987933613359928 ], [ 534160.0, 7261668.448322394862771 ], [ 534170.0, 7261665.805863374844193 ], [ 534180.0, 7261661.671409429982305 ], [ 534190.0, 7261656.231498911976814 ], [ 534200.0, 7261649.911959591321647 ], [ 534210.0, 7261643.298168847337365 ], [ 534220.0, 7261636.689764766953886 ], [ 534230.0, 7261630.0 ], [ 534240.0, 7261623.309343023225665 ], [ 534250.0, 7261616.689764766953886 ], [ 534259.999107789248228, 7261609.9888258241117 ], [ 534269.988825823529623, 7261603.222194825299084 ], [ 534279.911959590855986, 7261596.243565298616886 ], [ 534289.54084193368908, 7261588.460388782434165 ], [ 534298.360281985718757, 7261579.651230695657432 ], [ 534305.783515021088533, 7261570.459158066660166 ], [ 534311.583369020721875, 7261562.075635517016053 ], [ 534315.783515021088533, 7261555.756096197292209 ] ] } },
{ "type": "Feature", "properties": { "id": 4, "reference_id": 5, "dune_id": 5, "dune_name": "The Star Dune", "acquisition_date": "2019-09-09", "length_m": 59.536535141695097 }, "geometry": { "type": "LineString", "coordinates": [ [ 534334.342226177919656, 7261304.216484978795052 ], [ 534328.460388781968504, 7261308.416630979627371 ], [ 534321.551677605137229, 7261314.21559276804328 ], [ 534315.744922020589001, 7261321.62765162717551 ], [ 534312.521834985469468, 7261330.35994348116219 ], [ 534312.085917482734658, 7261339.541734144091606 ], [ 534313.769393299822696, 7261347.924364482983947 ], [ 534316.341887673013844, 7261354.243903802707791 ] ] } },
{ "type": "Feature", "properties": { "id": 5, "reference_id": 1, "dune_id": 1, "dune_name": "Big Mommy Dune", "acquisition_date": "2019-09-09", "length_m": 542.18426099441479 }, "geometry": { "type": "LineString", "coordinates": [ [ 529093.670178714208305, 7261805.756988408043981 ], [ 529096.329821285791695, 7261812.086809693835676 ], [ 529098.459496571333148, 7261820.546306265518069 ], [ 529099.552908320911229, 7261830.099214585497975 ], [ 529099.911959590855986, 7261840.012066387571394 ], [ 529099.97675943642389, 7261850.000892210751772 ], [ 529099.900785414502025, 7261860.0 ], [ 529099.464867911767215, 7261870.0 ], [ 529098.000338505022228, 7261880.0 ], [ 529094.690995482262224, 7261890.0 ], [ 529089.464867911767215, 7261900.0 ], [ 529083.211912858532742, 7261910.0 ], [ 529076.688872555852868, 7261920.0 ], [ 529070.075081811286509, 7261930.0 ], [ 529063.670178714208305, 7261940.0 ], [ 529057.794350692536682, 7261950.0 ], [ 529052.206541518098675, 7261960.0 ], [ 529046.3401032515103, 7261970.0 ], [ 529040.000892210751772, 7261980.0 ], [ 529033.671070924960077, 7261990.0 ], [ 529027.881498891045339, 7262000.0 ], [ 529022.663915163138881, 7262010.0 ], [ 529017.957472912967205, 7262020.0 ], [ 529014.041296371491626, 7262030.0 ], [ 529011.170277982251719, 7262040.0 ], [ 529008.829722017864697, 7262050.0 ], [ 529005.959595839376561, 7262060.0 ], [ 529002.052809052867815, 7262070.0 ], [ 528997.412951069651172, 7262080.0 ], [ 528992.488726555602625, 7262090.0 ], [ 528987.498314846656285, 7262100.0 ], [ 528982.488726555602625, 7262110.0 ], [ 528977.4120588588994, 7262120.0 ], [ 528972.041634876397438, 7262130.0 ], [ 528965.871555430116132, 7262139.999107789248228 ], [ 528958.371456162189133, 7262149.9888258241117 ], [ 528949.541734144324437, 7262159.912851801142097 ], [ 528939.911959590972401, 7262169.552908321842551 ], [ 528929.988825823529623, 7262178.458604360930622 ], [ 528919.999107789364643, 7262186.318647108972073 ], [ 528910.0, 7262193.582138305529952 ], [ 528900.0, 7262201.082237573340535 ], [ 528890.0, 7262208.818547842092812 ], [ 528880.0, 7262215.956919207237661 ], [ 528870.000892210751772, 7262222.030460700392723 ], [ 528860.012066387222148, 7262227.237762462347746 ], [ 528850.099214585497975, 7262231.583369021303952 ], [ 528840.546306264819577, 7262234.330159790813923 ], [ 528832.08680969348643, 7262234.701277447864413 ], [ 528825.756988407694735, 7262233.211912859231234 ] ] } },
{ "type": "Feature", "properties": { "id": 6, "reference_id": 1, "dune_id": 1, "dune_name": "Big Mommy Dune", "acquisition_date": "2019-09-09", "length_m": 272.72456431870285 }, "geometry": { "type": "LineString", "coordinates": [ [ 529026.329821285791695, 7261525.756988408043981 ], [ 529023.669286503572948, 7261532.086809693835676 ], [ 529021.529329252312891, 7261540.546306265518069 ], [ 529020.359943480812944, 7261550.099214585497975 ], [ 529019.640056519303471, 7261560.012066387571394 ], [ 529018.470670747803524, 7261570.000892210751772 ], [ 529016.330713496543467, 7261580.0 ], [ 529013.671070924960077, 7261590.0 ], [ 529011.551677605253644, 7261600.0 ], [ 529010.534239877597429, 7261610.0 ], [ 529010.534239877597429, 7261620.0 ], [ 529011.551677605253644, 7261630.0 ], [ 529013.671070924960077, 7261640.0 ], [ 529016.329821285791695, 7261650.0 ], [ 529018.460388781968504, 7261660.0 ], [ 529019.564082497381605, 7261670.0 ], [ 529020.000892210751772, 7261680.0 ], [ 529020.447091679205187, 7261690.0 ], [ 529021.62765162717551, 7261700.0 ], [ 529024.129336780519225, 7261710.0 ], [ 529027.968647089553997, 7261720.0 ], [ 529032.664807373774238, 7261730.000000000931323 ], [ 529037.881498890928924, 7261739.999107789248228 ], [ 529043.670178714208305, 7261749.987933613359928 ], [ 529049.988825823529623, 7261759.900785414502025 ], [ 529056.241780876647681, 7261769.453693735413253 ], [ 529061.671409429865889, 7261777.913190307095647 ], [ 529065.79468919755891, 7261784.243011591956019 ] ] } },
{ "type": "Feature", "properties": { "id": 7, "reference_id": 1, "dune_id": 1, "dune_name": "Big Mommy Dune", "acquisition_date": "2019-09-09", "length_m": 379.51987813811729 }, "geometry": { "type": "LineString", "coordinates": [ [ 529074.128444569883868, 7261384.243011592887342 ], [ 529077.957472912967205, 7261377.913190307095647 ], [ 529082.577659175381996, 7261369.453693734481931 ], [ 529087.434407211840153, 7261359.900785414502025 ], [ 529092.130567496176809, 7261349.987933613359928 ], [ 529096.329821285791695, 7261339.999107789248228 ], [ 529099.999107789364643, 7261330.0 ], [ 529103.659896748373285, 7261320.0 ], [ 529107.793458481901325, 7261310.000000000931323 ], [ 529112.206541518098675, 7261300.0 ], [ 529116.340103251626715, 7261290.0 ], [ 529120.000000000116415, 7261280.0 ], [ 529123.6598967484897, 7261270.0 ], [ 529127.793458481901325, 7261260.0 ], [ 529132.205649307463318, 7261250.0 ], [ 529136.329821285791695, 7261240.0 ], [ 529139.924025978078134, 7261230.0 ], [ 529143.299061056924984, 7261220.0 ], [ 529146.689764766488224, 7261210.000000000931323 ], [ 529150.0, 7261200.0 ], [ 529153.309343022760004, 7261190.0 ], [ 529156.68976476660464, 7261180.0 ], [ 529159.989718034281395, 7261170.0 ], [ 529163.233369000954553, 7261160.0 ], [ 529166.329821285791695, 7261150.0 ], [ 529168.895414074067958, 7261140.0 ], [ 529171.092519538942724, 7261130.0 ], [ 529173.583922726451419, 7261120.000000000931323 ], [ 529176.329821285791695, 7261110.0 ], [ 529178.545752559090033, 7261100.0 ], [ 529180.0, 7261090.0 ], [ 529181.452463019639254, 7261080.0 ], [ 529183.647830361267552, 7261070.000892210751772 ], [ 529186.241780876764096, 7261060.012066387571394 ], [ 529188.012404892127961, 7261050.099214585497975 ], [ 529188.012404892127961, 7261040.546306265518069 ], [ 529186.242673087399453, 7261032.086809692904353 ], [ 529183.659004537737928, 7261025.756988408043981 ] ] } },
{ "type": "Feature", "properties": { "id": 8, "reference_id": 3, "dune_id": 3, "dune_name": "Big Mommy Dune", "acquisition_date": "2019-09-09", "length_m": 203.58834904583924 }, "geometry": { "type": "LineString", "coordinates": [ [ 529158.909832663484849, 7260979.453693735413253 ], [ 529163.823576675727963, 7260977.913190307095647 ], [ 529170.78142589086201, 7260974.243011591956019 ], [ 529178.323991140816361, 7260967.913190307095647 ], [ 529184.757810145034455, 7260959.453693736344576 ], [ 529189.558495409088209, 7260949.900785415433347 ], [ 529193.659450643113814, 7260939.987933613359928 ], [ 529198.22937598451972, 7260929.999107789248228 ], [ 529203.746152736130171, 7260920.0 ], [ 529210.011174176586792, 7260910.0 ], [ 529216.341887672897428, 7260900.0 ], [ 529222.216823483817279, 7260890.0 ], [ 529227.870324714574963, 7260880.0 ], [ 529234.031014405656606, 7260870.0 ], [ 529241.179667737334967, 7260860.000892210751772 ], [ 529248.905696039786562, 7260850.012066386640072 ], [ 529256.318647109437734, 7260840.099214585497975 ], [ 529263.135046625975519, 7260830.546306265518069 ], [ 529269.454585945932195, 7260822.086809694766998 ], [ 529274.690103271510452, 7260815.756988408043981 ] ] } },
{ "type": "Feature", "properties": { "id": 9, "reference_id": 3, "dune_id": 3, "dune_name": "Big Mommy Dune", "acquisition_date": "2019-09-09", "length_m": 68.569591573377181 }, "geometry": { "type": "LineString", "coordinates": [ [ 529374.243011592305265, 7260695.756988408043981 ], [ 529367.914082517265342, 7260702.085917483083904 ], [ 529359.465760122402571, 7260710.534239877946675 ], [ 529350.0, 7260720.0 ], [ 529340.534239877597429, 7260729.465760122984648 ], [ 529332.085917482851073, 7260737.914082517847419 ], [ 529325.756988407694735, 7260744.243011592887342 ] ] } },
{ "type": "Feature", "properties": { "id": 10, "reference_id": 3, "dune_id": 3, "dune_name": "Big Mommy Dune", "acquisition_date": "2019-09-09", "length_m": 174.96259040413145 }, "geometry": { "type": "LineString", "coordinates": [ [ 529405.756988407694735, 7260679.552016109228134 ], [ 529412.08680969348643, 7260678.448322394862771 ], [ 529420.546306264819577, 7260676.242673087865114 ], [ 529430.099214585614391, 7260673.222194824367762 ], [ 529440.012066387222148, 7260669.9888258241117 ], [ 529450.000892210751772, 7260666.689764766953886 ], [ 529460.0, 7260663.310235233977437 ], [ 529470.0, 7260660.010281966067851 ], [ 529480.0, 7260656.766630999743938 ], [ 529490.0, 7260653.670178714208305 ], [ 529500.000000000116415, 7260651.10458592697978 ], [ 529510.0, 7260648.907480461522937 ], [ 529520.0, 7260646.416077273897827 ], [ 529529.999107789364643, 7260643.670178715139627 ], [ 529539.987933612894267, 7260641.454247441142797 ], [ 529549.900785414385609, 7260640.0 ], [ 529559.453693735296838, 7260638.546644769608974 ], [ 529567.91319030651357, 7260636.340995462611318 ], [ 529574.243011592305265, 7260633.671070925891399 ] ] } },
{ "type": "Feature", "properties": { "id": 11, "reference_id": 3, "dune_id": 3, "dune_name": "Big Mommy Dune", "acquisition_date": "2019-09-09", "length_m": 69.449054173324498 }, "geometry": { "type": "LineString", "coordinates": [ [ 530164.243011592305265, 7260590.087148198857903 ], [ 530157.91319030651357, 7260590.447091680020094 ], [ 530149.453693735296838, 7260591.540503429248929 ], [ 530139.901677625137381, 7260593.670178714208305 ], [ 530130.0, 7260596.329821285791695 ], [ 530120.098322374862619, 7260598.459496571682394 ], [ 530110.546306264819577, 7260599.552908321842551 ], [ 530102.08680969348643, 7260599.912851802073419 ], [ 530095.756988407694735, 7260599.9888258241117 ] ] } },
{ "type": "Feature", "properties": { "id": 12, "reference_id": 6, "dune_id": 6, "dune_name": "The Star Dune", "acquisition_date": "2019-09-09", "length_m": 408.32153196880108 }, "geometry": { "type": "LineString", "coordinates": [ [ 533669.999107789364643, 7262335.756988408043981 ], [ 533669.988825823646039, 7262342.086809693835676 ], [ 533669.912851801607758, 7262350.546306264586747 ], [ 533669.552908320911229, 7262360.099214585497975 ], [ 533668.458604360697791, 7262370.012066387571394 ], [ 533666.318647109437734, 7262380.000892210751772 ], [ 533663.583030515816063, 7262390.0 ], [ 533661.093411749578081, 7262400.0 ], [ 533658.905696039786562, 7262410.0 ], [ 533656.405795307829976, 7262420.0 ], [ 533653.594204692286439, 7262430.0 ], [ 533651.093411749578081, 7262440.0 ], [ 533648.895414074067958, 7262450.0 ], [ 533646.329821285791695, 7262460.0 ], [ 533643.234261211473495, 7262470.0 ], [ 533640.000000000116415, 7262480.0 ], [ 533636.765738788526505, 7262490.0 ], [ 533633.670178714208305, 7262500.0 ], [ 533631.103693715296686, 7262510.0 ], [ 533628.896306284703314, 7262520.0 ], [ 533626.329821285791695, 7262530.0 ], [ 533623.234261211473495, 7262540.0 ], [ 533620.000892210635357, 7262550.0 ], [ 533616.776020754361525, 7262560.0 ], [ 533613.746152736246586, 7262570.0 ], [ 533611.464529406744987, 7262580.0 ], [ 533610.000892210751772, 7262590.0 ], [ 533608.54664476972539, 7262600.000000000931323 ], [ 533606.340995462378487, 7262610.0 ], [ 533603.671070924960077, 7262620.0 ], [ 533601.540503428783268, 7262630.0 ], [ 533600.44619946856983, 7262640.0 ], [ 533600.075974022038281, 7262650.0 ], [ 533599.924025978078134, 7262660.0 ], [ 533599.553800531546585, 7262670.0 ], [ 533598.459496571216732, 7262680.0 ], [ 533596.329821285791695, 7262689.999107789248228 ], [ 533593.670178714208305, 7262699.987933613359928 ], [ 533591.540503428783268, 7262709.900785414502025 ], [ 533590.447091679205187, 7262719.453693735413253 ], [ 533590.087148198392242, 7262727.913190307095647 ], [ 533590.011174176470377, 7262734.243011592887342 ] ] } },
{ "type": "Feature", "properties": { "id": 13, "reference_id": 9, "dune_id": 9, "dune_name": "Inverted Y Dune", "acquisition_date": "2019-09-09", "length_m": 217.00631141603648 }, "geometry": { "type": "LineString", "coordinates": [ [ 529748.011512681492604, 7261995.756988408043981 ], [ 529744.778143680654466, 7262002.086809693835676 ], [ 529739.911959590855986, 7262010.546306264586747 ], [ 529734.752416287316009, 7262020.099214585497975 ], [ 529730.359943480696529, 7262030.012066386640072 ], [ 529726.416077273548581, 7262040.000892210751772 ], [ 529722.216823483933695, 7262050.0 ], [ 529717.795242903288454, 7262060.0 ], [ 529713.670178714208305, 7262070.0 ], [ 529710.075081811286509, 7262080.0 ], [ 529706.689764766488224, 7262090.0 ], [ 529703.223087035003118, 7262100.0 ], [ 529699.552908320911229, 7262110.0 ], [ 529695.150153548456728, 7262120.0 ], [ 529689.639164308668114, 7262130.0 ], [ 529683.670178714208305, 7262140.0 ], [ 529678.231160405906849, 7262149.999107789248228 ], [ 529673.757326912600547, 7262159.987933613359928 ], [ 529670.098322374979034, 7262169.900785414502025 ], [ 529666.788979352102615, 7262179.453693735413253 ], [ 529663.758219123352319, 7262187.913190307095647 ], [ 529661.551677605137229, 7262194.243011591956019 ] ] } },
{ "type": "Feature", "properties": { "id": 14, "reference_id": 9, "dune_id": 9, "dune_name": "Inverted Y Dune", "acquisition_date": "2019-09-09", "length_m": 313.68114489149565 }, "geometry": { "type": "LineString", "coordinates": [ [ 529934.243011592305265, 7261712.086809692904353 ], [ 529927.913190306629986, 7261715.756988408043981 ], [ 529919.453693735296838, 7261722.086809692904353 ], [ 529909.900785414385609, 7261730.546306265518069 ], [ 529899.987933612894267, 7261740.099214586429298 ], [ 529889.999107789364643, 7261750.012066386640072 ], [ 529880.0, 7261760.000892210751772 ], [ 529870.000892210751772, 7261770.0 ], [ 529860.011174176470377, 7261780.0 ], [ 529850.087148198392242, 7261790.0 ], [ 529840.447983889840543, 7261800.0 ], [ 529831.551677605137229, 7261810.0 ], [ 529823.758219123352319, 7261820.0 ], [ 529816.788087141467258, 7261830.0 ], [ 529810.088040409144014, 7261840.000000000931323 ], [ 529803.682245101314038, 7261850.0 ], [ 529797.881498891045339, 7261860.0 ], [ 529792.653633197303861, 7261870.0 ], [ 529787.881498891045339, 7261880.0 ], [ 529783.681352890678681, 7261890.0 ], [ 529780.076866232673638, 7261900.0 ], [ 529776.700938943075016, 7261910.0 ], [ 529773.311127444147132, 7261919.999107790179551 ], [ 529770.011174176470377, 7261929.987933613359928 ], [ 529766.777805175632238, 7261939.900785414502025 ], [ 529763.757326912600547, 7261949.453693736344576 ], [ 529761.551677605137229, 7261957.913190307095647 ], [ 529760.447983889840543, 7261964.243011592887342 ] ] } },
{ "type": "Feature", "properties": { "id": 15, "reference_id": 9, "dune_id": 9, "dune_name": "Inverted Y Dune", "acquisition_date": "2019-09-09", "length_m": 155.65003638876991 }, "geometry": { "type": "LineString", "coordinates": [ [ 529975.756988407694735, 7261684.701277447864413 ], [ 529982.08680969348643, 7261679.541734144091606 ], [ 529990.546306264819577, 7261673.582138305529952 ], [ 530000.099214585614391, 7261667.85825832746923 ], [ 530010.012066387222148, 7261662.565592788159847 ], [ 530020.000892210751772, 7261657.433515001088381 ], [ 530030.0, 7261652.129675285890698 ], [ 530039.999107789364643, 7261646.318647109903395 ], [ 530049.987933612894267, 7261639.911959590390325 ], [ 530059.901231519761495, 7261633.212358963675797 ], [ 530069.459280823473819, 7261626.248260175809264 ], [ 530077.956764405826107, 7261618.503962881863117 ], [ 530084.466557431966066, 7261609.874776534736156 ], [ 530088.683442021021619, 7261601.22940978128463 ], [ 530091.28878309240099, 7261593.910724874585867 ], [ 530093.065696057397872, 7261588.921006839722395 ] ] } },
{ "type": "Feature", "properties": { "id": 16, "reference_id": 8, "dune_id": 8, "dune_name": "Inverted Y Dune", "acquisition_date": "2019-09-09", "length_m": 374.12780958526815 }, "geometry": { "type": "LineString", "coordinates": [ [ 530096.835089357104152, 7261581.078100949525833 ], [ 530098.164910642895848, 7261576.078100949525833 ], [ 530099.229748285608366, 7261568.683442020788789 ], [ 530099.777346371090971, 7261559.6772395754233 ], [ 530099.967600077274255, 7261549.944359513930976 ], [ 530100.081561110215262, 7261539.993520701304078 ], [ 530100.446645573829301, 7261529.999553894624114 ], [ 530101.540503428783268, 7261520.0 ], [ 530103.670178714208305, 7261510.0 ], [ 530106.329821285791695, 7261500.0 ], [ 530108.460388781968504, 7261490.0 ], [ 530109.564082497381605, 7261480.0 ], [ 530110.0, 7261470.000000000931323 ], [ 530110.43591750273481, 7261460.0 ], [ 530111.540503428666852, 7261450.0 ], [ 530113.681352890678681, 7261440.0 ], [ 530116.416969484300353, 7261430.0 ], [ 530118.907480461173691, 7261420.0 ], [ 530121.104585926048458, 7261410.0 ], [ 530123.670178714208305, 7261400.0 ], [ 530126.766630999278277, 7261390.0 ], [ 530130.01028196583502, 7261380.0 ], [ 530133.311127444147132, 7261370.0 ], [ 530136.701831153710373, 7261360.0 ], [ 530140.087148198392242, 7261350.0 ], [ 530143.757326912600547, 7261340.0 ], [ 530148.242334582377225, 7261330.0 ], [ 530153.758219123352319, 7261320.0 ], [ 530160.098322374979034, 7261310.000000000931323 ], [ 530166.788979352102615, 7261300.000892210751772 ], [ 530173.758219123352319, 7261290.0111741758883 ], [ 530181.550785394501872, 7261280.088040409609675 ], [ 530190.43591750273481, 7261270.459158066660166 ], [ 530199.987933612894267, 7261261.639718014746904 ], [ 530209.464867911767215, 7261254.216484979726374 ], [ 530217.914082517148927, 7261248.416630979627371 ], [ 530224.243011592305265, 7261244.216484978795052 ] ] } },
{ "type": "Feature", "properties": { "id": 17, "reference_id": 7, "dune_id": 7, "dune_name": "Inverted Y Dune", "acquisition_date": "2019-09-09", "length_m": 474.5663275249953 }, "geometry": { "type": "LineString", "coordinates": [ [ 530285.756988407694735, 7261645.882729606702924 ], [ 530292.08680969348643, 7261642.128783075138927 ], [ 530300.546306264819577, 7261637.859150538221002 ], [ 530310.099214585614391, 7261634.030122195370495 ], [ 530320.012066387105733, 7261631.179667737334967 ], [ 530330.000892210751772, 7261628.906588250771165 ], [ 530340.0, 7261626.330713496543467 ], [ 530350.0, 7261623.233369000256062 ], [ 530360.0, 7261619.9888258241117 ], [ 530370.0, 7261616.678590590134263 ], [ 530380.0, 7261613.222194824367762 ], [ 530390.0, 7261609.552016110159457 ], [ 530400.0, 7261605.138087161816657 ], [ 530410.0, 7261599.540841934271157 ], [ 530420.0, 7261593.135046625509858 ], [ 530430.000000000116415, 7261586.231498911976814 ], [ 530440.0, 7261578.447430184110999 ], [ 530450.0, 7261569.552016110159457 ], [ 530460.0, 7261559.912851802073419 ], [ 530469.999107789364643, 7261549.9888258241117 ], [ 530479.988825823529623, 7261539.999107789248228 ], [ 530489.912851801607758, 7261530.0 ], [ 530499.552016110159457, 7261520.0 ], [ 530508.448322394862771, 7261510.0 ], [ 530516.241780876647681, 7261500.0 ], [ 530523.211912858532742, 7261490.0 ], [ 530529.912851801607758, 7261480.0 ], [ 530536.328929075156339, 7261470.000000000931323 ], [ 530542.205649307463318, 7261460.0 ], [ 530547.794350692536682, 7261450.0 ], [ 530553.671070924960077, 7261440.0 ], [ 530560.087148198392242, 7261430.0 ], [ 530566.788087141467258, 7261420.0 ], [ 530573.758219123352319, 7261410.0 ], [ 530581.551677605253644, 7261400.0 ], [ 530590.447091679205187, 7261390.000892210751772 ], [ 530600.075081811286509, 7261380.012066387571394 ], [ 530609.911959590855986, 7261370.099214585497975 ], [ 530619.454585945932195, 7261360.546306265518069 ], [ 530627.913190306629986, 7261352.086809692904353 ], [ 530634.243011592421681, 7261345.756988408043981 ] ] } },
{ "type": "Feature", "properties": { "id": 18, "reference_id": 2, "dune_id": 2, "dune_name": "Big Mommy Dune", "acquisition_date": "2019-09-09", "length_m": 297.14705716571592 }, "geometry": { "type": "LineString", "coordinates": [ [ 528754.243011592305265, 7260848.448322394862771 ], [ 528747.91319030651357, 7260846.241780877113342 ], [ 528739.453693735180423, 7260843.211912859231234 ], [ 528729.900785414502025, 7260839.911959590390325 ], [ 528719.987933612894267, 7260836.318647108972073 ], [ 528709.999107789248228, 7260832.129675285890698 ], [ 528700.0, 7260827.433515001088381 ], [ 528690.0, 7260822.566484998911619 ], [ 528680.0, 7260817.86943250335753 ], [ 528670.0, 7260813.669286504387856 ], [ 528660.0, 7260809.989718034863472 ], [ 528650.0, 7260806.252955053001642 ], [ 528640.0, 7260801.758557628840208 ], [ 528630.0, 7260796.242673087865114 ], [ 528620.0, 7260789.912851802073419 ], [ 528610.0, 7260783.298168847337365 ], [ 528600.0, 7260776.689764767885208 ], [ 528590.0, 7260770.0 ], [ 528580.0, 7260763.309343023225665 ], [ 528570.0, 7260756.690656976774335 ], [ 528560.0, 7260750.0 ], [ 528550.0, 7260743.309343023225665 ], [ 528540.000892210751772, 7260736.690656977705657 ], [ 528530.012066387105733, 7260730.000892210751772 ], [ 528520.099214585614391, 7260723.321409409865737 ], [ 528510.546306264819577, 7260716.788979351520538 ], [ 528502.08680969348643, 7260710.535132088698447 ], [ 528495.756988407694735, 7260705.309004518203437 ] ] } },
{ "type": "Feature", "properties": { "id": 19, "reference_id": 2, "dune_id": 2, "dune_name": "Big Mommy Dune", "acquisition_date": "2019-09-09", "length_m": 315.82287756532173 }, "geometry": { "type": "LineString", "coordinates": [ [ 528785.756988407694735, 7260861.627651628106833 ], [ 528792.08680969348643, 7260864.118162604048848 ], [ 528800.546306264819577, 7260867.881498891860247 ], [ 528810.099214585614391, 7260872.216823484748602 ], [ 528820.012066387222148, 7260876.33071349747479 ], [ 528830.000892210751772, 7260879.924025978893042 ], [ 528840.0, 7260883.299061058089137 ], [ 528850.0, 7260886.688872557133436 ], [ 528860.0, 7260889.989718034863472 ], [ 528870.0, 7260893.233369001187384 ], [ 528880.0, 7260896.329821285791695 ], [ 528890.0, 7260898.895414073951542 ], [ 528900.0, 7260901.092519539408386 ], [ 528910.0, 7260903.583922727033496 ], [ 528920.0, 7260906.329821286723018 ], [ 528930.0, 7260908.545752558857203 ], [ 528940.0, 7260910.0 ], [ 528950.0, 7260911.454247441142797 ], [ 528960.0, 7260913.670178714208305 ], [ 528970.0, 7260916.416077273897827 ], [ 528980.0, 7260918.906588250771165 ], [ 528990.0, 7260921.093411749228835 ], [ 529000.0, 7260923.583030516281724 ], [ 529010.0, 7260926.319539319723845 ], [ 529020.0, 7260928.470670748502016 ], [ 529030.0, 7260929.652122907340527 ], [ 529039.999107789248228, 7260930.458265855908394 ], [ 529049.987933612894267, 7260932.063569130375981 ], [ 529059.900785414385609, 7260935.656881611794233 ], [ 529069.453693735296838, 7260941.540503429248929 ], [ 529077.913190306629986, 7260948.459496571682394 ], [ 529084.243011592421681, 7260954.34222617931664 ] ] } }
]
}
