{
"type": "FeatureCollection",
"name": "crests_2026_06_2026-06-02",
"crs": { "type": "name", "properties": { "name": "urn:ogc:def:crs:EPSG::32733" } },
"features": [
{ "type": "Feature", "properties": { "id": 0, "reference_id": 1, "dune_id": 1, "dune_name": "Big Mommy Dune", "acquisition_date": "2026-06-02", "length_m": 430.02214934474665 }, "geometry": { "type": "LineString", "coordinates": [ [ 529088.001230715774, 7261905.756988408043981 ], [ 529084.701277447980829, 7261912.086809693835676 ], [ 529079.54084193368908, 7261920.546306264586747 ], [ 529073.570964128593914, 7261930.099214585497975 ], [ 529067.772002339712344, 7261940.012066387571394 ], [ 529062.128783074789681, 7261950.000892210751772 ], [ 529055.969877805095166, 7261960.0 ], [ 529048.83150643913541, 7261970.0 ], [ 529041.180559947970323, 7261980.0 ], [ 529034.117270393413492, 7261990.0 ], [ 529028.318308604415506, 7262000.0 ], [ 529023.767608878435567, 7262010.0 ], [ 529020.088040409144014, 7262020.0 ], [ 529016.700938943075016, 7262030.0 ], [ 529013.299953267676756, 7262040.0 ], [ 529009.923133767326362, 7262050.0 ], [ 529006.31953932007309, 7262060.0 ], [ 529002.128783074789681, 7262070.0 ], [ 528997.423233035369776, 7262080.0 ], [ 528992.489618766237982, 7262090.0 ], [ 528987.498314846656285, 7262100.0 ], [ 528982.488726555602625, 7262110.0 ], [ 528977.4120588588994, 7262120.0 ], [ 528972.041634876397438, 7262130.0 ], [ 528965.871555430116132, 7262139.999107789248228 ], [ 528958.371456162189133, 7262149.9888258241117 ], [ 528949.541734144324437, 7262159.912851801142097 ], [ 528939.911959590972401, 7262169.552016111090779 ], [ 528929.988825823529623, 7262178.448322394862771 ], [ 528919.999107789364643, 7262186.242673087865114 ], [ 528910.0, 7262193.222194824367762 ], [ 528900.0, 7262199.9888258241117 ], [ 528890.0, 7262206.688872556202114 ], [ 528880.000892210751772, 7262213.298168846406043 ], [ 528870.012066387105733, 7262219.911959591321647 ], [ 528860.099214585614391, 7262226.231498911045492 ], [ 528850.546306264819577, 7262231.670517219230533 ], [ 528842.086809693370014, 7262235.794689197093248 ], [ 528835.756988407694735, 7262238.361174196004868 ] ] } },
{ "type": "Feature", "properties": { "id": 1, "reference_id": 1, "dune_id": 1, "dune_name": "Big Mommy Dune", "acquisition_date": "2026-06-02", "length_m": 328.57420633277093 }, "geometry": { "type": "LineString", "coordinates": [ [ 529020.0, 7261555.756988408043981 ], [ 529020.0, 7261562.086809693835676 ], [ 529020.0, 7261570.546306264586747 ], [ 529020.0, 7261580.099214585497975 ], [ 529020.0, 7261590.012066387571394 ], [ 529020.0, 7261600.000892210751772 ], [ 529020.0, 7261610.0 ], [ 529020.000892210751772, 7261620.0 ], [ 529020.011174176470377, 7261630.0 ], [ 529020.087148198508658, 7261640.0 ], [ 529020.447983889840543, 7261650.0 ], [ 529021.551677605137229, 7261660.0 ], [ 529023.758219123352319, 7261670.0 ], [ 529026.788087141467258, 7261680.0 ], [ 529030.088040409144014, 7261690.0 ], [ 529033.682245101314038, 7261700.0 ], [ 529037.881498890928924, 7261710.0 ], [ 529042.653633197303861, 7261720.0 ], [ 529047.880606680293567, 7261730.000000000931323 ], [ 529053.671070924960077, 7261740.0 ], [ 529060.0, 7261750.0 ], [ 529066.329821285791695, 7261760.0 ], [ 529072.129675285425037, 7261770.0 ], [ 529077.423233035369776, 7261780.0 ], [ 529082.489618766237982, 7261790.0 ], [ 529087.498314846656285, 7261800.0 ], [ 529092.488726555602625, 7261810.0 ], [ 529097.4120588588994, 7261819.999107789248228 ], [ 529102.041634876397438, 7261829.987933613359928 ], [ 529105.871555430232547, 7261839.900785414502025 ], [ 529108.371456162189133, 7261849.453693735413253 ], [ 529109.541734144440852, 7261857.913190307095647 ], [ 529109.911959590855986, 7261864.243011591956019 ] ] } },
{ "type": "Feature", "properties": { "id": 2, "reference_id": 1, "dune_id": 1, "dune_name": "Big Mommy Dune", "acquisition_date": "2026-06-02", "length_m": 445.77183714590944 }, "geometry": { "type": "LineString", "coordinates": [ [ 529179.912851801607758, 7261105.756988408043981 ], [ 529179.552016110159457, 7261112.086809692904353 ], [ 529178.448322394862771, 7261120.546306265518069 ], [ 529176.242673087399453, 7261130.099214586429298 ], [ 529173.222194824367762, 7261140.012066387571394 ], [ 529169.988825823529623, 7261150.000892210751772 ], [ 529166.688872555969283, 7261160.0 ], [ 529163.299061057041399, 7261170.0 ], [ 529159.924025978078134, 7261180.0 ], [ 529156.329821285791695, 7261190.0 ], [ 529152.205649307463318, 7261200.0 ], [ 529147.793458481901325, 7261210.000000000931323 ], [ 529143.659896748373285, 7261220.0 ], [ 529139.999107789364643, 7261230.0 ], [ 529136.329821285791695, 7261240.0 ], [ 529132.130567496176809, 7261250.0 ], [ 529127.433515001204796, 7261260.0 ], [ 529122.566484998911619, 7261270.0 ], [ 529117.869432503939606, 7261280.0 ], [ 529113.670178714208305, 7261290.0 ], [ 529110.0, 7261300.0 ], [ 529106.329821285791695, 7261310.000000000931323 ], [ 529102.130567496176809, 7261320.0 ], [ 529097.433515001204796, 7261330.0 ], [ 529092.566484998911619, 7261340.0 ], [ 529087.870324714574963, 7261350.0 ], [ 529083.680460680043325, 7261360.0 ], [ 529080.076866232557222, 7261370.0 ], [ 529076.700046732323244, 7261380.0 ], [ 529073.299953267676756, 7261390.0 ], [ 529069.924025978078134, 7261400.0 ], [ 529066.329821285791695, 7261410.0 ], [ 529062.205649307463318, 7261420.0 ], [ 529057.794350692536682, 7261430.0 ], [ 529053.671070924960077, 7261440.0 ], [ 529050.086255987756886, 7261450.0 ], [ 529046.776912964880466, 7261460.0 ], [ 529043.671070924843661, 7261470.000000000931323 ], [ 529041.104585926048458, 7261479.999107789248228 ], [ 529038.907480461057276, 7261489.987933613359928 ], [ 529036.416969484183937, 7261499.900785414502025 ], [ 529033.681352890795097, 7261509.453693735413253 ], [ 529031.54139563953504, 7261517.913190307095647 ], [ 529030.447091679205187, 7261524.243011592887342 ] ] } },
{ "type": "Feature", "properties": { "id": 3, "reference_id": 1, "dune_id": 1, "dune_name": "Big Mommy Dune", "acquisition_date": "2026-06-02", "length_m": 76.281445203293146 }, "geometry": { "type": "LineString", "coordinates": [ [ 529180.000892210751772, 7260998.921899050474167 ], [ 529180.011174176470377, 7261003.921899050474167 ], [ 529180.087148198392242, 7261011.316557979211211 ], [ 529180.447091679205187, 7261020.322760425508022 ], [ 529181.540503428783268, 7261030.054748276248574 ], [ 529183.670178714208305, 7261039.99441291205585 ], [ 529186.329821285791695, 7261049.901231519877911 ], [ 529188.459496571333148, 7261059.453693735413253 ], [ 529189.552908320911229, 7261067.913190307095647 ], [ 529189.912851801607758, 7261074.243011591956019 ] ] } },
{ "type": "Feature", "properties": { "id": 4, "reference_id": 2, "dune_id": 2, "dune_name": "Big Mommy Dune", "acquisition_date": "2026-06-02", "length_m": 746.13339647049645 }, "geometry": { "type": "LineString", "coordinates": [ [ 528445.756988407694735, 7260671.999661494977772 ], [ 528452.08680969348643, 7260675.309004518203437 ], [ 528460.546306264819577, 7260680.535132087767124 ], [ 528470.099214585614391, 7260686.788979351520538 ], [ 528480.012066387222148, 7260693.322301620617509 ], [ 528490.000892210751772, 7260700.011174176819623 ], [ 528500.0, 7260706.766630999743938 ], [ 528510.0, 7260713.670178715139627 ], [ 528520.0, 7260721.103693716228008 ], [ 528530.0, 7260728.896306285634637 ], [ 528540.0, 7260736.328929075971246 ], [ 528550.0, 7260743.223087035119534 ], [ 528560.0, 7260749.912851801142097 ], [ 528570.0, 7260756.318647108972073 ], [ 528580.0, 7260762.129675284959376 ], [ 528590.0, 7260767.433515001088381 ], [ 528600.0, 7260772.566484998911619 ], [ 528610.0, 7260777.869432505220175 ], [ 528620.0, 7260783.670178715139627 ], [ 528630.0, 7260790.0 ], [ 528640.0, 7260796.329821286723018 ], [ 528650.0, 7260802.129675285890698 ], [ 528660.0, 7260807.422340825200081 ], [ 528670.0, 7260812.479336800053716 ], [ 528680.0, 7260817.422340825200081 ], [ 528690.0, 7260822.129675285890698 ], [ 528700.0, 7260826.329821285791695 ], [ 528710.0, 7260829.999107789248228 ], [ 528720.0, 7260833.659896748140454 ], [ 528730.0, 7260837.793458482250571 ], [ 528740.0, 7260842.205649307928979 ], [ 528750.0, 7260846.329821285791695 ], [ 528760.0, 7260849.924025977961719 ], [ 528770.0, 7260853.299953267909586 ], [ 528780.0, 7260856.700046732090414 ], [ 528790.0, 7260860.075974022969604 ], [ 528800.0, 7260863.669286504387856 ], [ 528810.0, 7260867.784068727865815 ], [ 528820.0, 7260872.129675285890698 ], [ 528830.0, 7260875.968985594809055 ], [ 528840.0, 7260878.820332262665033 ], [ 528850.0, 7260881.093411750160158 ], [ 528860.0, 7260883.669286504387856 ], [ 528870.0, 7260886.765738788992167 ], [ 528880.0, 7260890.0 ], [ 528890.0, 7260893.234261211939156 ], [ 528900.0, 7260896.329821285791695 ], [ 528910.0, 7260898.895414073951542 ], [ 528920.0, 7260901.093411750160158 ], [ 528930.0, 7260903.594204693101346 ], [ 528940.0, 7260906.405795308761299 ], [ 528950.0, 7260908.906588250771165 ], [ 528960.0, 7260911.10458592697978 ], [ 528970.0, 7260913.670178714208305 ], [ 528980.0, 7260916.766630999743938 ], [ 528990.0, 7260920.010281965136528 ], [ 529000.0, 7260923.310235233977437 ], [ 529010.0, 7260926.690656977705657 ], [ 529020.0, 7260930.0 ], [ 529030.0, 7260933.309343023225665 ], [ 529040.0, 7260936.690656976774335 ], [ 529050.0, 7260940.0 ], [ 529060.0, 7260943.310235233046114 ], [ 529070.0, 7260946.700938943773508 ], [ 529079.999107789248228, 7260950.075974022969604 ], [ 529089.987933612894267, 7260953.669286504387856 ], [ 529099.900785414502025, 7260957.783176517114043 ], [ 529109.453693735296838, 7260962.118501110002398 ], [ 529117.91319030651357, 7260965.881837395951152 ], [ 529124.243011592421681, 7260968.37234837282449 ] ] } },
{ "type": "Feature", "properties": { "id": 5, "reference_id": 8, "dune_id": 8, "dune_name": "Inverted Y Dune", "acquisition_date": "2026-06-02", "length_m": 426.49564529367888 }, "geometry": { "type": "LineString", "coordinates": [ [ 530264.243011592421681, 7261221.639718014746904 ], [ 530257.913190306629986, 7261224.216484978795052 ], [ 530249.453693735180423, 7261228.416630979627371 ], [ 530239.900785414502025, 7261234.216484978795052 ], [ 530229.987933612777852, 7261241.639718014746904 ], [ 530219.999107789248228, 7261250.459158066660166 ], [ 530210.0, 7261260.088040409609675 ], [ 530200.000892210751772, 7261270.011174176819623 ], [ 530190.012066387105733, 7261280.000892210751772 ], [ 530180.098322374862619, 7261290.0 ], [ 530170.535132088349201, 7261300.0 ], [ 530161.999661495094188, 7261310.000000000931323 ], [ 530155.309896728489548, 7261320.0 ], [ 530150.545414054067805, 7261330.0 ], [ 530146.864953374140896, 7261340.0 ], [ 530143.682245101314038, 7261350.0 ], [ 530141.10547813680023, 7261360.0 ], [ 530138.906588250538334, 7261370.0 ], [ 530136.405795307829976, 7261380.0 ], [ 530133.594204692170024, 7261390.0 ], [ 530131.094303960213438, 7261400.0 ], [ 530128.906588250538334, 7261410.0 ], [ 530126.416969484183937, 7261420.0 ], [ 530123.680460680043325, 7261430.0 ], [ 530121.530221462948248, 7261440.0 ], [ 530120.359943480812944, 7261450.0 ], [ 530119.640056519303471, 7261460.0 ], [ 530118.470670747803524, 7261470.000000000931323 ], [ 530116.330713496543467, 7261480.0 ], [ 530113.670178714208305, 7261490.0 ], [ 530111.540503428666852, 7261500.0 ], [ 530110.447091679205187, 7261510.0 ], [ 530110.086255987756886, 7261520.0 ], [ 530110.0, 7261530.0 ], [ 530109.913744012243114, 7261539.999553894624114 ], [ 530109.552908320911229, 7261549.993520701304078 ], [ 530108.459496571333148, 7261559.944359513930976 ], [ 530106.329821285791695, 7261569.6772395754233 ], [ 530103.670178714208305, 7261578.683442020788789 ], [ 530101.540503428783268, 7261586.078100949525833 ], [ 530100.447091679205187, 7261591.078100949525833 ] ] } },
{ "type": "Feature", "properties": { "id": 6, "reference_id": 8, "dune_id": 8, "dune_name": "Inverted Y Dune", "acquisition_date": "2026-06-02", "length_m": 167.56071821893215 }, "geometry": { "type": "LineString", "coordinates": [ [ 530554.243011592305265, 7261174.205310802906752 ], [ 530547.91319030651357, 7261178.328590570017695 ], [ 530539.453693735296838, 7261183.757326913066208 ], [ 530529.900785414385609, 7261190.0 ], [ 530519.987933612894267, 7261196.242673086933792 ], [ 530509.999107789248228, 7261201.671409429982305 ], [ 530500.0, 7261205.794689197093248 ], [ 530490.0, 7261208.36117419693619 ], [ 530480.0, 7261209.540841934271157 ], [ 530470.0, 7261209.911959591321647 ], [ 530460.0, 7261209.9888258241117 ], [ 530450.0, 7261209.999107790179551 ], [ 530440.000892210751772, 7261210.000000000931323 ], [ 530430.012066387222148, 7261210.000000000931323 ], [ 530420.099214585614391, 7261210.000000000931323 ], [ 530410.546306264819577, 7261210.000000000931323 ], [ 530402.08680969348643, 7261210.000000000931323 ], [ 530395.756988407694735, 7261210.000000000931323 ] ] } },
{ "type": "Feature", "properties": { "id": 7, "reference_id": 9, "dune_id": 9, "dune_name": "Inverted Y Dune", "acquisition_date": "2026-06-02", "length_m": 741.69186523382973 }, "geometry": { "type": "LineString", "coordinates": [ [ 530097.91319030651357, 7261598.834750852547586 ], [ 530094.243011592421681, 7261603.473915160633624 ], [ 530087.913190306629986, 7261609.764880374073982 ], [ 530079.453693735180423, 7261616.564541302621365 ], [ 530069.900785414502025, 7261623.267553345300257 ], [ 530059.987933612894267, 7261629.919331100769341 ], [ 530049.999107789364643, 7261636.329375180415809 ], [ 530040.0, 7261642.205649307928979 ], [ 530030.0, 7261647.794350693002343 ], [ 530020.0, 7261653.670178714208305 ], [ 530010.0, 7261660.075974022969604 ], [ 530000.0, 7261666.700938943773508 ], [ 529990.0, 7261673.310235233977437 ], [ 529980.0, 7261680.0 ], [ 529970.0, 7261686.690656976774335 ], [ 529960.0, 7261693.310235233977437 ], [ 529950.0, 7261700.011174177750945 ], [ 529940.0, 7261706.777805175632238 ], [ 529930.0, 7261713.757326913066208 ], [ 529920.0, 7261721.551677605137229 ], [ 529910.0, 7261730.447983890771866 ], [ 529900.0, 7261740.087148198857903 ], [ 529890.0, 7261750.011174176819623 ], [ 529880.0, 7261760.000892210751772 ], [ 529870.000892210751772, 7261770.0 ], [ 529860.011174176470377, 7261780.0 ], [ 529850.087148198392242, 7261790.0 ], [ 529840.447983889840543, 7261800.0 ], [ 529831.551677605137229, 7261810.0 ], [ 529823.758219123352319, 7261820.0 ], [ 529816.78897935221903, 7261830.0 ], [ 529810.098322374979034, 7261840.000000000931323 ], [ 529803.758219123352319, 7261850.0 ], [ 529798.242334582377225, 7261860.0 ], [ 529793.757326912600547, 7261870.0 ], [ 529790.087148198392242, 7261880.0 ], [ 529786.700938942958601, 7261890.0 ], [ 529783.299953267676756, 7261900.0 ], [ 529779.924025977961719, 7261910.0 ], [ 529776.329821285791695, 7261920.0 ], [ 529772.205649307463318, 7261930.0 ], [ 529767.793458481901325, 7261940.0 ], [ 529763.659896748373285, 7261950.0 ], [ 529759.999107789364643, 7261960.0 ], [ 529756.329821285791695, 7261970.0 ], [ 529752.129675285425037, 7261980.0 ], [ 529747.423233035369776, 7261990.0 ], [ 529742.490510976989754, 7262000.0 ], [ 529737.509489023126662, 7262010.0 ], [ 529732.576766964630224, 7262020.0 ], [ 529727.871216925210319, 7262030.0 ], [ 529723.680460680043325, 7262040.0 ], [ 529720.075974022038281, 7262050.0 ], [ 529716.689764766488224, 7262060.0 ], [ 529713.223087035003118, 7262070.0 ], [ 529709.552908320911229, 7262080.0 ], [ 529705.150153548456728, 7262090.0 ], [ 529699.640056519303471, 7262100.0 ], [ 529693.680460680043325, 7262110.0 ], [ 529688.30713442794513, 7262120.0 ], [ 529684.117270393413492, 7262129.999107789248228 ], [ 529681.191734124557115, 7262139.987933613359928 ], [ 529678.918654637644067, 7262149.900785414502025 ], [ 529676.417861694935709, 7262159.453693735413253 ], [ 529673.681352890678681, 7262167.913190307095647 ], [ 529671.541395639418624, 7262174.243011591956019 ] ] } },
{ "type": "Feature", "properties": { "id": 8, "reference_id": 3, "dune_id": 3, "dune_name": "Big Mommy Dune", "acquisition_date": "2026-06-02", "length_m": 359.06023449396395 }, "geometry": { "type": "LineString", "coordinates": [ [ 529374.243011592305265, 7260695.756988408043981 ], [ 529367.91319030651357, 7260702.086809693835676 ], [ 529359.453693735180423, 7260710.546306265518069 ], [ 529349.900785414502025, 7260720.099214585497975 ], [ 529339.988825823529623, 7260730.012066388502717 ], [ 529330.01028196583502, 7260740.000892210751772 ], [ 529320.087148198508658, 7260750.0 ], [ 529310.447983889956959, 7260760.0 ], [ 529301.551677605253644, 7260770.0 ], [ 529293.758219123352319, 7260780.000000000931323 ], [ 529286.788087141467258, 7260790.0 ], [ 529280.087148198392242, 7260800.0 ], [ 529273.671070924960077, 7260810.0 ], [ 529267.794350692536682, 7260820.0 ], [ 529262.205649307463318, 7260830.0 ], [ 529256.32982128590811, 7260840.0 ], [ 529249.924025978078134, 7260850.0 ], [ 529243.299953267676756, 7260860.0 ], [ 529236.700046732323244, 7260870.0 ], [ 529230.075974021921866, 7260880.0 ], [ 529223.670178714208305, 7260890.0 ], [ 529217.794350692536682, 7260900.0 ], [ 529212.206541518098675, 7260910.0 ], [ 529206.340995462262072, 7260920.0 ], [ 529200.012066387105733, 7260930.0 ], [ 529193.758219123352319, 7260939.999553894624114 ], [ 529188.328590570250526, 7260949.993520701304078 ], [ 529184.205310802557506, 7260959.944359514862299 ], [ 529181.638825803645886, 7260969.6772395754233 ], [ 529180.45915806631092, 7260978.683442020788789 ], [ 529180.088040409144014, 7260986.078100949525833 ], [ 529180.011174176470377, 7260991.078100949525833 ] ] } },
{ "type": "Feature", "properties": { "id": 9, "reference_id": 3, "dune_id": 3, "dune_name": "Big Mommy Dune", "acquisition_date": "2026-06-02", "length_m": 647.1029097846681 }, "geometry": { "type": "LineString", "coordinates": [ [ 529405.756988407694735, 7260679.552016109228134 ], [ 529412.08680969348643, 7260678.448322394862771 ], [ 529420.546306264819577, 7260676.242673087865114 ], [ 529430.099214585614391, 7260673.222194824367762 ], [ 529440.012066387222148, 7260669.9888258241117 ], [ 529450.000892210751772, 7260666.689764766953886 ], [ 529460.0, 7260663.310235233977437 ], [ 529470.0, 7260660.010281966067851 ], [ 529480.0, 7260656.766630999743938 ], [ 529490.0, 7260653.670178714208305 ], [ 529500.000000000116415, 7260651.10458592697978 ], [ 529510.0, 7260648.906588250771165 ], [ 529520.0, 7260646.405795307829976 ], [ 529530.0, 7260643.594204693101346 ], [ 529540.0, 7260641.094303959980607 ], [ 529550.0, 7260638.906588250771165 ], [ 529560.0, 7260636.416969483718276 ], [ 529570.0, 7260633.680460680276155 ], [ 529580.0, 7260631.530221463181078 ], [ 529590.0, 7260630.35994348116219 ], [ 529600.0, 7260629.64005651883781 ], [ 529610.0, 7260628.470670747570693 ], [ 529620.0, 7260626.330713496543467 ], [ 529630.0, 7260623.670178714208305 ], [ 529640.0, 7260621.540503429248929 ], [ 529650.0, 7260620.447091679088771 ], [ 529660.0, 7260620.086255988106132 ], [ 529670.0, 7260620.0 ], [ 529680.0, 7260619.913744012825191 ], [ 529690.0, 7260619.552908320911229 ], [ 529700.0, 7260618.459496571682394 ], [ 529710.0, 7260616.329821286723018 ], [ 529720.0, 7260613.670178715139627 ], [ 529730.0, 7260611.540503429248929 ], [ 529740.0, 7260610.447091680020094 ], [ 529750.0, 7260610.087148198857903 ], [ 529760.0, 7260610.011174176819623 ], [ 529770.0, 7260610.000892210751772 ], [ 529780.0, 7260610.0 ], [ 529790.0, 7260610.0 ], [ 529800.0, 7260610.0 ], [ 529810.0, 7260610.0 ], [ 529820.0, 7260610.0 ], [ 529830.0, 7260610.0 ], [ 529840.0, 7260610.0 ], [ 529850.0, 7260610.0 ], [ 529860.0, 7260610.0 ], [ 529870.0, 7260610.0 ], [ 529880.0, 7260610.0 ], [ 529890.0, 7260610.0 ], [ 529900.0, 7260610.0 ], [ 529910.0, 7260610.0 ], [ 529920.0, 7260610.0 ], [ 529930.0, 7260610.0 ], [ 529940.0, 7260610.0 ], [ 529950.0, 7260610.0 ], [ 529960.0, 7260610.0 ], [ 529970.0, 7260610.0 ], [ 529980.0, 7260610.0 ], [ 529990.0, 7260610.0 ], [ 529999.999107789364643, 7260610.0 ], [ 530009.987933612894267, 7260610.0 ], [ 530019.900785414502025, 7260610.0 ], [ 530029.453693735180423, 7260610.0 ], [ 530037.91319030651357, 7260610.0 ], [ 530044.243011592305265, 7260610.0 ] ] } },
{ "type": "Feature", "properties": { "id": 10, "reference_id": 3, "dune_id": 3, "dune_name": "Big Mommy Dune", "acquisition_date": "2026-06-02", "length_m": 172.08029690349937 }, "geometry": { "type": "LineString", "coordinates": [ [ 530244.243011592421681, 7260570.087148198857903 ], [ 530237.91319030651357, 7260570.447091680020094 ], [ 530229.453693735180423, 7260571.540503429248929 ], [ 530219.900785414385609, 7260573.671070925891399 ], [ 530209.987933612894267, 7260576.340995462611318 ], [ 530199.999107789248228, 7260578.546644769608974 ], [ 530190.0, 7260580.000892210751772 ], [ 530180.0, 7260581.464529406279325 ], [ 530170.000000000116415, 7260583.746152736246586 ], [ 530160.0, 7260586.776020754128695 ], [ 530150.0, 7260590.0 ], [ 530140.0, 7260593.223087035119534 ], [ 530130.0, 7260596.242673087865114 ], [ 530120.000892210751772, 7260598.448322394862771 ], [ 530110.012066387222148, 7260599.552016111090779 ], [ 530100.099214585614391, 7260599.912851802073419 ], [ 530090.546306264819577, 7260599.9888258241117 ], [ 530082.08680969348643, 7260599.999107789248228 ], [ 530075.756988407694735, 7260600.0 ] ] } },
{ "type": "Feature", "properties": { "id": 11, "reference_id": 4, "dune_id": 4, "dune_name": "The Star Dune", "acquisition_date": "2026-06-02", "length_m": 508.47502818826666 }, "geometry": { "type": "LineString", "coordinates": [ [ 533005.756988407694735, 7261870.087148198857903 ], [ 533012.08680969348643, 7261870.447091680020094 ], [ 533020.546306264819577, 7261871.541395640000701 ], [ 533030.099214585614391, 7261873.681352891027927 ], [ 533040.012066387105733, 7261876.416969484649599 ], [ 533050.000892210751772, 7261878.906588250771165 ], [ 533060.0, 7261881.093411749228835 ], [ 533070.0, 7261883.583922726102173 ], [ 533080.0, 7261886.329821285791695 ], [ 533090.0, 7261888.545752558857203 ], [ 533100.0, 7261890.000892210751772 ], [ 533110.0, 7261891.464529407210648 ], [ 533120.0, 7261893.746152736246586 ], [ 533130.0, 7261896.776912964880466 ], [ 533140.0, 7261900.0111741758883 ], [ 533150.0, 7261903.310235233977437 ], [ 533160.0, 7261906.689764766953886 ], [ 533170.0, 7261909.989718034863472 ], [ 533180.0, 7261913.233369002118707 ], [ 533190.0, 7261916.329821286723018 ], [ 533200.0, 7261918.895414073951542 ], [ 533210.0, 7261921.093411749228835 ], [ 533220.0, 7261923.594204692170024 ], [ 533230.0, 7261926.405795307829976 ], [ 533240.0, 7261928.906588250771165 ], [ 533250.0, 7261931.104585926048458 ], [ 533260.0, 7261933.670178715139627 ], [ 533270.0, 7261936.766630999743938 ], [ 533280.0, 7261940.010281966067851 ], [ 533290.0, 7261943.310235233977437 ], [ 533300.0, 7261946.689764766022563 ], [ 533310.0, 7261949.989718034863472 ], [ 533320.0, 7261953.233369001187384 ], [ 533330.0, 7261956.329821286723018 ], [ 533340.0, 7261958.896306285634637 ], [ 533350.0, 7261961.103693716228008 ], [ 533360.0, 7261963.670178714208305 ], [ 533370.0, 7261966.766630999743938 ], [ 533380.000000000116415, 7261970.010281966067851 ], [ 533390.0, 7261973.311127444729209 ], [ 533400.000000000116415, 7261976.700938943773508 ], [ 533410.0, 7261980.075974022969604 ], [ 533420.0, 7261983.670178715139627 ], [ 533430.0, 7261987.794350693002343 ], [ 533440.0, 7261992.20475709810853 ], [ 533449.999107789364643, 7261996.317754900082946 ], [ 533459.987933612894267, 7261999.825703604146838 ], [ 533469.900785414385609, 7262002.76482117921114 ], [ 533479.453693735296838, 7262004.701277447864413 ], [ 533487.91319030651357, 7262004.778143680654466 ], [ 533494.243011592421681, 7262003.222194824367762 ] ] } },
{ "type": "Feature", "properties": { "id": 12, "reference_id": 4, "dune_id": 4, "dune_name": "The Star Dune", "acquisition_date": "2026-06-02", "length_m": 101.60154232951338 }, "geometry": { "type": "LineString", "coordinates": [ [ 533525.756988407694735, 7262030.458265855908394 ], [ 533532.086809693602845, 7262031.62765162717551 ], [ 533540.546306264819577, 7262034.117270394228399 ], [ 533550.099214585614391, 7262037.870324715040624 ], [ 533560.012066387105733, 7262042.129675285890698 ], [ 533570.000892210751772, 7262045.882729606702924 ], [ 533579.999107789364643, 7262048.372348373755813 ], [ 533589.987933612894267, 7262049.541734144091606 ], [ 533599.900785414385609, 7262049.911959591321647 ], [ 533609.453693735180423, 7262049.9888258241117 ], [ 533617.91319030651357, 7262049.999107789248228 ], [ 533624.243011592305265, 7262050.0 ] ] } },
{ "type": "Feature", "properties": { "id": 13, "reference_id": 5, "dune_id": 5, "dune_name": "The Star Dune", "acquisition_date": "2026-06-02", "length_m": 1141.0437279972375 }, "geometry": { "type": "LineString", "coordinates": [ [ 534334.789317857124843, 7261305.756988408043981 ], [ 534330.0, 7261312.086809693835676 ], [ 534325.210682142991573, 7261320.546306264586747 ], [ 534321.987595107872039, 7261330.099214585497975 ], [ 534320.534239877597429, 7261340.012066386640072 ], [ 534320.098322374862619, 7261350.000892210751772 ], [ 534320.012066387105733, 7261360.0 ], [ 534320.001784421387129, 7261370.0 ], [ 534320.011174176470377, 7261380.0 ], [ 534320.087148198392242, 7261390.0 ], [ 534320.447091679205187, 7261400.0 ], [ 534321.540503428666852, 7261410.0 ], [ 534323.670178714208305, 7261420.0 ], [ 534326.329821285791695, 7261430.0 ], [ 534328.459496571333148, 7261440.0 ], [ 534329.552908320794813, 7261450.0 ], [ 534329.912851801607758, 7261460.0 ], [ 534329.988825823529623, 7261470.000000000931323 ], [ 534329.999107789364643, 7261480.0 ], [ 534330.0, 7261490.0 ], [ 534329.999107789364643, 7261500.0 ], [ 534329.987933612894267, 7261510.0 ], [ 534329.900785414385609, 7261520.0 ], [ 534329.453693735296838, 7261530.0 ], [ 534327.91319030651357, 7261540.0 ], [ 534324.243011592421681, 7261550.0 ], [ 534317.91319030651357, 7261559.999107790179551 ], [ 534309.453693735296838, 7261569.9888258241117 ], [ 534299.900785414502025, 7261579.912851802073419 ], [ 534289.987933612894267, 7261589.552016110159457 ], [ 534279.999107789248228, 7261598.448322394862771 ], [ 534270.0, 7261606.242673087865114 ], [ 534260.0, 7261613.222194824367762 ], [ 534250.0, 7261619.9888258241117 ], [ 534240.0, 7261626.689764766022563 ], [ 534230.0, 7261633.309343023225665 ], [ 534220.0, 7261639.999107789248228 ], [ 534210.0, 7261646.678590590134263 ], [ 534200.0, 7261653.211020648479462 ], [ 534190.0, 7261659.464867912232876 ], [ 534180.0, 7261664.690995482727885 ], [ 534170.0, 7261668.000338505022228 ], [ 534160.0, 7261669.465760122984648 ], [ 534150.0, 7261669.912851802073419 ], [ 534140.0, 7261670.075081811286509 ], [ 534130.0, 7261670.446199468336999 ], [ 534120.0, 7261671.540503429248929 ], [ 534110.0, 7261673.670178714208305 ], [ 534100.0, 7261676.330713496543467 ], [ 534090.0, 7261678.470670748502016 ], [ 534080.0, 7261679.640056519769132 ], [ 534070.0, 7261680.35994348116219 ], [ 534060.0, 7261681.529329252429307 ], [ 534050.0, 7261683.669286504387856 ], [ 534040.0, 7261686.33071349747479 ], [ 534030.0, 7261688.470670748502016 ], [ 534020.0, 7261689.64005651883781 ], [ 534010.0, 7261690.35994348116219 ], [ 534000.0, 7261691.530221464112401 ], [ 533990.0, 7261693.680460680276155 ], [ 533980.0, 7261696.416969484649599 ], [ 533970.0, 7261698.907480461522937 ], [ 533960.0, 7261701.10458592697978 ], [ 533950.0, 7261703.671070924960077 ], [ 533940.0, 7261706.776912964880466 ], [ 533930.0, 7261710.087148198857903 ], [ 533920.0, 7261713.681352891027927 ], [ 533910.0, 7261717.871216924861073 ], [ 533900.0, 7261722.576766964048147 ], [ 533890.0, 7261727.510381233878434 ], [ 533880.0, 7261732.500792942941189 ], [ 533870.0, 7261737.500099267810583 ], [ 533860.0, 7261742.500792942941189 ], [ 533850.0, 7261747.511273445561528 ], [ 533840.0, 7261752.58794114086777 ], [ 533830.0, 7261757.958365123718977 ], [ 533820.0, 7261764.128444569185376 ], [ 533810.000892210635357, 7261771.628543837927282 ], [ 533800.012066387105733, 7261780.458265855908394 ], [ 533790.098322374979034, 7261790.088040409609675 ], [ 533780.535132088232785, 7261800.011174176819623 ], [ 533771.999661495094188, 7261810.000892210751772 ], [ 533765.309004517854191, 7261820.0 ], [ 533760.535132088349201, 7261830.0 ], [ 533756.788087141467258, 7261840.000000000931323 ], [ 533753.311127444147132, 7261850.0 ], [ 533749.924025978078134, 7261860.0 ], [ 533746.31953932007309, 7261870.0 ], [ 533742.128783074789681, 7261880.0 ], [ 533737.423233035369776, 7261890.0 ], [ 533732.489618766354397, 7261900.0 ], [ 533727.499207057291642, 7261910.0 ], [ 533722.499900731956586, 7261920.0 ], [ 533717.499207057291642, 7261930.0 ], [ 533712.489618766237982, 7261940.0 ], [ 533707.423233035369776, 7261950.0 ], [ 533702.129675285541452, 7261960.0 ], [ 533696.32982128590811, 7261970.0 ], [ 533689.999107789364643, 7261980.0 ], [ 533683.659896748373285, 7261989.999553894624114 ], [ 533677.794350692536682, 7261999.993520701304078 ], [ 533672.217715694569051, 7262009.944359513930976 ], [ 533666.428143660770729, 7262019.677239574491978 ], [ 533660.45915806631092, 7262028.683442020788789 ], [ 533655.298722552019171, 7262036.078100949525833 ], [ 533651.998769284458831, 7262041.078100949525833 ] ] } },
{ "type": "Feature", "properties": { "id": 14, "reference_id": 6, "dune_id": 6, "dune_name": "The Star Dune", "acquisition_date": "2026-06-02", "length_m": 856.20952990301805 }, "geometry": { "type": "LineString", "coordinates": [ [ 533650.0, 7262048.921899050474167 ], [ 533650.000892210751772, 7262053.921899050474167 ], [ 533650.011174176470377, 7262061.316557979211211 ], [ 533650.087148198508658, 7262070.322760425508022 ], [ 533650.447091679205187, 7262080.055640487000346 ], [ 533651.540503428783268, 7262090.006479298695922 ], [ 533653.670178714208305, 7262100.000446105375886 ], [ 533656.329821285791695, 7262110.0 ], [ 533658.459496571216732, 7262120.0 ], [ 533659.552908320911229, 7262130.0 ], [ 533659.912851801607758, 7262140.0 ], [ 533659.988825823529623, 7262150.0 ], [ 533659.999107789248228, 7262160.0 ], [ 533660.000892210751772, 7262170.0 ], [ 533660.011174176470377, 7262180.0 ], [ 533660.087148198392242, 7262190.0 ], [ 533660.447091679088771, 7262200.0 ], [ 533661.540503428783268, 7262210.0 ], [ 533663.671070924960077, 7262220.0 ], [ 533666.340995462378487, 7262230.0 ], [ 533668.546644769841805, 7262240.0 ], [ 533670.0, 7262250.0 ], [ 533671.453355230391026, 7262260.0 ], [ 533673.659004537737928, 7262270.0 ], [ 533676.328929075156339, 7262280.0 ], [ 533678.459496571333148, 7262290.0 ], [ 533679.552908320911229, 7262300.0 ], [ 533679.912851801607758, 7262310.0 ], [ 533679.987933612894267, 7262320.0 ], [ 533679.987933612894267, 7262330.0 ], [ 533679.912851801607758, 7262340.000000000931323 ], [ 533679.552908320911229, 7262350.0 ], [ 533678.458604360697791, 7262360.0 ], [ 533676.318647109437734, 7262370.0 ], [ 533673.583030515816063, 7262380.0 ], [ 533671.092519538942724, 7262390.0 ], [ 533668.895414073951542, 7262400.0 ], [ 533666.329821285791695, 7262410.0 ], [ 533663.233369000838138, 7262420.0 ], [ 533659.98971803416498, 7262430.0 ], [ 533656.689764766488224, 7262440.0 ], [ 533653.310235233511776, 7262450.0 ], [ 533650.01028196583502, 7262460.0 ], [ 533646.766630999161862, 7262470.0 ], [ 533643.670178714208305, 7262480.0 ], [ 533641.104585926048458, 7262490.0 ], [ 533638.906588250538334, 7262500.0 ], [ 533636.405795307829976, 7262510.0 ], [ 533633.594204692286439, 7262520.0 ], [ 533631.094303960213438, 7262530.0 ], [ 533628.906588250421919, 7262540.0 ], [ 533626.416077273548581, 7262550.0 ], [ 533623.670178714208305, 7262560.0 ], [ 533621.454247440909967, 7262570.0 ], [ 533620.0, 7262580.0 ], [ 533618.54664476972539, 7262590.0 ], [ 533616.340995462378487, 7262600.000000000931323 ], [ 533613.670178714208305, 7262610.0 ], [ 533611.529329252312891, 7262620.0 ], [ 533610.359943480696529, 7262630.0 ], [ 533609.640056519303471, 7262640.0 ], [ 533608.470670747803524, 7262650.0 ], [ 533606.330713496543467, 7262660.0 ], [ 533603.670178714208305, 7262670.0 ], [ 533601.540503428783268, 7262680.0 ], [ 533600.447091679205187, 7262690.0 ], [ 533600.086255987756886, 7262700.0 ], [ 533600.0, 7262710.0 ], [ 533599.913744012243114, 7262720.0 ], [ 533599.552016110159457, 7262730.0 ], [ 533598.448322394862771, 7262740.0 ], [ 533596.242673087399453, 7262750.0 ], [ 533593.222194824367762, 7262760.0 ], [ 533589.988825823529623, 7262770.0 ], [ 533586.688872555969283, 7262780.0 ], [ 533583.299061057041399, 7262790.0 ], [ 533579.924025978078134, 7262800.0 ], [ 533576.32982128590811, 7262810.0 ], [ 533572.205649307463318, 7262820.0 ], [ 533567.794350692653097, 7262830.0 ], [ 533563.671070924843661, 7262839.999107789248228 ], [ 533560.087148198392242, 7262849.987933613359928 ], [ 533556.788087141467258, 7262859.900785414502025 ], [ 533553.758219123352319, 7262869.453693735413253 ], [ 533551.551677605253644, 7262877.913190307095647 ], [ 533550.447983889840543, 7262884.243011591956019 ] ] } },
{ "type": "Feature", "properties": { "id": 15, "reference_id": 7, "dune_id": 7, "dune_name": "Inverted Y Dune", "acquisition_date": "2026-06-02", "length_m": 610.89832614955992 }, "geometry": { "type": "LineString", "coordinates": [ [ 530654.243011592305265, 7261325.756988408043981 ], [ 530647.913190306629986, 7261332.086809693835676 ], [ 530639.454585945932195, 7261340.546306265518069 ], [ 530629.911959590855986, 7261350.099214585497975 ], [ 530620.075081811286509, 7261360.012066386640072 ], [ 530610.44619946856983, 7261370.000892210751772 ], [ 530601.541395639418624, 7261380.0 ], [ 530593.681352890678681, 7261390.0 ], [ 530586.416969484300353, 7261400.0 ], [ 530578.907480461173691, 7261410.0 ], [ 530571.104585926048458, 7261420.0 ], [ 530563.670178714208305, 7261430.0 ], [ 530556.766630999161862, 7261440.0 ], [ 530550.01028196583502, 7261450.0 ], [ 530543.31023523339536, 7261460.0 ], [ 530536.689764766488224, 7261470.000000000931323 ], [ 530529.988825823529623, 7261480.0 ], [ 530523.222194824367762, 7261490.0 ], [ 530516.242673087399453, 7261500.0 ], [ 530508.448322394862771, 7261510.0 ], [ 530499.552016110159457, 7261520.0 ], [ 530489.912851801607758, 7261529.999107789248228 ], [ 530479.988825823529623, 7261539.9888258241117 ], [ 530469.999107789364643, 7261549.912851801142097 ], [ 530460.0, 7261559.552016111090779 ], [ 530450.0, 7261568.448322394862771 ], [ 530440.0, 7261576.241780877113342 ], [ 530430.000000000116415, 7261583.211912859231234 ], [ 530420.0, 7261589.911959591321647 ], [ 530410.0, 7261596.317754898220301 ], [ 530400.0, 7261602.118501110002398 ], [ 530390.0, 7261607.346366802230477 ], [ 530380.0, 7261612.118501109071076 ], [ 530370.0, 7261616.318647109903395 ], [ 530360.0, 7261619.92313376814127 ], [ 530350.0, 7261623.299061057157815 ], [ 530340.0, 7261626.688872555270791 ], [ 530330.0, 7261629.989718034863472 ], [ 530320.0, 7261633.233369001187384 ], [ 530310.0, 7261636.329821285791695 ], [ 530300.0, 7261638.895414074882865 ], [ 530290.0, 7261641.092519538477063 ], [ 530280.0, 7261643.583030516281724 ], [ 530270.0, 7261646.318647109903395 ], [ 530260.0, 7261648.458604361861944 ], [ 530250.0, 7261649.552908321842551 ], [ 530240.0, 7261649.912851802073419 ], [ 530230.0, 7261649.9888258241117 ], [ 530220.000892210635357, 7261649.999107790179551 ], [ 530210.012066387105733, 7261650.0 ], [ 530200.099214585497975, 7261650.0 ], [ 530190.546306264819577, 7261650.0 ], [ 530182.08680969348643, 7261650.0 ], [ 530175.756988407694735, 7261650.0 ] ] } }
]
}
