{
"type": "FeatureCollection",
"name": "crests_2024_09_2024-09-20",
"crs": { "type": "name", "properties": { "name": "urn:ogc:def:crs:EPSG::32733" } },
"features": [
{ "type": "Feature", "properties": { "id": 0, "reference_id": 7, "dune_id": 7, "dune_name": "Inverted Y Dune", "acquisition_date": "2024-09-20", "length_m": 120.46922716137884 }, "geometry": { "type": "LineString", "coordinates": [ [ 530344.243011592305265, 7261630.447091680020094 ], [ 530337.91319030651357, 7261631.540503429248929 ], [ 530329.453693735180423, 7261633.670178714208305 ], [ 530319.900785414502025, 7261636.330713496543467 ], [ 530309.987933612894267, 7261638.470670748502016 ], [ 530299.999107789364643, 7261639.64005651883781 ], [ 530290.0, 7261640.35994348116219 ], [ 530280.0, 7261641.529329252429307 ], [ 530270.000892210751772, 7261643.669286504387856 ], [ 530260.012066387105733, 7261646.329821286723018 ], [ 530250.099214585614391, 7261648.459496572613716 ], [ 530240.546306264703162, 7261649.552908321842551 ], [ 530232.08680969348643, 7261649.912851802073419 ], [ 530225.756988407694735, 7261649.9888258241117 ] ] } },
{ "type": "Feature", "properties": { "id": 1, "reference_id": 7, "dune_id": 7, "dune_name": "Inverted Y Dune", "acquisition_date": "2024-09-20", "length_m": 287.70259051690294 }, "geometry": { "type": "LineString", "coordinates": [ [ 530385.756988407694735, 7261608.361174196004868 ], [ 530392.08680969348643, 7261605.794689198024571 ], [ 530400.546306264819577, 7261601.670517219230533 ], [ 530410.099214585614391, 7261596.230606699362397 ], [ 530420.012066387222148, 7261589.900785414502025 ], [ 530430.000892210751772, 7261583.211020648479462 ], [ 530440.0, 7261576.241780877113342 ], [ 530450.0, 7261568.448322394862771 ], [ 530460.0, 7261559.552016111090779 ], [ 530469.999107789364643, 7261549.912851801142097 ], [ 530479.988825823529623, 7261539.9888258241117 ], [ 530489.912851801607758, 7261529.999107789248228 ], [ 530499.552016110159457, 7261520.0 ], [ 530508.448322394862771, 7261510.0 ], [ 530516.242673087399453, 7261500.0 ], [ 530523.222194824367762, 7261490.0 ], [ 530529.988825823529623, 7261480.0 ], [ 530536.689764766488224, 7261470.000000000931323 ], [ 530543.31023523339536, 7261460.0 ], [ 530550.01028196583502, 7261450.000892210751772 ], [ 530556.765738788526505, 7261440.012066387571394 ], [ 530563.658112327102572, 7261430.099214585497975 ], [ 530571.005371340434067, 7261420.546306264586747 ], [ 530578.361174196470529, 7261412.086809693835676 ], [ 530584.330159790813923, 7261405.756988408043981 ] ] } },
{ "type": "Feature", "properties": { "id": 2, "reference_id": 5, "dune_id": 5, "dune_name": "The Star Dune", "acquisition_date": "2024-09-20", "length_m": 658.21722494149833 }, "geometry": { "type": "LineString", "coordinates": [ [ 533657.294247423415072, 7262041.078100949525833 ], [ 533659.803736446541734, 7262036.078100949525833 ], [ 533663.435059088165872, 7262028.683442020788789 ], [ 533668.105044730589725, 7262019.677239574491978 ], [ 533673.714645024156198, 7262009.944359513930976 ], [ 533680.005587088293396, 7261999.993520701304078 ], [ 533686.330267391167581, 7261989.999553894624114 ], [ 533692.130567496176809, 7261980.0 ], [ 533697.433515001204796, 7261970.0 ], [ 533702.565592788276263, 7261960.0 ], [ 533707.859150538104586, 7261950.0 ], [ 533713.593312481534667, 7261940.0 ], [ 533719.629774553468451, 7261930.0 ], [ 533725.159543303539976, 7261920.0 ], [ 533729.628882342833094, 7261910.0 ], [ 533733.583030515816063, 7261900.0 ], [ 533737.783176516182721, 7261890.0 ], [ 533742.204757096711546, 7261880.0 ], [ 533746.329821285791695, 7261870.0 ], [ 533749.924918188713491, 7261860.0 ], [ 533753.311127444147132, 7261850.0 ], [ 533756.788087141467258, 7261840.000000000931323 ], [ 533760.535132088349201, 7261830.0 ], [ 533765.309004517854191, 7261820.0 ], [ 533771.999661495094188, 7261810.0 ], [ 533780.535132088232785, 7261800.000892210751772 ], [ 533790.098322374979034, 7261790.0111741758883 ], [ 533800.012066387105733, 7261780.088040409609675 ], [ 533810.000892210635357, 7261770.459158066660166 ], [ 533820.0, 7261761.638825803995132 ], [ 533830.0, 7261754.205310802906752 ], [ 533840.0, 7261748.328590570017695 ], [ 533850.0, 7261743.758219124749303 ], [ 533860.0, 7261740.011174176819623 ], [ 533870.0, 7261736.33071349747479 ], [ 533880.0, 7261732.13056749664247 ], [ 533890.0, 7261727.433515001088381 ], [ 533900.0, 7261722.566484998911619 ], [ 533910.0, 7261717.870324714109302 ], [ 533920.0, 7261713.680460680276155 ], [ 533930.0, 7261710.076866233721375 ], [ 533940.0, 7261706.700938943773508 ], [ 533950.0, 7261703.311127444729209 ], [ 533960.0, 7261700.010281966999173 ], [ 533970.0, 7261696.766630999743938 ], [ 533980.0, 7261693.670178714208305 ], [ 533990.0, 7261691.10458592697978 ], [ 534000.0, 7261688.907480461522937 ], [ 534010.0, 7261686.416969483718276 ], [ 534020.0, 7261683.681352891027927 ], [ 534030.0, 7261681.540503429248929 ], [ 534040.0, 7261680.435917503200471 ], [ 534050.0, 7261680.0 ], [ 534060.0, 7261679.564082497730851 ], [ 534070.0, 7261678.460388781502843 ], [ 534080.0, 7261676.329821285791695 ], [ 534089.999107789364643, 7261673.670178714208305 ], [ 534099.987933612894267, 7261671.540503429248929 ], [ 534109.900785414502025, 7261670.447091679088771 ], [ 534119.453693735296838, 7261670.087148198857903 ], [ 534127.91319030651357, 7261670.011174176819623 ], [ 534134.243011592305265, 7261670.000892210751772 ] ] } },
{ "type": "Feature", "properties": { "id": 3, "reference_id": 5, "dune_id": 5, "dune_name": "The Star Dune", "acquisition_date": "2024-09-20", "length_m": 126.67641309059609 }, "geometry": { "type": "LineString", "coordinates": [ [ 534284.243011592305265, 7261595.309004518203437 ], [ 534277.91319030651357, 7261600.535132088698447 ], [ 534269.453693735180423, 7261606.788087141700089 ], [ 534259.900785414385609, 7261613.311127444729209 ], [ 534249.987933612894267, 7261619.924918189644814 ], [ 534239.999107789364643, 7261626.329821285791695 ], [ 534230.0, 7261632.204757097177207 ], [ 534220.000892210751772, 7261637.782284305430949 ], [ 534210.012066387105733, 7261643.571856340393424 ], [ 534200.099214585614391, 7261649.540841934271157 ], [ 534190.546306264819577, 7261654.701277447864413 ], [ 534182.08680969348643, 7261658.001230716705322 ], [ 534175.756988407694735, 7261659.464867912232876 ] ] } },
{ "type": "Feature", "properties": { "id": 4, "reference_id": 5, "dune_id": 5, "dune_name": "The Star Dune", "acquisition_date": "2024-09-20", "length_m": 262.92917898948474 }, "geometry": { "type": "LineString", "coordinates": [ [ 534334.789317857124843, 7261305.756988408043981 ], [ 534330.0, 7261312.086809693835676 ], [ 534325.210682142991573, 7261320.546306264586747 ], [ 534321.987595107872039, 7261330.099214585497975 ], [ 534320.534239877597429, 7261340.012066386640072 ], [ 534320.098322374862619, 7261350.000892210751772 ], [ 534320.012958597857505, 7261360.0 ], [ 534320.012066387105733, 7261370.0 ], [ 534320.087148198392242, 7261380.0 ], [ 534320.447091679205187, 7261390.0 ], [ 534321.540503428666852, 7261400.0 ], [ 534323.670178714208305, 7261410.0 ], [ 534326.329821285791695, 7261420.0 ], [ 534328.459496571333148, 7261430.0 ], [ 534329.552908320794813, 7261440.0 ], [ 534329.912851801607758, 7261450.0 ], [ 534329.988825823529623, 7261460.0 ], [ 534329.999107789364643, 7261470.000000000931323 ], [ 534330.0, 7261480.0 ], [ 534330.0, 7261490.0 ], [ 534330.0, 7261500.0 ], [ 534330.0, 7261510.0 ], [ 534330.0, 7261519.999107789248228 ], [ 534330.0, 7261529.987933613359928 ], [ 534330.0, 7261539.900785414502025 ], [ 534330.0, 7261549.453693735413253 ], [ 534330.0, 7261557.913190307095647 ], [ 534330.0, 7261564.243011593818665 ] ] } },
{ "type": "Feature", "properties": { "id": 5, "reference_id": 1, "dune_id": 1, "dune_name": "Big Mommy Dune", "acquisition_date": "2024-09-20", "length_m": 109.35523700252912 }, "geometry": { "type": "LineString", "coordinates": [ [ 529020.0, 7261565.756988408043981 ], [ 529020.0, 7261572.086809693835676 ], [ 529020.0, 7261580.546306265518069 ], [ 529020.0, 7261590.099214585497975 ], [ 529020.0, 7261600.012066387571394 ], [ 529020.0, 7261610.000892210751772 ], [ 529020.000892210751772, 7261620.0 ], [ 529020.011174176470377, 7261629.999107789248228 ], [ 529020.087148198508658, 7261639.987933613359928 ], [ 529020.447091679205187, 7261649.900785414502025 ], [ 529021.540503428783268, 7261659.453693736344576 ], [ 529023.670178714208305, 7261667.913190306164324 ], [ 529026.329821285791695, 7261674.243011591956019 ] ] } },
{ "type": "Feature", "properties": { "id": 6, "reference_id": 1, "dune_id": 1, "dune_name": "Big Mommy Dune", "acquisition_date": "2024-09-20", "length_m": 404.16986964297161 }, "geometry": { "type": "LineString", "coordinates": [ [ 529040.447091679205187, 7261494.243011591956019 ], [ 529041.541395639418624, 7261487.913190307095647 ], [ 529043.681352890678681, 7261479.453693735413253 ], [ 529046.417861694935709, 7261469.900785414502025 ], [ 529048.917762426892295, 7261459.987933613359928 ], [ 529051.180559947970323, 7261449.999107789248228 ], [ 529054.031014405656606, 7261440.0 ], [ 529057.870324714574963, 7261430.0 ], [ 529062.216823483933695, 7261420.0 ], [ 529066.340995462262072, 7261410.0 ], [ 529070.0, 7261400.0 ], [ 529073.659896748373285, 7261390.0 ], [ 529077.79345848178491, 7261380.0 ], [ 529082.206541518098675, 7261370.0 ], [ 529086.340103251626715, 7261360.0 ], [ 529090.000892210751772, 7261350.0 ], [ 529093.670178714208305, 7261340.0 ], [ 529097.869432503823191, 7261330.0 ], [ 529102.566484998911619, 7261320.0 ], [ 529107.433515001088381, 7261310.000000000931323 ], [ 529112.130567496176809, 7261300.0 ], [ 529116.329821285791695, 7261290.0 ], [ 529120.000000000116415, 7261280.0 ], [ 529123.670178714208305, 7261270.0 ], [ 529127.869432503939606, 7261260.0 ], [ 529132.566484998911619, 7261250.0 ], [ 529137.433515001088381, 7261240.0 ], [ 529142.129675285425037, 7261230.0 ], [ 529146.319539319956675, 7261220.0 ], [ 529149.923133767442778, 7261210.000000000931323 ], [ 529153.299061057041399, 7261200.0 ], [ 529156.68976476660464, 7261190.0 ], [ 529160.0, 7261180.0 ], [ 529163.309343022760004, 7261170.0 ], [ 529166.689764766488224, 7261160.000892210751772 ], [ 529169.988825823529623, 7261150.012066387571394 ], [ 529173.222194824367762, 7261140.099214585497975 ], [ 529176.242673087399453, 7261130.546306265518069 ], [ 529178.448322394862771, 7261122.086809694766998 ], [ 529179.552016110159457, 7261115.756988408043981 ] ] } },
{ "type": "Feature", "properties": { "id": 7, "reference_id": 1, "dune_id": 1, "dune_name": "Big Mommy Dune", "acquisition_date": "2024-09-20", "length_m": 407.36581745692945 }, "geometry": { "type": "LineString", "coordinates": [ [ 528835.756988407694735, 7262238.361174196004868 ], [ 528842.086809693370014, 7262235.794689197093248 ], [ 528850.546306264819577, 7262231.671409429982305 ], [ 528860.099214585614391, 7262226.241780877113342 ], [ 528870.012066387105733, 7262219.987933613359928 ], [ 528880.000892210751772, 7262213.658112327568233 ], [ 528890.0, 7262207.782284306362271 ], [ 528900.0, 7262202.118501110002398 ], [ 528910.0, 7262195.881837395951152 ], [ 528919.999107789364643, 7262188.37234837282449 ], [ 528929.988825823529623, 7262179.541734144091606 ], [ 528939.911959590972401, 7262169.911959591321647 ], [ 528949.541734144324437, 7262159.9888258241117 ], [ 528958.371456162189133, 7262149.999107789248228 ], [ 528965.871555430116132, 7262140.0 ], [ 528972.041634876397438, 7262130.0 ], [ 528977.411166648264043, 7262120.0 ], [ 528982.478444589767605, 7262110.0 ], [ 528987.42234082473442, 7262100.0 ], [ 528992.129675285541452, 7262090.0 ], [ 528996.32982128590811, 7262080.0 ], [ 529000.0, 7262070.0 ], [ 529003.670178714208305, 7262060.0 ], [ 529007.870324714574963, 7262050.0 ], [ 529012.576766964746639, 7262040.0 ], [ 529017.510381233878434, 7262030.0 ], [ 529022.50168515346013, 7262020.0 ], [ 529027.510381233878434, 7262010.0 ], [ 529032.576766964746639, 7262000.0 ], [ 529037.871216925210319, 7261990.0 ], [ 529043.68046067992691, 7261980.0 ], [ 529050.075974021921866, 7261970.000892210751772 ], [ 529056.688872555852868, 7261960.012066386640072 ], [ 529063.211912858532742, 7261950.099214585497975 ], [ 529069.464867911767215, 7261940.546306264586747 ], [ 529074.690995482262224, 7261932.086809693835676 ], [ 529078.000338505022228, 7261925.756988408043981 ] ] } },
{ "type": "Feature", "properties": { "id": 8, "reference_id": 3, "dune_id": 3, "dune_name": "Big Mommy Dune", "acquisition_date": "2024-09-20", "length_m": 1247.1501361943699 }, "geometry": { "type": "LineString", "coordinates": [ [ 530244.243011592421681, 7260570.011174176819623 ], [ 530237.91319030651357, 7260570.087148198857903 ], [ 530229.453693735180423, 7260570.447091680020094 ], [ 530219.900785414385609, 7260571.540503429248929 ], [ 530209.987933612894267, 7260573.671070925891399 ], [ 530199.999107789248228, 7260576.340995462611318 ], [ 530190.0, 7260578.546644769608974 ], [ 530180.0, 7260580.0 ], [ 530170.000000000116415, 7260581.454247441142797 ], [ 530160.0, 7260583.670178714208305 ], [ 530150.0, 7260586.416077273897827 ], [ 530140.0, 7260588.906588250771165 ], [ 530130.0, 7260591.093411749228835 ], [ 530120.0, 7260593.583030516281724 ], [ 530110.0, 7260596.319539319723845 ], [ 530100.0, 7260598.469778537750244 ], [ 530090.0, 7260599.640056519769132 ], [ 530080.0, 7260600.35994348116219 ], [ 530070.0, 7260601.529329252429307 ], [ 530060.0, 7260603.669286504387856 ], [ 530050.0, 7260606.329821286723018 ], [ 530040.0, 7260608.459496571682394 ], [ 530030.0, 7260609.552908320911229 ], [ 530020.0, 7260609.912851802073419 ], [ 530010.0, 7260609.9888258241117 ], [ 530000.0, 7260609.999107789248228 ], [ 529990.0, 7260609.999107789248228 ], [ 529980.0, 7260609.9888258241117 ], [ 529970.0, 7260609.912851802073419 ], [ 529960.0, 7260609.552908320911229 ], [ 529950.0, 7260608.460388782434165 ], [ 529940.0, 7260606.340995462611318 ], [ 529930.0, 7260603.757326912134886 ], [ 529920.0, 7260601.9875951083377 ], [ 529910.0, 7260601.9875951083377 ], [ 529900.0, 7260603.756434701383114 ], [ 529890.0, 7260606.329821286723018 ], [ 529880.0, 7260608.373240584507585 ], [ 529870.0, 7260609.106708852574229 ], [ 529860.0, 7260608.383522549644113 ], [ 529850.0, 7260606.405795307829976 ], [ 529840.0, 7260604.116378182545304 ], [ 529830.0, 7260603.081006857566535 ], [ 529820.0, 7260604.117270393297076 ], [ 529810.0, 7260606.416969485580921 ], [ 529800.0, 7260608.470670748502016 ], [ 529790.0, 7260609.553800531663001 ], [ 529780.0, 7260609.912851802073419 ], [ 529770.0, 7260609.989718034863472 ], [ 529760.0, 7260610.010281966067851 ], [ 529750.0, 7260610.087148198857903 ], [ 529740.0, 7260610.447091680020094 ], [ 529730.0, 7260611.540503429248929 ], [ 529720.0, 7260613.670178715139627 ], [ 529710.0, 7260616.329821286723018 ], [ 529700.0, 7260618.459496571682394 ], [ 529690.0, 7260619.552908320911229 ], [ 529680.0, 7260619.913744012825191 ], [ 529670.0, 7260620.0 ], [ 529660.0, 7260620.086255988106132 ], [ 529650.0, 7260620.447091679088771 ], [ 529640.0, 7260621.540503429248929 ], [ 529630.0, 7260623.670178714208305 ], [ 529620.0, 7260626.329821285791695 ], [ 529610.0, 7260628.460388781502843 ], [ 529600.0, 7260629.564082497730851 ], [ 529590.0, 7260630.0 ], [ 529580.0, 7260630.435917502269149 ], [ 529570.0, 7260631.540503429248929 ], [ 529560.0, 7260633.681352891027927 ], [ 529550.0, 7260636.416969483718276 ], [ 529540.0, 7260638.907480461522937 ], [ 529530.0, 7260641.10458592697978 ], [ 529520.0, 7260643.670178715139627 ], [ 529510.0, 7260646.765738788992167 ], [ 529500.000000000116415, 7260650.0 ], [ 529490.0, 7260653.234261211939156 ], [ 529480.0, 7260656.330713496543467 ], [ 529470.0, 7260658.906588250771165 ], [ 529460.0, 7260661.179667737334967 ], [ 529450.0, 7260664.030122195370495 ], [ 529440.000000000116415, 7260667.860042748972774 ], [ 529430.0, 7260672.140849461778998 ], [ 529420.0, 7260675.981051981449127 ], [ 529410.0, 7260678.907480461522937 ], [ 529400.0, 7260681.541395640000701 ], [ 529390.0, 7260685.221856319345534 ], [ 529380.0, 7260690.535132088698447 ], [ 529370.000892210635357, 7260696.87523533962667 ], [ 529360.011174176353961, 7260703.769393300637603 ], [ 529350.087148198508658, 7260711.552569815889001 ], [ 529340.447983889840543, 7260720.447983889840543 ], [ 529331.551677605137229, 7260730.087148198857903 ], [ 529323.757326912600547, 7260740.011174176819623 ], [ 529316.777805175632238, 7260750.000892210751772 ], [ 529310.011174176470377, 7260760.0 ], [ 529303.310235233511776, 7260770.0 ], [ 529296.690656977239996, 7260780.000000000931323 ], [ 529290.0, 7260790.0 ], [ 529283.310235233511776, 7260800.0 ], [ 529276.700938943075016, 7260810.0 ], [ 529270.075974022038281, 7260820.0 ], [ 529263.670178714208305, 7260830.0 ], [ 529257.794350692653097, 7260840.0 ], [ 529252.205649307463318, 7260850.0 ], [ 529246.32982128590811, 7260860.0 ], [ 529239.924025977961719, 7260870.0 ], [ 529233.299953267676756, 7260880.0 ], [ 529226.700046732323244, 7260890.0 ], [ 529220.075974022038281, 7260900.0 ], [ 529213.670178714208305, 7260910.0 ], [ 529207.794350692536682, 7260920.0 ], [ 529202.205649307463318, 7260929.998215578496456 ], [ 529196.329375180415809, 7260939.976759435608983 ], [ 529189.91933110053651, 7260949.813637216575444 ], [ 529183.267553344951011, 7260959.006602056324482 ], [ 529176.564541301922873, 7260966.372686877846718 ], [ 529169.764880373957567, 7260970.572832878679037 ], [ 529163.473915160750039, 7260971.583369020372629 ], [ 529158.83475085219834, 7260970.99419716373086 ] ] } },
{ "type": "Feature", "properties": { "id": 9, "reference_id": 2, "dune_id": 2, "dune_name": "Big Mommy Dune", "acquisition_date": "2024-09-20", "length_m": 248.32609335811509 }, "geometry": { "type": "LineString", "coordinates": [ [ 528445.756988407694735, 7260661.999661495909095 ], [ 528452.08680969348643, 7260665.309004518203437 ], [ 528460.546306264819577, 7260670.535132087767124 ], [ 528470.099214585614391, 7260676.788087141700089 ], [ 528480.012066387222148, 7260683.311127444729209 ], [ 528490.000892210751772, 7260689.924918189644814 ], [ 528500.0, 7260696.33071349747479 ], [ 528510.0, 7260702.216823484748602 ], [ 528520.0, 7260707.880606681108475 ], [ 528530.0, 7260714.106988428160548 ], [ 528540.0, 7260721.540503429248929 ], [ 528550.0, 7260730.010281966999173 ], [ 528560.0, 7260738.536362804472446 ], [ 528570.0, 7260746.252955053001642 ], [ 528580.0, 7260753.212805069983006 ], [ 528590.0, 7260759.911959590390325 ], [ 528600.0, 7260766.318647108972073 ], [ 528609.999107789364643, 7260772.128783075138927 ], [ 528619.987933612894267, 7260777.422340825200081 ], [ 528629.900785414502025, 7260782.478444591164589 ], [ 528639.453693735180423, 7260787.411166649311781 ], [ 528647.91319030651357, 7260792.041634876281023 ], [ 528654.243011592421681, 7260795.871555430814624 ] ] } },
{ "type": "Feature", "properties": { "id": 10, "reference_id": 2, "dune_id": 2, "dune_name": "Big Mommy Dune", "acquisition_date": "2024-09-20", "length_m": 494.85693253153295 }, "geometry": { "type": "LineString", "coordinates": [ [ 529151.078100949409418, 7260969.987933613359928 ], [ 529146.078100949409418, 7260969.900785414502025 ], [ 529138.683442020905204, 7260969.454585946165025 ], [ 529129.677239574841224, 7260967.925256693735719 ], [ 529119.944359513698146, 7260964.341333967633545 ], [ 529109.993520701071247, 7260958.448322394862771 ], [ 529099.999553894624114, 7260951.453355230391026 ], [ 529090.0, 7260945.209789931774139 ], [ 529080.0, 7260940.523065701127052 ], [ 529070.0, 7260936.788087141700089 ], [ 529060.0, 7260933.322301620617509 ], [ 529050.0, 7260930.012066386640072 ], [ 529040.0, 7260926.776912964880466 ], [ 529030.0, 7260923.746152736246586 ], [ 529020.0, 7260921.464529407210648 ], [ 529010.0, 7260920.000892210751772 ], [ 529000.0, 7260918.545752558857203 ], [ 528990.0, 7260916.329821285791695 ], [ 528980.0, 7260913.583922727033496 ], [ 528970.0, 7260911.093411749228835 ], [ 528960.0, 7260908.905696040019393 ], [ 528950.0, 7260906.405795308761299 ], [ 528940.0, 7260903.594204693101346 ], [ 528930.0, 7260901.094303959980607 ], [ 528920.0, 7260898.905696040019393 ], [ 528910.0, 7260896.405795307829976 ], [ 528900.0, 7260893.593312481418252 ], [ 528890.0, 7260891.083129784092307 ], [ 528880.0, 7260888.819440051913261 ], [ 528870.0, 7260885.969877805560827 ], [ 528860.0, 7260882.139957251958549 ], [ 528850.0, 7260877.860042748972774 ], [ 528840.0, 7260874.029229984618723 ], [ 528830.0, 7260871.169385772198439 ], [ 528820.0, 7260868.829722018912435 ], [ 528810.0, 7260865.959595840424299 ], [ 528800.0, 7260862.052809053100646 ], [ 528790.0, 7260857.41295106895268 ], [ 528780.0, 7260852.489618766121566 ], [ 528770.0, 7260847.509489023126662 ], [ 528760.0, 7260842.57676696497947 ], [ 528750.0, 7260837.870324715040624 ], [ 528740.0, 7260833.670178715139627 ], [ 528730.000892210751772, 7260830.000892210751772 ], [ 528720.012066387105733, 7260826.340995462611318 ], [ 528710.099214585497975, 7260822.217715694569051 ], [ 528700.546306264819577, 7260817.881498889997602 ], [ 528692.086809693602845, 7260814.118162604048848 ], [ 528685.756988407694735, 7260811.62765162717551 ] ] } },
{ "type": "Feature", "properties": { "id": 11, "reference_id": 6, "dune_id": 6, "dune_name": "The Star Dune", "acquisition_date": "2024-09-20", "length_m": 206.28971618855624 }, "geometry": { "type": "LineString", "coordinates": [ [ 533609.988825823529623, 7262635.756988408043981 ], [ 533609.912851801607758, 7262642.086809692904353 ], [ 533609.552908320911229, 7262650.546306265518069 ], [ 533608.459496571333148, 7262660.099214585497975 ], [ 533606.329821285791695, 7262670.012066386640072 ], [ 533603.670178714208305, 7262680.000892210751772 ], [ 533601.539611218031496, 7262690.0 ], [ 533600.43591750273481, 7262700.0 ], [ 533600.0, 7262710.0 ], [ 533599.56408249726519, 7262720.0 ], [ 533598.459496571216732, 7262730.0 ], [ 533596.318647109321319, 7262740.0 ], [ 533593.582138305064291, 7262750.0 ], [ 533591.082237573107705, 7262760.0 ], [ 533588.81854784139432, 7262770.0 ], [ 533585.958703628624789, 7262780.0 ], [ 533582.053701263619587, 7262789.999107789248228 ], [ 533577.424125246121548, 7262799.987933613359928 ], [ 533572.576766964746639, 7262809.900785414502025 ], [ 533567.957472912967205, 7262819.453693736344576 ], [ 533564.128444569883868, 7262827.913190307095647 ], [ 533561.628543837810867, 7262834.243011592887342 ] ] } },
{ "type": "Feature", "properties": { "id": 12, "reference_id": 6, "dune_id": 6, "dune_name": "The Star Dune", "acquisition_date": "2024-09-20", "length_m": 446.42891143336874 }, "geometry": { "type": "LineString", "coordinates": [ [ 533660.0, 7262115.756988408043981 ], [ 533660.0, 7262122.086809693835676 ], [ 533660.0, 7262130.546306265518069 ], [ 533660.0, 7262140.099214585497975 ], [ 533660.0, 7262150.012066386640072 ], [ 533660.0, 7262160.000892210751772 ], [ 533660.000892210751772, 7262170.0 ], [ 533660.011174176470377, 7262180.0 ], [ 533660.087148198392242, 7262190.0 ], [ 533660.447091679088771, 7262200.0 ], [ 533661.540503428783268, 7262210.0 ], [ 533663.670178714208305, 7262220.0 ], [ 533666.329821285791695, 7262230.0 ], [ 533668.460388781968504, 7262240.0 ], [ 533669.56408249726519, 7262250.0 ], [ 533670.0, 7262260.0 ], [ 533670.43591750273481, 7262270.0 ], [ 533671.539611218031496, 7262280.0 ], [ 533673.670178714208305, 7262290.0 ], [ 533676.329821285791695, 7262300.0 ], [ 533678.458604360697791, 7262310.0 ], [ 533679.541734144324437, 7262320.0 ], [ 533679.825703603215516, 7262330.0 ], [ 533679.541734144324437, 7262340.000000000931323 ], [ 533678.458604360697791, 7262350.0 ], [ 533676.328929075156339, 7262360.0 ], [ 533673.659004537737928, 7262370.0 ], [ 533671.453355230391026, 7262380.0 ], [ 533670.0, 7262390.0 ], [ 533668.545752559090033, 7262400.0 ], [ 533666.329821285791695, 7262410.0 ], [ 533663.583922726451419, 7262420.0 ], [ 533661.092519538942724, 7262430.0 ], [ 533658.895414073951542, 7262440.0 ], [ 533656.329821285791695, 7262450.0 ], [ 533653.234261211473495, 7262460.0 ], [ 533650.0, 7262470.0 ], [ 533646.765738788526505, 7262480.0 ], [ 533643.670178714208305, 7262490.0 ], [ 533641.104585926048458, 7262500.0 ], [ 533638.907480461173691, 7262509.999107789248228 ], [ 533636.416969484300353, 7262519.987933613359928 ], [ 533633.681352890678681, 7262529.900785414502025 ], [ 533631.541395639418624, 7262539.453693735413253 ], [ 533630.447091679205187, 7262547.913190307095647 ], [ 533630.087148198508658, 7262554.243011591956019 ] ] } },
{ "type": "Feature", "properties": { "id": 13, "reference_id": 8, "dune_id": 8, "dune_name": "Inverted Y Dune", "acquisition_date": "2024-09-20", "length_m": 448.94949302104118 }, "geometry": { "type": "LineString", "coordinates": [ [ 530504.243011592421681, 7261203.670178713276982 ], [ 530497.91319030651357, 7261206.329821285791695 ], [ 530489.453693735296838, 7261208.459496571682394 ], [ 530479.900785414385609, 7261209.552908320911229 ], [ 530469.987933612894267, 7261209.911959591321647 ], [ 530459.999107789364643, 7261209.977651647292078 ], [ 530450.0, 7261209.911959591321647 ], [ 530440.0, 7261209.552908320911229 ], [ 530430.000000000116415, 7261208.459496571682394 ], [ 530420.0, 7261206.329821285791695 ], [ 530410.0, 7261203.670178713276982 ], [ 530400.0, 7261201.540503428317606 ], [ 530390.0, 7261200.447091678157449 ], [ 530380.0, 7261200.087148198857903 ], [ 530370.0, 7261200.012066386640072 ], [ 530360.0, 7261200.012066386640072 ], [ 530350.0, 7261200.087148198857903 ], [ 530340.0, 7261200.447091678157449 ], [ 530330.0, 7261201.541395639069378 ], [ 530320.0, 7261203.681352891027927 ], [ 530310.0, 7261206.417861694470048 ], [ 530300.0, 7261208.917762426659465 ], [ 530290.0, 7261211.181452158838511 ], [ 530280.0, 7261214.04218858294189 ], [ 530270.0, 7261217.958365123718977 ], [ 530260.0, 7261222.675089339725673 ], [ 530250.0, 7261227.969539299607277 ], [ 530240.0, 7261234.129336780868471 ], [ 530230.0, 7261241.628543837927282 ], [ 530220.0, 7261250.458265855908394 ], [ 530210.000892210751772, 7261260.088040409609675 ], [ 530200.011174176586792, 7261270.011174176819623 ], [ 530190.088040409144014, 7261280.000892210751772 ], [ 530180.45915806631092, 7261290.0 ], [ 530171.638825803645886, 7261300.0 ], [ 530164.20531080244109, 7261310.000000000931323 ], [ 530158.329482780885883, 7261320.0 ], [ 530153.769393299939111, 7261329.999107789248228 ], [ 530150.099214585614391, 7261339.987933613359928 ], [ 530146.78897935221903, 7261349.900785414502025 ], [ 530143.758219123352319, 7261359.453693735413253 ], [ 530141.551677605137229, 7261367.913190307095647 ], [ 530140.447983889840543, 7261374.243011592887342 ] ] } },
{ "type": "Feature", "properties": { "id": 14, "reference_id": 9, "dune_id": 9, "dune_name": "Inverted Y Dune", "acquisition_date": "2024-09-20", "length_m": 204.55438148792047 }, "geometry": { "type": "LineString", "coordinates": [ [ 529661.62765162717551, 7262194.243011591956019 ], [ 529664.118162604048848, 7262187.913190307095647 ], [ 529667.881498891045339, 7262179.453693735413253 ], [ 529672.216823483933695, 7262169.900785414502025 ], [ 529676.330713496543467, 7262159.987933613359928 ], [ 529679.924918188829906, 7262149.999107789248228 ], [ 529683.310235233511776, 7262140.0 ], [ 529686.776912964996882, 7262130.0 ], [ 529690.447091679205187, 7262120.0 ], [ 529694.849846451543272, 7262110.0 ], [ 529700.359943480696529, 7262100.0 ], [ 529706.31953932007309, 7262090.0 ], [ 529711.693757782806642, 7262080.0 ], [ 529715.893903783056885, 7262070.0 ], [ 529718.895414073951542, 7262060.0 ], [ 529721.528437041677535, 7262050.000892210751772 ], [ 529725.122641733847558, 7262040.012066386640072 ], [ 529729.988825823529623, 7262030.099214585497975 ], [ 529734.788425646489486, 7262020.546306265518069 ], [ 529738.012404892127961, 7262012.086809693835676 ], [ 529739.465760122402571, 7262005.756988408043981 ] ] } },
{ "type": "Feature", "properties": { "id": 15, "reference_id": 9, "dune_id": 9, "dune_name": "Inverted Y Dune", "acquisition_date": "2024-09-20", "length_m": 82.969449204013998 }, "geometry": { "type": "LineString", "coordinates": [ [ 529788.448322394862771, 7261885.756988408043981 ], [ 529786.242673087399453, 7261892.086809693835676 ], [ 529783.222194824367762, 7261900.546306265518069 ], [ 529779.988825823529623, 7261910.099214585497975 ], [ 529776.689764766488224, 7261920.011174176819623 ], [ 529773.310235233511776, 7261929.9888258241117 ], [ 529770.011174176470377, 7261939.900785414502025 ], [ 529766.777805175632238, 7261949.453693736344576 ], [ 529763.757326912600547, 7261957.913190307095647 ], [ 529761.551677605137229, 7261964.243011592887342 ] ] } },
{ "type": "Feature", "properties": { "id": 16, "reference_id": 9, "dune_id": 9, "dune_name": "Inverted Y Dune", "acquisition_date": "2024-09-20", "length_m": 374.6259963826293 }, "geometry": { "type": "LineString", "coordinates": [ [ 529802.075635517016053, 7261854.243011591956019 ], [ 529805.669840209302492, 7261847.913190307095647 ], [ 529811.639718014281243, 7261839.453693735413253 ], [ 529819.00580283603631, 7261829.900785414502025 ], [ 529826.429035871406086, 7261819.987933613359928 ], [ 529833.682245101314038, 7261809.999107789248228 ], [ 529841.541395639418624, 7261800.0 ], [ 529850.447091679088771, 7261790.0 ], [ 529860.087148198392242, 7261780.0 ], [ 529870.011174176470377, 7261770.0 ], [ 529880.000892210751772, 7261760.000892210751772 ], [ 529890.0, 7261750.011174176819623 ], [ 529900.0, 7261740.087148198857903 ], [ 529910.0, 7261730.447983890771866 ], [ 529920.0, 7261721.551677605137229 ], [ 529930.0, 7261713.757326913066208 ], [ 529940.0, 7261706.777805175632238 ], [ 529950.0, 7261700.011174177750945 ], [ 529960.0, 7261693.310235233977437 ], [ 529970.0, 7261686.690656976774335 ], [ 529980.0, 7261680.000892210751772 ], [ 529990.0, 7261673.320517199113965 ], [ 530000.0, 7261666.776912964880466 ], [ 530010.0, 7261660.435917503200471 ], [ 530020.0, 7261654.763590464368463 ], [ 530030.0, 7261649.924025977961719 ], [ 530039.999107789364643, 7261644.866184090264142 ], [ 530049.987933612894267, 7261638.470670748502016 ], [ 530059.900785414502025, 7261631.105478137731552 ], [ 530069.453693735180423, 7261624.118162604048848 ], [ 530077.91319030651357, 7261618.404564592055976 ], [ 530084.243011592421681, 7261614.21559276804328 ] ] } },
{ "type": "Feature", "properties": { "id": 17, "reference_id": 4, "dune_id": 4, "dune_name": "The Star Dune", "acquisition_date": "2024-09-20", "length_m": 597.69390449661159 }, "geometry": { "type": "LineString", "coordinates": [ [ 533005.756988407694735, 7261861.541395640000701 ], [ 533012.08680969348643, 7261863.681352891027927 ], [ 533020.546306264819577, 7261866.416969484649599 ], [ 533030.099214585614391, 7261868.906588250771165 ], [ 533040.012066387105733, 7261871.094303959980607 ], [ 533050.000892210751772, 7261873.594204692170024 ], [ 533060.0, 7261876.405795307829976 ], [ 533070.0, 7261878.905696040019393 ], [ 533080.0, 7261881.094303959980607 ], [ 533090.0, 7261883.594204692170024 ], [ 533100.0, 7261886.405795307829976 ], [ 533110.0, 7261888.906588250771165 ], [ 533120.0, 7261891.10458592697978 ], [ 533130.0, 7261893.670178715139627 ], [ 533140.0, 7261896.765738788992167 ], [ 533150.0, 7261900.0 ], [ 533160.0, 7261903.234261211939156 ], [ 533170.0, 7261906.329821286723018 ], [ 533180.0, 7261908.895414074882865 ], [ 533190.0, 7261911.093411750160158 ], [ 533200.0, 7261913.594204692170024 ], [ 533210.0, 7261916.405795307829976 ], [ 533220.0, 7261918.906588250771165 ], [ 533230.0, 7261921.10458592697978 ], [ 533240.0, 7261923.670178715139627 ], [ 533250.0, 7261926.765738788992167 ], [ 533260.0, 7261929.999107789248228 ], [ 533270.0, 7261933.223979245871305 ], [ 533280.0, 7261936.253847263753414 ], [ 533290.0, 7261938.535470593720675 ], [ 533300.0, 7261940.0 ], [ 533310.0, 7261941.464529407210648 ], [ 533320.0, 7261943.746152736246586 ], [ 533330.0, 7261946.776912964880466 ], [ 533340.0, 7261950.0111741758883 ], [ 533350.0, 7261953.310235233977437 ], [ 533360.0, 7261956.690656977705657 ], [ 533370.0, 7261960.0 ], [ 533380.000000000116415, 7261963.309343023225665 ], [ 533390.0, 7261966.690656977705657 ], [ 533400.000000000116415, 7261970.0 ], [ 533410.0, 7261973.310235233977437 ], [ 533420.0, 7261976.700938943773508 ], [ 533430.0, 7261980.075974022969604 ], [ 533440.0, 7261983.669286504387856 ], [ 533450.0, 7261987.784068726934493 ], [ 533460.0, 7261992.13056749664247 ], [ 533470.0, 7261995.980159770697355 ], [ 533480.0, 7261998.907480461522937 ], [ 533490.0, 7262001.540503429248929 ], [ 533500.0, 7262005.210682142525911 ], [ 533510.0, 7262010.447091679088771 ], [ 533520.0, 7262016.416077273897827 ], [ 533529.999107789248228, 7262022.129675285890698 ], [ 533539.987933612894267, 7262027.336084837093949 ], [ 533549.900785414502025, 7262032.031352911144495 ], [ 533559.453693735296838, 7262035.870663220062852 ], [ 533567.91319030651357, 7262038.371456163004041 ], [ 533574.243011592421681, 7262039.541734144091606 ] ] } }
]
}
