{
"type": "FeatureCollection",
"name": "crests_2024_12_2024-12-04",
"crs": { "type": "name", "properties": { "name": "urn:ogc:def:crs:EPSG::32733" } },
"features": [
{ "type": "Feature", "properties": { "id": 0, "reference_id": 8, "dune_id": 8, "dune_name": "Inverted Y Dune", "acquisition_date": "2024-12-04", "length_m": 428.48822028967481 }, "geometry": { "type": "LineString", "coordinates": [ [ 530264.243011592421681, 7261221.638825803995132 ], [ 530257.913190306629986, 7261224.205310802906752 ], [ 530249.453693735180423, 7261228.329482780769467 ], [ 530239.900785414502025, 7261233.76939329970628 ], [ 530229.987933612777852, 7261240.099214585497975 ], [ 530220.0, 7261246.788979351520538 ], [ 530210.011174176470377, 7261253.75821912381798 ], [ 530200.087148198392242, 7261261.551677605137229 ], [ 530190.447983889840543, 7261270.447983890771866 ], [ 530181.552569815889001, 7261280.087148198857903 ], [ 530173.768501089187339, 7261290.0111741758883 ], [ 530166.864953374140896, 7261300.000892210751772 ], [ 530160.45915806631092, 7261310.000000000931323 ], [ 530154.861912838649005, 7261320.0 ], [ 530150.447983889840543, 7261330.0 ], [ 530146.777805175632238, 7261340.0 ], [ 530143.321409409982152, 7261350.0 ], [ 530140.011174176586792, 7261360.0 ], [ 530136.766630999278277, 7261370.0 ], [ 530133.670178714208305, 7261380.0 ], [ 530131.104585926048458, 7261390.0 ], [ 530128.907480461173691, 7261400.0 ], [ 530126.416969484183937, 7261410.0 ], [ 530123.680460680043325, 7261420.0 ], [ 530121.530221462948248, 7261430.0 ], [ 530120.359943480812944, 7261440.0 ], [ 530119.640056519303471, 7261450.0 ], [ 530118.470670747803524, 7261460.0 ], [ 530116.330713496543467, 7261470.000000000931323 ], [ 530113.670178714208305, 7261480.0 ], [ 530111.540503428666852, 7261490.0 ], [ 530110.447091679205187, 7261500.0 ], [ 530110.087148198392242, 7261510.0 ], [ 530110.01028196583502, 7261520.0 ], [ 530109.989718034281395, 7261530.0 ], [ 530109.912851801607758, 7261539.999553894624114 ], [ 530109.552908320911229, 7261549.993520701304078 ], [ 530108.459496571333148, 7261559.944359513930976 ], [ 530106.329821285791695, 7261569.6772395754233 ], [ 530103.670178714208305, 7261578.683442020788789 ], [ 530101.540503428783268, 7261586.078100949525833 ], [ 530100.447091679205187, 7261591.078100949525833 ] ] } },
{ "type": "Feature", "properties": { "id": 1, "reference_id": 8, "dune_id": 8, "dune_name": "Inverted Y Dune", "acquisition_date": "2024-12-04", "length_m": 144.8270126991726 }, "geometry": { "type": "LineString", "coordinates": [ [ 530534.243011592305265, 7261184.20441859215498 ], [ 530527.91319030651357, 7261188.317416394129395 ], [ 530519.453693735180423, 7261193.670178714208305 ], [ 530509.900785414385609, 7261199.552908319979906 ], [ 530499.987933612894267, 7261204.702169658616185 ], [ 530489.999107789364643, 7261208.001230716705322 ], [ 530480.0, 7261209.464867912232876 ], [ 530470.0, 7261209.901677625253797 ], [ 530460.0, 7261209.987933613359928 ], [ 530450.0, 7261209.999107790179551 ], [ 530440.000892210751772, 7261210.000000000931323 ], [ 530430.012066387222148, 7261210.000000000931323 ], [ 530420.099214585614391, 7261210.000000000931323 ], [ 530410.546306264819577, 7261210.000000000931323 ], [ 530402.08680969348643, 7261210.000000000931323 ], [ 530395.756988407694735, 7261210.000000000931323 ] ] } },
{ "type": "Feature", "properties": { "id": 2, "reference_id": 9, "dune_id": 9, "dune_name": "Inverted Y Dune", "acquisition_date": "2024-12-04", "length_m": 807.16118431478924 }, "geometry": { "type": "LineString", "coordinates": [ [ 530097.91319030651357, 7261598.833858641795814 ], [ 530094.243011592421681, 7261603.463633195497096 ], [ 530087.913190306629986, 7261609.688014142215252 ], [ 530079.453693735180423, 7261616.194315856322646 ], [ 530069.900785414502025, 7261622.098167574033141 ], [ 530059.987933612894267, 7261627.428820123896003 ], [ 530049.999107789364643, 7261632.566038893535733 ], [ 530040.0, 7261637.870324714109302 ], [ 530030.0, 7261643.680460680276155 ], [ 530020.0, 7261650.076866232790053 ], [ 530010.0, 7261656.700938943773508 ], [ 530000.0, 7261663.310235233977437 ], [ 529990.0, 7261670.0 ], [ 529980.0, 7261676.690656976774335 ], [ 529970.0, 7261683.310235233977437 ], [ 529960.0, 7261690.011174176819623 ], [ 529950.0, 7261696.777805175632238 ], [ 529940.0, 7261703.757326913066208 ], [ 529930.0, 7261711.551677605137229 ], [ 529920.0, 7261720.447983889840543 ], [ 529910.0, 7261730.087148198857903 ], [ 529900.0, 7261740.011174176819623 ], [ 529890.0, 7261750.000892210751772 ], [ 529880.0, 7261760.0 ], [ 529870.0, 7261770.0 ], [ 529860.000892210751772, 7261780.0 ], [ 529850.011174176470377, 7261790.0 ], [ 529840.087148198392242, 7261800.0 ], [ 529830.447983889840543, 7261810.0 ], [ 529821.552569815889001, 7261820.0 ], [ 529813.768501089187339, 7261830.0 ], [ 529806.864953374140896, 7261840.000000000931323 ], [ 529800.45915806631092, 7261850.0 ], [ 529794.861912838649005, 7261860.0 ], [ 529790.447983889840543, 7261870.0 ], [ 529786.777805175632238, 7261880.0 ], [ 529783.32051719923038, 7261890.0 ], [ 529780.000892210751772, 7261900.0 ], [ 529776.690656977239996, 7261910.0 ], [ 529773.309343022760004, 7261920.0 ], [ 529770.0, 7261930.0 ], [ 529766.689764766488224, 7261940.0 ], [ 529763.299061056924984, 7261950.0 ], [ 529759.923133767326362, 7261960.0 ], [ 529756.319539319956675, 7261970.0 ], [ 529752.128783074789681, 7261980.0 ], [ 529747.423233035369776, 7261990.0 ], [ 529742.490510976989754, 7262000.0 ], [ 529737.509489023126662, 7262010.0 ], [ 529732.576766964630224, 7262020.0 ], [ 529727.870324714574963, 7262030.0 ], [ 529723.670178714208305, 7262040.0 ], [ 529720.0, 7262050.0 ], [ 529716.329821285791695, 7262060.0 ], [ 529712.129675285425037, 7262070.0 ], [ 529707.423233035369776, 7262080.0 ], [ 529702.490510976873338, 7262090.0 ], [ 529697.510381233762018, 7262100.0 ], [ 529692.587048930465244, 7262110.0 ], [ 529687.947190947132185, 7262120.0 ], [ 529684.040404160739854, 7262130.0 ], [ 529681.170277982251719, 7262140.0 ], [ 529678.829722017864697, 7262150.0 ], [ 529675.959595839376561, 7262160.0 ], [ 529672.053701263503172, 7262170.0 ], [ 529667.424125246121548, 7262180.0 ], [ 529662.576766964746639, 7262189.999107789248228 ], [ 529657.957472912967205, 7262199.987933613359928 ], [ 529654.128444569883868, 7262209.900785414502025 ], [ 529651.628543837927282, 7262219.453693735413253 ], [ 529650.458265855675563, 7262227.913190307095647 ], [ 529650.088040409144014, 7262234.243011592887342 ] ] } },
{ "type": "Feature", "properties": { "id": 3, "reference_id": 4, "dune_id": 4, "dune_name": "The Star Dune", "acquisition_date": "2024-12-04", "length_m": 226.86681272692161 }, "geometry": { "type": "LineString", "coordinates": [ [ 533005.756988407694735, 7261870.011174177750945 ], [ 533012.08680969348643, 7261870.087148198857903 ], [ 533020.546306264819577, 7261870.447983890771866 ], [ 533030.099214585614391, 7261871.551677605137229 ], [ 533040.012066387105733, 7261873.757326913066208 ], [ 533050.000892210751772, 7261876.777805175632238 ], [ 533060.0, 7261880.0111741758883 ], [ 533070.0, 7261883.310235233046114 ], [ 533080.0, 7261886.689764766953886 ], [ 533090.0, 7261889.989718034863472 ], [ 533100.0, 7261893.233369001187384 ], [ 533110.0, 7261896.329821286723018 ], [ 533120.0, 7261898.896306284703314 ], [ 533130.0, 7261901.103693715296686 ], [ 533140.0, 7261903.670178715139627 ], [ 533150.0, 7261906.765738788992167 ], [ 533160.0, 7261910.0 ], [ 533170.0, 7261913.234261212870479 ], [ 533179.999107789248228, 7261916.329821286723018 ], [ 533189.987933612894267, 7261918.895414073951542 ], [ 533199.900785414502025, 7261921.092519539408386 ], [ 533209.453693735296838, 7261923.583030516281724 ], [ 533217.91319030651357, 7261926.318647109903395 ], [ 533224.243011592421681, 7261928.458604360930622 ] ] } },
{ "type": "Feature", "properties": { "id": 4, "reference_id": 2, "dune_id": 2, "dune_name": "Big Mommy Dune", "acquisition_date": "2024-12-04", "length_m": 212.36741873814054 }, "geometry": { "type": "LineString", "coordinates": [ [ 528614.243011592305265, 7260778.360281986184418 ], [ 528607.91319030651357, 7260775.78440723195672 ], [ 528599.453693735180423, 7260771.595435407944024 ], [ 528589.900785414502025, 7260765.881837395951152 ], [ 528579.987933612894267, 7260758.894521864131093 ], [ 528569.999107789364643, 7260751.529329252429307 ], [ 528560.0, 7260745.133815910667181 ], [ 528550.0, 7260740.075974022969604 ], [ 528540.0, 7260735.235517325811088 ], [ 528530.0, 7260729.553800532594323 ], [ 528520.0, 7260723.147113014012575 ], [ 528510.0, 7260716.318647108972073 ], [ 528500.0, 7260708.895414074882865 ], [ 528490.0, 7260701.103693716228008 ], [ 528480.000892210751772, 7260693.671070925891399 ], [ 528470.012066387105733, 7260686.777805175632238 ], [ 528460.099214585614391, 7260680.098322374746203 ], [ 528450.546306264819577, 7260673.76939329970628 ], [ 528442.08680969348643, 7260668.329482780769467 ], [ 528435.756988407694735, 7260664.205310802906752 ] ] } },
{ "type": "Feature", "properties": { "id": 5, "reference_id": 2, "dune_id": 2, "dune_name": "Big Mommy Dune", "acquisition_date": "2024-12-04", "length_m": 84.981461415690319 }, "geometry": { "type": "LineString", "coordinates": [ [ 529114.243011592421681, 7260966.241780877113342 ], [ 529107.91319030651357, 7260963.211912859231234 ], [ 529099.453693735413253, 7260959.912851802073419 ], [ 529089.900785414502025, 7260956.328929075971246 ], [ 529079.988825823529623, 7260952.205649308860302 ], [ 529070.011174176470377, 7260947.794350693002343 ], [ 529060.099214585614391, 7260943.671070924960077 ], [ 529050.546306264819577, 7260940.087148198857903 ], [ 529042.08680969348643, 7260936.788087141700089 ], [ 529035.75698840781115, 7260933.75821912381798 ] ] } },
{ "type": "Feature", "properties": { "id": 6, "reference_id": 2, "dune_id": 2, "dune_name": "Big Mommy Dune", "acquisition_date": "2024-12-04", "length_m": 61.724398946954366 }, "geometry": { "type": "LineString", "coordinates": [ [ 528894.243011592421681, 7260899.541734144091606 ], [ 528887.91319030651357, 7260898.37234837282449 ], [ 528879.454585945932195, 7260895.882729606702924 ], [ 528869.912851801607758, 7260892.129675285890698 ], [ 528860.087148198392242, 7260887.870324714109302 ], [ 528850.545414054067805, 7260884.117270393297076 ], [ 528842.086809693370014, 7260881.62765162717551 ], [ 528835.756988407694735, 7260880.458265855908394 ] ] } },
{ "type": "Feature", "properties": { "id": 7, "reference_id": 3, "dune_id": 3, "dune_name": "Big Mommy Dune", "acquisition_date": "2024-12-04", "length_m": 895.64648907240087 }, "geometry": { "type": "LineString", "coordinates": [ [ 529181.638825803645886, 7260964.243011592887342 ], [ 529184.205310802557506, 7260957.913190307095647 ], [ 529188.328590570250526, 7260949.453693735413253 ], [ 529193.758219123352319, 7260939.900785414502025 ], [ 529200.012066387105733, 7260929.987933613359928 ], [ 529206.340995462262072, 7260919.999107789248228 ], [ 529212.206541518098675, 7260910.0 ], [ 529217.794350692536682, 7260900.0 ], [ 529223.670178714208305, 7260890.0 ], [ 529230.075974021921866, 7260880.0 ], [ 529236.700046732323244, 7260870.0 ], [ 529243.299953267676756, 7260860.0 ], [ 529249.924025978078134, 7260850.0 ], [ 529256.32982128590811, 7260840.0 ], [ 529262.205649307463318, 7260830.0 ], [ 529267.794350692536682, 7260820.0 ], [ 529273.671070924960077, 7260810.0 ], [ 529280.087148198392242, 7260800.0 ], [ 529286.788087141467258, 7260790.0 ], [ 529293.758219123352319, 7260780.000000000931323 ], [ 529301.551677605253644, 7260770.0 ], [ 529310.447983889956959, 7260760.0 ], [ 529320.087148198508658, 7260750.0 ], [ 529330.011174176470377, 7260740.0 ], [ 529340.000892210751772, 7260730.000892210751772 ], [ 529350.0, 7260720.012066386640072 ], [ 529360.0, 7260710.098322374746203 ], [ 529370.0, 7260700.535132088698447 ], [ 529380.0, 7260691.999661494977772 ], [ 529390.0, 7260685.309896728955209 ], [ 529400.0, 7260680.545414052903652 ], [ 529410.0, 7260676.864953374490142 ], [ 529420.0, 7260673.682245101779699 ], [ 529430.0, 7260671.104585926048458 ], [ 529440.000000000116415, 7260668.896306285634637 ], [ 529450.0, 7260666.329821285791695 ], [ 529460.0, 7260663.233369001187384 ], [ 529470.0, 7260659.989718034863472 ], [ 529480.0, 7260656.689764766953886 ], [ 529490.0, 7260653.310235233977437 ], [ 529500.000000000116415, 7260650.010281966999173 ], [ 529510.0, 7260646.766630999743938 ], [ 529520.0, 7260643.670178715139627 ], [ 529530.0, 7260641.10458592697978 ], [ 529540.0, 7260638.907480461522937 ], [ 529550.0, 7260636.416969483718276 ], [ 529560.0, 7260633.681352891027927 ], [ 529570.0, 7260631.540503429248929 ], [ 529580.0, 7260630.435917502269149 ], [ 529590.0, 7260630.0 ], [ 529600.0, 7260629.564082497730851 ], [ 529610.0, 7260628.460388781502843 ], [ 529620.0, 7260626.329821285791695 ], [ 529630.0, 7260623.670178714208305 ], [ 529640.0, 7260621.540503429248929 ], [ 529650.0, 7260620.447091679088771 ], [ 529660.0, 7260620.086255988106132 ], [ 529670.0, 7260620.0 ], [ 529680.0, 7260619.913744012825191 ], [ 529690.0, 7260619.552908320911229 ], [ 529700.0, 7260618.459496571682394 ], [ 529710.0, 7260616.329821286723018 ], [ 529720.0, 7260613.670178715139627 ], [ 529730.0, 7260611.540503429248929 ], [ 529740.0, 7260610.447091680020094 ], [ 529750.0, 7260610.087148198857903 ], [ 529760.0, 7260610.011174176819623 ], [ 529770.0, 7260610.000892210751772 ], [ 529780.0, 7260610.0 ], [ 529790.0, 7260610.0 ], [ 529800.0, 7260610.0 ], [ 529810.0, 7260610.0 ], [ 529820.0, 7260610.0 ], [ 529830.0, 7260610.0 ], [ 529840.0, 7260610.0 ], [ 529850.0, 7260610.0 ], [ 529860.0, 7260610.0 ], [ 529870.0, 7260610.0 ], [ 529879.999107789248228, 7260610.0 ], [ 529889.987933612894267, 7260610.0 ], [ 529899.900785414502025, 7260610.0 ], [ 529909.453693735296838, 7260610.0 ], [ 529917.91319030651357, 7260610.0 ], [ 529924.243011592305265, 7260610.0 ] ] } },
{ "type": "Feature", "properties": { "id": 8, "reference_id": 3, "dune_id": 3, "dune_name": "Big Mommy Dune", "acquisition_date": "2024-12-04", "length_m": 78.486023184610531 }, "geometry": { "type": "LineString", "coordinates": [ [ 529965.756988407694735, 7260610.0 ], [ 529972.08680969348643, 7260610.0 ], [ 529980.546306264819577, 7260610.0 ], [ 529990.099214585614391, 7260610.0 ], [ 530000.011174176470377, 7260610.0 ], [ 530009.988825823529623, 7260610.0 ], [ 530019.900785414502025, 7260610.0 ], [ 530029.453693735180423, 7260610.0 ], [ 530037.91319030651357, 7260610.0 ], [ 530044.243011592305265, 7260610.0 ] ] } },
{ "type": "Feature", "properties": { "id": 9, "reference_id": 3, "dune_id": 3, "dune_name": "Big Mommy Dune", "acquisition_date": "2024-12-04", "length_m": 152.86094163009352 }, "geometry": { "type": "LineString", "coordinates": [ [ 530214.243011592421681, 7260573.671070925891399 ], [ 530207.913190306629986, 7260576.340995462611318 ], [ 530199.453693735180423, 7260578.546644769608974 ], [ 530189.900785414385609, 7260580.000892210751772 ], [ 530179.987933612894267, 7260581.464529406279325 ], [ 530169.999107789364643, 7260583.746152736246586 ], [ 530160.0, 7260586.776020754128695 ], [ 530150.0, 7260590.0 ], [ 530140.0, 7260593.223087035119534 ], [ 530130.0, 7260596.242673087865114 ], [ 530120.0, 7260598.447430184110999 ], [ 530110.000892210751772, 7260599.540841933339834 ], [ 530100.012066387222148, 7260599.825703604146838 ], [ 530090.099214585614391, 7260599.541734144091606 ], [ 530080.546306264819577, 7260598.458604360930622 ], [ 530072.086809693370014, 7260596.329821285791695 ], [ 530065.756988407694735, 7260593.670178714208305 ] ] } },
{ "type": "Feature", "properties": { "id": 10, "reference_id": 5, "dune_id": 5, "dune_name": "The Star Dune", "acquisition_date": "2024-12-04", "length_m": 1137.3438309252278 }, "geometry": { "type": "LineString", "coordinates": [ [ 534334.789317857124843, 7261305.756988408043981 ], [ 534330.0, 7261312.086809693835676 ], [ 534325.210682142991573, 7261320.546306264586747 ], [ 534321.987595107872039, 7261330.099214585497975 ], [ 534320.534239877597429, 7261340.012066386640072 ], [ 534320.098322374862619, 7261350.000892210751772 ], [ 534320.012066387105733, 7261360.0 ], [ 534320.001784421387129, 7261370.0 ], [ 534320.011174176470377, 7261380.0 ], [ 534320.087148198392242, 7261390.0 ], [ 534320.447091679205187, 7261400.0 ], [ 534321.540503428666852, 7261410.0 ], [ 534323.670178714208305, 7261420.0 ], [ 534326.329821285791695, 7261430.0 ], [ 534328.459496571333148, 7261440.0 ], [ 534329.552908320794813, 7261450.0 ], [ 534329.912851801607758, 7261460.0 ], [ 534329.988825823529623, 7261470.000000000931323 ], [ 534329.999107789364643, 7261480.0 ], [ 534330.0, 7261490.0 ], [ 534329.999107789364643, 7261500.0 ], [ 534329.987933612894267, 7261510.0 ], [ 534329.900785414385609, 7261520.0 ], [ 534329.453693735296838, 7261530.0 ], [ 534327.91319030651357, 7261540.0 ], [ 534324.243011592421681, 7261550.0 ], [ 534317.91319030651357, 7261559.999107790179551 ], [ 534309.453693735296838, 7261569.9888258241117 ], [ 534299.900785414502025, 7261579.912851802073419 ], [ 534289.987933612894267, 7261589.552016110159457 ], [ 534279.999107789248228, 7261598.448322394862771 ], [ 534270.0, 7261606.242673087865114 ], [ 534260.0, 7261613.222194824367762 ], [ 534250.0, 7261619.9888258241117 ], [ 534240.0, 7261626.688872555270791 ], [ 534230.0, 7261633.298168846406043 ], [ 534220.0, 7261639.912851801142097 ], [ 534210.0, 7261646.242673087865114 ], [ 534200.0, 7261651.757665418088436 ], [ 534190.0, 7261656.241780877113342 ], [ 534180.0, 7261659.901677625253797 ], [ 534170.0, 7261663.211912859231234 ], [ 534160.0, 7261666.252955053001642 ], [ 534150.0, 7261668.535470593720675 ], [ 534140.0, 7261669.999107789248228 ], [ 534130.0, 7261671.453355230391026 ], [ 534120.0, 7261673.659004537388682 ], [ 534110.0, 7261676.328929075039923 ], [ 534100.0, 7261678.460388781502843 ], [ 534090.0, 7261679.564082497730851 ], [ 534080.0, 7261680.0 ], [ 534070.0, 7261680.435917503200471 ], [ 534060.0, 7261681.539611218497157 ], [ 534050.0, 7261683.670178715139627 ], [ 534040.0, 7261686.33071349747479 ], [ 534030.0, 7261688.470670748502016 ], [ 534020.0, 7261689.64005651883781 ], [ 534010.0, 7261690.35994348116219 ], [ 534000.0, 7261691.530221464112401 ], [ 533990.0, 7261693.680460680276155 ], [ 533980.0, 7261696.416969484649599 ], [ 533970.0, 7261698.907480461522937 ], [ 533960.0, 7261701.10458592697978 ], [ 533950.0, 7261703.670178714208305 ], [ 533940.0, 7261706.766630999743938 ], [ 533930.0, 7261710.0111741758883 ], [ 533920.0, 7261713.321409409865737 ], [ 533910.0, 7261716.777805175632238 ], [ 533900.0, 7261720.447091679088771 ], [ 533890.0, 7261724.850738662295043 ], [ 533880.0, 7261730.371117657981813 ], [ 533870.0, 7261736.406687518581748 ], [ 533860.0, 7261742.140849461778998 ], [ 533850.0, 7261747.435299422591925 ], [ 533840.0, 7261752.577659174799919 ], [ 533830.0, 7261757.957472912967205 ], [ 533820.0, 7261764.128444569185376 ], [ 533810.000892210635357, 7261771.628543837927282 ], [ 533800.012066387105733, 7261780.458265855908394 ], [ 533790.098322374979034, 7261790.088040409609675 ], [ 533780.535132088232785, 7261800.011174176819623 ], [ 533771.998769284342416, 7261810.000892210751772 ], [ 533765.298722552019171, 7261820.0 ], [ 533760.45915806631092, 7261830.0 ], [ 533756.428143660770729, 7261840.000000000931323 ], [ 533752.217715694569051, 7261850.0 ], [ 533747.795242903288454, 7261860.0 ], [ 533743.670178714208305, 7261870.0 ], [ 533740.075081811286509, 7261880.0 ], [ 533736.689764766488224, 7261890.0 ], [ 533733.223087035119534, 7261900.0 ], [ 533729.552908320794813, 7261910.0 ], [ 533725.149261337937787, 7261920.0 ], [ 533719.627990132081322, 7261930.0 ], [ 533713.583030515816063, 7261940.0 ], [ 533707.783176516066305, 7261950.0 ], [ 533702.205649307463318, 7261960.0 ], [ 533696.340103251626715, 7261970.0 ], [ 533690.000892210751772, 7261980.0 ], [ 533683.670624819584191, 7261989.999553894624114 ], [ 533677.875911802751943, 7261999.993520701304078 ], [ 533672.621233274578117, 7262009.944359513930976 ], [ 533667.745101249776781, 7262019.677239574491978 ], [ 533663.359085066244006, 7262028.683442020788789 ], [ 533659.793454480706714, 7262036.078100949525833 ], [ 533657.293355212779716, 7262041.078100949525833 ] ] } },
{ "type": "Feature", "properties": { "id": 11, "reference_id": 6, "dune_id": 6, "dune_name": "The Star Dune", "acquisition_date": "2024-12-04", "length_m": 896.83558918047095 }, "geometry": { "type": "LineString", "coordinates": [ [ 533653.165802853647619, 7262048.921899050474167 ], [ 533651.846263533574529, 7262053.921899050474167 ], [ 533650.857399912783876, 7262061.316557979211211 ], [ 533650.670637518749572, 7262070.322760425508022 ], [ 533651.584077527979389, 7262080.055640487000346 ], [ 533653.675765802385285, 7262090.006479298695922 ], [ 533656.330267391167581, 7262100.000446105375886 ], [ 533658.459496571216732, 7262110.0 ], [ 533659.552908320911229, 7262120.0 ], [ 533659.912851801607758, 7262130.0 ], [ 533659.988825823529623, 7262140.0 ], [ 533659.999107789248228, 7262150.0 ], [ 533660.0, 7262160.0 ], [ 533660.0, 7262170.0 ], [ 533660.000892210751772, 7262180.0 ], [ 533660.011174176470377, 7262190.0 ], [ 533660.087148198392242, 7262200.0 ], [ 533660.447091679088771, 7262210.0 ], [ 533661.540503428783268, 7262220.0 ], [ 533663.671070924960077, 7262230.0 ], [ 533666.340995462378487, 7262240.0 ], [ 533668.546644769841805, 7262250.0 ], [ 533670.0, 7262260.0 ], [ 533671.453355230391026, 7262270.0 ], [ 533673.659004537737928, 7262280.0 ], [ 533676.328929075156339, 7262290.0 ], [ 533678.459496571333148, 7262300.0 ], [ 533679.552016110159457, 7262310.0 ], [ 533679.901677625137381, 7262320.0 ], [ 533679.901677625137381, 7262330.0 ], [ 533679.552016110159457, 7262340.000000000931323 ], [ 533678.458604360697791, 7262350.0 ], [ 533676.318647109437734, 7262360.0 ], [ 533673.583030515816063, 7262370.0 ], [ 533671.092519538942724, 7262380.0 ], [ 533668.895414073951542, 7262390.0 ], [ 533666.329821285791695, 7262400.0 ], [ 533663.234261211473495, 7262410.0 ], [ 533660.0, 7262420.0 ], [ 533656.765738788526505, 7262430.0 ], [ 533653.670178714208305, 7262440.0 ], [ 533651.103693715413101, 7262450.0 ], [ 533648.896306284703314, 7262460.0 ], [ 533646.329821285791695, 7262470.0 ], [ 533643.234261211473495, 7262480.0 ], [ 533640.000000000116415, 7262490.0 ], [ 533636.765738788526505, 7262500.0 ], [ 533633.670178714208305, 7262510.0 ], [ 533631.104585926048458, 7262520.0 ], [ 533628.907480461173691, 7262530.0 ], [ 533626.416077273548581, 7262540.0 ], [ 533623.670178714208305, 7262550.0 ], [ 533621.454247440909967, 7262560.0 ], [ 533620.0, 7262570.0 ], [ 533618.54664476972539, 7262580.0 ], [ 533616.340995462378487, 7262590.0 ], [ 533613.670178714208305, 7262600.000000000931323 ], [ 533611.529329252312891, 7262610.0 ], [ 533610.359943480696529, 7262620.0 ], [ 533609.640056519303471, 7262630.0 ], [ 533608.470670747803524, 7262640.0 ], [ 533606.330713496543467, 7262650.0 ], [ 533603.670178714208305, 7262660.0 ], [ 533601.540503428783268, 7262670.0 ], [ 533600.44619946856983, 7262680.0 ], [ 533600.075974022038281, 7262690.0 ], [ 533599.924025978078134, 7262700.0 ], [ 533599.553800531546585, 7262710.0 ], [ 533598.459496571216732, 7262720.0 ], [ 533596.328929075039923, 7262730.0 ], [ 533593.659004537737928, 7262740.0 ], [ 533591.452463019639254, 7262750.0 ], [ 533589.988825823529623, 7262760.0 ], [ 533588.459496571216732, 7262770.0 ], [ 533585.893011572421528, 7262780.0 ], [ 533582.119393319706433, 7262790.0 ], [ 533577.783176516182721, 7262800.0 ], [ 533573.669286503572948, 7262810.0 ], [ 533570.075974022038281, 7262820.0 ], [ 533566.700938943075016, 7262830.0 ], [ 533563.311127444147132, 7262840.0 ], [ 533560.011174176470377, 7262850.0 ], [ 533556.776912964996882, 7262860.0 ], [ 533553.746152736246586, 7262870.000000000931323 ], [ 533551.464529406744987, 7262879.999107789248228 ], [ 533550.000892210751772, 7262889.987933613359928 ], [ 533548.54664476972539, 7262899.900785414502025 ], [ 533546.340995462378487, 7262909.453693736344576 ], [ 533543.671070924960077, 7262917.913190307095647 ], [ 533541.540503428783268, 7262924.243011591956019 ] ] } },
{ "type": "Feature", "properties": { "id": 12, "reference_id": 1, "dune_id": 1, "dune_name": "Big Mommy Dune", "acquisition_date": "2024-12-04", "length_m": 1246.8385973625736 }, "geometry": { "type": "LineString", "coordinates": [ [ 529180.0, 7260998.921899050474167 ], [ 529180.0, 7261003.921899050474167 ], [ 529180.0, 7261011.316557979211211 ], [ 529180.0, 7261020.322760425508022 ], [ 529180.0, 7261030.055640487000346 ], [ 529180.0, 7261040.006479299627244 ], [ 529180.0, 7261050.000446105375886 ], [ 529180.0, 7261060.0 ], [ 529179.999107789364643, 7261070.0 ], [ 529179.988825823529623, 7261080.0 ], [ 529179.912851801607758, 7261090.0 ], [ 529179.552908320794813, 7261100.0 ], [ 529178.458604360581376, 7261110.0 ], [ 529176.318647109321319, 7261120.000000000931323 ], [ 529173.582138305064291, 7261130.0 ], [ 529171.082237573107705, 7261140.0 ], [ 529168.81854784139432, 7261150.0 ], [ 529165.958703628741205, 7261160.0 ], [ 529162.053701263619587, 7261170.0 ], [ 529157.423233035369776, 7261180.0 ], [ 529152.565592788159847, 7261190.0 ], [ 529147.869432503823191, 7261200.0 ], [ 529143.670178714208305, 7261210.000000000931323 ], [ 529140.000892210751772, 7261220.0 ], [ 529136.340103251626715, 7261230.0 ], [ 529132.20654151821509, 7261240.0 ], [ 529127.793458481901325, 7261250.0 ], [ 529123.6598967484897, 7261260.0 ], [ 529120.000000000116415, 7261270.0 ], [ 529116.340103251626715, 7261280.0 ], [ 529112.206541518098675, 7261290.0 ], [ 529107.793458481901325, 7261300.0 ], [ 529103.659896748373285, 7261310.000000000931323 ], [ 529100.0, 7261320.0 ], [ 529096.340103251626715, 7261330.0 ], [ 529092.20654151821509, 7261340.0 ], [ 529087.794350692536682, 7261350.0 ], [ 529083.670178714208305, 7261360.0 ], [ 529080.075974022038281, 7261370.0 ], [ 529076.700046732323244, 7261380.0 ], [ 529073.299953267676756, 7261390.0 ], [ 529069.924025978078134, 7261400.0 ], [ 529066.329821285791695, 7261410.0 ], [ 529062.205649307463318, 7261420.0 ], [ 529057.794350692536682, 7261430.0 ], [ 529053.670178714208305, 7261440.0 ], [ 529050.075974021921866, 7261450.0 ], [ 529046.700938942958601, 7261460.0 ], [ 529043.311127444147132, 7261470.000000000931323 ], [ 529040.01028196583502, 7261480.0 ], [ 529036.766630999278277, 7261490.0 ], [ 529033.670178714208305, 7261500.0 ], [ 529031.104585926048458, 7261510.0 ], [ 529028.907480461173691, 7261520.0 ], [ 529026.416969484183937, 7261530.0 ], [ 529023.681352890678681, 7261540.0 ], [ 529021.541395639418624, 7261550.0 ], [ 529020.447091679205187, 7261560.000000000931323 ], [ 529020.087148198508658, 7261570.0 ], [ 529020.011174176470377, 7261580.0 ], [ 529020.000892210751772, 7261590.0 ], [ 529020.0, 7261600.0 ], [ 529020.0, 7261610.0 ], [ 529020.0, 7261620.0 ], [ 529020.000892210751772, 7261630.0 ], [ 529020.011174176470377, 7261640.0 ], [ 529020.088040409144014, 7261650.0 ], [ 529020.458265855675563, 7261660.0 ], [ 529021.628543837927282, 7261670.0 ], [ 529024.128444569883868, 7261680.0 ], [ 529027.958365123718977, 7261690.0 ], [ 529032.588833351852372, 7261700.0 ], [ 529037.521555410232395, 7261710.0 ], [ 529042.577659175381996, 7261720.0 ], [ 529047.870324714458548, 7261730.000000000931323 ], [ 529053.670178714208305, 7261740.0 ], [ 529060.0, 7261750.0 ], [ 529066.329821285791695, 7261760.0 ], [ 529072.129675285425037, 7261770.0 ], [ 529077.42234082473442, 7261780.0 ], [ 529082.479336800519377, 7261790.0 ], [ 529087.42234082473442, 7261800.0 ], [ 529092.128783074789681, 7261810.0 ], [ 529096.317754898685962, 7261820.0 ], [ 529099.900785414502025, 7261830.0 ], [ 529103.123872449388728, 7261840.000000000931323 ], [ 529105.782622810336761, 7261850.0 ], [ 529106.809496591216885, 7261860.0 ], [ 529105.346705307718366, 7261870.0 ], [ 529101.58336902083829, 7261880.0 ], [ 529096.219432523823343, 7261890.0 ], [ 529089.900785414502025, 7261900.0 ], [ 529083.222194824367762, 7261910.0 ], [ 529076.329821285791695, 7261920.0 ], [ 529068.906588250421919, 7261930.0 ], [ 529061.180559947970323, 7261940.0 ], [ 529054.041296371375211, 7261950.0 ], [ 529047.947190947132185, 7261960.0 ], [ 529042.587048930465244, 7261970.0 ], [ 529037.511273444397375, 7261980.0 ], [ 529032.500792942708358, 7261990.0 ], [ 529027.500099268043414, 7262000.0 ], [ 529022.500792942708358, 7262010.0 ], [ 529017.510381233878434, 7262020.0 ], [ 529012.576766964746639, 7262030.0 ], [ 529007.870324714574963, 7262040.0 ], [ 529003.670178714208305, 7262050.0 ], [ 529000.0, 7262060.0 ], [ 528996.32982128590811, 7262070.0 ], [ 528992.129675285541452, 7262080.0 ], [ 528987.42234082473442, 7262090.0 ], [ 528982.478444589767605, 7262100.0 ], [ 528977.4120588588994, 7262109.999107789248228 ], [ 528972.053701263619587, 7262119.987933613359928 ], [ 528965.970770015846938, 7262129.900785414502025 ], [ 528958.917762426892295, 7262139.453693735413253 ], [ 528951.628543837927282, 7262147.913190307095647 ], [ 528945.668947998667136, 7262154.243011591956019 ] ] } },
{ "type": "Feature", "properties": { "id": 13, "reference_id": 7, "dune_id": 7, "dune_name": "Inverted Y Dune", "acquisition_date": "2024-12-04", "length_m": 629.68434253192822 }, "geometry": { "type": "LineString", "coordinates": [ [ 530155.75698840781115, 7261650.0 ], [ 530162.08680969348643, 7261650.0 ], [ 530170.546306264819577, 7261650.0 ], [ 530180.099214585614391, 7261650.0 ], [ 530190.012066387105733, 7261650.0 ], [ 530200.000892210751772, 7261650.0 ], [ 530210.0, 7261650.0 ], [ 530220.0, 7261649.999107790179551 ], [ 530230.0, 7261649.9888258241117 ], [ 530240.0, 7261649.912851802073419 ], [ 530250.0, 7261649.552016111090779 ], [ 530260.0, 7261648.448322394862771 ], [ 530270.0, 7261646.242673087865114 ], [ 530280.0, 7261643.222194824367762 ], [ 530290.0, 7261639.9888258241117 ], [ 530300.0, 7261636.689764766953886 ], [ 530310.0, 7261633.309343023225665 ], [ 530320.0, 7261630.0 ], [ 530330.0, 7261626.689764766022563 ], [ 530340.0, 7261623.299061057157815 ], [ 530350.0, 7261619.92313376814127 ], [ 530360.0, 7261616.319539319723845 ], [ 530370.0, 7261612.128783075138927 ], [ 530380.0, 7261607.422340825200081 ], [ 530390.0, 7261602.479336800985038 ], [ 530400.0, 7261597.422340825200081 ], [ 530410.0, 7261592.128783075138927 ], [ 530420.0, 7261586.318647108972073 ], [ 530430.000000000116415, 7261579.911959591321647 ], [ 530440.0, 7261573.211912859231234 ], [ 530450.0, 7261566.241780877113342 ], [ 530459.999107789364643, 7261558.448322394862771 ], [ 530469.988825823529623, 7261549.552016110159457 ], [ 530479.912851801607758, 7261539.912851801142097 ], [ 530489.552016110159457, 7261529.9888258241117 ], [ 530498.448322394862771, 7261519.999107789248228 ], [ 530506.242673087399453, 7261510.0 ], [ 530513.222194824367762, 7261500.0 ], [ 530519.988825823529623, 7261490.0 ], [ 530526.689764766488224, 7261480.0 ], [ 530533.309343022760004, 7261470.000000000931323 ], [ 530540.0, 7261460.0 ], [ 530546.690656977239996, 7261450.0 ], [ 530553.310235233511776, 7261440.0 ], [ 530560.011174176470377, 7261430.0 ], [ 530566.777805175632238, 7261420.0 ], [ 530573.757326912600547, 7261410.0 ], [ 530581.551677605253644, 7261400.0 ], [ 530590.447983889840543, 7261390.0 ], [ 530600.087148198392242, 7261380.0 ], [ 530610.01028196583502, 7261370.000892210751772 ], [ 530619.988825823646039, 7261360.012066386640072 ], [ 530629.900785414502025, 7261350.099214585497975 ], [ 530639.453693735296838, 7261340.546306265518069 ], [ 530647.913190306629986, 7261332.086809693835676 ], [ 530654.243011592305265, 7261325.756988408043981 ] ] } }
]
}
