{
"type": "FeatureCollection",
"name": "crests_2019_05_2019-05-10",
"crs": { "type": "name", "properties": { "name": "urn:ogc:def:crs:EPSG::32733" } },
"features": [
{ "type": "Feature", "properties": { "id": 0, "reference_id": 6, "dune_id": 6, "dune_name": "The Star Dune", "acquisition_date": "2019-05-10", "length_m": 839.66832009428231 }, "geometry": { "type": "LineString", "coordinates": [ [ 533556.340995462378487, 7262904.243011592887342 ], [ 533553.757326912600547, 7262897.913190307095647 ], [ 533551.988487318623811, 7262889.453693735413253 ], [ 533551.998769284342416, 7262879.900785414502025 ], [ 533553.845367321744561, 7262869.987933613359928 ], [ 533556.799261317937635, 7262859.999107789248228 ], [ 533560.088932619779371, 7262850.0 ], [ 533563.681352890678681, 7262840.0 ], [ 533567.870324714574963, 7262830.0 ], [ 533572.566484998911619, 7262820.0 ], [ 533577.433515001204796, 7262810.0 ], [ 533582.129675285541452, 7262800.0 ], [ 533586.318647109437734, 7262790.0 ], [ 533589.911959590855986, 7262780.0 ], [ 533593.211912858532742, 7262770.0 ], [ 533596.241780876647681, 7262760.0 ], [ 533598.449214605498128, 7262750.0 ], [ 533599.563190286629833, 7262740.0 ], [ 533600.0, 7262730.0 ], [ 533600.43591750273481, 7262720.0 ], [ 533601.539611218031496, 7262710.0 ], [ 533603.670178714208305, 7262700.0 ], [ 533606.329821285791695, 7262690.0 ], [ 533608.459496571333148, 7262680.0 ], [ 533609.552908320911229, 7262670.0 ], [ 533609.912851801607758, 7262660.0 ], [ 533609.98971803416498, 7262650.0 ], [ 533610.01028196583502, 7262640.0 ], [ 533610.087148198392242, 7262630.0 ], [ 533610.447091679205187, 7262620.0 ], [ 533611.541395639418624, 7262610.0 ], [ 533613.681352890795097, 7262600.000000000931323 ], [ 533616.416969484183937, 7262590.0 ], [ 533618.906588250421919, 7262580.0 ], [ 533621.094303960213438, 7262570.0 ], [ 533623.594204692170024, 7262560.0 ], [ 533626.405795307713561, 7262550.0 ], [ 533628.906588250421919, 7262540.0 ], [ 533631.104585926048458, 7262530.0 ], [ 533633.670178714208305, 7262520.0 ], [ 533636.765738788526505, 7262510.0 ], [ 533640.000000000116415, 7262500.0 ], [ 533643.234261211473495, 7262490.0 ], [ 533646.329821285791695, 7262480.0 ], [ 533648.896306284703314, 7262470.0 ], [ 533651.103693715413101, 7262460.0 ], [ 533653.670178714208305, 7262450.0 ], [ 533656.765738788526505, 7262440.0 ], [ 533660.0, 7262430.0 ], [ 533663.234261211473495, 7262420.0 ], [ 533666.329821285791695, 7262410.0 ], [ 533668.895414073951542, 7262400.0 ], [ 533671.092519538942724, 7262390.0 ], [ 533673.583030515816063, 7262380.0 ], [ 533676.318647109437734, 7262370.0 ], [ 533678.458604360697791, 7262360.0 ], [ 533679.552908320911229, 7262350.0 ], [ 533679.912851801607758, 7262340.000000000931323 ], [ 533679.988825823646039, 7262330.0 ], [ 533679.998215578729287, 7262320.0 ], [ 533679.988825823646039, 7262310.0 ], [ 533679.912851801607758, 7262300.0 ], [ 533679.552908320911229, 7262290.0 ], [ 533678.459496571333148, 7262280.0 ], [ 533676.329821285791695, 7262270.0 ], [ 533673.669286503456533, 7262260.0 ], [ 533671.529329252196476, 7262250.0 ], [ 533670.359943480696529, 7262240.0 ], [ 533669.640056519303471, 7262230.0 ], [ 533668.470670747803524, 7262220.0 ], [ 533666.330713496543467, 7262210.0 ], [ 533663.670178714208305, 7262200.0 ], [ 533661.540503428783268, 7262190.0 ], [ 533660.447091679088771, 7262180.0 ], [ 533660.087148198392242, 7262170.0 ], [ 533660.011174176470377, 7262160.0 ], [ 533660.000892210751772, 7262150.0 ], [ 533660.0, 7262140.0 ], [ 533660.0, 7262130.000892210751772 ], [ 533660.0, 7262120.012066387571394 ], [ 533660.0, 7262110.099214585497975 ], [ 533660.0, 7262100.546306264586747 ], [ 533660.0, 7262092.086809693835676 ], [ 533660.0, 7262085.756988408043981 ] ] } },
{ "type": "Feature", "properties": { "id": 1, "reference_id": 8, "dune_id": 8, "dune_name": "Inverted Y Dune", "acquisition_date": "2019-05-10", "length_m": 68.486023184610531 }, "geometry": { "type": "LineString", "coordinates": [ [ 530464.243011592305265, 7261210.000000000931323 ], [ 530457.91319030651357, 7261210.000000000931323 ], [ 530449.453693735296838, 7261210.000000000931323 ], [ 530439.901677625137381, 7261210.000000000931323 ], [ 530430.000000000116415, 7261210.000000000931323 ], [ 530420.098322374979034, 7261210.000000000931323 ], [ 530410.546306264819577, 7261210.000000000931323 ], [ 530402.08680969348643, 7261210.000000000931323 ], [ 530395.756988407694735, 7261210.000000000931323 ] ] } },
{ "type": "Feature", "properties": { "id": 2, "reference_id": 8, "dune_id": 8, "dune_name": "Inverted Y Dune", "acquisition_date": "2019-05-10", "length_m": 60.433255638092646 }, "geometry": { "type": "LineString", "coordinates": [ [ 530505.756988407694735, 7261207.914082517847419 ], [ 530512.085917482851073, 7261204.255077979527414 ], [ 530520.534239877597429, 7261198.012404892593622 ], [ 530530.0, 7261190.0 ], [ 530539.465760122402571, 7261181.987595107406378 ], [ 530547.914082517265342, 7261175.744922020472586 ], [ 530554.243011592305265, 7261172.085917483083904 ] ] } },
{ "type": "Feature", "properties": { "id": 3, "reference_id": 8, "dune_id": 8, "dune_name": "Inverted Y Dune", "acquisition_date": "2019-05-10", "length_m": 203.75309610005644 }, "geometry": { "type": "LineString", "coordinates": [ [ 530264.243011592421681, 7261221.639718014746904 ], [ 530257.913190306629986, 7261224.216484978795052 ], [ 530249.453693735180423, 7261228.416630979627371 ], [ 530239.900785414502025, 7261234.216484978795052 ], [ 530229.987933612777852, 7261241.639718014746904 ], [ 530219.999107789248228, 7261250.459158066660166 ], [ 530210.000892210751772, 7261260.088040409609675 ], [ 530200.011174176586792, 7261270.011174176819623 ], [ 530190.088040409144014, 7261280.000892210751772 ], [ 530180.45915806631092, 7261290.0 ], [ 530171.638825803645886, 7261300.0 ], [ 530164.20531080244109, 7261310.000000000931323 ], [ 530158.329482780885883, 7261320.0 ], [ 530153.769393299939111, 7261329.999107789248228 ], [ 530150.099214585614391, 7261339.987933613359928 ], [ 530146.78897935221903, 7261349.900785414502025 ], [ 530143.758219123352319, 7261359.453693735413253 ], [ 530141.551677605137229, 7261367.913190307095647 ], [ 530140.447983889840543, 7261374.243011592887342 ] ] } },
{ "type": "Feature", "properties": { "id": 4, "reference_id": 8, "dune_id": 8, "dune_name": "Inverted Y Dune", "acquisition_date": "2019-05-10", "length_m": 76.421443625262199 }, "geometry": { "type": "LineString", "coordinates": [ [ 530110.0, 7261515.756988408043981 ], [ 530109.999107789364643, 7261522.086809692904353 ], [ 530109.988825823529623, 7261530.546306265518069 ], [ 530109.912851801607758, 7261540.098768480122089 ], [ 530109.552908320911229, 7261550.00558708794415 ], [ 530108.459496571333148, 7261559.945251724682748 ], [ 530106.329821285791695, 7261569.6772395754233 ], [ 530103.670178714208305, 7261578.683442020788789 ], [ 530101.540503428783268, 7261586.078100949525833 ], [ 530100.447091679205187, 7261591.078100949525833 ] ] } },
{ "type": "Feature", "properties": { "id": 5, "reference_id": 3, "dune_id": 3, "dune_name": "Big Mommy Dune", "acquisition_date": "2019-05-10", "length_m": 308.48602318461053 }, "geometry": { "type": "LineString", "coordinates": [ [ 529735.756988407694735, 7260610.0 ], [ 529742.08680969348643, 7260610.0 ], [ 529750.546306264819577, 7260610.0 ], [ 529760.099214585614391, 7260610.0 ], [ 529770.012066387222148, 7260610.0 ], [ 529780.000892210751772, 7260610.0 ], [ 529790.0, 7260610.0 ], [ 529800.0, 7260610.0 ], [ 529810.0, 7260610.0 ], [ 529820.0, 7260610.0 ], [ 529830.0, 7260610.0 ], [ 529840.0, 7260610.0 ], [ 529850.0, 7260610.0 ], [ 529860.0, 7260610.0 ], [ 529870.0, 7260610.0 ], [ 529880.0, 7260610.0 ], [ 529890.0, 7260610.0 ], [ 529900.0, 7260610.0 ], [ 529910.0, 7260610.0 ], [ 529920.0, 7260610.0 ], [ 529930.0, 7260610.0 ], [ 529940.0, 7260610.0 ], [ 529950.0, 7260610.0 ], [ 529960.0, 7260610.0 ], [ 529970.0, 7260610.0 ], [ 529980.0, 7260610.0 ], [ 529990.0, 7260610.0 ], [ 529999.999107789364643, 7260610.0 ], [ 530009.987933612894267, 7260610.0 ], [ 530019.900785414502025, 7260610.0 ], [ 530029.453693735180423, 7260610.0 ], [ 530037.91319030651357, 7260610.0 ], [ 530044.243011592305265, 7260610.0 ] ] } },
{ "type": "Feature", "properties": { "id": 6, "reference_id": 3, "dune_id": 3, "dune_name": "Big Mommy Dune", "acquisition_date": "2019-05-10", "length_m": 89.442763528523642 }, "geometry": { "type": "LineString", "coordinates": [ [ 530075.756988407694735, 7260600.0 ], [ 530082.08680969348643, 7260599.999107789248228 ], [ 530090.546306264819577, 7260599.9888258241117 ], [ 530100.099214585614391, 7260599.912851802073419 ], [ 530110.012066387222148, 7260599.552908321842551 ], [ 530120.0, 7260598.459496571682394 ], [ 530129.987933612894267, 7260596.329821285791695 ], [ 530139.900785414502025, 7260593.670178714208305 ], [ 530149.453693735296838, 7260591.540503429248929 ], [ 530157.91319030651357, 7260590.447091680020094 ], [ 530164.243011592305265, 7260590.087148198857903 ] ] } },
{ "type": "Feature", "properties": { "id": 7, "reference_id": 3, "dune_id": 3, "dune_name": "Big Mommy Dune", "acquisition_date": "2019-05-10", "length_m": 331.8300443797566 }, "geometry": { "type": "LineString", "coordinates": [ [ 529374.243011592305265, 7260695.756988408043981 ], [ 529367.91319030651357, 7260702.086809693835676 ], [ 529359.453693735180423, 7260710.546306265518069 ], [ 529349.901677625253797, 7260720.099214585497975 ], [ 529339.999107789364643, 7260730.012066388502717 ], [ 529330.086255987756886, 7260740.000892210751772 ], [ 529320.447983889956959, 7260750.0 ], [ 529311.551677605253644, 7260760.0 ], [ 529303.757326912600547, 7260770.0 ], [ 529296.777805175632238, 7260780.000000000931323 ], [ 529290.011174176470377, 7260790.0 ], [ 529283.311127444263548, 7260800.0 ], [ 529276.700938943075016, 7260810.0 ], [ 529270.075974022038281, 7260820.0 ], [ 529263.670178714208305, 7260830.0 ], [ 529257.794350692653097, 7260840.0 ], [ 529252.205649307463318, 7260850.0 ], [ 529246.32982128590811, 7260860.0 ], [ 529239.924025977961719, 7260870.0 ], [ 529233.299953267676756, 7260880.0 ], [ 529226.700046732323244, 7260890.0 ], [ 529220.075974022038281, 7260900.0 ], [ 529213.670178714208305, 7260910.0 ], [ 529207.795242903288454, 7260919.999107789248228 ], [ 529202.217715694569051, 7260929.987933613359928 ], [ 529196.428143660654314, 7260939.900785414502025 ], [ 529190.45915806631092, 7260949.453693735413253 ], [ 529185.298722552019171, 7260957.913190307095647 ], [ 529181.998769284342416, 7260964.243011592887342 ] ] } },
{ "type": "Feature", "properties": { "id": 8, "reference_id": 3, "dune_id": 3, "dune_name": "Big Mommy Dune", "acquisition_date": "2019-05-10", "length_m": 141.81245207770343 }, "geometry": { "type": "LineString", "coordinates": [ [ 529614.243011592421681, 7260630.087148198857903 ], [ 529607.91319030651357, 7260630.447091680020094 ], [ 529599.453693735180423, 7260631.540503429248929 ], [ 529589.900785414502025, 7260633.671070925891399 ], [ 529579.987933612894267, 7260636.340995462611318 ], [ 529569.999107789248228, 7260638.546644769608974 ], [ 529560.0, 7260640.0 ], [ 529550.0, 7260641.454247441142797 ], [ 529540.0, 7260643.670178715139627 ], [ 529530.0, 7260646.416077273897827 ], [ 529520.000892210751772, 7260648.906588250771165 ], [ 529510.012066387105733, 7260651.093411749228835 ], [ 529500.099214585614391, 7260653.583030516281724 ], [ 529490.546306264819577, 7260656.318647109903395 ], [ 529482.08680969348643, 7260658.458604361861944 ], [ 529475.756988407694735, 7260659.552908320911229 ] ] } },
{ "type": "Feature", "properties": { "id": 9, "reference_id": 4, "dune_id": 4, "dune_name": "The Star Dune", "acquisition_date": "2019-05-10", "length_m": 499.15954906320081 }, "geometry": { "type": "LineString", "coordinates": [ [ 533005.756988407694735, 7261870.087148198857903 ], [ 533012.08680969348643, 7261870.447091680020094 ], [ 533020.546306264819577, 7261871.540503429248929 ], [ 533030.099214585614391, 7261873.671070925891399 ], [ 533040.012066387105733, 7261876.340995462611318 ], [ 533050.000892210751772, 7261878.546644769608974 ], [ 533060.0, 7261880.0 ], [ 533070.0, 7261881.454247441142797 ], [ 533080.0, 7261883.670178714208305 ], [ 533090.0, 7261886.416077273897827 ], [ 533100.0, 7261888.907480461522937 ], [ 533110.0, 7261891.10458592697978 ], [ 533120.0, 7261893.670178715139627 ], [ 533130.0, 7261896.766630999743938 ], [ 533140.0, 7261900.010281965136528 ], [ 533150.0, 7261903.310235233977437 ], [ 533160.0, 7261906.689764766953886 ], [ 533170.0, 7261909.989718034863472 ], [ 533180.0, 7261913.233369002118707 ], [ 533190.0, 7261916.329821286723018 ], [ 533200.0, 7261918.895414073951542 ], [ 533210.0, 7261921.093411749228835 ], [ 533220.0, 7261923.594204692170024 ], [ 533230.0, 7261926.405795307829976 ], [ 533240.0, 7261928.906588250771165 ], [ 533250.0, 7261931.104585926048458 ], [ 533260.0, 7261933.670178715139627 ], [ 533270.0, 7261936.766630999743938 ], [ 533280.0, 7261940.010281966067851 ], [ 533290.0, 7261943.310235233977437 ], [ 533300.0, 7261946.689764766022563 ], [ 533310.0, 7261949.989718034863472 ], [ 533320.0, 7261953.233369001187384 ], [ 533330.0, 7261956.329821286723018 ], [ 533340.0, 7261958.896306285634637 ], [ 533350.0, 7261961.103693716228008 ], [ 533360.0, 7261963.670178714208305 ], [ 533370.0, 7261966.766630999743938 ], [ 533380.000000000116415, 7261970.010281966067851 ], [ 533390.0, 7261973.311127444729209 ], [ 533400.000000000116415, 7261976.700938943773508 ], [ 533410.0, 7261980.075974022969604 ], [ 533420.0, 7261983.670178715139627 ], [ 533430.0, 7261987.794350693002343 ], [ 533439.999107789364643, 7261992.205649307928979 ], [ 533449.987933612894267, 7261996.328929075971246 ], [ 533459.900785414385609, 7261999.912851801142097 ], [ 533469.453693735180423, 7262003.211912859231234 ], [ 533477.913190306629986, 7262006.241780877113342 ], [ 533484.243011592421681, 7262008.448322394862771 ] ] } },
{ "type": "Feature", "properties": { "id": 10, "reference_id": 4, "dune_id": 4, "dune_name": "The Star Dune", "acquisition_date": "2019-05-10", "length_m": 122.13450298653649 }, "geometry": { "type": "LineString", "coordinates": [ [ 533515.756988407694735, 7262021.628543837927282 ], [ 533522.08680969348643, 7262024.128444569185376 ], [ 533530.546306264819577, 7262027.957472912967205 ], [ 533540.099214585614391, 7262032.57676696497947 ], [ 533550.012066387105733, 7262037.423233035951853 ], [ 533560.000892210635357, 7262042.043419297784567 ], [ 533570.0, 7262045.882729606702924 ], [ 533579.999553894740529, 7262048.458604360930622 ], [ 533589.993520701071247, 7262049.9888258241117 ], [ 533599.94435951358173, 7262051.452463019639254 ], [ 533609.677239574841224, 7262053.659004538320005 ], [ 533618.683442020905204, 7262056.328929075971246 ], [ 533626.078100949409418, 7262058.459496572613716 ], [ 533631.078100949525833, 7262059.552908321842551 ] ] } },
{ "type": "Feature", "properties": { "id": 11, "reference_id": 1, "dune_id": 1, "dune_name": "Big Mommy Dune", "acquisition_date": "2019-05-10", "length_m": 404.53408527735905 }, "geometry": { "type": "LineString", "coordinates": [ [ 529040.447983889840543, 7261494.243011591956019 ], [ 529041.551677605137229, 7261487.913190307095647 ], [ 529043.757326912600547, 7261479.453693735413253 ], [ 529046.777805175632238, 7261469.900785414502025 ], [ 529050.011174176470377, 7261459.987933613359928 ], [ 529053.311127444147132, 7261449.999107789248228 ], [ 529056.700938943075016, 7261440.0 ], [ 529060.075974022038281, 7261430.0 ], [ 529063.670178714208305, 7261420.0 ], [ 529067.794350692536682, 7261410.0 ], [ 529072.205649307463318, 7261400.0 ], [ 529076.329821285791695, 7261390.0 ], [ 529079.924025977961719, 7261380.0 ], [ 529083.299953267676756, 7261370.0 ], [ 529086.700046732323244, 7261360.0 ], [ 529090.076866232673638, 7261350.0 ], [ 529093.680460680043325, 7261340.0 ], [ 529097.870324714574963, 7261330.0 ], [ 529102.566484998911619, 7261320.0 ], [ 529107.433515001088381, 7261310.000000000931323 ], [ 529112.130567496176809, 7261300.0 ], [ 529116.329821285791695, 7261290.0 ], [ 529120.000000000116415, 7261280.0 ], [ 529123.670178714208305, 7261270.0 ], [ 529127.869432503939606, 7261260.0 ], [ 529132.566484998911619, 7261250.0 ], [ 529137.433515001088381, 7261240.0 ], [ 529142.130567496176809, 7261230.0 ], [ 529146.329821285791695, 7261220.0 ], [ 529149.999107789364643, 7261210.000000000931323 ], [ 529153.6598967484897, 7261200.0 ], [ 529157.793458481901325, 7261190.0 ], [ 529162.205649307463318, 7261180.0 ], [ 529166.328929075156339, 7261170.0 ], [ 529169.912851801607758, 7261160.000892210751772 ], [ 529173.211912858532742, 7261150.012066387571394 ], [ 529176.241780876647681, 7261140.099214585497975 ], [ 529178.448322394862771, 7261130.546306265518069 ], [ 529179.552016110159457, 7261122.086809694766998 ], [ 529179.912851801607758, 7261115.756988408043981 ] ] } },
{ "type": "Feature", "properties": { "id": 12, "reference_id": 1, "dune_id": 1, "dune_name": "Big Mommy Dune", "acquisition_date": "2019-05-10", "length_m": 121.17628652993413 }, "geometry": { "type": "LineString", "coordinates": [ [ 529038.448322394862771, 7261714.243011592887342 ], [ 529036.242673087399453, 7261707.913190307095647 ], [ 529033.223087035119534, 7261699.453693736344576 ], [ 529030.0, 7261689.900785414502025 ], [ 529026.776912964996882, 7261679.987933612428606 ], [ 529023.757326912600547, 7261669.999107789248228 ], [ 529021.551677605137229, 7261660.0 ], [ 529020.447983889840543, 7261650.0 ], [ 529020.087148198508658, 7261640.000892210751772 ], [ 529020.011174176470377, 7261630.012066387571394 ], [ 529020.000892210751772, 7261620.099214585497975 ], [ 529020.0, 7261610.546306265518069 ], [ 529020.0, 7261602.086809694766998 ], [ 529020.0, 7261595.756988408043981 ] ] } },
{ "type": "Feature", "properties": { "id": 13, "reference_id": 1, "dune_id": 1, "dune_name": "Big Mommy Dune", "acquisition_date": "2019-05-10", "length_m": 514.34550451325072 }, "geometry": { "type": "LineString", "coordinates": [ [ 529109.999107789364643, 7261825.756988408043981 ], [ 529109.988825823529623, 7261832.086809693835676 ], [ 529109.911959590855986, 7261840.546306265518069 ], [ 529109.541734144440852, 7261850.099214585497975 ], [ 529108.371456162189133, 7261860.012066387571394 ], [ 529105.870663219480775, 7261870.000892210751772 ], [ 529102.031352910562418, 7261880.0 ], [ 529097.335192626342177, 7261890.0 ], [ 529092.117608898319304, 7261900.0 ], [ 529086.318647109321319, 7261910.0 ], [ 529079.923133767326362, 7261920.0 ], [ 529073.299061056924984, 7261930.0 ], [ 529066.68976476660464, 7261940.0 ], [ 529060.0, 7261950.0 ], [ 529053.310235233511776, 7261960.0 ], [ 529046.700938942958601, 7261970.0 ], [ 529040.076866232673638, 7261980.0 ], [ 529033.681352890795097, 7261990.0 ], [ 529027.881498891045339, 7262000.0 ], [ 529022.653633197303861, 7262010.0 ], [ 529017.881498890928924, 7262020.0 ], [ 529013.681352890795097, 7262030.0 ], [ 529010.076866232673638, 7262040.0 ], [ 529006.700046732323244, 7262050.0 ], [ 529003.299061057041399, 7262060.0 ], [ 528999.912851801607758, 7262070.0 ], [ 528996.242673087399453, 7262080.0 ], [ 528991.758557628258131, 7262090.0 ], [ 528986.252955053118058, 7262100.0 ], [ 528979.988825823646039, 7262110.0 ], [ 528973.658112327102572, 7262120.0 ], [ 528967.782284305430949, 7262130.0 ], [ 528962.118501109071076, 7262139.999107789248228 ], [ 528955.881837395951152, 7262149.9888258241117 ], [ 528948.37234837282449, 7262159.912851801142097 ], [ 528939.541734144440852, 7262169.552908321842551 ], [ 528929.911959590972401, 7262178.458604360930622 ], [ 528919.988825823529623, 7262186.318647108972073 ], [ 528909.999107789248228, 7262193.582138305529952 ], [ 528900.0, 7262201.082237573340535 ], [ 528890.0, 7262208.818547842092812 ], [ 528880.000892210751772, 7262215.957811417989433 ], [ 528870.012066387105733, 7262222.041634876281023 ], [ 528860.099214585614391, 7262227.324910661205649 ], [ 528850.546306264819577, 7262232.030460700392723 ], [ 528842.086809693370014, 7262235.870663220062852 ], [ 528835.756988407694735, 7262238.371456163004041 ] ] } },
{ "type": "Feature", "properties": { "id": 14, "reference_id": 9, "dune_id": 9, "dune_name": "Inverted Y Dune", "acquisition_date": "2019-05-10", "length_m": 195.14678782281203 }, "geometry": { "type": "LineString", "coordinates": [ [ 529748.011512681492604, 7261995.756988408043981 ], [ 529744.778143680654466, 7262002.086809693835676 ], [ 529739.912851801607758, 7262010.546306264586747 ], [ 529734.762698253034614, 7262020.099214585497975 ], [ 529730.43591750273481, 7262030.012066386640072 ], [ 529726.776020754361525, 7262040.000892210751772 ], [ 529723.310235233511776, 7262050.0 ], [ 529719.924025978078134, 7262060.0 ], [ 529716.31953932007309, 7262070.0 ], [ 529712.128783074789681, 7262080.0 ], [ 529707.423233035369776, 7262090.0 ], [ 529702.489618766237982, 7262100.0 ], [ 529697.499207057291642, 7262110.0 ], [ 529692.500792942708358, 7262120.0 ], [ 529687.51127344451379, 7262129.999107789248228 ], [ 529682.5879411411006, 7262139.987933613359928 ], [ 529677.958365123602562, 7262149.900785414502025 ], [ 529674.128444569883868, 7262159.453693735413253 ], [ 529671.628543837810867, 7262167.913190307095647 ], [ 529670.458265855675563, 7262174.243011591956019 ] ] } },
{ "type": "Feature", "properties": { "id": 15, "reference_id": 9, "dune_id": 9, "dune_name": "Inverted Y Dune", "acquisition_date": "2019-05-10", "length_m": 459.71243495867145 }, "geometry": { "type": "LineString", "coordinates": [ [ 530097.91319030651357, 7261598.910724874585867 ], [ 530094.243011592421681, 7261603.834750852547586 ], [ 530087.913190306629986, 7261610.868574090301991 ], [ 530079.453693735180423, 7261618.771082820370793 ], [ 530069.900785414502025, 7261626.297421364113688 ], [ 530059.987933612894267, 7261633.218392157927155 ], [ 530049.999107789364643, 7261639.912405695766211 ], [ 530040.0, 7261646.318647109903395 ], [ 530030.0, 7261652.129675285890698 ], [ 530020.0, 7261657.433515001088381 ], [ 530010.0, 7261662.566484998911619 ], [ 530000.0, 7261667.870324714109302 ], [ 529990.0, 7261673.680460680276155 ], [ 529980.0, 7261680.076866232790053 ], [ 529970.0, 7261686.700938943773508 ], [ 529960.0, 7261693.311127444729209 ], [ 529950.0, 7261700.011174177750945 ], [ 529940.0, 7261706.777805175632238 ], [ 529930.0, 7261713.757326913066208 ], [ 529920.0, 7261721.551677605137229 ], [ 529910.0, 7261730.447983890771866 ], [ 529900.0, 7261740.087148198857903 ], [ 529890.0, 7261750.011174176819623 ], [ 529880.0, 7261760.000892210751772 ], [ 529870.000892210751772, 7261770.0 ], [ 529860.011174176470377, 7261780.0 ], [ 529850.087148198392242, 7261790.0 ], [ 529840.447983889840543, 7261800.0 ], [ 529831.551677605137229, 7261810.0 ], [ 529823.758219123352319, 7261820.0 ], [ 529816.78897935221903, 7261830.0 ], [ 529810.098322374979034, 7261840.000000000931323 ], [ 529803.758219123352319, 7261850.0 ], [ 529798.242334582377225, 7261860.0 ], [ 529793.758219123352319, 7261869.999107789248228 ], [ 529790.098322374862619, 7261879.987933613359928 ], [ 529786.788979352102615, 7261889.900785414502025 ], [ 529783.758219123352319, 7261899.453693736344576 ], [ 529781.551677605137229, 7261907.913190307095647 ], [ 529780.447983889840543, 7261914.243011592887342 ] ] } },
{ "type": "Feature", "properties": { "id": 16, "reference_id": 5, "dune_id": 5, "dune_name": "The Star Dune", "acquisition_date": "2019-05-10", "length_m": 883.79236839656392 }, "geometry": { "type": "LineString", "coordinates": [ [ 533657.294247423415072, 7262041.078100949525833 ], [ 533659.803736446541734, 7262036.078100949525833 ], [ 533663.435059088165872, 7262028.683442020788789 ], [ 533668.105044730589725, 7262019.677239574491978 ], [ 533673.714645024156198, 7262009.944359513930976 ], [ 533680.005587088293396, 7261999.993520701304078 ], [ 533686.330267391167581, 7261989.999553894624114 ], [ 533692.130567496176809, 7261980.0 ], [ 533697.433515001204796, 7261970.0 ], [ 533702.566484998911619, 7261960.0 ], [ 533707.869432503823191, 7261950.0 ], [ 533713.669286503456533, 7261940.0 ], [ 533719.989718034281395, 7261930.0 ], [ 533726.252955053234473, 7261920.0 ], [ 533731.758557628374547, 7261910.0 ], [ 533736.242673087399453, 7261900.0 ], [ 533739.912851801607758, 7261890.0 ], [ 533743.298168846289627, 7261880.0 ], [ 533746.689764766488224, 7261870.0 ], [ 533750.000892210751772, 7261860.0 ], [ 533753.321409409982152, 7261850.0 ], [ 533756.78897935221903, 7261840.000000000931323 ], [ 533760.535132088349201, 7261830.0 ], [ 533765.309004517854191, 7261820.0 ], [ 533771.999661495094188, 7261810.000892210751772 ], [ 533780.535132088232785, 7261800.011174176819623 ], [ 533790.098322374979034, 7261790.088040409609675 ], [ 533800.012066387105733, 7261780.458265855908394 ], [ 533810.000892210635357, 7261771.628543837927282 ], [ 533820.0, 7261764.128444569185376 ], [ 533830.0, 7261757.958365123718977 ], [ 533840.0, 7261752.588833351619542 ], [ 533850.0, 7261747.521555410698056 ], [ 533860.0, 7261742.577659175731242 ], [ 533870.0, 7261737.870324715040624 ], [ 533880.0, 7261733.670178715139627 ], [ 533890.0, 7261730.000892211683095 ], [ 533900.0, 7261726.340103251859546 ], [ 533910.0, 7261722.206541517749429 ], [ 533920.0, 7261717.794350693002343 ], [ 533930.0, 7261713.671070924960077 ], [ 533940.0, 7261710.087148198857903 ], [ 533950.0, 7261706.787194930948317 ], [ 533960.0, 7261703.747044946998358 ], [ 533970.0, 7261701.464529407210648 ], [ 533980.0, 7261700.000892210751772 ], [ 533990.0, 7261698.546644769608974 ], [ 534000.0, 7261696.340995462611318 ], [ 534010.0, 7261693.670178714208305 ], [ 534020.0, 7261691.529329253360629 ], [ 534030.0, 7261690.35994348116219 ], [ 534040.0, 7261689.64005651883781 ], [ 534050.0, 7261688.470670748502016 ], [ 534060.0, 7261686.33071349747479 ], [ 534070.0, 7261683.669286504387856 ], [ 534080.0, 7261681.529329252429307 ], [ 534090.0, 7261680.35994348116219 ], [ 534100.0, 7261679.640056519769132 ], [ 534110.0, 7261678.470670748502016 ], [ 534120.0, 7261676.330713496543467 ], [ 534130.0, 7261673.669286503456533 ], [ 534140.0, 7261671.529329252429307 ], [ 534150.0, 7261670.359051270410419 ], [ 534160.0, 7261669.627990132197738 ], [ 534170.0, 7261668.37234837282449 ], [ 534180.0, 7261665.79558140784502 ], [ 534190.0, 7261661.670517219230533 ], [ 534200.0, 7261656.231498911976814 ], [ 534210.0, 7261649.911959591321647 ], [ 534220.0, 7261643.298168847337365 ], [ 534230.0, 7261636.689764766953886 ], [ 534240.0, 7261630.0 ], [ 534250.0, 7261623.309343023225665 ], [ 534260.0, 7261616.689764766953886 ], [ 534269.999107789248228, 7261609.9888258241117 ], [ 534279.987933612894267, 7261603.222194825299084 ], [ 534289.900785414502025, 7261596.243565298616886 ], [ 534299.453693735296838, 7261588.460388782434165 ], [ 534307.91319030651357, 7261579.651230695657432 ], [ 534314.243011592305265, 7261570.459158066660166 ], [ 534317.91319030651357, 7261562.075635517016053 ], [ 534319.453693735296838, 7261555.756096197292209 ] ] } },
{ "type": "Feature", "properties": { "id": 17, "reference_id": 5, "dune_id": 5, "dune_name": "The Star Dune", "acquisition_date": "2019-05-10", "length_m": 162.93033359938804 }, "geometry": { "type": "LineString", "coordinates": [ [ 534334.789317857124843, 7261305.756988408043981 ], [ 534330.0, 7261312.086809693835676 ], [ 534325.210682142991573, 7261320.546306264586747 ], [ 534321.987595107872039, 7261330.099214585497975 ], [ 534320.534239877597429, 7261340.012066386640072 ], [ 534320.098322374862619, 7261350.000892210751772 ], [ 534320.012958597857505, 7261360.0 ], [ 534320.012066387105733, 7261370.0 ], [ 534320.087148198392242, 7261380.0 ], [ 534320.447091679205187, 7261390.0 ], [ 534321.540503428666852, 7261400.0 ], [ 534323.670178714208305, 7261410.0 ], [ 534326.329821285791695, 7261419.999107789248228 ], [ 534328.459496571333148, 7261429.987933613359928 ], [ 534329.552908320794813, 7261439.900785414502025 ], [ 534329.912851801607758, 7261449.453693736344576 ], [ 534329.988825823529623, 7261457.913190307095647 ], [ 534329.999107789364643, 7261464.243011591956019 ] ] } },
{ "type": "Feature", "properties": { "id": 18, "reference_id": 2, "dune_id": 2, "dune_name": "Big Mommy Dune", "acquisition_date": "2019-05-10", "length_m": 801.05246244005809 }, "geometry": { "type": "LineString", "coordinates": [ [ 529151.078100949409418, 7260978.372348373755813 ], [ 529146.078100949409418, 7260975.881837395951152 ], [ 529138.683442020905204, 7260972.118501109071076 ], [ 529129.677239574841224, 7260967.783176516182721 ], [ 529119.944359513698146, 7260963.669286504387856 ], [ 529109.993520701071247, 7260960.075974022969604 ], [ 529099.999553894624114, 7260956.700046733021736 ], [ 529090.0, 7260953.299953268840909 ], [ 529080.0, 7260949.924025978893042 ], [ 529070.0, 7260946.329821285791695 ], [ 529060.0, 7260942.205649306997657 ], [ 529050.0, 7260937.794350693002343 ], [ 529040.0, 7260933.671070924960077 ], [ 529030.0, 7260930.086255988106132 ], [ 529020.0, 7260926.776912964880466 ], [ 529010.0, 7260923.671070925891399 ], [ 529000.0, 7260921.104585926048458 ], [ 528990.0, 7260918.906588250771165 ], [ 528980.0, 7260916.405795307829976 ], [ 528970.0, 7260913.594204692170024 ], [ 528960.0, 7260911.094303959980607 ], [ 528950.0, 7260908.905696040019393 ], [ 528940.0, 7260906.405795308761299 ], [ 528930.0, 7260903.594204693101346 ], [ 528920.0, 7260901.093411750160158 ], [ 528910.0, 7260898.895414073951542 ], [ 528900.0, 7260896.329821285791695 ], [ 528890.0, 7260893.233369001187384 ], [ 528880.0, 7260889.989718034863472 ], [ 528870.0, 7260886.689764766022563 ], [ 528860.0, 7260883.309343023225665 ], [ 528850.0, 7260880.0 ], [ 528840.0, 7260876.690656977705657 ], [ 528830.0, 7260873.309343023225665 ], [ 528820.0, 7260870.0 ], [ 528810.0, 7260866.690656977705657 ], [ 528800.0, 7260863.309343023225665 ], [ 528790.0, 7260860.0 ], [ 528780.0, 7260856.689764766953886 ], [ 528770.0, 7260853.299061057157815 ], [ 528760.0, 7260849.924025977961719 ], [ 528750.0, 7260846.329821285791695 ], [ 528740.0, 7260842.205649307928979 ], [ 528730.0, 7260837.793458482250571 ], [ 528720.0, 7260833.659004537388682 ], [ 528710.0, 7260829.9888258241117 ], [ 528700.0, 7260826.253847263753414 ], [ 528690.0, 7260821.769731804728508 ], [ 528680.0, 7260816.329821285791695 ], [ 528670.0, 7260810.35994348116219 ], [ 528660.0, 7260804.839564485475421 ], [ 528650.0, 7260800.370225446298718 ], [ 528640.0, 7260796.405795307829976 ], [ 528630.0, 7260792.129675285890698 ], [ 528620.0, 7260787.347259012982249 ], [ 528610.0, 7260782.118501110002398 ], [ 528600.0, 7260776.318647108972073 ], [ 528590.0, 7260769.923133767209947 ], [ 528580.0, 7260763.299061057157815 ], [ 528570.0, 7260756.689764766953886 ], [ 528560.0, 7260750.0 ], [ 528550.0, 7260743.309343023225665 ], [ 528540.0, 7260736.689764766953886 ], [ 528530.0, 7260729.989718034863472 ], [ 528520.0, 7260723.233369001187384 ], [ 528510.0, 7260716.329821286723018 ], [ 528500.0, 7260708.896306284703314 ], [ 528490.0, 7260701.103693716228008 ], [ 528480.0, 7260693.670178715139627 ], [ 528470.000892210751772, 7260686.766630999743938 ], [ 528460.012066387105733, 7260680.0111741758883 ], [ 528450.099214585614391, 7260673.322301620617509 ], [ 528440.546306264819577, 7260666.788979352451861 ], [ 528432.08680969348643, 7260660.535132088698447 ], [ 528425.756988407694735, 7260655.309004518203437 ] ] } },
{ "type": "Feature", "properties": { "id": 19, "reference_id": 7, "dune_id": 7, "dune_name": "Inverted Y Dune", "acquisition_date": "2019-05-10", "length_m": 565.96848385215606 }, "geometry": { "type": "LineString", "coordinates": [ [ 530115.756988407694735, 7261640.000892210751772 ], [ 530122.08680969348643, 7261640.0111741758883 ], [ 530130.546306264819577, 7261640.087148198857903 ], [ 530140.099214585614391, 7261640.447091680020094 ], [ 530150.012066387222148, 7261641.540503429248929 ], [ 530160.000892210751772, 7261643.670178715139627 ], [ 530170.000000000116415, 7261646.329821286723018 ], [ 530180.0, 7261648.459496572613716 ], [ 530190.0, 7261649.552908321842551 ], [ 530200.0, 7261649.912851802073419 ], [ 530210.0, 7261649.987933613359928 ], [ 530220.0, 7261649.987933613359928 ], [ 530230.0, 7261649.912851802073419 ], [ 530240.0, 7261649.552908321842551 ], [ 530250.0, 7261648.459496572613716 ], [ 530260.0, 7261646.329821286723018 ], [ 530270.0, 7261643.669286504387856 ], [ 530280.0, 7261641.529329252429307 ], [ 530290.0, 7261640.359051270410419 ], [ 530300.0, 7261639.62888234294951 ], [ 530310.0, 7261638.382630338892341 ], [ 530320.0, 7261635.872447640635073 ], [ 530330.0, 7261632.042527087032795 ], [ 530340.0, 7261627.422340825200081 ], [ 530350.0, 7261622.565592788159847 ], [ 530360.0, 7261617.869432504288852 ], [ 530370.0, 7261613.670178715139627 ], [ 530380.0, 7261610.0 ], [ 530390.0, 7261606.328929075039923 ], [ 530400.0, 7261602.118501110002398 ], [ 530410.0, 7261597.335192626342177 ], [ 530420.0, 7261592.031352911144495 ], [ 530430.000000000116415, 7261585.870663220062852 ], [ 530440.0, 7261578.371456162072718 ], [ 530450.0, 7261569.541734145022929 ], [ 530460.0, 7261559.911959591321647 ], [ 530469.999107789364643, 7261549.9888258241117 ], [ 530479.988825823529623, 7261539.999107789248228 ], [ 530489.912851801607758, 7261530.0 ], [ 530499.552016110159457, 7261520.0 ], [ 530508.448322394862771, 7261510.0 ], [ 530516.242673087399453, 7261500.0 ], [ 530523.222194824367762, 7261490.0 ], [ 530529.988825823529623, 7261480.0 ], [ 530536.689764766488224, 7261470.000000000931323 ], [ 530543.31023523339536, 7261460.0 ], [ 530550.01028196583502, 7261450.000892210751772 ], [ 530556.765738788526505, 7261440.012066387571394 ], [ 530563.658112327102572, 7261430.099214585497975 ], [ 530571.005371340434067, 7261420.546306264586747 ], [ 530578.361174196470529, 7261412.086809693835676 ], [ 530584.330159790813923, 7261405.756988408043981 ] ] } }
]
}
