{
"type": "FeatureCollection",
"name": "crests_2018_07_2018-07-09",
"crs": { "type": "name", "properties": { "name": "urn:ogc:def:crs:EPSG::32733" } },
"features": [
{ "type": "Feature", "properties": { "id": 0, "reference_id": 5, "dune_id": 5, "dune_name": "The Star Dune", "acquisition_date": "2018-07-09", "length_m": 871.96612882737145 }, "geometry": { "type": "LineString", "coordinates": [ [ 534307.91319030651357, 7261565.756096197292209 ], [ 534304.243011592305265, 7261572.075635517947376 ], [ 534297.913190306629986, 7261580.459158066660166 ], [ 534289.453693735180423, 7261589.651230695657432 ], [ 534279.900785414502025, 7261598.460388782434165 ], [ 534269.987933612894267, 7261606.243565298616886 ], [ 534259.999107789248228, 7261613.222194824367762 ], [ 534250.0, 7261619.9888258241117 ], [ 534240.0, 7261626.689764766022563 ], [ 534230.0, 7261633.309343023225665 ], [ 534220.0, 7261639.999107789248228 ], [ 534210.0, 7261646.678590590134263 ], [ 534200.0, 7261653.211020648479462 ], [ 534190.0, 7261659.464867912232876 ], [ 534180.0, 7261664.690995482727885 ], [ 534170.0, 7261668.001230715774 ], [ 534160.0, 7261669.476042088121176 ], [ 534150.0, 7261669.9888258241117 ], [ 534140.0, 7261670.435025292448699 ], [ 534130.0, 7261671.539611218497157 ], [ 534120.0, 7261673.670178714208305 ], [ 534110.0, 7261676.329821285791695 ], [ 534100.0, 7261678.460388781502843 ], [ 534090.0, 7261679.564082497730851 ], [ 534080.0, 7261680.0 ], [ 534070.0, 7261680.435917503200471 ], [ 534060.0, 7261681.539611218497157 ], [ 534050.0, 7261683.671070925891399 ], [ 534040.0, 7261686.340995462611318 ], [ 534030.0, 7261688.546644769608974 ], [ 534020.0, 7261690.0 ], [ 534010.0, 7261691.453355230391026 ], [ 534000.0, 7261693.659896749071777 ], [ 533990.0, 7261696.340103251859546 ], [ 533980.0, 7261698.546644769608974 ], [ 533970.0, 7261700.000892210751772 ], [ 533960.0, 7261701.464529407210648 ], [ 533950.0, 7261703.747044946998358 ], [ 533940.0, 7261706.787194930948317 ], [ 533930.0, 7261710.088040409609675 ], [ 533920.0, 7261713.681352891027927 ], [ 533910.0, 7261717.870324714109302 ], [ 533900.0, 7261722.566484998911619 ], [ 533890.0, 7261727.433515001088381 ], [ 533880.0, 7261732.13056749664247 ], [ 533870.0, 7261736.33071349747479 ], [ 533860.0, 7261740.010281966067851 ], [ 533850.0, 7261743.747044946998358 ], [ 533840.0, 7261748.241442372091115 ], [ 533830.0, 7261753.758219122886658 ], [ 533820.000892210635357, 7261760.098322375677526 ], [ 533810.011174176470377, 7261766.788979351520538 ], [ 533800.088040409144014, 7261773.75821912381798 ], [ 533790.458265855675563, 7261781.551677605137229 ], [ 533781.628543837927282, 7261790.447983890771866 ], [ 533774.129336780519225, 7261800.087148198857903 ], [ 533767.968647089437582, 7261810.011174177750945 ], [ 533762.664807373774238, 7261820.000892210751772 ], [ 533757.882391101680696, 7261830.0 ], [ 533753.681352890678681, 7261840.000000000931323 ], [ 533750.076866232673638, 7261850.0 ], [ 533746.700046732323244, 7261860.0 ], [ 533743.299953267676756, 7261870.0 ], [ 533739.923133767442778, 7261880.0 ], [ 533736.31953932007309, 7261890.0 ], [ 533732.128783074906096, 7261900.0 ], [ 533727.423233035253361, 7261910.0 ], [ 533722.489618766237982, 7261920.0 ], [ 533717.49831484653987, 7261930.0 ], [ 533712.489618766237982, 7261940.0 ], [ 533707.423233035369776, 7261950.0 ], [ 533702.128783074789681, 7261960.0 ], [ 533696.31953932007309, 7261970.0 ], [ 533689.923133767326362, 7261980.0 ], [ 533683.299953267676756, 7261989.999553894624114 ], [ 533676.700938943075016, 7261999.993520701304078 ], [ 533670.088040409144014, 7262009.944359513930976 ], [ 533663.768501089187339, 7262019.677239574491978 ], [ 533658.329482780769467, 7262028.683442020788789 ], [ 533654.20531080244109, 7262036.078100949525833 ], [ 533651.638825803645886, 7262041.078100949525833 ] ] } },
{ "type": "Feature", "properties": { "id": 1, "reference_id": 5, "dune_id": 5, "dune_name": "The Star Dune", "acquisition_date": "2018-07-09", "length_m": 89.499690848557492 }, "geometry": { "type": "LineString", "coordinates": [ [ 534320.0, 7261385.756988408043981 ], [ 534320.0, 7261392.086809693835676 ], [ 534320.000892210751772, 7261400.546306264586747 ], [ 534320.011174176470377, 7261410.099214585497975 ], [ 534320.087148198392242, 7261420.012066387571394 ], [ 534320.447091679205187, 7261430.0 ], [ 534321.540503428666852, 7261439.987933613359928 ], [ 534323.670178714208305, 7261449.900785414502025 ], [ 534326.329821285791695, 7261459.453693734481931 ], [ 534328.459496571333148, 7261467.913190307095647 ], [ 534329.552908320794813, 7261474.243011592887342 ] ] } },
{ "type": "Feature", "properties": { "id": 2, "reference_id": 4, "dune_id": 4, "dune_name": "The Star Dune", "acquisition_date": "2018-07-09", "length_m": 656.25581012043779 }, "geometry": { "type": "LineString", "coordinates": [ [ 533631.078100949525833, 7262059.912851803004742 ], [ 533626.078100949409418, 7262059.552908321842551 ], [ 533618.683442020905204, 7262058.458604361861944 ], [ 533609.677239574841224, 7262056.318647109903395 ], [ 533599.94435951358173, 7262053.582138305529952 ], [ 533589.993520701071247, 7262051.082237573340535 ], [ 533579.999553894740529, 7262048.818547841161489 ], [ 533570.0, 7262045.957811417989433 ], [ 533560.0, 7262042.042527087032795 ], [ 533550.0, 7262037.336977047845721 ], [ 533540.0, 7262032.128783075138927 ], [ 533530.0, 7262026.405795307829976 ], [ 533520.0, 7262020.370225446298718 ], [ 533510.0, 7262014.840456696227193 ], [ 533500.0, 7262010.37111765705049 ], [ 533490.0, 7262006.416969484649599 ], [ 533480.0, 7262002.216823484748602 ], [ 533470.0, 7261997.795242903754115 ], [ 533460.0, 7261993.670178715139627 ], [ 533450.0, 7261990.075974022038281 ], [ 533440.0, 7261986.700938943773508 ], [ 533430.0, 7261983.311127444729209 ], [ 533420.0, 7261980.010281965136528 ], [ 533410.0, 7261976.766630999743938 ], [ 533400.000000000116415, 7261973.670178714208305 ], [ 533390.0, 7261971.103693716228008 ], [ 533380.000000000116415, 7261968.896306285634637 ], [ 533370.0, 7261966.329821286723018 ], [ 533360.0, 7261963.234261211939156 ], [ 533350.0, 7261960.0 ], [ 533340.0, 7261956.765738788992167 ], [ 533330.0, 7261953.670178715139627 ], [ 533320.0, 7261951.103693716228008 ], [ 533310.0, 7261948.896306285634637 ], [ 533300.0, 7261946.329821284860373 ], [ 533290.0, 7261943.234261211007833 ], [ 533280.0, 7261940.0 ], [ 533270.0, 7261936.765738788992167 ], [ 533260.0, 7261933.670178715139627 ], [ 533250.0, 7261931.103693715296686 ], [ 533240.0, 7261928.896306285634637 ], [ 533230.0, 7261926.329821286723018 ], [ 533220.0, 7261923.233369001187384 ], [ 533210.0, 7261919.989718034863472 ], [ 533200.0, 7261916.689764766022563 ], [ 533190.0, 7261913.310235233977437 ], [ 533180.0, 7261910.010281966999173 ], [ 533170.0, 7261906.766630999743938 ], [ 533160.0, 7261903.670178715139627 ], [ 533150.0, 7261901.104585926048458 ], [ 533140.0, 7261898.906588250771165 ], [ 533130.0, 7261896.405795307829976 ], [ 533120.0, 7261893.594204692170024 ], [ 533110.0, 7261891.094303959980607 ], [ 533100.0, 7261888.906588250771165 ], [ 533090.0, 7261886.416077273897827 ], [ 533080.0, 7261883.670178714208305 ], [ 533070.0, 7261881.454247441142797 ], [ 533060.0, 7261880.0 ], [ 533050.000892210751772, 7261878.546644769608974 ], [ 533040.012066387105733, 7261876.340995462611318 ], [ 533030.099214585614391, 7261873.671070925891399 ], [ 533020.546306264819577, 7261871.540503429248929 ], [ 533012.08680969348643, 7261870.447091680020094 ], [ 533005.756988407694735, 7261870.087148198857903 ] ] } },
{ "type": "Feature", "properties": { "id": 3, "reference_id": 1, "dune_id": 1, "dune_name": "Big Mommy Dune", "acquisition_date": "2018-07-09", "length_m": 78.486023183912039 }, "geometry": { "type": "LineString", "coordinates": [ [ 529020.0, 7261565.756988408043981 ], [ 529020.0, 7261572.086809693835676 ], [ 529020.0, 7261580.546306265518069 ], [ 529020.0, 7261590.099214585497975 ], [ 529020.0, 7261600.011174176819623 ], [ 529020.0, 7261609.9888258241117 ], [ 529020.0, 7261619.900785414502025 ], [ 529020.0, 7261629.453693736344576 ], [ 529020.0, 7261637.913190307095647 ], [ 529020.0, 7261644.243011591956019 ] ] } },
{ "type": "Feature", "properties": { "id": 4, "reference_id": 1, "dune_id": 1, "dune_name": "Big Mommy Dune", "acquisition_date": "2018-07-09", "length_m": 476.72556120740711 }, "geometry": { "type": "LineString", "coordinates": [ [ 529180.0, 7261075.756988408043981 ], [ 529180.0, 7261082.086809693835676 ], [ 529179.999107789364643, 7261090.546306265518069 ], [ 529179.988825823529623, 7261100.099214585497975 ], [ 529179.911959590855986, 7261110.012066386640072 ], [ 529179.541734144324437, 7261120.000892211683095 ], [ 529178.372348372940905, 7261130.0 ], [ 529175.881837395951152, 7261140.0 ], [ 529172.118501109071076, 7261150.0 ], [ 529167.783176516182721, 7261160.0 ], [ 529163.669286503456533, 7261170.0 ], [ 529160.075974022038281, 7261180.0 ], [ 529156.700046732323244, 7261190.0 ], [ 529153.299953267676756, 7261200.0 ], [ 529149.923133767442778, 7261210.000000000931323 ], [ 529146.319539319956675, 7261220.0 ], [ 529142.128783074906096, 7261230.0 ], [ 529137.423233035369776, 7261240.0 ], [ 529132.490510976873338, 7261250.0 ], [ 529127.509489023126662, 7261260.0 ], [ 529122.576766964630224, 7261270.0 ], [ 529117.870324714574963, 7261280.0 ], [ 529113.670178714208305, 7261290.0 ], [ 529110.000892210751772, 7261300.0 ], [ 529106.3401032515103, 7261310.000000000931323 ], [ 529102.206541518098675, 7261320.0 ], [ 529097.793458481901325, 7261330.0 ], [ 529093.6598967484897, 7261340.0 ], [ 529089.999107789248228, 7261350.0 ], [ 529086.329821285791695, 7261360.0 ], [ 529082.130567496176809, 7261370.0 ], [ 529077.433515001088381, 7261380.0 ], [ 529072.566484998911619, 7261390.0 ], [ 529067.870324714574963, 7261400.0 ], [ 529063.68046067992691, 7261410.0 ], [ 529060.076866232673638, 7261420.0 ], [ 529056.700938943075016, 7261430.0 ], [ 529053.310235233511776, 7261440.0 ], [ 529050.0, 7261450.0 ], [ 529046.690656977239996, 7261460.0 ], [ 529043.31023523339536, 7261470.000000000931323 ], [ 529040.011174176470377, 7261479.999107789248228 ], [ 529036.777805175632238, 7261489.987933613359928 ], [ 529033.757326912600547, 7261499.900785414502025 ], [ 529031.551677605253644, 7261509.453693735413253 ], [ 529030.447983889840543, 7261517.913190307095647 ], [ 529030.087148198508658, 7261524.243011592887342 ] ] } },
{ "type": "Feature", "properties": { "id": 5, "reference_id": 1, "dune_id": 1, "dune_name": "Big Mommy Dune", "acquisition_date": "2018-07-09", "length_m": 517.43295701282193 }, "geometry": { "type": "LineString", "coordinates": [ [ 529109.552908320794813, 7261825.756988408043981 ], [ 529108.459496571216732, 7261832.086809693835676 ], [ 529106.328929075156339, 7261840.546306265518069 ], [ 529103.658112326986156, 7261850.099214585497975 ], [ 529101.442181053804234, 7261860.012066387571394 ], [ 529099.911959590855986, 7261870.000892210751772 ], [ 529098.08748670341447, 7261880.0 ], [ 529094.702169658616185, 7261890.0 ], [ 529089.465760122518986, 7261900.0 ], [ 529083.211020647897385, 7261910.0 ], [ 529076.678590590134263, 7261920.0 ], [ 529069.999107789364643, 7261930.0 ], [ 529063.309343022760004, 7261940.0 ], [ 529056.690656977239996, 7261950.0 ], [ 529050.000892210635357, 7261960.0 ], [ 529043.32051719923038, 7261970.0 ], [ 529036.777805175632238, 7261980.0 ], [ 529030.447983889840543, 7261990.0 ], [ 529024.861020627897233, 7262000.0 ], [ 529020.447983889840543, 7262010.0 ], [ 529016.776912965113297, 7262020.0 ], [ 529013.310235233511776, 7262030.0 ], [ 529009.924025978078134, 7262040.0 ], [ 529006.31953932007309, 7262050.0 ], [ 529002.128783074789681, 7262060.0 ], [ 528997.423233035369776, 7262070.0 ], [ 528992.489618766237982, 7262080.0 ], [ 528987.498314846656285, 7262090.0 ], [ 528982.488726555602625, 7262100.0 ], [ 528977.4120588588994, 7262110.0 ], [ 528972.041634876397438, 7262120.0 ], [ 528965.871555430116132, 7262130.0 ], [ 528958.371456162189133, 7262140.0 ], [ 528949.541734144324437, 7262150.0 ], [ 528939.911959590972401, 7262159.999107789248228 ], [ 528929.988825823529623, 7262169.9888258241117 ], [ 528919.999107789364643, 7262179.911959591321647 ], [ 528910.0, 7262189.541734144091606 ], [ 528900.0, 7262198.371456162072718 ], [ 528890.0, 7262205.871555430814624 ], [ 528880.0, 7262212.040742666460574 ], [ 528870.000892210751772, 7262217.399992471560836 ], [ 528860.012066387222148, 7262222.390404180623591 ], [ 528850.099214585497975, 7262226.964074969291687 ], [ 528840.546306264819577, 7262230.501131447963417 ], [ 528832.08680969348643, 7262232.201376715674996 ], [ 528825.756988407694735, 7262232.041634876281023 ] ] } },
{ "type": "Feature", "properties": { "id": 6, "reference_id": 8, "dune_id": 8, "dune_name": "Inverted Y Dune", "acquisition_date": "2018-07-09", "length_m": 522.47165598206345 }, "geometry": { "type": "LineString", "coordinates": [ [ 530096.846263533574529, 7261591.078100949525833 ], [ 530098.25205884128809, 7261586.078100949525833 ], [ 530099.676839964813553, 7261578.683442020788789 ], [ 530101.316957589122467, 7261569.6772395754233 ], [ 530103.626604615012184, 7261559.944359513930976 ], [ 530106.324234197614715, 7261549.993520701304078 ], [ 530108.459050465957262, 7261539.999553894624114 ], [ 530109.552908320911229, 7261530.0 ], [ 530109.913744012243114, 7261520.0 ], [ 530110.0, 7261510.0 ], [ 530110.086255987756886, 7261500.0 ], [ 530110.447091679205187, 7261490.0 ], [ 530111.540503428666852, 7261480.0 ], [ 530113.671070924960077, 7261470.000000000931323 ], [ 530116.340995462262072, 7261460.0 ], [ 530118.54664476972539, 7261450.0 ], [ 530120.0, 7261440.0 ], [ 530121.454247441026382, 7261430.0 ], [ 530123.670178714208305, 7261420.0 ], [ 530126.416077273664996, 7261410.0 ], [ 530128.907480461173691, 7261400.0 ], [ 530131.104585926048458, 7261390.0 ], [ 530133.670178714208305, 7261380.0 ], [ 530136.766630999278277, 7261370.0 ], [ 530140.011174176586792, 7261360.0 ], [ 530143.321409409982152, 7261350.0 ], [ 530146.777805175632238, 7261340.0 ], [ 530150.447983889840543, 7261330.0 ], [ 530154.861912838649005, 7261320.0 ], [ 530160.45915806631092, 7261310.000000000931323 ], [ 530166.864953374140896, 7261300.0 ], [ 530173.768501089187339, 7261290.000892210751772 ], [ 530181.552569815889001, 7261280.0111741758883 ], [ 530190.447983889840543, 7261270.088040409609675 ], [ 530200.087148198392242, 7261260.458265855908394 ], [ 530210.011174176470377, 7261251.628543837927282 ], [ 530220.000892210635357, 7261244.128444569185376 ], [ 530230.0, 7261237.958365123718977 ], [ 530240.0, 7261232.588833352550864 ], [ 530250.0, 7261227.522447621449828 ], [ 530260.0, 7261222.588833352550864 ], [ 530270.0, 7261217.958365123718977 ], [ 530280.0, 7261214.127552360296249 ], [ 530290.0, 7261211.617369662038982 ], [ 530300.0, 7261210.371117657981813 ], [ 530309.999107789364643, 7261209.640948730520904 ], [ 530319.987933612894267, 7261208.470670748502016 ], [ 530329.900785414502025, 7261206.330713496543467 ], [ 530339.453693735180423, 7261203.670178713276982 ], [ 530347.91319030651357, 7261201.540503428317606 ], [ 530354.243011592305265, 7261200.447091678157449 ] ] } },
{ "type": "Feature", "properties": { "id": 7, "reference_id": 8, "dune_id": 8, "dune_name": "Inverted Y Dune", "acquisition_date": "2018-07-09", "length_m": 68.486023184610531 }, "geometry": { "type": "LineString", "coordinates": [ [ 530464.243011592305265, 7261210.000000000931323 ], [ 530457.91319030651357, 7261210.000000000931323 ], [ 530449.453693735296838, 7261210.000000000931323 ], [ 530439.901677625137381, 7261210.000000000931323 ], [ 530430.000000000116415, 7261210.000000000931323 ], [ 530420.098322374979034, 7261210.000000000931323 ], [ 530410.546306264819577, 7261210.000000000931323 ], [ 530402.08680969348643, 7261210.000000000931323 ], [ 530395.756988407694735, 7261210.000000000931323 ] ] } },
{ "type": "Feature", "properties": { "id": 8, "reference_id": 8, "dune_id": 8, "dune_name": "Inverted Y Dune", "acquisition_date": "2018-07-09", "length_m": 60.433255638092646 }, "geometry": { "type": "LineString", "coordinates": [ [ 530505.756988407694735, 7261207.914082517847419 ], [ 530512.085917482851073, 7261204.255077979527414 ], [ 530520.534239877597429, 7261198.012404892593622 ], [ 530530.0, 7261190.0 ], [ 530539.465760122402571, 7261181.987595107406378 ], [ 530547.914082517265342, 7261175.744922020472586 ], [ 530554.243011592305265, 7261172.085917483083904 ] ] } },
{ "type": "Feature", "properties": { "id": 9, "reference_id": 3, "dune_id": 3, "dune_name": "Big Mommy Dune", "acquisition_date": "2018-07-09", "length_m": 359.02696723801324 }, "geometry": { "type": "LineString", "coordinates": [ [ 529374.243011592305265, 7260694.216484978795052 ], [ 529367.914082517265342, 7260698.416630979627371 ], [ 529359.464867911650799, 7260704.216484978795052 ], [ 529349.987933612894267, 7260711.639718014746904 ], [ 529340.435025291983038, 7260720.459158066660166 ], [ 529331.540503428783268, 7260730.088040409609675 ], [ 529323.681352890678681, 7260740.011174176819623 ], [ 529316.416969484300353, 7260750.000892210751772 ], [ 529308.907480461173691, 7260760.0 ], [ 529301.104585926048458, 7260770.0 ], [ 529293.671070924960077, 7260780.000000000931323 ], [ 529286.776912964996882, 7260790.0 ], [ 529280.086255987756886, 7260800.0 ], [ 529273.671070924960077, 7260810.0 ], [ 529267.794350692536682, 7260820.0 ], [ 529262.205649307463318, 7260830.0 ], [ 529256.32982128590811, 7260840.0 ], [ 529249.924025978078134, 7260850.0 ], [ 529243.299061057041399, 7260860.0 ], [ 529236.689764766488224, 7260870.0 ], [ 529230.0, 7260880.0 ], [ 529223.310235233511776, 7260890.0 ], [ 529216.700938943075016, 7260900.0 ], [ 529210.075974022038281, 7260910.0 ], [ 529203.669286503456533, 7260920.0 ], [ 529197.783622621442191, 7260929.999107789248228 ], [ 529192.124980407999828, 7260939.987933613359928 ], [ 529185.937477882369421, 7260949.900785415433347 ], [ 529178.695108798099682, 7260959.453693736344576 ], [ 529170.858292123419233, 7260967.913190307095647 ], [ 529163.833858641446568, 7260974.243011591956019 ], [ 529158.910724874120206, 7260977.913190307095647 ] ] } },
{ "type": "Feature", "properties": { "id": 10, "reference_id": 3, "dune_id": 3, "dune_name": "Big Mommy Dune", "acquisition_date": "2018-07-09", "length_m": 214.90326616839644 }, "geometry": { "type": "LineString", "coordinates": [ [ 529405.756988407694735, 7260678.448322394862771 ], [ 529412.08680969348643, 7260676.242673087865114 ], [ 529420.546306264819577, 7260673.223087035119534 ], [ 529430.099214585614391, 7260669.999107789248228 ], [ 529440.012066387222148, 7260666.765738788992167 ], [ 529450.000892210751772, 7260663.670178714208305 ], [ 529460.0, 7260661.10458592697978 ], [ 529470.0, 7260658.906588250771165 ], [ 529480.0, 7260656.405795307829976 ], [ 529490.0, 7260653.594204692170024 ], [ 529500.000000000116415, 7260651.094303959980607 ], [ 529510.0, 7260648.905696040019393 ], [ 529520.0, 7260646.405795307829976 ], [ 529530.0, 7260643.594204693101346 ], [ 529540.0, 7260641.094303959980607 ], [ 529550.0, 7260638.906588250771165 ], [ 529560.0, 7260636.416969483718276 ], [ 529569.999107789248228, 7260633.681352891027927 ], [ 529579.987933612894267, 7260631.541395640000701 ], [ 529589.900785414502025, 7260630.447091680020094 ], [ 529599.453693735180423, 7260630.087148198857903 ], [ 529607.91319030651357, 7260630.011174176819623 ], [ 529614.243011592421681, 7260630.000892210751772 ] ] } },
{ "type": "Feature", "properties": { "id": 11, "reference_id": 3, "dune_id": 3, "dune_name": "Big Mommy Dune", "acquisition_date": "2018-07-09", "length_m": 58.486023184610531 }, "geometry": { "type": "LineString", "coordinates": [ [ 529704.243011592305265, 7260620.0 ], [ 529697.91319030651357, 7260620.0 ], [ 529689.454585945932195, 7260620.0 ], [ 529679.912851801607758, 7260620.0 ], [ 529670.087148198508658, 7260620.0 ], [ 529660.545414054067805, 7260620.0 ], [ 529652.08680969348643, 7260620.0 ], [ 529645.756988407694735, 7260620.0 ] ] } },
{ "type": "Feature", "properties": { "id": 12, "reference_id": 3, "dune_id": 3, "dune_name": "Big Mommy Dune", "acquisition_date": "2018-07-09", "length_m": 238.48602318461053 }, "geometry": { "type": "LineString", "coordinates": [ [ 529735.756988407694735, 7260610.0 ], [ 529742.08680969348643, 7260610.0 ], [ 529750.546306264819577, 7260610.0 ], [ 529760.099214585614391, 7260610.0 ], [ 529770.012066387222148, 7260610.0 ], [ 529780.000892210751772, 7260610.0 ], [ 529790.0, 7260610.0 ], [ 529800.0, 7260610.0 ], [ 529810.0, 7260610.0 ], [ 529820.0, 7260610.0 ], [ 529830.0, 7260610.0 ], [ 529840.0, 7260610.0 ], [ 529850.0, 7260610.0 ], [ 529860.0, 7260610.0 ], [ 529870.0, 7260610.0 ], [ 529880.0, 7260610.0 ], [ 529890.0, 7260610.0 ], [ 529900.0, 7260610.0 ], [ 529910.0, 7260610.0 ], [ 529920.0, 7260610.0 ], [ 529929.999107789364643, 7260610.0 ], [ 529939.987933612894267, 7260610.0 ], [ 529949.900785414502025, 7260610.0 ], [ 529959.453693735180423, 7260610.0 ], [ 529967.91319030651357, 7260610.0 ], [ 529974.243011592305265, 7260610.0 ] ] } },
{ "type": "Feature", "properties": { "id": 13, "reference_id": 3, "dune_id": 3, "dune_name": "Big Mommy Dune", "acquisition_date": "2018-07-09", "length_m": 161.92258050230117 }, "geometry": { "type": "LineString", "coordinates": [ [ 530085.756988407694735, 7260599.999107789248228 ], [ 530092.08680969348643, 7260599.9888258241117 ], [ 530100.546306264819577, 7260599.912851802073419 ], [ 530110.099214585614391, 7260599.552908321842551 ], [ 530120.012066387222148, 7260598.458604360930622 ], [ 530130.000892210751772, 7260596.318647108972073 ], [ 530140.0, 7260593.583030516281724 ], [ 530150.0, 7260591.093411749228835 ], [ 530160.0, 7260588.905696040019393 ], [ 530170.000000000116415, 7260586.405795307829976 ], [ 530180.0, 7260583.594204692170024 ], [ 530190.0, 7260581.094303959980607 ], [ 530199.999107789248228, 7260578.906588250771165 ], [ 530209.987933612894267, 7260576.416969484649599 ], [ 530219.900785414385609, 7260573.681352891027927 ], [ 530229.453693735180423, 7260571.541395640000701 ], [ 530237.91319030651357, 7260570.447091680020094 ], [ 530244.243011592421681, 7260570.087148198857903 ] ] } },
{ "type": "Feature", "properties": { "id": 14, "reference_id": 2, "dune_id": 2, "dune_name": "Big Mommy Dune", "acquisition_date": "2018-07-09", "length_m": 801.21884358813111 }, "geometry": { "type": "LineString", "coordinates": [ [ 529151.078100949409418, 7260978.448322394862771 ], [ 529146.078100949409418, 7260976.241780877113342 ], [ 529138.683442020905204, 7260973.211912859231234 ], [ 529129.677239574841224, 7260969.911959590390325 ], [ 529119.944359513698146, 7260966.318647108972073 ], [ 529109.993520701071247, 7260962.129675285890698 ], [ 529099.999553894624114, 7260957.433515002019703 ], [ 529090.0, 7260952.566484998911619 ], [ 529080.0, 7260947.870324715040624 ], [ 529070.0, 7260943.680460680276155 ], [ 529060.0, 7260940.076866232790053 ], [ 529050.0, 7260936.700938942842185 ], [ 529040.0, 7260933.311127443797886 ], [ 529030.0, 7260930.010281965136528 ], [ 529020.0, 7260926.766630999743938 ], [ 529010.0, 7260923.670178715139627 ], [ 529000.0, 7260921.104585926048458 ], [ 528990.0, 7260918.906588250771165 ], [ 528980.0, 7260916.405795307829976 ], [ 528970.0, 7260913.594204692170024 ], [ 528960.0, 7260911.094303959980607 ], [ 528950.0, 7260908.905696040019393 ], [ 528940.0, 7260906.405795308761299 ], [ 528930.0, 7260903.594204693101346 ], [ 528920.0, 7260901.093411750160158 ], [ 528910.0, 7260898.895414073951542 ], [ 528900.0, 7260896.329821285791695 ], [ 528890.0, 7260893.234261211939156 ], [ 528880.0, 7260890.0 ], [ 528870.0, 7260886.765738788992167 ], [ 528860.0, 7260883.670178715139627 ], [ 528850.0, 7260881.103693716228008 ], [ 528840.0, 7260878.896306285634637 ], [ 528830.0, 7260876.328929075971246 ], [ 528820.0, 7260873.223087035119534 ], [ 528810.0, 7260869.913744012825191 ], [ 528800.0, 7260866.328929075971246 ], [ 528790.0, 7260862.205649307928979 ], [ 528780.0, 7260857.794350693002343 ], [ 528770.0, 7260853.670178714208305 ], [ 528760.0, 7260850.075974022038281 ], [ 528750.0, 7260846.700046733021736 ], [ 528740.0, 7260843.299953267909586 ], [ 528730.0, 7260839.92313376814127 ], [ 528720.0, 7260836.319539319723845 ], [ 528710.0, 7260832.128783075138927 ], [ 528700.0, 7260827.423233035951853 ], [ 528690.0, 7260822.489618766121566 ], [ 528680.0, 7260817.499207057058811 ], [ 528670.0, 7260812.499900732189417 ], [ 528660.0, 7260807.499207057058811 ], [ 528650.0, 7260802.489618767052889 ], [ 528640.0, 7260797.423233035951853 ], [ 528630.0, 7260792.129675285890698 ], [ 528620.0, 7260786.329821286723018 ], [ 528610.0, 7260779.999107790179551 ], [ 528600.0, 7260773.659896748140454 ], [ 528590.0, 7260767.793458482250571 ], [ 528580.0, 7260762.205649306997657 ], [ 528570.0, 7260756.329821286723018 ], [ 528560.0, 7260749.924025977961719 ], [ 528550.0, 7260743.299061057157815 ], [ 528540.0, 7260736.688872556202114 ], [ 528530.0, 7260729.989718034863472 ], [ 528520.0, 7260723.233369001187384 ], [ 528510.0, 7260716.329821286723018 ], [ 528500.0, 7260708.896306284703314 ], [ 528490.0, 7260701.103693716228008 ], [ 528480.0, 7260693.670178715139627 ], [ 528470.000892210751772, 7260686.766630999743938 ], [ 528460.012066387105733, 7260680.0111741758883 ], [ 528450.099214585614391, 7260673.322301620617509 ], [ 528440.546306264819577, 7260666.788979352451861 ], [ 528432.08680969348643, 7260660.535132088698447 ], [ 528425.756988407694735, 7260655.309004518203437 ] ] } },
{ "type": "Feature", "properties": { "id": 15, "reference_id": 6, "dune_id": 6, "dune_name": "The Star Dune", "acquisition_date": "2018-07-09", "length_m": 535.63566277862913 }, "geometry": { "type": "LineString", "coordinates": [ [ 533560.458265855675563, 7262844.243011592887342 ], [ 533561.628543837810867, 7262837.913190307095647 ], [ 533564.128444569883868, 7262829.453693736344576 ], [ 533567.957472912967205, 7262819.900785414502025 ], [ 533572.576766964746639, 7262809.987933613359928 ], [ 533577.424125246121548, 7262799.999107789248228 ], [ 533582.053701263619587, 7262790.0 ], [ 533585.958703628624789, 7262780.0 ], [ 533588.81854784139432, 7262770.0 ], [ 533591.082237573107705, 7262760.0 ], [ 533593.582138305064291, 7262750.0 ], [ 533596.318647109321319, 7262740.0 ], [ 533598.458604360581376, 7262730.0 ], [ 533599.552908320794813, 7262720.0 ], [ 533599.912851801607758, 7262710.0 ], [ 533599.988825823529623, 7262700.0 ], [ 533600.0, 7262690.0 ], [ 533600.011174176470377, 7262680.0 ], [ 533600.087148198392242, 7262670.0 ], [ 533600.447091679205187, 7262660.0 ], [ 533601.540503428783268, 7262650.0 ], [ 533603.670178714208305, 7262640.0 ], [ 533606.330713496543467, 7262630.0 ], [ 533608.470670747803524, 7262620.0 ], [ 533609.640056519303471, 7262610.0 ], [ 533610.360835691448301, 7262600.000000000931323 ], [ 533611.540503428783268, 7262590.0 ], [ 533613.756434701848775, 7262580.0 ], [ 533616.776912964996882, 7262570.0 ], [ 533620.000892210635357, 7262560.0 ], [ 533623.234261211473495, 7262550.0 ], [ 533626.329821285791695, 7262540.0 ], [ 533628.896306284703314, 7262530.0 ], [ 533631.103693715296686, 7262520.0 ], [ 533633.670178714208305, 7262510.0 ], [ 533636.765738788526505, 7262500.0 ], [ 533640.000000000116415, 7262490.0 ], [ 533643.234261211473495, 7262480.0 ], [ 533646.329821285791695, 7262470.0 ], [ 533648.896306284703314, 7262460.0 ], [ 533651.103693715413101, 7262450.0 ], [ 533653.670178714208305, 7262440.0 ], [ 533656.765738788526505, 7262430.0 ], [ 533660.0, 7262420.0 ], [ 533663.234261211473495, 7262410.0 ], [ 533666.329821285791695, 7262400.0 ], [ 533668.895414073951542, 7262390.0 ], [ 533671.092519538942724, 7262380.0 ], [ 533673.583030515816063, 7262370.000892210751772 ], [ 533676.318647109437734, 7262360.012066387571394 ], [ 533678.458604360697791, 7262350.099214585497975 ], [ 533679.552908320911229, 7262340.546306265518069 ], [ 533679.912851801607758, 7262332.086809692904353 ], [ 533679.988825823646039, 7262325.756988408043981 ] ] } },
{ "type": "Feature", "properties": { "id": 16, "reference_id": 6, "dune_id": 6, "dune_name": "The Star Dune", "acquisition_date": "2018-07-09", "length_m": 182.04549939616646 }, "geometry": { "type": "LineString", "coordinates": [ [ 533653.670178714208305, 7262085.756988408043981 ], [ 533656.329821285791695, 7262092.086809693835676 ], [ 533658.459496571216732, 7262100.546306264586747 ], [ 533659.552908320911229, 7262110.099214585497975 ], [ 533659.912851801607758, 7262120.012066387571394 ], [ 533659.988825823529623, 7262130.000892210751772 ], [ 533659.999107789248228, 7262140.0 ], [ 533660.0, 7262150.0 ], [ 533660.0, 7262160.0 ], [ 533660.000892210751772, 7262170.0 ], [ 533660.011174176470377, 7262180.0 ], [ 533660.087148198392242, 7262190.0 ], [ 533660.447983889840543, 7262200.0 ], [ 533661.551677605137229, 7262210.0 ], [ 533663.757326912600547, 7262219.999107789248228 ], [ 533666.776912964996882, 7262229.987933613359928 ], [ 533670.0, 7262239.900785414502025 ], [ 533673.223087035119534, 7262249.453693735413253 ], [ 533676.242673087399453, 7262257.913190307095647 ], [ 533678.448322394862771, 7262264.243011591956019 ] ] } },
{ "type": "Feature", "properties": { "id": 17, "reference_id": 9, "dune_id": 9, "dune_name": "Inverted Y Dune", "acquisition_date": "2018-07-09", "length_m": 737.33546810694725 }, "geometry": { "type": "LineString", "coordinates": [ [ 529670.447983889840543, 7262174.243011591956019 ], [ 529671.552569815889001, 7262167.913190307095647 ], [ 529673.768501089070924, 7262159.453693735413253 ], [ 529676.864953374140896, 7262149.900785414502025 ], [ 529680.458265855675563, 7262139.987933613359928 ], [ 529684.850738662178628, 7262129.999107789248228 ], [ 529690.360835691448301, 7262120.0 ], [ 529696.329821285791695, 7262110.0 ], [ 529701.769731804728508, 7262100.0 ], [ 529706.253847263869829, 7262090.0 ], [ 529709.988825823529623, 7262080.0 ], [ 529713.659004537737928, 7262070.0 ], [ 529717.793458481901325, 7262060.0 ], [ 529722.20654151821509, 7262050.0 ], [ 529726.340103251626715, 7262040.0 ], [ 529730.000892210635357, 7262030.0 ], [ 529733.670178714208305, 7262020.0 ], [ 529737.869432503823191, 7262010.0 ], [ 529742.566484998911619, 7262000.0 ], [ 529747.433515001204796, 7261990.0 ], [ 529752.129675285425037, 7261980.0 ], [ 529756.319539319956675, 7261970.0 ], [ 529759.923133767326362, 7261960.0 ], [ 529763.299061056924984, 7261950.0 ], [ 529766.689764766488224, 7261940.0 ], [ 529770.0, 7261930.0 ], [ 529773.309343022760004, 7261920.0 ], [ 529776.690656977239996, 7261910.0 ], [ 529780.000892210751772, 7261900.0 ], [ 529783.32051719923038, 7261890.0 ], [ 529786.777805175632238, 7261880.0 ], [ 529790.447983889840543, 7261870.0 ], [ 529794.861912838649005, 7261860.0 ], [ 529800.45915806631092, 7261850.0 ], [ 529806.864953374140896, 7261840.000000000931323 ], [ 529813.768501089187339, 7261830.0 ], [ 529821.552569815889001, 7261820.0 ], [ 529830.447983889840543, 7261810.0 ], [ 529840.087148198392242, 7261800.0 ], [ 529850.011174176470377, 7261790.0 ], [ 529860.000892210751772, 7261780.0 ], [ 529870.0, 7261770.0 ], [ 529880.0, 7261760.000892210751772 ], [ 529890.0, 7261750.011174176819623 ], [ 529900.0, 7261740.087148198857903 ], [ 529910.0, 7261730.447983890771866 ], [ 529920.0, 7261721.551677605137229 ], [ 529930.0, 7261713.757326913066208 ], [ 529940.0, 7261706.777805175632238 ], [ 529950.0, 7261700.011174177750945 ], [ 529960.0, 7261693.310235233977437 ], [ 529970.0, 7261686.690656976774335 ], [ 529980.0, 7261680.0 ], [ 529990.0, 7261673.310235233977437 ], [ 530000.0, 7261666.700938943773508 ], [ 530010.0, 7261660.075974022969604 ], [ 530020.0, 7261653.669286503456533 ], [ 530030.0, 7261647.783176517114043 ], [ 530039.999553894624114, 7261642.118947215378284 ], [ 530049.993520701071247, 7261635.888316694647074 ], [ 530059.944359513698146, 7261628.427988858893514 ], [ 530069.677239574841224, 7261619.864494569599628 ], [ 530078.683442020905204, 7261611.228517569601536 ], [ 530086.078100949409418, 7261603.910724874585867 ], [ 530091.078100949525833, 7261598.921006839722395 ] ] } },
{ "type": "Feature", "properties": { "id": 18, "reference_id": 7, "dune_id": 7, "dune_name": "Inverted Y Dune", "acquisition_date": "2018-07-09", "length_m": 483.64211266776039 }, "geometry": { "type": "LineString", "coordinates": [ [ 530585.79468919755891, 7261395.756988408043981 ], [ 530581.670517219230533, 7261402.086809693835676 ], [ 530576.231498910929076, 7261410.546306265518069 ], [ 530569.911959590855986, 7261420.099214585497975 ], [ 530563.298168846289627, 7261430.012066386640072 ], [ 530556.68976476660464, 7261440.000892210751772 ], [ 530550.0, 7261450.0 ], [ 530543.309343022760004, 7261460.0 ], [ 530536.689764766488224, 7261470.000000000931323 ], [ 530529.988825823529623, 7261480.0 ], [ 530523.222194824367762, 7261490.0 ], [ 530516.242673087399453, 7261500.0 ], [ 530508.448322394862771, 7261510.0 ], [ 530499.552016110159457, 7261520.0 ], [ 530489.912851801607758, 7261529.999107789248228 ], [ 530479.988825823529623, 7261539.9888258241117 ], [ 530469.999107789364643, 7261549.912851801142097 ], [ 530460.0, 7261559.552016111090779 ], [ 530450.0, 7261568.448322394862771 ], [ 530440.0, 7261576.241780877113342 ], [ 530430.000000000116415, 7261583.211912859231234 ], [ 530420.0, 7261589.911959591321647 ], [ 530410.0, 7261596.317754898220301 ], [ 530400.0, 7261602.118501110002398 ], [ 530390.0, 7261607.346366802230477 ], [ 530380.0, 7261612.119393319822848 ], [ 530370.0, 7261616.328929075971246 ], [ 530360.0, 7261619.999107789248228 ], [ 530350.0, 7261623.659004537388682 ], [ 530340.0, 7261627.782284305430949 ], [ 530330.0, 7261632.119393319822848 ], [ 530320.0, 7261635.893011572770774 ], [ 530310.0, 7261638.459496570751071 ], [ 530300.0, 7261639.9888258241117 ], [ 530290.0, 7261641.452463019639254 ], [ 530280.0, 7261643.659004538320005 ], [ 530270.0, 7261646.328929075971246 ], [ 530260.0, 7261648.459496572613716 ], [ 530250.000892210635357, 7261649.552908321842551 ], [ 530240.012066387222148, 7261649.912851802073419 ], [ 530230.099214585614391, 7261649.9888258241117 ], [ 530220.546306264819577, 7261649.999107790179551 ], [ 530212.08680969348643, 7261650.0 ], [ 530205.756988407694735, 7261650.0 ] ] } }
]
}
