{
"type": "FeatureCollection",
"name": "crests_2022_04_2022-04-01",
"crs": { "type": "name", "properties": { "name": "urn:ogc:def:crs:EPSG::32733" } },
"features": [
{ "type": "Feature", "properties": { "id": 0, "reference_id": 3, "dune_id": 3, "dune_name": "Big Mommy Dune", "acquisition_date": "2022-04-01", "length_m": 363.07444497646895 }, "geometry": { "type": "LineString", "coordinates": [ [ 529374.243011592305265, 7260695.756988408043981 ], [ 529367.91319030651357, 7260702.086809693835676 ], [ 529359.453693735180423, 7260710.546306265518069 ], [ 529349.900785414502025, 7260720.099214585497975 ], [ 529339.988825823529623, 7260730.012066388502717 ], [ 529330.01028196583502, 7260740.000892210751772 ], [ 529320.087148198508658, 7260750.0 ], [ 529310.447983889956959, 7260760.0 ], [ 529301.551677605253644, 7260770.0 ], [ 529293.757326912600547, 7260780.000000000931323 ], [ 529286.777805175632238, 7260790.0 ], [ 529280.011174176470377, 7260800.0 ], [ 529273.310235233511776, 7260810.0 ], [ 529266.690656977239996, 7260820.0 ], [ 529260.0, 7260830.0 ], [ 529253.309343022876419, 7260840.0 ], [ 529246.690656977239996, 7260850.0 ], [ 529240.0, 7260860.0 ], [ 529233.309343022760004, 7260870.0 ], [ 529226.690656977239996, 7260880.0 ], [ 529220.0, 7260890.0 ], [ 529213.310235233511776, 7260900.0 ], [ 529206.700938942958601, 7260910.0 ], [ 529200.076866232557222, 7260920.0 ], [ 529193.681352890678681, 7260930.0 ], [ 529187.882391101680696, 7260939.999553894624114 ], [ 529182.664807373774238, 7260949.993520701304078 ], [ 529177.968647089437582, 7260959.944359514862299 ], [ 529174.129336780519225, 7260969.6772395754233 ], [ 529171.628543837927282, 7260978.683442020788789 ], [ 529170.458265855675563, 7260986.078100949525833 ], [ 529170.088040409144014, 7260991.078100949525833 ] ] } },
{ "type": "Feature", "properties": { "id": 1, "reference_id": 3, "dune_id": 3, "dune_name": "Big Mommy Dune", "acquisition_date": "2022-04-01", "length_m": 214.99929676925939 }, "geometry": { "type": "LineString", "coordinates": [ [ 529405.756988407694735, 7260679.552016109228134 ], [ 529412.08680969348643, 7260678.448322394862771 ], [ 529420.546306264819577, 7260676.242673087865114 ], [ 529430.099214585614391, 7260673.223087035119534 ], [ 529440.012066387222148, 7260669.999107789248228 ], [ 529450.000892210751772, 7260666.765738788992167 ], [ 529460.0, 7260663.670178714208305 ], [ 529470.0, 7260661.103693716228008 ], [ 529480.0, 7260658.896306285634637 ], [ 529490.0, 7260656.329821285791695 ], [ 529500.000000000116415, 7260653.234261211939156 ], [ 529510.0, 7260650.000892210751772 ], [ 529520.0, 7260646.776020754128695 ], [ 529530.0, 7260643.746152736246586 ], [ 529540.0, 7260641.464529407210648 ], [ 529550.0, 7260640.000892210751772 ], [ 529560.0, 7260638.546644769608974 ], [ 529569.999107789248228, 7260636.340995462611318 ], [ 529579.987933612894267, 7260633.671070925891399 ], [ 529589.900785414502025, 7260631.540503429248929 ], [ 529599.453693735180423, 7260630.447091680020094 ], [ 529607.91319030651357, 7260630.087148198857903 ], [ 529614.243011592421681, 7260630.011174176819623 ] ] } },
{ "type": "Feature", "properties": { "id": 2, "reference_id": 3, "dune_id": 3, "dune_name": "Big Mommy Dune", "acquisition_date": "2022-04-01", "length_m": 58.486023184610531 }, "geometry": { "type": "LineString", "coordinates": [ [ 529704.243011592305265, 7260620.0 ], [ 529697.91319030651357, 7260620.0 ], [ 529689.454585945932195, 7260620.0 ], [ 529679.912851801607758, 7260620.0 ], [ 529670.087148198508658, 7260620.0 ], [ 529660.545414054067805, 7260620.0 ], [ 529652.08680969348643, 7260620.0 ], [ 529645.756988407694735, 7260620.0 ] ] } },
{ "type": "Feature", "properties": { "id": 3, "reference_id": 3, "dune_id": 3, "dune_name": "Big Mommy Dune", "acquisition_date": "2022-04-01", "length_m": 308.48602318461053 }, "geometry": { "type": "LineString", "coordinates": [ [ 529735.756988407694735, 7260610.0 ], [ 529742.08680969348643, 7260610.0 ], [ 529750.546306264819577, 7260610.0 ], [ 529760.099214585614391, 7260610.0 ], [ 529770.012066387222148, 7260610.0 ], [ 529780.000892210751772, 7260610.0 ], [ 529790.0, 7260610.0 ], [ 529800.0, 7260610.0 ], [ 529810.0, 7260610.0 ], [ 529820.0, 7260610.0 ], [ 529830.0, 7260610.0 ], [ 529840.0, 7260610.0 ], [ 529850.0, 7260610.0 ], [ 529860.0, 7260610.0 ], [ 529870.0, 7260610.0 ], [ 529880.0, 7260610.0 ], [ 529890.0, 7260610.0 ], [ 529900.0, 7260610.0 ], [ 529910.0, 7260610.0 ], [ 529920.0, 7260610.0 ], [ 529930.0, 7260610.0 ], [ 529940.0, 7260610.0 ], [ 529950.0, 7260610.0 ], [ 529960.0, 7260610.0 ], [ 529970.0, 7260610.0 ], [ 529980.0, 7260610.0 ], [ 529990.0, 7260610.0 ], [ 529999.999107789364643, 7260610.0 ], [ 530009.987933612894267, 7260610.0 ], [ 530019.900785414502025, 7260610.0 ], [ 530029.453693735180423, 7260610.0 ], [ 530037.91319030651357, 7260610.0 ], [ 530044.243011592305265, 7260610.0 ] ] } },
{ "type": "Feature", "properties": { "id": 4, "reference_id": 3, "dune_id": 3, "dune_name": "Big Mommy Dune", "acquisition_date": "2022-04-01", "length_m": 171.72668659567651 }, "geometry": { "type": "LineString", "coordinates": [ [ 530244.243011592421681, 7260570.087148198857903 ], [ 530237.91319030651357, 7260570.447091680020094 ], [ 530229.453693735180423, 7260571.540503429248929 ], [ 530219.900785414385609, 7260573.671070925891399 ], [ 530209.987933612894267, 7260576.340995462611318 ], [ 530199.999107789248228, 7260578.546644769608974 ], [ 530190.0, 7260580.0 ], [ 530180.0, 7260581.454247441142797 ], [ 530170.000000000116415, 7260583.670178714208305 ], [ 530160.0, 7260586.416077273897827 ], [ 530150.0, 7260588.906588250771165 ], [ 530140.0, 7260591.093411749228835 ], [ 530130.0, 7260593.583030516281724 ], [ 530120.000892210751772, 7260596.318647108972073 ], [ 530110.012066387222148, 7260598.458604360930622 ], [ 530100.099214585614391, 7260599.552908321842551 ], [ 530090.546306264819577, 7260599.912851802073419 ], [ 530082.08680969348643, 7260599.9888258241117 ], [ 530075.756988407694735, 7260599.999107789248228 ] ] } },
{ "type": "Feature", "properties": { "id": 5, "reference_id": 8, "dune_id": 8, "dune_name": "Inverted Y Dune", "acquisition_date": "2022-04-01", "length_m": 421.20641266218826 }, "geometry": { "type": "LineString", "coordinates": [ [ 530264.243011592421681, 7261221.628543838858604 ], [ 530257.913190306629986, 7261224.129336780868471 ], [ 530249.453693735180423, 7261227.969539299607277 ], [ 530239.900785414502025, 7261232.675981549546123 ], [ 530229.987933612777852, 7261237.969539300538599 ], [ 530219.999107789248228, 7261244.129336779937148 ], [ 530210.000892210751772, 7261251.628543837927282 ], [ 530200.011174176586792, 7261260.458265855908394 ], [ 530190.088040409144014, 7261270.088040409609675 ], [ 530180.458265855675563, 7261280.0111741758883 ], [ 530171.628543837927282, 7261290.000892210751772 ], [ 530164.129336780519225, 7261300.0 ], [ 530157.968647089553997, 7261310.000000000931323 ], [ 530152.664807373890653, 7261320.0 ], [ 530147.882391101680696, 7261330.0 ], [ 530143.681352890678681, 7261340.0 ], [ 530140.076866232673638, 7261350.0 ], [ 530136.700938943075016, 7261360.0 ], [ 530133.311127444147132, 7261370.0 ], [ 530130.01028196583502, 7261380.0 ], [ 530126.766630999278277, 7261390.0 ], [ 530123.670178714208305, 7261400.0 ], [ 530121.104585926048458, 7261410.0 ], [ 530118.907480461173691, 7261420.0 ], [ 530116.416077273548581, 7261430.0 ], [ 530113.670178714208305, 7261440.0 ], [ 530111.454247441026382, 7261450.0 ], [ 530110.0, 7261460.0 ], [ 530108.54664476972539, 7261470.000000000931323 ], [ 530106.340995462262072, 7261480.0 ], [ 530103.671070924960077, 7261490.0 ], [ 530101.540503428783268, 7261500.0 ], [ 530100.447091679205187, 7261510.0 ], [ 530100.087148198508658, 7261520.0 ], [ 530100.010728071210906, 7261529.999553894624114 ], [ 530099.995305122458376, 7261539.993520701304078 ], [ 530099.956425900803879, 7261549.944359513930976 ], [ 530099.776454160455614, 7261559.6772395754233 ], [ 530099.229748285608366, 7261568.683442020788789 ], [ 530098.164910642895848, 7261576.078100949525833 ], [ 530096.835089357104152, 7261581.078100949525833 ] ] } },
{ "type": "Feature", "properties": { "id": 6, "reference_id": 8, "dune_id": 8, "dune_name": "Inverted Y Dune", "acquisition_date": "2022-04-01", "length_m": 59.993928604463598 }, "geometry": { "type": "LineString", "coordinates": [ [ 530495.756988407694735, 7261209.453693735413253 ], [ 530502.085917482851073, 7261207.914082517847419 ], [ 530510.534239877597429, 7261204.255077979527414 ], [ 530520.0, 7261198.012404892593622 ], [ 530529.465760122402571, 7261190.0 ], [ 530537.914082517148927, 7261181.987595107406378 ], [ 530544.243011592305265, 7261175.744922020472586 ] ] } },
{ "type": "Feature", "properties": { "id": 7, "reference_id": 4, "dune_id": 4, "dune_name": "The Star Dune", "acquisition_date": "2022-04-01", "length_m": 628.34980563533634 }, "geometry": { "type": "LineString", "coordinates": [ [ 533005.756988407694735, 7261870.447091680020094 ], [ 533012.08680969348643, 7261871.541395640000701 ], [ 533020.546306264819577, 7261873.681352891027927 ], [ 533030.099214585614391, 7261876.416969484649599 ], [ 533040.012066387105733, 7261878.906588250771165 ], [ 533050.000892210751772, 7261881.093411749228835 ], [ 533060.0, 7261883.583922726102173 ], [ 533070.0, 7261886.329821285791695 ], [ 533080.0, 7261888.545752558857203 ], [ 533090.0, 7261890.000892210751772 ], [ 533100.0, 7261891.464529407210648 ], [ 533110.0, 7261893.746152736246586 ], [ 533120.0, 7261896.776020754128695 ], [ 533130.0, 7261900.000892210751772 ], [ 533140.0, 7261903.234261211939156 ], [ 533150.0, 7261906.329821286723018 ], [ 533160.0, 7261908.896306285634637 ], [ 533170.0, 7261911.103693716228008 ], [ 533180.0, 7261913.670178715139627 ], [ 533190.0, 7261916.765738788992167 ], [ 533200.0, 7261920.0 ], [ 533210.0, 7261923.234261211939156 ], [ 533220.0, 7261926.329821286723018 ], [ 533230.0, 7261928.896306285634637 ], [ 533240.0, 7261931.103693715296686 ], [ 533250.0, 7261933.670178715139627 ], [ 533260.0, 7261936.766630999743938 ], [ 533270.0, 7261940.010281966067851 ], [ 533280.0, 7261943.310235233977437 ], [ 533290.0, 7261946.689764766022563 ], [ 533300.0, 7261949.989718034863472 ], [ 533310.0, 7261953.233369001187384 ], [ 533320.0, 7261956.329821286723018 ], [ 533330.0, 7261958.895414074882865 ], [ 533340.0, 7261961.093411749228835 ], [ 533350.0, 7261963.594204693101346 ], [ 533360.0, 7261966.405795308761299 ], [ 533370.0, 7261968.906588250771165 ], [ 533380.000000000116415, 7261971.10458592697978 ], [ 533390.0, 7261973.671070924960077 ], [ 533400.000000000116415, 7261976.776912964880466 ], [ 533410.0, 7261980.086255988106132 ], [ 533420.0, 7261983.671070924960077 ], [ 533430.0, 7261987.794350693002343 ], [ 533440.0, 7261992.205649307928979 ], [ 533450.0, 7261996.329821286723018 ], [ 533460.0, 7261999.924918189644814 ], [ 533470.0, 7262003.310235233977437 ], [ 533480.0, 7262006.776020754128695 ], [ 533490.0, 7262010.436809713952243 ], [ 533500.0, 7262014.773872429504991 ], [ 533510.0, 7262020.000892210751772 ], [ 533520.0, 7262025.23640953656286 ], [ 533530.0, 7262029.639164308086038 ], [ 533540.0, 7262033.583030516281724 ], [ 533550.0, 7262037.772894551046193 ], [ 533559.999107789248228, 7262042.128783075138927 ], [ 533569.987933612894267, 7262045.968985594809055 ], [ 533579.900785414502025, 7262048.819440051913261 ], [ 533589.453693735180423, 7262051.082237573340535 ], [ 533597.913190306629986, 7262053.582138305529952 ], [ 533604.243011592421681, 7262056.318647109903395 ] ] } },
{ "type": "Feature", "properties": { "id": 8, "reference_id": 5, "dune_id": 5, "dune_name": "The Star Dune", "acquisition_date": "2022-04-01", "length_m": 95.687187792080934 }, "geometry": { "type": "LineString", "coordinates": [ [ 534334.342226177919656, 7261305.756988408043981 ], [ 534328.459496571333148, 7261312.086809693835676 ], [ 534321.540503428666852, 7261320.546306264586747 ], [ 534315.657773822080344, 7261330.099214585497975 ], [ 534312.074743306264281, 7261340.012066386640072 ], [ 534310.545414054067805, 7261350.0 ], [ 534310.099214585614391, 7261359.987933613359928 ], [ 534310.012066387222148, 7261369.900785414502025 ], [ 534310.000892210751772, 7261379.453693735413253 ], [ 534310.0, 7261387.913190307095647 ], [ 534310.0, 7261394.243011592887342 ] ] } },
{ "type": "Feature", "properties": { "id": 9, "reference_id": 5, "dune_id": 5, "dune_name": "The Star Dune", "acquisition_date": "2022-04-01", "length_m": 915.52182432256723 }, "geometry": { "type": "LineString", "coordinates": [ [ 533650.535132088349201, 7262041.078100949525833 ], [ 533651.999661495094188, 7262036.078100949525833 ], [ 533655.309004517737776, 7262028.683442020788789 ], [ 533660.535132088232785, 7262019.677239574491978 ], [ 533666.788087141467258, 7262009.944359513930976 ], [ 533673.311127444263548, 7261999.993520701304078 ], [ 533679.924025978078134, 7261989.999553894624114 ], [ 533686.31953932007309, 7261980.0 ], [ 533692.128783074789681, 7261970.0 ], [ 533697.423233035369776, 7261960.0 ], [ 533702.489618766237982, 7261950.0 ], [ 533707.498314846656285, 7261940.0 ], [ 533712.489618766237982, 7261930.0 ], [ 533717.423233035253361, 7261920.0 ], [ 533722.128783074906096, 7261910.0 ], [ 533726.319539319956675, 7261900.0 ], [ 533729.923133767326362, 7261890.0 ], [ 533733.299061057041399, 7261880.0 ], [ 533736.689764766488224, 7261870.0 ], [ 533740.000892210751772, 7261860.0 ], [ 533743.321409409865737, 7261850.0 ], [ 533746.788979352102615, 7261840.000000000931323 ], [ 533750.535132088349201, 7261830.0 ], [ 533755.309004517854191, 7261820.000892210751772 ], [ 533761.999661495094188, 7261810.011174177750945 ], [ 533770.535132088349201, 7261800.088040409609675 ], [ 533780.098322374979034, 7261790.458265855908394 ], [ 533790.012066387105733, 7261781.628543838858604 ], [ 533800.000892210751772, 7261774.128444570116699 ], [ 533810.0, 7261767.958365123718977 ], [ 533820.0, 7261762.587941141799092 ], [ 533830.0, 7261757.511273443698883 ], [ 533840.0, 7261752.500792942941189 ], [ 533850.0, 7261747.500099267810583 ], [ 533860.0, 7261742.500792942941189 ], [ 533870.0, 7261737.510381234809756 ], [ 533880.0, 7261732.576766965910792 ], [ 533890.0, 7261727.871216925792396 ], [ 533900.0, 7261723.680460680276155 ], [ 533910.0, 7261720.076866232790053 ], [ 533920.0, 7261716.700938943773508 ], [ 533930.0, 7261713.311127444729209 ], [ 533940.0, 7261710.0111741758883 ], [ 533950.0, 7261706.776912964880466 ], [ 533960.0, 7261703.746152736246586 ], [ 533970.0, 7261701.464529407210648 ], [ 533980.0, 7261700.000892210751772 ], [ 533990.0, 7261698.546644769608974 ], [ 534000.0, 7261696.340995462611318 ], [ 534010.0, 7261693.671070924960077 ], [ 534020.0, 7261691.539611218497157 ], [ 534030.0, 7261690.435917503200471 ], [ 534040.0, 7261690.0 ], [ 534050.0, 7261689.564082497730851 ], [ 534060.0, 7261688.460388783365488 ], [ 534070.0, 7261686.328929075971246 ], [ 534080.0, 7261683.659004537388682 ], [ 534090.0, 7261681.453355230391026 ], [ 534100.0, 7261680.0 ], [ 534110.0, 7261678.546644769608974 ], [ 534120.0, 7261676.340103251859546 ], [ 534130.0, 7261673.659896748140454 ], [ 534140.0, 7261671.452463019639254 ], [ 534150.0, 7261669.9888258241117 ], [ 534160.0, 7261668.458604360930622 ], [ 534170.0, 7261665.881837395951152 ], [ 534180.0, 7261662.032245121896267 ], [ 534190.0, 7261657.335192626342177 ], [ 534200.0, 7261652.117608899250627 ], [ 534210.0, 7261646.318647109903395 ], [ 534220.0, 7261639.92313376814127 ], [ 534230.0, 7261633.299061057157815 ], [ 534240.0, 7261626.688872555270791 ], [ 534250.0, 7261619.9888258241117 ], [ 534260.0, 7261613.222194824367762 ], [ 534269.999107789248228, 7261606.242673087865114 ], [ 534279.987933612894267, 7261598.448322394862771 ], [ 534289.900785414502025, 7261589.552016110159457 ], [ 534299.453693735296838, 7261579.912851802073419 ], [ 534307.91319030651357, 7261569.989718034863472 ], [ 534314.243011592305265, 7261560.011174176819623 ], [ 534317.91319030651357, 7261550.099214585497975 ], [ 534319.453693735296838, 7261540.546306265518069 ], [ 534319.900785414385609, 7261532.086809693835676 ], [ 534319.987933612894267, 7261525.756988408043981 ] ] } },
{ "type": "Feature", "properties": { "id": 10, "reference_id": 9, "dune_id": 9, "dune_name": "Inverted Y Dune", "acquisition_date": "2022-04-01", "length_m": 792.106847055088 }, "geometry": { "type": "LineString", "coordinates": [ [ 530084.243011592421681, 7261605.669840209186077 ], [ 530077.91319030651357, 7261611.638825803995132 ], [ 530069.453693735180423, 7261618.99462866038084 ], [ 530059.900785414502025, 7261626.340995462611318 ], [ 530049.987933612894267, 7261633.223979245871305 ], [ 530039.999107789364643, 7261639.913744011893868 ], [ 530030.0, 7261646.328929075971246 ], [ 530020.0, 7261652.205649306997657 ], [ 530010.0, 7261657.794350693002343 ], [ 530000.0, 7261663.670178715139627 ], [ 529990.0, 7261670.075974022038281 ], [ 529980.0, 7261676.700938943773508 ], [ 529970.0, 7261683.311127444729209 ], [ 529960.0, 7261690.011174176819623 ], [ 529950.0, 7261696.777805175632238 ], [ 529940.0, 7261703.757326913066208 ], [ 529930.0, 7261711.551677605137229 ], [ 529920.0, 7261720.447983889840543 ], [ 529910.0, 7261730.087148198857903 ], [ 529900.0, 7261740.011174176819623 ], [ 529890.0, 7261750.000892210751772 ], [ 529880.0, 7261760.0 ], [ 529870.0, 7261770.0 ], [ 529860.0, 7261780.0 ], [ 529850.000892210635357, 7261790.0 ], [ 529840.011174176586792, 7261800.0 ], [ 529830.088040409144014, 7261810.0 ], [ 529820.458265855675563, 7261820.0 ], [ 529811.628543837927282, 7261830.0 ], [ 529804.129336780519225, 7261840.000000000931323 ], [ 529797.968647089437582, 7261850.0 ], [ 529792.664807373774238, 7261860.0 ], [ 529787.882391101680696, 7261870.0 ], [ 529783.681352890678681, 7261880.0 ], [ 529780.076866232673638, 7261890.0 ], [ 529776.700938943075016, 7261900.0 ], [ 529773.310235233511776, 7261910.0 ], [ 529770.0, 7261920.0 ], [ 529766.689764766488224, 7261930.0 ], [ 529763.299061056924984, 7261940.0 ], [ 529759.923133767326362, 7261950.0 ], [ 529756.319539319956675, 7261960.0 ], [ 529752.129675285425037, 7261970.0 ], [ 529747.433515001204796, 7261980.0 ], [ 529742.566484998911619, 7261990.0 ], [ 529737.869432503823191, 7262000.0 ], [ 529733.670178714208305, 7262010.0 ], [ 529730.000892210635357, 7262020.0 ], [ 529726.340103251626715, 7262030.0 ], [ 529722.205649307463318, 7262040.0 ], [ 529717.783176516066305, 7262050.0 ], [ 529713.583922726451419, 7262060.0 ], [ 529709.639164308551699, 7262070.0 ], [ 529705.236409536330029, 7262080.0 ], [ 529700.000892210751772, 7262090.0 ], [ 529694.773872429504991, 7262100.0 ], [ 529690.436809713486582, 7262110.0 ], [ 529686.776020754361525, 7262120.0 ], [ 529683.310235233511776, 7262130.0 ], [ 529679.924918188829906, 7262140.0 ], [ 529676.329821285791695, 7262150.0 ], [ 529672.205649307463318, 7262160.0 ], [ 529667.794350692536682, 7262170.0 ], [ 529663.671070924843661, 7262180.0 ], [ 529660.087148198508658, 7262189.999107789248228 ], [ 529656.788087141467258, 7262199.987933613359928 ], [ 529653.758219123352319, 7262209.900785414502025 ], [ 529651.551677605253644, 7262219.453693735413253 ], [ 529650.447983889840543, 7262227.913190307095647 ], [ 529650.087148198392242, 7262234.243011592887342 ] ] } },
{ "type": "Feature", "properties": { "id": 11, "reference_id": 1, "dune_id": 1, "dune_name": "Big Mommy Dune", "acquisition_date": "2022-04-01", "length_m": 1340.0372899288609 }, "geometry": { "type": "LineString", "coordinates": [ [ 529180.0, 7261035.756988408043981 ], [ 529180.0, 7261042.086809693835676 ], [ 529180.0, 7261050.546306265518069 ], [ 529179.999107789364643, 7261060.099214585497975 ], [ 529179.988825823529623, 7261070.012066387571394 ], [ 529179.912851801607758, 7261080.000892210751772 ], [ 529179.552016110159457, 7261090.0 ], [ 529178.448322394862771, 7261100.0 ], [ 529176.242673087399453, 7261110.0 ], [ 529173.222194824367762, 7261120.000000000931323 ], [ 529169.988825823529623, 7261130.0 ], [ 529166.689764766488224, 7261140.0 ], [ 529163.309343022760004, 7261150.0 ], [ 529160.0, 7261160.0 ], [ 529156.68976476660464, 7261170.0 ], [ 529153.299061057041399, 7261180.0 ], [ 529149.923133767442778, 7261190.0 ], [ 529146.319539319956675, 7261200.0 ], [ 529142.129675285425037, 7261210.000000000931323 ], [ 529137.433515001088381, 7261220.0 ], [ 529132.566484998911619, 7261230.0 ], [ 529127.870324714574963, 7261240.0 ], [ 529123.680460680043325, 7261250.0 ], [ 529120.076866232673638, 7261260.0 ], [ 529116.700046732323244, 7261270.0 ], [ 529113.299953267676756, 7261280.0 ], [ 529109.923133767326362, 7261290.0 ], [ 529106.319539319956675, 7261300.0 ], [ 529102.129675285541452, 7261310.000000000931323 ], [ 529097.433515001204796, 7261320.0 ], [ 529092.566484998911619, 7261330.0 ], [ 529087.870324714574963, 7261340.0 ], [ 529083.680460680043325, 7261350.0 ], [ 529080.076866232557222, 7261360.0 ], [ 529076.700046732323244, 7261370.0 ], [ 529073.299953267676756, 7261380.0 ], [ 529069.924025978078134, 7261390.0 ], [ 529066.329821285791695, 7261400.0 ], [ 529062.205649307463318, 7261410.0 ], [ 529057.794350692536682, 7261420.0 ], [ 529053.670178714208305, 7261430.0 ], [ 529050.075974021921866, 7261440.0 ], [ 529046.700938942958601, 7261450.0 ], [ 529043.31023523339536, 7261460.0 ], [ 529040.0, 7261470.000000000931323 ], [ 529036.690656977239996, 7261480.0 ], [ 529033.310235233511776, 7261490.0 ], [ 529030.011174176586792, 7261500.0 ], [ 529026.777805175632238, 7261510.0 ], [ 529023.75643470196519, 7261520.0 ], [ 529021.540503428783268, 7261530.0 ], [ 529020.360835691448301, 7261540.0 ], [ 529019.640056519303471, 7261550.0 ], [ 529018.470670747803524, 7261560.000000000931323 ], [ 529016.330713496543467, 7261570.0 ], [ 529013.670178714208305, 7261580.0 ], [ 529011.540503428783268, 7261590.0 ], [ 529010.447091679205187, 7261600.0 ], [ 529010.088040409144014, 7261610.0 ], [ 529010.022348352940753, 7261620.0 ], [ 529010.088040409144014, 7261630.0 ], [ 529010.447091679205187, 7261640.0 ], [ 529011.541395639418624, 7261650.0 ], [ 529013.681352890795097, 7261660.0 ], [ 529016.417861694935709, 7261670.0 ], [ 529018.917762426892295, 7261680.0 ], [ 529021.181452158722095, 7261690.0 ], [ 529024.042188582126983, 7261700.0 ], [ 529027.957472912967205, 7261710.0 ], [ 529032.663915163138881, 7261720.0 ], [ 529037.881498890928924, 7261730.000000000931323 ], [ 529043.671070924843661, 7261740.0 ], [ 529050.0, 7261750.0 ], [ 529056.329821285791695, 7261760.0 ], [ 529062.130567496176809, 7261770.0 ], [ 529067.433515001088381, 7261780.0 ], [ 529072.565592788159847, 7261790.0 ], [ 529077.858258327352814, 7261800.0 ], [ 529083.582138305064291, 7261810.0 ], [ 529089.541734144324437, 7261820.0 ], [ 529094.700385237345472, 7261830.0 ], [ 529097.990056539187208, 7261840.000000000931323 ], [ 529099.3768275026232, 7261850.0 ], [ 529099.443411769578233, 7261860.0 ], [ 529098.3593897750834, 7261870.0 ], [ 529095.869771008845419, 7261880.0 ], [ 529092.030460699927062, 7261890.0 ], [ 529087.324910660507157, 7261900.0 ], [ 529082.041634876281023, 7261910.0 ], [ 529075.957811417989433, 7261920.0 ], [ 529068.819440052029677, 7261930.0 ], [ 529061.093411749578081, 7261940.0 ], [ 529053.670178714208305, 7261950.0 ], [ 529046.776912964880466, 7261960.0 ], [ 529040.087148198392242, 7261970.0 ], [ 529033.682245101314038, 7261980.0 ], [ 529027.882391101680696, 7261990.0 ], [ 529022.663915163138881, 7262000.0 ], [ 529017.957472912967205, 7262010.0 ], [ 529014.041296371491626, 7262020.0 ], [ 529011.170277982251719, 7262030.0 ], [ 529008.829722017864697, 7262040.0 ], [ 529005.959595839376561, 7262050.0 ], [ 529002.052809052867815, 7262060.0 ], [ 528997.412951069651172, 7262070.0 ], [ 528992.488726555602625, 7262080.0 ], [ 528987.499207057291642, 7262090.0 ], [ 528982.499900732073002, 7262100.0 ], [ 528977.499207057291642, 7262110.0 ], [ 528972.488726555602625, 7262120.0 ], [ 528967.4120588588994, 7262129.999107789248228 ], [ 528962.041634876397438, 7262139.9888258241117 ], [ 528955.871555430116132, 7262149.912851801142097 ], [ 528948.371456162189133, 7262159.552908320911229 ], [ 528939.541734144440852, 7262168.458604360930622 ], [ 528929.911959590972401, 7262176.318647108972073 ], [ 528919.988825823529623, 7262183.582138305529952 ], [ 528909.999107789248228, 7262191.082237573340535 ], [ 528900.0, 7262198.819440051913261 ], [ 528890.000892210635357, 7262205.968985594809055 ], [ 528880.012066387222148, 7262212.128783075138927 ], [ 528870.099214585614391, 7262217.772002339363098 ], [ 528860.546306264819577, 7262223.57096412871033 ], [ 528852.086809693602845, 7262229.540841933339834 ], [ 528845.756988407694735, 7262234.701277447864413 ] ] } },
{ "type": "Feature", "properties": { "id": 12, "reference_id": 2, "dune_id": 2, "dune_name": "Big Mommy Dune", "acquisition_date": "2022-04-01", "length_m": 66.570507237354704 }, "geometry": { "type": "LineString", "coordinates": [ [ 528484.243011592421681, 7260685.871555430814624 ], [ 528477.913190306629986, 7260682.041634876281023 ], [ 528469.454585945932195, 7260677.41205885913223 ], [ 528459.912851801607758, 7260672.489618766121566 ], [ 528450.087148198508658, 7260667.510381233878434 ], [ 528440.545414054067805, 7260662.587941141799092 ], [ 528432.08680969348643, 7260657.958365123718977 ], [ 528425.756988407694735, 7260654.128444570116699 ] ] } },
{ "type": "Feature", "properties": { "id": 13, "reference_id": 2, "dune_id": 2, "dune_name": "Big Mommy Dune", "acquisition_date": "2022-04-01", "length_m": 442.74213739491785 }, "geometry": { "type": "LineString", "coordinates": [ [ 528675.756988407694735, 7260820.447983890771866 ], [ 528682.08680969348643, 7260821.551677605137229 ], [ 528690.546306264819577, 7260823.75821912381798 ], [ 528700.099214585614391, 7260826.788087141700089 ], [ 528710.012066387105733, 7260830.087148198857903 ], [ 528720.000892210751772, 7260833.671070925891399 ], [ 528730.0, 7260837.794350693002343 ], [ 528740.0, 7260842.206541518680751 ], [ 528750.0, 7260846.340103251859546 ], [ 528760.0, 7260850.0 ], [ 528770.0, 7260853.659896748140454 ], [ 528780.0, 7260857.793458482250571 ], [ 528790.0, 7260862.206541518680751 ], [ 528800.0, 7260866.340103251859546 ], [ 528810.0, 7260870.0 ], [ 528820.0, 7260873.659004537388682 ], [ 528830.0, 7260877.783176517114043 ], [ 528840.0, 7260882.129675285890698 ], [ 528850.0, 7260885.968985594809055 ], [ 528860.0, 7260888.819440051913261 ], [ 528870.0, 7260891.083129784092307 ], [ 528880.0, 7260893.593312481418252 ], [ 528890.0, 7260896.405795307829976 ], [ 528900.0, 7260898.905696040019393 ], [ 528910.0, 7260901.094303959980607 ], [ 528920.0, 7260903.594204693101346 ], [ 528930.0, 7260906.405795308761299 ], [ 528940.0, 7260908.905696040019393 ], [ 528950.0, 7260911.093411749228835 ], [ 528960.0, 7260913.583030516281724 ], [ 528970.0, 7260916.319539319723845 ], [ 528980.0, 7260918.469778537750244 ], [ 528990.0, 7260919.640948729589581 ], [ 529000.0, 7260920.37111765705049 ], [ 529010.0, 7260921.617369662038982 ], [ 529020.0, 7260924.127552359364927 ], [ 529030.0, 7260927.958365123718977 ], [ 529040.0, 7260932.58794114086777 ], [ 529049.999107789248228, 7260937.510381233878434 ], [ 529059.987933612894267, 7260942.489618766121566 ], [ 529069.900785414502025, 7260947.41205885913223 ], [ 529079.453693735180423, 7260952.041634876281023 ], [ 529087.913190306629986, 7260955.871555430814624 ], [ 529094.243011592305265, 7260958.371456163004041 ] ] } },
{ "type": "Feature", "properties": { "id": 14, "reference_id": 7, "dune_id": 7, "dune_name": "Inverted Y Dune", "acquisition_date": "2022-04-01", "length_m": 611.98520473631299 }, "geometry": { "type": "LineString", "coordinates": [ [ 530175.756988407694735, 7261641.540503429248929 ], [ 530182.08680969348643, 7261643.670178715139627 ], [ 530190.546306264819577, 7261646.329821286723018 ], [ 530200.099214585497975, 7261648.459496572613716 ], [ 530210.012066387105733, 7261649.552908321842551 ], [ 530220.000892210635357, 7261649.911959591321647 ], [ 530230.0, 7261649.977651647292078 ], [ 530240.0, 7261649.911959591321647 ], [ 530250.0, 7261649.552908321842551 ], [ 530260.0, 7261648.458604361861944 ], [ 530270.0, 7261646.318647109903395 ], [ 530280.0, 7261643.583030516281724 ], [ 530290.0, 7261641.092519538477063 ], [ 530300.0, 7261638.895414074882865 ], [ 530310.0, 7261636.328929075971246 ], [ 530320.0, 7261633.223087035119534 ], [ 530330.0, 7261629.913744011893868 ], [ 530340.0, 7261626.328929075039923 ], [ 530350.0, 7261622.205649307928979 ], [ 530360.0, 7261617.793458482250571 ], [ 530370.0, 7261613.659004538320005 ], [ 530380.0, 7261609.9888258241117 ], [ 530390.0, 7261606.252955053001642 ], [ 530400.0, 7261601.758557628840208 ], [ 530410.0, 7261596.241780877113342 ], [ 530420.0, 7261589.901677625253797 ], [ 530430.000000000116415, 7261583.211020648479462 ], [ 530440.0, 7261576.241780877113342 ], [ 530450.0, 7261568.448322394862771 ], [ 530459.999107789364643, 7261559.552016111090779 ], [ 530469.988825823529623, 7261549.912851801142097 ], [ 530479.912851801607758, 7261539.9888258241117 ], [ 530489.552016110159457, 7261529.999107789248228 ], [ 530498.448322394862771, 7261520.0 ], [ 530506.242673087399453, 7261510.0 ], [ 530513.222194824367762, 7261500.0 ], [ 530519.988825823529623, 7261490.0 ], [ 530526.689764766488224, 7261480.0 ], [ 530533.309343022760004, 7261470.000000000931323 ], [ 530540.0, 7261460.0 ], [ 530546.690656977239996, 7261450.0 ], [ 530553.310235233511776, 7261440.0 ], [ 530560.011174176470377, 7261430.0 ], [ 530566.777805175632238, 7261420.0 ], [ 530573.757326912600547, 7261410.0 ], [ 530581.551677605253644, 7261400.0 ], [ 530590.447983889840543, 7261390.0 ], [ 530600.087148198392242, 7261380.0 ], [ 530610.01028196583502, 7261370.000892210751772 ], [ 530619.988825823646039, 7261360.012066386640072 ], [ 530629.900785414502025, 7261350.099214585497975 ], [ 530639.453693735296838, 7261340.546306265518069 ], [ 530647.913190306629986, 7261332.086809693835676 ], [ 530654.243011592305265, 7261325.756988408043981 ] ] } },
{ "type": "Feature", "properties": { "id": 15, "reference_id": 6, "dune_id": 6, "dune_name": "The Star Dune", "acquisition_date": "2022-04-01", "length_m": 306.77245912998131 }, "geometry": { "type": "LineString", "coordinates": [ [ 533670.0, 7262285.756988408043981 ], [ 533670.0, 7262292.086809692904353 ], [ 533670.0, 7262300.546306265518069 ], [ 533670.0, 7262310.099214585497975 ], [ 533670.0, 7262320.012066386640072 ], [ 533669.999107789364643, 7262330.000892210751772 ], [ 533669.988825823646039, 7262340.000000000931323 ], [ 533669.912851801607758, 7262350.0 ], [ 533669.552908320911229, 7262360.0 ], [ 533668.458604360697791, 7262370.0 ], [ 533666.318647109437734, 7262380.0 ], [ 533663.583030515816063, 7262390.0 ], [ 533661.092519538942724, 7262400.0 ], [ 533658.895414073951542, 7262410.0 ], [ 533656.329821285791695, 7262420.0 ], [ 533653.233369000838138, 7262430.0 ], [ 533649.989718034281395, 7262440.0 ], [ 533646.689764766488224, 7262450.0 ], [ 533643.309343022760004, 7262460.0 ], [ 533640.000000000116415, 7262470.0 ], [ 533636.690656977239996, 7262480.0 ], [ 533633.310235233511776, 7262490.0 ], [ 533630.01028196583502, 7262500.0 ], [ 533626.766630999161862, 7262510.0 ], [ 533623.670178714208305, 7262520.0 ], [ 533621.104585925932042, 7262530.0 ], [ 533618.907480461173691, 7262539.999107789248228 ], [ 533616.416969484183937, 7262549.987933613359928 ], [ 533613.681352890795097, 7262559.900785414502025 ], [ 533611.541395639418624, 7262569.453693736344576 ], [ 533610.447091679205187, 7262577.913190307095647 ], [ 533610.087148198392242, 7262584.243011591956019 ] ] } },
{ "type": "Feature", "properties": { "id": 16, "reference_id": 6, "dune_id": 6, "dune_name": "The Star Dune", "acquisition_date": "2022-04-01", "length_m": 145.32111254148185 }, "geometry": { "type": "LineString", "coordinates": [ [ 533650.0, 7262194.243011591956019 ], [ 533650.0, 7262187.913190307095647 ], [ 533650.0, 7262179.453693735413253 ], [ 533650.0, 7262169.900785414502025 ], [ 533650.0, 7262159.987933613359928 ], [ 533650.0, 7262149.999107789248228 ], [ 533650.0, 7262140.0 ], [ 533650.0, 7262130.0 ], [ 533650.0, 7262120.0 ], [ 533650.0, 7262110.0 ], [ 533650.0, 7262100.000446105375886 ], [ 533650.0, 7262090.006479298695922 ], [ 533650.0, 7262080.055640487000346 ], [ 533650.0, 7262070.322760425508022 ], [ 533650.0, 7262061.316557979211211 ], [ 533650.0, 7262053.921899050474167 ], [ 533650.0, 7262048.921899050474167 ] ] } }
]
}
