{
"type": "FeatureCollection",
"name": "crests_2020_05_2020-05-21",
"crs": { "type": "name", "properties": { "name": "urn:ogc:def:crs:EPSG::32733" } },
"features": [
{ "type": "Feature", "properties": { "id": 0, "reference_id": 3, "dune_id": 3, "dune_name": "Big Mommy Dune", "acquisition_date": "2020-05-21", "length_m": 130.68166463786042 }, "geometry": { "type": "LineString", "coordinates": [ [ 530204.243011592305265, 7260580.087148198857903 ], [ 530197.91319030651357, 7260580.447091679088771 ], [ 530189.453693735180423, 7260581.541395640000701 ], [ 530179.900785414385609, 7260583.681352891027927 ], [ 530169.987933612894267, 7260586.416969484649599 ], [ 530159.999107789364643, 7260588.906588250771165 ], [ 530150.0, 7260591.093411749228835 ], [ 530140.0, 7260593.583030516281724 ], [ 530130.0, 7260596.318647108972073 ], [ 530120.000892210751772, 7260598.458604360930622 ], [ 530110.012066387222148, 7260599.552908321842551 ], [ 530100.099214585614391, 7260599.912851802073419 ], [ 530090.546306264819577, 7260599.9888258241117 ], [ 530082.08680969348643, 7260599.999107789248228 ], [ 530075.756988407694735, 7260600.0 ] ] } },
{ "type": "Feature", "properties": { "id": 1, "reference_id": 3, "dune_id": 3, "dune_name": "Big Mommy Dune", "acquisition_date": "2020-05-21", "length_m": 587.34037980586993 }, "geometry": { "type": "LineString", "coordinates": [ [ 529614.243011592421681, 7260630.011174176819623 ], [ 529607.91319030651357, 7260630.087148198857903 ], [ 529599.453693735180423, 7260630.447091680020094 ], [ 529589.900785414502025, 7260631.540503429248929 ], [ 529579.987933612894267, 7260633.671070925891399 ], [ 529569.999107789248228, 7260636.340995462611318 ], [ 529560.0, 7260638.546644769608974 ], [ 529550.0, 7260640.0 ], [ 529540.0, 7260641.454247441142797 ], [ 529530.0, 7260643.670178715139627 ], [ 529520.0, 7260646.416077273897827 ], [ 529510.0, 7260648.906588250771165 ], [ 529500.000000000116415, 7260651.094303959980607 ], [ 529490.0, 7260653.594204692170024 ], [ 529480.0, 7260656.405795307829976 ], [ 529470.0, 7260658.906588250771165 ], [ 529460.0, 7260661.10458592697978 ], [ 529450.0, 7260663.670178714208305 ], [ 529440.000000000116415, 7260666.766630999743938 ], [ 529430.0, 7260670.0111741758883 ], [ 529420.0, 7260673.322301620617509 ], [ 529410.0, 7260676.788979351520538 ], [ 529400.0, 7260680.535132087767124 ], [ 529390.0, 7260685.309004518203437 ], [ 529380.0, 7260691.999661494977772 ], [ 529370.0, 7260700.535132088698447 ], [ 529360.0, 7260710.098322374746203 ], [ 529350.0, 7260720.012066386640072 ], [ 529340.000892210751772, 7260730.000892210751772 ], [ 529330.011174176470377, 7260740.0 ], [ 529320.087148198508658, 7260750.0 ], [ 529310.447091679205187, 7260760.0 ], [ 529301.541395639418624, 7260770.0 ], [ 529293.681352890678681, 7260780.000000000931323 ], [ 529286.416969484183937, 7260790.0 ], [ 529278.907480461173691, 7260800.0 ], [ 529271.104585926048458, 7260810.0 ], [ 529263.670178714208305, 7260820.0 ], [ 529256.766630999278277, 7260830.0 ], [ 529250.01028196583502, 7260840.0 ], [ 529243.310235233511776, 7260850.0 ], [ 529236.690656977239996, 7260860.0 ], [ 529230.0, 7260870.0 ], [ 529223.310235233511776, 7260880.0 ], [ 529216.700938943075016, 7260890.0 ], [ 529210.076866232557222, 7260900.0 ], [ 529203.68046067992691, 7260910.0 ], [ 529197.871216925210319, 7260919.999107789248228 ], [ 529192.577659175381996, 7260929.987933613359928 ], [ 529187.52155541034881, 7260939.900785414502025 ], [ 529182.588833351852372, 7260949.453693735413253 ], [ 529177.958365123602562, 7260957.913190307095647 ], [ 529174.128444569883868, 7260964.243011592887342 ] ] } },
{ "type": "Feature", "properties": { "id": 2, "reference_id": 3, "dune_id": 3, "dune_name": "Big Mommy Dune", "acquisition_date": "2020-05-21", "length_m": 58.486023184610531 }, "geometry": { "type": "LineString", "coordinates": [ [ 529704.243011592305265, 7260620.0 ], [ 529697.91319030651357, 7260620.0 ], [ 529689.454585945932195, 7260620.0 ], [ 529679.912851801607758, 7260620.0 ], [ 529670.087148198508658, 7260620.0 ], [ 529660.545414054067805, 7260620.0 ], [ 529652.08680969348643, 7260620.0 ], [ 529645.756988407694735, 7260620.0 ] ] } },
{ "type": "Feature", "properties": { "id": 3, "reference_id": 3, "dune_id": 3, "dune_name": "Big Mommy Dune", "acquisition_date": "2020-05-21", "length_m": 238.48602318461053 }, "geometry": { "type": "LineString", "coordinates": [ [ 529735.756988407694735, 7260610.0 ], [ 529742.08680969348643, 7260610.0 ], [ 529750.546306264819577, 7260610.0 ], [ 529760.099214585614391, 7260610.0 ], [ 529770.012066387222148, 7260610.0 ], [ 529780.000892210751772, 7260610.0 ], [ 529790.0, 7260610.0 ], [ 529800.0, 7260610.0 ], [ 529810.0, 7260610.0 ], [ 529820.0, 7260610.0 ], [ 529830.0, 7260610.0 ], [ 529840.0, 7260610.0 ], [ 529850.0, 7260610.0 ], [ 529860.0, 7260610.0 ], [ 529870.0, 7260610.0 ], [ 529880.0, 7260610.0 ], [ 529890.0, 7260610.0 ], [ 529900.0, 7260610.0 ], [ 529910.0, 7260610.0 ], [ 529920.0, 7260610.0 ], [ 529929.999107789364643, 7260610.0 ], [ 529939.987933612894267, 7260610.0 ], [ 529949.900785414502025, 7260610.0 ], [ 529959.453693735180423, 7260610.0 ], [ 529967.91319030651357, 7260610.0 ], [ 529974.243011592305265, 7260610.0 ] ] } },
{ "type": "Feature", "properties": { "id": 4, "reference_id": 8, "dune_id": 8, "dune_name": "Inverted Y Dune", "acquisition_date": "2020-05-21", "length_m": 421.20641266218826 }, "geometry": { "type": "LineString", "coordinates": [ [ 530264.243011592421681, 7261221.628543838858604 ], [ 530257.913190306629986, 7261224.129336780868471 ], [ 530249.453693735180423, 7261227.969539299607277 ], [ 530239.900785414502025, 7261232.675981549546123 ], [ 530229.987933612777852, 7261237.969539300538599 ], [ 530219.999107789248228, 7261244.129336779937148 ], [ 530210.000892210751772, 7261251.628543837927282 ], [ 530200.011174176586792, 7261260.458265855908394 ], [ 530190.088040409144014, 7261270.088040409609675 ], [ 530180.458265855675563, 7261280.0111741758883 ], [ 530171.628543837927282, 7261290.000892210751772 ], [ 530164.129336780519225, 7261300.0 ], [ 530157.968647089553997, 7261310.000000000931323 ], [ 530152.664807373890653, 7261320.0 ], [ 530147.882391101680696, 7261330.0 ], [ 530143.681352890678681, 7261340.0 ], [ 530140.076866232673638, 7261350.0 ], [ 530136.700938943075016, 7261360.0 ], [ 530133.311127444147132, 7261370.0 ], [ 530130.01028196583502, 7261380.0 ], [ 530126.766630999278277, 7261390.0 ], [ 530123.670178714208305, 7261400.0 ], [ 530121.104585926048458, 7261410.0 ], [ 530118.907480461173691, 7261420.0 ], [ 530116.416077273548581, 7261430.0 ], [ 530113.670178714208305, 7261440.0 ], [ 530111.454247441026382, 7261450.0 ], [ 530110.0, 7261460.0 ], [ 530108.54664476972539, 7261470.000000000931323 ], [ 530106.340995462262072, 7261480.0 ], [ 530103.671070924960077, 7261490.0 ], [ 530101.540503428783268, 7261500.0 ], [ 530100.447091679205187, 7261510.0 ], [ 530100.087148198508658, 7261520.0 ], [ 530100.010728071210906, 7261529.999553894624114 ], [ 530099.995305122458376, 7261539.993520701304078 ], [ 530099.956425900803879, 7261549.944359513930976 ], [ 530099.776454160455614, 7261559.6772395754233 ], [ 530099.229748285608366, 7261568.683442020788789 ], [ 530098.164910642895848, 7261576.078100949525833 ], [ 530096.835089357104152, 7261581.078100949525833 ] ] } },
{ "type": "Feature", "properties": { "id": 5, "reference_id": 8, "dune_id": 8, "dune_name": "Inverted Y Dune", "acquisition_date": "2020-05-21", "length_m": 68.726582622198222 }, "geometry": { "type": "LineString", "coordinates": [ [ 530554.243011592305265, 7261171.999661495909095 ], [ 530547.91319030651357, 7261175.309004518203437 ], [ 530539.454585945932195, 7261180.534239877015352 ], [ 530529.912851801607758, 7261186.776912964880466 ], [ 530520.087148198392242, 7261193.223087035119534 ], [ 530510.545414054067805, 7261199.465760122984648 ], [ 530502.08680969348643, 7261204.690995481796563 ], [ 530495.756988407694735, 7261208.00033850595355 ] ] } },
{ "type": "Feature", "properties": { "id": 6, "reference_id": 9, "dune_id": 9, "dune_name": "Inverted Y Dune", "acquisition_date": "2020-05-21", "length_m": 769.52762748320106 }, "geometry": { "type": "LineString", "coordinates": [ [ 530093.065696057397872, 7261588.921006839722395 ], [ 530091.28878309240099, 7261593.910724874585867 ], [ 530088.683442021021619, 7261601.22940978128463 ], [ 530084.466557431966066, 7261609.874776534736156 ], [ 530077.956764405826107, 7261618.503962881863117 ], [ 530069.459280823473819, 7261626.248260175809264 ], [ 530059.901231519761495, 7261633.212358963675797 ], [ 530049.987933612894267, 7261639.911959590390325 ], [ 530039.999107789364643, 7261646.318647109903395 ], [ 530030.0, 7261652.128783075138927 ], [ 530020.0, 7261657.423233035951853 ], [ 530010.0, 7261662.490510977804661 ], [ 530000.0, 7261667.510381234809756 ], [ 529990.0, 7261672.587941141799092 ], [ 529980.0, 7261677.957472912967205 ], [ 529970.0, 7261684.117270393297076 ], [ 529960.0, 7261691.541395640000701 ], [ 529950.0, 7261700.011174177750945 ], [ 529940.0, 7261708.547536980360746 ], [ 529930.0, 7261716.340995462611318 ], [ 529920.0, 7261723.671070924960077 ], [ 529910.0, 7261731.540503429248929 ], [ 529900.0, 7261740.447091680020094 ], [ 529890.0, 7261750.087148198857903 ], [ 529880.0, 7261760.011174176819623 ], [ 529870.000892210751772, 7261770.000892210751772 ], [ 529860.011174176470377, 7261780.0 ], [ 529850.087148198392242, 7261790.0 ], [ 529840.447983889840543, 7261800.0 ], [ 529831.551677605137229, 7261810.0 ], [ 529823.758219123352319, 7261820.0 ], [ 529816.788087141467258, 7261830.0 ], [ 529810.088040409144014, 7261840.000000000931323 ], [ 529803.682245101314038, 7261850.0 ], [ 529797.881498891045339, 7261860.0 ], [ 529792.653633197303861, 7261870.0 ], [ 529787.881498891045339, 7261880.0 ], [ 529783.681352890678681, 7261890.0 ], [ 529780.076866232673638, 7261900.0 ], [ 529776.700938943075016, 7261910.0 ], [ 529773.310235233511776, 7261920.0 ], [ 529770.0, 7261930.0 ], [ 529766.689764766488224, 7261940.0 ], [ 529763.299061056924984, 7261950.0 ], [ 529759.923133767326362, 7261960.0 ], [ 529756.319539319956675, 7261970.0 ], [ 529752.128783074789681, 7261980.0 ], [ 529747.423233035369776, 7261990.0 ], [ 529742.490510976989754, 7262000.0 ], [ 529737.509489023126662, 7262010.0 ], [ 529732.576766964630224, 7262020.0 ], [ 529727.870324714574963, 7262030.0 ], [ 529723.670178714208305, 7262040.0 ], [ 529720.000892210751772, 7262050.0 ], [ 529716.340103251626715, 7262060.0 ], [ 529712.20654151821509, 7262070.0 ], [ 529707.793458481901325, 7262080.0 ], [ 529703.659896748373285, 7262090.0 ], [ 529699.999107789248228, 7262100.0 ], [ 529696.329821285791695, 7262110.0 ], [ 529692.130567496176809, 7262120.0 ], [ 529687.433515001204796, 7262130.0 ], [ 529682.566484998911619, 7262140.0 ], [ 529677.870324714574963, 7262149.999107789248228 ], [ 529673.681352890678681, 7262159.987933613359928 ], [ 529670.088040409144014, 7262169.900785414502025 ], [ 529666.788087141467258, 7262179.453693735413253 ], [ 529663.758219123352319, 7262187.913190307095647 ], [ 529661.551677605137229, 7262194.243011591956019 ] ] } },
{ "type": "Feature", "properties": { "id": 7, "reference_id": 4, "dune_id": 4, "dune_name": "The Star Dune", "acquisition_date": "2020-05-21", "length_m": 195.06351523202278 }, "geometry": { "type": "LineString", "coordinates": [ [ 533005.756988407694735, 7261871.540503429248929 ], [ 533012.08680969348643, 7261873.670178715139627 ], [ 533020.546306264819577, 7261876.33071349747479 ], [ 533030.099214585614391, 7261878.470670748502016 ], [ 533040.012066387105733, 7261879.640056519769132 ], [ 533050.000892210751772, 7261880.35994348116219 ], [ 533060.0, 7261881.530221462249756 ], [ 533070.0, 7261883.680460680276155 ], [ 533080.0, 7261886.416969484649599 ], [ 533090.0, 7261888.907480461522937 ], [ 533100.0, 7261891.10458592697978 ], [ 533110.0, 7261893.670178715139627 ], [ 533120.0, 7261896.766630999743938 ], [ 533130.0, 7261900.010281965136528 ], [ 533140.0, 7261903.310235233977437 ], [ 533149.999107789364643, 7261906.689764766953886 ], [ 533159.987933612894267, 7261909.9888258241117 ], [ 533169.900785414502025, 7261913.222194824367762 ], [ 533179.453693735180423, 7261916.242673087865114 ], [ 533187.91319030651357, 7261918.448322394862771 ], [ 533194.243011592305265, 7261919.552016110159457 ] ] } },
{ "type": "Feature", "properties": { "id": 8, "reference_id": 4, "dune_id": 4, "dune_name": "The Star Dune", "acquisition_date": "2020-05-21", "length_m": 400.9586940641629 }, "geometry": { "type": "LineString", "coordinates": [ [ 533225.756988407694735, 7261930.087148198857903 ], [ 533232.086809693602845, 7261930.447983889840543 ], [ 533240.546306264819577, 7261931.551677605137229 ], [ 533250.099214585614391, 7261933.757326912134886 ], [ 533260.012066387222148, 7261936.777805175632238 ], [ 533270.000892210751772, 7261940.011174176819623 ], [ 533280.0, 7261943.310235233977437 ], [ 533290.0, 7261946.689764766022563 ], [ 533300.0, 7261949.989718034863472 ], [ 533310.0, 7261953.233369001187384 ], [ 533320.0, 7261956.329821286723018 ], [ 533330.0, 7261958.896306285634637 ], [ 533340.0, 7261961.103693716228008 ], [ 533350.0, 7261963.670178714208305 ], [ 533360.0, 7261966.765738788992167 ], [ 533370.0, 7261970.0 ], [ 533380.000000000116415, 7261973.234261211939156 ], [ 533390.0, 7261976.329821285791695 ], [ 533400.000000000116415, 7261978.896306285634637 ], [ 533410.0, 7261981.103693715296686 ], [ 533420.0, 7261983.671070924960077 ], [ 533430.0, 7261986.776912964880466 ], [ 533440.0, 7261990.086255988106132 ], [ 533450.0, 7261993.671070925891399 ], [ 533460.0, 7261997.794350693002343 ], [ 533470.0, 7262002.206541518680751 ], [ 533480.0, 7262006.340103251859546 ], [ 533490.0, 7262010.000892210751772 ], [ 533500.0, 7262013.670178714208305 ], [ 533510.0, 7262017.870324715040624 ], [ 533520.0, 7262022.57676696497947 ], [ 533530.0, 7262027.509489023126662 ], [ 533540.0, 7262032.490510977804661 ], [ 533550.0, 7262037.423233035951853 ], [ 533559.999107789248228, 7262042.128783075138927 ], [ 533569.987933612894267, 7262046.318647108972073 ], [ 533579.900785414502025, 7262049.911959591321647 ], [ 533589.453693735180423, 7262053.211912858299911 ], [ 533597.913190306629986, 7262056.241780877113342 ], [ 533604.243011592421681, 7262058.448322394862771 ] ] } },
{ "type": "Feature", "properties": { "id": 9, "reference_id": 5, "dune_id": 5, "dune_name": "The Star Dune", "acquisition_date": "2020-05-21", "length_m": 95.687187792080934 }, "geometry": { "type": "LineString", "coordinates": [ [ 534334.342226177919656, 7261305.756988408043981 ], [ 534328.459496571333148, 7261312.086809693835676 ], [ 534321.540503428666852, 7261320.546306264586747 ], [ 534315.657773822080344, 7261330.099214585497975 ], [ 534312.074743306264281, 7261340.012066386640072 ], [ 534310.545414054067805, 7261350.0 ], [ 534310.099214585614391, 7261359.987933613359928 ], [ 534310.012066387222148, 7261369.900785414502025 ], [ 534310.000892210751772, 7261379.453693735413253 ], [ 534310.0, 7261387.913190307095647 ], [ 534310.0, 7261394.243011592887342 ] ] } },
{ "type": "Feature", "properties": { "id": 10, "reference_id": 5, "dune_id": 5, "dune_name": "The Star Dune", "acquisition_date": "2020-05-21", "length_m": 913.39357112420464 }, "geometry": { "type": "LineString", "coordinates": [ [ 533651.628543837927282, 7262041.078100949525833 ], [ 533654.128444569883868, 7262036.078100949525833 ], [ 533657.958365123718977, 7262028.683442020788789 ], [ 533662.588833351852372, 7262019.677239574491978 ], [ 533667.521555410232395, 7262009.944359513930976 ], [ 533672.577659175381996, 7261999.993520701304078 ], [ 533677.870324714574963, 7261989.999553894624114 ], [ 533683.670178714208305, 7261980.0 ], [ 533690.0, 7261970.0 ], [ 533696.32982128590811, 7261960.0 ], [ 533702.129675285541452, 7261950.0 ], [ 533707.423233035369776, 7261940.0 ], [ 533712.489618766237982, 7261930.0 ], [ 533717.49831484653987, 7261920.0 ], [ 533722.489618766237982, 7261910.0 ], [ 533727.423233035253361, 7261900.0 ], [ 533732.128783074906096, 7261890.0 ], [ 533736.31953932007309, 7261880.0 ], [ 533739.923133767442778, 7261870.0 ], [ 533743.299953267676756, 7261860.0 ], [ 533746.700938942958601, 7261850.0 ], [ 533750.088040409144014, 7261840.000000000931323 ], [ 533753.768501089187339, 7261830.0 ], [ 533758.329482780885883, 7261820.000892210751772 ], [ 533764.205310802557506, 7261810.011174177750945 ], [ 533771.638825803645886, 7261800.088040409609675 ], [ 533780.45915806631092, 7261790.458265855908394 ], [ 533790.088040409144014, 7261781.628543838858604 ], [ 533800.011174176470377, 7261774.128444570116699 ], [ 533810.000892210635357, 7261767.958365123718977 ], [ 533820.0, 7261762.587941141799092 ], [ 533830.0, 7261757.511273443698883 ], [ 533840.0, 7261752.500792942941189 ], [ 533850.0, 7261747.500099267810583 ], [ 533860.0, 7261742.500792942941189 ], [ 533870.0, 7261737.510381234809756 ], [ 533880.0, 7261732.576766965910792 ], [ 533890.0, 7261727.871216925792396 ], [ 533900.0, 7261723.680460680276155 ], [ 533910.0, 7261720.076866232790053 ], [ 533920.0, 7261716.700938943773508 ], [ 533930.0, 7261713.311127444729209 ], [ 533940.0, 7261710.0111741758883 ], [ 533950.0, 7261706.776912964880466 ], [ 533960.0, 7261703.746152736246586 ], [ 533970.0, 7261701.464529407210648 ], [ 533980.0, 7261700.000892210751772 ], [ 533990.0, 7261698.546644769608974 ], [ 534000.0, 7261696.340995462611318 ], [ 534010.0, 7261693.670178714208305 ], [ 534020.0, 7261691.529329253360629 ], [ 534030.0, 7261690.35994348116219 ], [ 534040.0, 7261689.64005651883781 ], [ 534050.0, 7261688.470670748502016 ], [ 534060.0, 7261686.329821286723018 ], [ 534070.0, 7261683.659004537388682 ], [ 534080.0, 7261681.453355230391026 ], [ 534090.0, 7261680.0 ], [ 534100.0, 7261678.546644769608974 ], [ 534110.0, 7261676.340995462611318 ], [ 534120.0, 7261673.670178714208305 ], [ 534130.0, 7261671.529329252429307 ], [ 534140.0, 7261670.359051270410419 ], [ 534150.0, 7261669.627990132197738 ], [ 534160.0, 7261668.37234837282449 ], [ 534170.0, 7261665.79558140784502 ], [ 534180.0, 7261661.670517219230533 ], [ 534190.0, 7261656.231498911976814 ], [ 534200.0, 7261649.911959591321647 ], [ 534210.0, 7261643.298168847337365 ], [ 534220.0, 7261636.689764766953886 ], [ 534230.0, 7261630.0 ], [ 534240.0, 7261623.309343023225665 ], [ 534250.0, 7261616.689764766953886 ], [ 534260.0, 7261609.9888258241117 ], [ 534269.999107789248228, 7261603.222194825299084 ], [ 534279.987933612894267, 7261596.242673087865114 ], [ 534289.900785414502025, 7261588.448322394862771 ], [ 534299.453693735296838, 7261579.552016110159457 ], [ 534307.91319030651357, 7261569.913744012825191 ], [ 534314.243011592305265, 7261560.000892210751772 ], [ 534317.91319030651357, 7261550.098322374746203 ], [ 534319.453693735296838, 7261540.546306265518069 ], [ 534319.900785414385609, 7261532.086809693835676 ], [ 534319.987933612894267, 7261525.756988408043981 ] ] } },
{ "type": "Feature", "properties": { "id": 11, "reference_id": 6, "dune_id": 6, "dune_name": "The Star Dune", "acquisition_date": "2020-05-21", "length_m": 223.87585090570519 }, "geometry": { "type": "LineString", "coordinates": [ [ 533550.0, 7262924.243011591956019 ], [ 533550.000892210751772, 7262917.913190307095647 ], [ 533550.011174176470377, 7262909.453693736344576 ], [ 533550.087148198392242, 7262899.900785414502025 ], [ 533550.447983889840543, 7262889.987933613359928 ], [ 533551.551677605253644, 7262879.999107789248228 ], [ 533553.757326912600547, 7262870.000000000931323 ], [ 533556.777805175632238, 7262860.0 ], [ 533560.011174176470377, 7262850.0 ], [ 533563.310235233511776, 7262840.0 ], [ 533566.68976476660464, 7262830.0 ], [ 533569.98971803416498, 7262820.0 ], [ 533573.233369000838138, 7262810.0 ], [ 533576.32982128590811, 7262800.0 ], [ 533578.895414074067958, 7262790.0 ], [ 533581.092519538942724, 7262780.0 ], [ 533583.583030515816063, 7262770.0 ], [ 533586.318647109437734, 7262760.0 ], [ 533588.458604360697791, 7262750.000892210751772 ], [ 533589.552908320911229, 7262740.012066388502717 ], [ 533589.912851801607758, 7262730.099214585497975 ], [ 533589.988825823529623, 7262720.546306264586747 ], [ 533589.999107789248228, 7262712.086809693835676 ], [ 533590.0, 7262705.756988408043981 ] ] } },
{ "type": "Feature", "properties": { "id": 12, "reference_id": 6, "dune_id": 6, "dune_name": "The Star Dune", "acquisition_date": "2020-05-21", "length_m": 636.46734709345299 }, "geometry": { "type": "LineString", "coordinates": [ [ 533600.0, 7262674.243011591956019 ], [ 533600.0, 7262667.913190307095647 ], [ 533600.000892210635357, 7262659.453693736344576 ], [ 533600.011174176470377, 7262649.900785414502025 ], [ 533600.087148198392242, 7262639.987933612428606 ], [ 533600.447091679205187, 7262629.999107789248228 ], [ 533601.540503428783268, 7262620.0 ], [ 533603.671070924960077, 7262610.0 ], [ 533606.340995462378487, 7262600.000000000931323 ], [ 533608.54664476972539, 7262590.0 ], [ 533610.000892210751772, 7262580.0 ], [ 533611.464529406744987, 7262570.0 ], [ 533613.746152736246586, 7262560.0 ], [ 533616.776912964996882, 7262550.0 ], [ 533620.011174176470377, 7262540.0 ], [ 533623.31023523339536, 7262530.0 ], [ 533626.689764766488224, 7262520.0 ], [ 533629.989718034281395, 7262510.0 ], [ 533633.233369000838138, 7262500.0 ], [ 533636.329821285791695, 7262490.0 ], [ 533638.896306284703314, 7262480.0 ], [ 533641.103693715413101, 7262470.0 ], [ 533643.670178714208305, 7262460.0 ], [ 533646.765738788526505, 7262450.0 ], [ 533650.0, 7262440.0 ], [ 533653.234261211473495, 7262430.0 ], [ 533656.329821285791695, 7262420.0 ], [ 533658.895414073951542, 7262410.0 ], [ 533661.092519538942724, 7262400.0 ], [ 533663.583030515816063, 7262390.0 ], [ 533666.318647109437734, 7262380.0 ], [ 533668.458604360697791, 7262370.0 ], [ 533669.552908320911229, 7262360.0 ], [ 533669.912851801607758, 7262350.0 ], [ 533669.988825823646039, 7262340.000000000931323 ], [ 533669.999107789364643, 7262330.0 ], [ 533669.999107789364643, 7262320.0 ], [ 533669.988825823646039, 7262310.0 ], [ 533669.912851801607758, 7262300.0 ], [ 533669.552908320911229, 7262290.0 ], [ 533668.459496571333148, 7262280.0 ], [ 533666.329821285791695, 7262270.0 ], [ 533663.670178714208305, 7262260.0 ], [ 533661.539611218031496, 7262250.0 ], [ 533660.43591750273481, 7262240.0 ], [ 533660.0, 7262230.0 ], [ 533659.56408249726519, 7262220.0 ], [ 533658.460388781968504, 7262210.0 ], [ 533656.329821285791695, 7262200.0 ], [ 533653.670178714208305, 7262190.0 ], [ 533651.540503428783268, 7262180.0 ], [ 533650.447091679205187, 7262170.0 ], [ 533650.087148198508658, 7262160.0 ], [ 533650.011174176470377, 7262150.0 ], [ 533650.000892210751772, 7262140.0 ], [ 533650.0, 7262130.0 ], [ 533650.0, 7262120.0 ], [ 533650.0, 7262110.0 ], [ 533650.0, 7262100.000446105375886 ], [ 533650.0, 7262090.006479298695922 ], [ 533650.0, 7262080.055640487000346 ], [ 533650.0, 7262070.322760425508022 ], [ 533650.0, 7262061.316557979211211 ], [ 533650.0, 7262053.921899050474167 ], [ 533650.0, 7262048.921899050474167 ] ] } },
{ "type": "Feature", "properties": { "id": 13, "reference_id": 1, "dune_id": 1, "dune_name": "Big Mommy Dune", "acquisition_date": "2020-05-21", "length_m": 1353.3826190317636 }, "geometry": { "type": "LineString", "coordinates": [ [ 529180.0, 7261035.756988408043981 ], [ 529180.0, 7261042.086809693835676 ], [ 529179.999107789364643, 7261050.546306265518069 ], [ 529179.988825823529623, 7261060.099214585497975 ], [ 529179.912851801607758, 7261070.012066387571394 ], [ 529179.552908320794813, 7261080.000892210751772 ], [ 529178.458604360581376, 7261090.0 ], [ 529176.318647109321319, 7261100.0 ], [ 529173.583030515816063, 7261110.0 ], [ 529171.092519538942724, 7261120.000000000931323 ], [ 529168.895414074067958, 7261130.0 ], [ 529166.329821285791695, 7261140.0 ], [ 529163.233369000954553, 7261150.0 ], [ 529159.989718034281395, 7261160.0 ], [ 529156.68976476660464, 7261170.0 ], [ 529153.309343022760004, 7261180.0 ], [ 529150.0, 7261190.0 ], [ 529146.689764766488224, 7261200.0 ], [ 529143.299061056924984, 7261210.000000000931323 ], [ 529139.924025978078134, 7261220.0 ], [ 529136.329821285791695, 7261230.0 ], [ 529132.205649307463318, 7261240.0 ], [ 529127.794350692653097, 7261250.0 ], [ 529123.670178714208305, 7261260.0 ], [ 529120.075974022038281, 7261270.0 ], [ 529116.700046732323244, 7261280.0 ], [ 529113.299953267676756, 7261290.0 ], [ 529109.923133767326362, 7261300.0 ], [ 529106.319539319956675, 7261310.000000000931323 ], [ 529102.128783074789681, 7261320.0 ], [ 529097.423233035369776, 7261330.0 ], [ 529092.490510976989754, 7261340.0 ], [ 529087.509489023126662, 7261350.0 ], [ 529082.576766964746639, 7261360.0 ], [ 529077.870324714574963, 7261370.0 ], [ 529073.670178714208305, 7261380.0 ], [ 529070.000892210751772, 7261390.0 ], [ 529066.340995462262072, 7261400.0 ], [ 529062.216823483933695, 7261410.0 ], [ 529057.870324714574963, 7261420.0 ], [ 529054.031014405656606, 7261430.0 ], [ 529051.179667737334967, 7261440.0 ], [ 529048.906588250421919, 7261450.0 ], [ 529046.330713496427052, 7261460.0 ], [ 529043.234261211473495, 7261470.000000000931323 ], [ 529040.0, 7261480.0 ], [ 529036.765738788526505, 7261490.0 ], [ 529033.670178714208305, 7261500.0 ], [ 529031.104585926048458, 7261510.0 ], [ 529028.907480461173691, 7261520.0 ], [ 529026.416077273548581, 7261530.0 ], [ 529023.670178714208305, 7261540.0 ], [ 529021.454247440909967, 7261550.0 ], [ 529020.0, 7261560.000000000931323 ], [ 529018.54664476972539, 7261570.0 ], [ 529016.340995462378487, 7261580.0 ], [ 529013.671070924960077, 7261590.0 ], [ 529011.541395639418624, 7261600.0 ], [ 529010.458265855675563, 7261610.0 ], [ 529010.1742963969009, 7261620.0 ], [ 529010.45915806631092, 7261630.0 ], [ 529011.552569815889001, 7261640.0 ], [ 529013.757326912600547, 7261650.0 ], [ 529016.777805175632238, 7261660.0 ], [ 529020.011174176470377, 7261670.0 ], [ 529023.311127444263548, 7261680.0 ], [ 529026.700938943075016, 7261690.0 ], [ 529030.076866232790053, 7261700.0 ], [ 529033.680460680043325, 7261710.0 ], [ 529037.871216925210319, 7261720.0 ], [ 529042.576766964630224, 7261730.000000000931323 ], [ 529047.510381233762018, 7261740.0 ], [ 529052.501685153343715, 7261750.0 ], [ 529057.510381233762018, 7261760.0 ], [ 529062.576766964630224, 7261770.0 ], [ 529067.871216925210319, 7261780.0 ], [ 529073.680460680043325, 7261790.0 ], [ 529080.075974022038281, 7261800.0 ], [ 529086.687980345217511, 7261810.0 ], [ 529093.20073868217878, 7261820.0 ], [ 529099.377719713374972, 7261830.0 ], [ 529104.243011592421681, 7261840.000000000931323 ], [ 529106.447768689133227, 7261850.0 ], [ 529105.696366822696291, 7261860.0 ], [ 529103.036724250996485, 7261870.0 ], [ 529099.528775546583347, 7261880.0 ], [ 529095.137194950715639, 7261890.0 ], [ 529089.552016110159457, 7261900.0 ], [ 529083.222194824367762, 7261910.0 ], [ 529076.67948280076962, 7261920.0 ], [ 529069.999107789364643, 7261930.0 ], [ 529063.310235233511776, 7261940.0 ], [ 529056.700938943075016, 7261950.0 ], [ 529050.076866232673638, 7261960.0 ], [ 529043.68046067992691, 7261970.0 ], [ 529037.871216925210319, 7261980.0 ], [ 529032.577659175381996, 7261990.0 ], [ 529027.520663199597038, 7262000.0 ], [ 529022.577659175381996, 7262010.0 ], [ 529017.871216925326735, 7262020.0 ], [ 529013.680460680043325, 7262030.0 ], [ 529010.076866232673638, 7262040.0 ], [ 529006.700046732323244, 7262050.0 ], [ 529003.299953267676756, 7262060.0 ], [ 528999.923133767442778, 7262070.0 ], [ 528996.31953932007309, 7262080.0 ], [ 528992.128783074789681, 7262090.0 ], [ 528987.42234082473442, 7262100.0 ], [ 528982.478444589767605, 7262110.0 ], [ 528977.411166648264043, 7262120.0 ], [ 528972.041634876397438, 7262130.0 ], [ 528965.871555430116132, 7262139.999107789248228 ], [ 528958.371456162189133, 7262149.9888258241117 ], [ 528949.541734144324437, 7262159.912851801142097 ], [ 528939.911959590972401, 7262169.552016111090779 ], [ 528929.988825823529623, 7262178.448322394862771 ], [ 528919.999107789364643, 7262186.241780877113342 ], [ 528910.0, 7262193.211912859231234 ], [ 528900.0, 7262199.912851802073419 ], [ 528890.0, 7262206.328929075039923 ], [ 528880.000892210751772, 7262212.204757097177207 ], [ 528870.012066387105733, 7262217.782284306362271 ], [ 528860.099214585614391, 7262223.571856339462101 ], [ 528850.546306264819577, 7262229.540841933339834 ], [ 528842.086809693370014, 7262234.701277447864413 ], [ 528835.756988407694735, 7262238.001230715774 ] ] } },
{ "type": "Feature", "properties": { "id": 14, "reference_id": 2, "dune_id": 2, "dune_name": "Big Mommy Dune", "acquisition_date": "2020-05-21", "length_m": 715.9924477302518 }, "geometry": { "type": "LineString", "coordinates": [ [ 529151.078100949409418, 7260978.372348373755813 ], [ 529146.078100949409418, 7260975.882729606702924 ], [ 529138.683442020905204, 7260972.128783075138927 ], [ 529129.677239574841224, 7260967.859150538221002 ], [ 529119.944359513698146, 7260964.029229983687401 ], [ 529109.993520701071247, 7260961.169385772198439 ], [ 529099.999553894624114, 7260958.829722018912435 ], [ 529090.0, 7260955.959595840424299 ], [ 529080.0, 7260952.05370126478374 ], [ 529070.0, 7260947.424125246703625 ], [ 529060.0, 7260942.575874753296375 ], [ 529050.0, 7260937.946298737078905 ], [ 529040.0, 7260934.041296371258795 ], [ 529030.0, 7260931.181452158838511 ], [ 529020.0, 7260928.916870215907693 ], [ 529010.0, 7260926.406687518581748 ], [ 529000.0, 7260923.594204692170024 ], [ 528990.0, 7260921.094303959980607 ], [ 528980.0, 7260918.905696040019393 ], [ 528970.0, 7260916.405795307829976 ], [ 528960.0, 7260913.594204692170024 ], [ 528950.0, 7260911.094303959980607 ], [ 528940.0, 7260908.905696040019393 ], [ 528930.0, 7260906.405795308761299 ], [ 528920.0, 7260903.594204693101346 ], [ 528910.0, 7260901.094303959980607 ], [ 528900.0, 7260898.905696040019393 ], [ 528890.0, 7260896.405795307829976 ], [ 528880.0, 7260893.594204692170024 ], [ 528870.0, 7260891.093411749228835 ], [ 528860.0, 7260888.895414073951542 ], [ 528850.0, 7260886.328929075971246 ], [ 528840.0, 7260883.223087035119534 ], [ 528830.0, 7260879.912851802073419 ], [ 528820.0, 7260876.318647108972073 ], [ 528810.0, 7260872.129675285890698 ], [ 528800.0, 7260867.433515001088381 ], [ 528790.0, 7260862.566484998911619 ], [ 528780.0, 7260857.870324714109302 ], [ 528770.0, 7260853.680460680276155 ], [ 528760.0, 7260850.076866232790053 ], [ 528750.0, 7260846.700046733021736 ], [ 528740.0, 7260843.299953267909586 ], [ 528730.0, 7260839.92313376814127 ], [ 528720.0, 7260836.319539319723845 ], [ 528710.0, 7260832.128783075138927 ], [ 528700.0, 7260827.423233035951853 ], [ 528690.0, 7260822.490510976873338 ], [ 528680.0, 7260817.509489022195339 ], [ 528670.0, 7260812.57587475515902 ], [ 528660.0, 7260807.860042748972774 ], [ 528650.0, 7260803.593312481418252 ], [ 528640.0, 7260799.62888234294951 ], [ 528630.0, 7260795.149261338636279 ], [ 528620.0, 7260789.552908320911229 ], [ 528610.0, 7260783.222194824367762 ], [ 528600.0, 7260776.679482800886035 ], [ 528590.0, 7260769.999107789248228 ], [ 528580.0, 7260763.309343023225665 ], [ 528570.0, 7260756.690656976774335 ], [ 528560.0, 7260750.0 ], [ 528550.0, 7260743.309343023225665 ], [ 528540.000892210751772, 7260736.690656977705657 ], [ 528530.012066387105733, 7260730.000892210751772 ], [ 528520.099214585614391, 7260723.321409409865737 ], [ 528510.546306264819577, 7260716.788979351520538 ], [ 528502.08680969348643, 7260710.535132088698447 ], [ 528495.756988407694735, 7260705.309004518203437 ] ] } },
{ "type": "Feature", "properties": { "id": 15, "reference_id": 7, "dune_id": 7, "dune_name": "Inverted Y Dune", "acquisition_date": "2020-05-21", "length_m": 444.6150211616141 }, "geometry": { "type": "LineString", "coordinates": [ [ 530584.330159790813923, 7261405.756988408043981 ], [ 530578.361174196470529, 7261412.086809693835676 ], [ 530571.005371340434067, 7261420.546306264586747 ], [ 530563.658112327102572, 7261430.099214585497975 ], [ 530556.765738788526505, 7261440.012066387571394 ], [ 530550.01028196583502, 7261450.000892210751772 ], [ 530543.31023523339536, 7261460.0 ], [ 530536.689764766488224, 7261470.000000000931323 ], [ 530529.988825823529623, 7261480.0 ], [ 530523.222194824367762, 7261490.0 ], [ 530516.242673087399453, 7261500.0 ], [ 530508.448322394862771, 7261510.0 ], [ 530499.552016110159457, 7261520.0 ], [ 530489.912851801607758, 7261529.999107789248228 ], [ 530479.988825823529623, 7261539.9888258241117 ], [ 530469.999107789364643, 7261549.912851801142097 ], [ 530460.0, 7261559.552016111090779 ], [ 530450.0, 7261568.448322394862771 ], [ 530440.0, 7261576.241780877113342 ], [ 530430.000000000116415, 7261583.211020648479462 ], [ 530420.0, 7261589.901677625253797 ], [ 530410.0, 7261596.241780877113342 ], [ 530400.0, 7261601.758557628840208 ], [ 530390.0, 7261606.252955053001642 ], [ 530380.0, 7261609.9888258241117 ], [ 530370.0, 7261613.659004538320005 ], [ 530360.0, 7261617.793458482250571 ], [ 530350.0, 7261622.205649307928979 ], [ 530340.0, 7261626.329821285791695 ], [ 530330.0, 7261629.924025978893042 ], [ 530320.0, 7261633.299061057157815 ], [ 530310.0, 7261636.688872556202114 ], [ 530300.0, 7261639.9888258241117 ], [ 530290.0, 7261643.222194824367762 ], [ 530280.000892210751772, 7261646.242673087865114 ], [ 530270.012066387105733, 7261648.448322394862771 ], [ 530260.099214585614391, 7261649.552016111090779 ], [ 530250.546306264819577, 7261649.912851802073419 ], [ 530242.08680969348643, 7261649.9888258241117 ], [ 530235.756988407694735, 7261649.999107790179551 ] ] } }
]
}
