{
"type": "FeatureCollection",
"name": "crests_2022_05_2022-05-14",
"crs": { "type": "name", "properties": { "name": "urn:ogc:def:crs:EPSG::32733" } },
"features": [
{ "type": "Feature", "properties": { "id": 0, "reference_id": 5, "dune_id": 5, "dune_name": "The Star Dune", "acquisition_date": "2022-05-14", "length_m": 664.48336986900097 }, "geometry": { "type": "LineString", "coordinates": [ [ 533651.628543837927282, 7262041.078100949525833 ], [ 533654.129336780519225, 7262036.078100949525833 ], [ 533657.968647089437582, 7262028.683442020788789 ], [ 533662.664807373774238, 7262019.677239574491978 ], [ 533667.881498891045339, 7262009.944359513930976 ], [ 533673.671070924960077, 7261999.993520701304078 ], [ 533680.0, 7261989.999553894624114 ], [ 533686.329821285791695, 7261980.0 ], [ 533692.129675285541452, 7261970.0 ], [ 533697.423233035369776, 7261960.0 ], [ 533702.489618766237982, 7261950.0 ], [ 533707.499207057408057, 7261940.0 ], [ 533712.499900731956586, 7261930.0 ], [ 533717.499207057291642, 7261920.0 ], [ 533722.489618766237982, 7261910.0 ], [ 533727.423233035253361, 7261900.0 ], [ 533732.128783074906096, 7261890.0 ], [ 533736.31953932007309, 7261880.0 ], [ 533739.923133767442778, 7261870.0 ], [ 533743.299953267676756, 7261860.0 ], [ 533746.700938942958601, 7261850.0 ], [ 533750.088040409144014, 7261840.000000000931323 ], [ 533753.768501089187339, 7261830.0 ], [ 533758.329482780885883, 7261820.0 ], [ 533764.205310802557506, 7261810.000892210751772 ], [ 533771.638825803645886, 7261800.011174176819623 ], [ 533780.45915806631092, 7261790.088040409609675 ], [ 533790.088040409144014, 7261780.458265855908394 ], [ 533800.011174176470377, 7261771.628543837927282 ], [ 533810.000892210635357, 7261764.128444569185376 ], [ 533820.0, 7261757.958365123718977 ], [ 533830.0, 7261752.58794114086777 ], [ 533840.0, 7261747.511273445561528 ], [ 533850.0, 7261742.500792942941189 ], [ 533860.0, 7261737.500099267810583 ], [ 533870.0, 7261732.500792942941189 ], [ 533880.0, 7261727.510381233878434 ], [ 533890.0, 7261722.576766964048147 ], [ 533900.0, 7261717.871216924861073 ], [ 533910.0, 7261713.681352891027927 ], [ 533920.0, 7261710.087148198857903 ], [ 533930.0, 7261706.776912964880466 ], [ 533940.0, 7261703.671070924960077 ], [ 533950.0, 7261701.10458592697978 ], [ 533960.0, 7261698.906588250771165 ], [ 533970.0, 7261696.405795307829976 ], [ 533980.0, 7261693.594204692170024 ], [ 533990.0, 7261691.094303959980607 ], [ 534000.0, 7261688.906588250771165 ], [ 534010.0, 7261686.416969483718276 ], [ 534020.0, 7261683.681352891027927 ], [ 534030.0, 7261681.540503429248929 ], [ 534040.0, 7261680.435917503200471 ], [ 534050.0, 7261680.0 ], [ 534060.0, 7261679.564082497730851 ], [ 534070.0, 7261678.460388781502843 ], [ 534080.0, 7261676.329821285791695 ], [ 534089.999107789364643, 7261673.670178714208305 ], [ 534099.987933612894267, 7261671.540503429248929 ], [ 534109.900785414502025, 7261670.447091679088771 ], [ 534119.453693735296838, 7261670.087148198857903 ], [ 534127.91319030651357, 7261670.011174176819623 ], [ 534134.243011592305265, 7261670.000892210751772 ] ] } },
{ "type": "Feature", "properties": { "id": 1, "reference_id": 5, "dune_id": 5, "dune_name": "The Star Dune", "acquisition_date": "2022-05-14", "length_m": 437.8026240077449 }, "geometry": { "type": "LineString", "coordinates": [ [ 534175.756988407694735, 7261658.371456163004041 ], [ 534182.08680969348643, 7261655.870663220062852 ], [ 534190.546306264819577, 7261652.031352911144495 ], [ 534200.099214585614391, 7261647.335192626342177 ], [ 534210.012066387105733, 7261642.117608899250627 ], [ 534220.000892210751772, 7261636.318647109903395 ], [ 534230.0, 7261629.92313376814127 ], [ 534240.0, 7261623.299061057157815 ], [ 534250.0, 7261616.688872556202114 ], [ 534260.0, 7261609.9888258241117 ], [ 534269.999107789248228, 7261603.222194825299084 ], [ 534279.987933612894267, 7261596.242673087865114 ], [ 534289.901677625020966, 7261588.448322394862771 ], [ 534299.464867911767215, 7261579.552016110159457 ], [ 534308.000338505022228, 7261569.912851802073419 ], [ 534314.690103271510452, 7261559.9888258241117 ], [ 534319.453693735296838, 7261549.999107789248228 ], [ 534323.123872449505143, 7261540.0 ], [ 534326.23060670029372, 7261530.0 ], [ 534328.447430184110999, 7261520.0 ], [ 534329.551123899407685, 7261510.0 ], [ 534329.901677625137381, 7261500.0 ], [ 534329.901677625137381, 7261490.0 ], [ 534329.552016110159457, 7261480.0 ], [ 534328.459496571333148, 7261470.000000000931323 ], [ 534326.329821285791695, 7261460.0 ], [ 534323.670178714208305, 7261450.0 ], [ 534321.540503428666852, 7261440.0 ], [ 534320.446199468453415, 7261430.0 ], [ 534320.075974021921866, 7261420.0 ], [ 534319.924025978078134, 7261410.0 ], [ 534319.553800531546585, 7261400.0 ], [ 534318.459496571216732, 7261390.0 ], [ 534316.330713496543467, 7261380.0 ], [ 534313.682245101430453, 7261370.0 ], [ 534311.639718014281243, 7261360.0 ], [ 534310.992505733272992, 7261350.000892210751772 ], [ 534312.161891504772939, 7261340.012066386640072 ], [ 534315.668947998550721, 7261330.099214585497975 ], [ 534321.541395639418624, 7261320.546306264586747 ], [ 534328.459496571333148, 7261312.086809693835676 ], [ 534334.342226177919656, 7261305.756988408043981 ] ] } },
{ "type": "Feature", "properties": { "id": 2, "reference_id": 7, "dune_id": 7, "dune_name": "Inverted Y Dune", "acquisition_date": "2022-05-14", "length_m": 614.91532748668646 }, "geometry": { "type": "LineString", "coordinates": [ [ 530654.243011592305265, 7261325.756988408043981 ], [ 530647.913190306629986, 7261332.086809693835676 ], [ 530639.453693735296838, 7261340.546306265518069 ], [ 530629.900785414502025, 7261350.099214585497975 ], [ 530619.988825823646039, 7261360.012066386640072 ], [ 530610.01028196583502, 7261370.000892210751772 ], [ 530600.087148198392242, 7261380.0 ], [ 530590.447091679205187, 7261390.0 ], [ 530581.54139563953504, 7261400.0 ], [ 530573.681352890678681, 7261410.0 ], [ 530566.416969484183937, 7261420.0 ], [ 530558.907480461057276, 7261430.0 ], [ 530551.104585926048458, 7261440.0 ], [ 530543.670178714208305, 7261450.0 ], [ 530536.765738788526505, 7261460.0 ], [ 530529.999107789364643, 7261470.000000000931323 ], [ 530523.223087035119534, 7261480.0 ], [ 530516.242673087399453, 7261490.0 ], [ 530508.448322394862771, 7261500.0 ], [ 530499.552016110159457, 7261510.0 ], [ 530489.912851801607758, 7261520.0 ], [ 530479.988825823529623, 7261529.999107789248228 ], [ 530469.999107789364643, 7261539.9888258241117 ], [ 530460.0, 7261549.911959590390325 ], [ 530450.0, 7261559.541734145022929 ], [ 530440.0, 7261568.372348373755813 ], [ 530430.000000000116415, 7261575.881837395951152 ], [ 530420.0, 7261582.117608899250627 ], [ 530410.0, 7261587.772002339363098 ], [ 530400.0, 7261593.582138305529952 ], [ 530390.0, 7261599.627990132197738 ], [ 530380.0, 7261605.149261338636279 ], [ 530370.0, 7261609.552908320911229 ], [ 530360.0, 7261613.222194824367762 ], [ 530350.0, 7261616.679482800886035 ], [ 530340.0, 7261619.999107789248228 ], [ 530330.0, 7261623.309343023225665 ], [ 530320.0, 7261626.689764766022563 ], [ 530310.0, 7261629.9888258241117 ], [ 530300.0, 7261633.222194824367762 ], [ 530290.0, 7261636.242673087865114 ], [ 530280.0, 7261638.448322394862771 ], [ 530270.0, 7261639.552016111090779 ], [ 530260.0, 7261639.912851801142097 ], [ 530250.0, 7261639.9888258241117 ], [ 530240.0, 7261639.999107789248228 ], [ 530230.0, 7261640.0 ], [ 530220.0, 7261640.0 ], [ 530210.000892210751772, 7261640.0 ], [ 530200.012066387105733, 7261640.0 ], [ 530190.099214585614391, 7261640.0 ], [ 530180.546306264703162, 7261640.0 ], [ 530172.08680969348643, 7261640.0 ], [ 530165.756988407694735, 7261640.0 ] ] } },
{ "type": "Feature", "properties": { "id": 3, "reference_id": 8, "dune_id": 8, "dune_name": "Inverted Y Dune", "acquisition_date": "2022-05-14", "length_m": 740.10172439901373 }, "geometry": { "type": "LineString", "coordinates": [ [ 530554.243011592305265, 7261165.6698402101174 ], [ 530547.91319030651357, 7261171.638825803995132 ], [ 530539.453693735296838, 7261178.993736449629068 ], [ 530529.900785414385609, 7261186.329821286723018 ], [ 530519.987933612894267, 7261193.135938837192953 ], [ 530509.999107789248228, 7261199.454585945233703 ], [ 530500.0, 7261204.690103271976113 ], [ 530490.0, 7261208.00033850595355 ], [ 530480.0, 7261209.464867912232876 ], [ 530470.0, 7261209.901677625253797 ], [ 530460.0, 7261209.987041402608156 ], [ 530450.0, 7261209.987933613359928 ], [ 530440.0, 7261209.912851802073419 ], [ 530430.000000000116415, 7261209.552908320911229 ], [ 530420.0, 7261208.459496571682394 ], [ 530410.0, 7261206.329821285791695 ], [ 530400.0, 7261203.670178713276982 ], [ 530390.0, 7261201.540503428317606 ], [ 530380.0, 7261200.447091678157449 ], [ 530370.0, 7261200.087148198857903 ], [ 530360.0, 7261200.012066386640072 ], [ 530350.0, 7261200.012066386640072 ], [ 530340.0, 7261200.087148198857903 ], [ 530330.0, 7261200.447091678157449 ], [ 530320.0, 7261201.541395639069378 ], [ 530310.0, 7261203.681352891027927 ], [ 530300.0, 7261206.417861694470048 ], [ 530290.0, 7261208.917762426659465 ], [ 530280.0, 7261211.181452158838511 ], [ 530270.0, 7261214.04218858294189 ], [ 530260.0, 7261217.958365123718977 ], [ 530250.0, 7261222.675089339725673 ], [ 530240.0, 7261227.969539299607277 ], [ 530230.0, 7261234.129336780868471 ], [ 530220.0, 7261241.628543837927282 ], [ 530210.000892210751772, 7261250.458265855908394 ], [ 530200.011174176586792, 7261260.088040409609675 ], [ 530190.088040409144014, 7261270.011174176819623 ], [ 530180.458265855675563, 7261280.000892210751772 ], [ 530171.628543837927282, 7261290.0 ], [ 530164.129336780519225, 7261300.0 ], [ 530157.968647089553997, 7261310.000000000931323 ], [ 530152.664807373890653, 7261320.0 ], [ 530147.882391101680696, 7261330.0 ], [ 530143.682245101314038, 7261340.0 ], [ 530140.087148198392242, 7261350.0 ], [ 530136.776912964996882, 7261360.0 ], [ 530133.671070924960077, 7261370.0 ], [ 530131.104585926048458, 7261380.0 ], [ 530128.907480461173691, 7261390.0 ], [ 530126.416077273664996, 7261400.0 ], [ 530123.670178714208305, 7261410.0 ], [ 530121.454247441026382, 7261420.0 ], [ 530120.0, 7261430.0 ], [ 530118.54664476972539, 7261440.0 ], [ 530116.340995462262072, 7261450.0 ], [ 530113.671070924960077, 7261460.0 ], [ 530111.540503428666852, 7261470.000000000931323 ], [ 530110.44619946856983, 7261480.0 ], [ 530110.075974022038281, 7261490.0 ], [ 530109.924025978078134, 7261500.0 ], [ 530109.553800531546585, 7261510.0 ], [ 530108.459496571333148, 7261520.0 ], [ 530106.329821285791695, 7261530.0 ], [ 530103.669732608832419, 7261539.999553894624114 ], [ 530101.534916340489872, 7261549.993520701304078 ], [ 530100.403517580009066, 7261559.944359513930976 ], [ 530099.863602358847857, 7261569.6772395754233 ], [ 530099.240922462078743, 7261578.683442020788789 ], [ 530098.165802853647619, 7261586.078100949525833 ], [ 530096.835089357104152, 7261591.078100949525833 ] ] } },
{ "type": "Feature", "properties": { "id": 4, "reference_id": 9, "dune_id": 9, "dune_name": "Inverted Y Dune", "acquisition_date": "2022-05-14", "length_m": 802.82797137319392 }, "geometry": { "type": "LineString", "coordinates": [ [ 530091.078100949525833, 7261598.834750852547586 ], [ 530086.078100949409418, 7261603.473915160633624 ], [ 530078.683442020905204, 7261609.764880374073982 ], [ 530069.677239574841224, 7261616.564541302621365 ], [ 530059.944359513698146, 7261623.267553345300257 ], [ 530049.993520701071247, 7261629.919331100769341 ], [ 530039.999553894624114, 7261636.329375180415809 ], [ 530030.0, 7261642.205649307928979 ], [ 530020.0, 7261647.794350693002343 ], [ 530010.0, 7261653.670178714208305 ], [ 530000.0, 7261660.075974022969604 ], [ 529990.0, 7261666.700938943773508 ], [ 529980.0, 7261673.311127444729209 ], [ 529970.0, 7261680.011174176819623 ], [ 529960.0, 7261686.776912964880466 ], [ 529950.0, 7261693.746152736246586 ], [ 529940.0, 7261701.464529407210648 ], [ 529930.0, 7261710.000892210751772 ], [ 529920.0, 7261718.546644769608974 ], [ 529910.0, 7261726.340995462611318 ], [ 529900.0, 7261733.671070925891399 ], [ 529890.0, 7261741.540503429248929 ], [ 529880.000892210751772, 7261750.447091680020094 ], [ 529870.011174176470377, 7261760.087148198857903 ], [ 529860.087148198392242, 7261770.0111741758883 ], [ 529850.447091679088771, 7261780.000892210751772 ], [ 529841.541395639418624, 7261790.0 ], [ 529833.681352890678681, 7261800.0 ], [ 529826.417861694935709, 7261810.0 ], [ 529818.917762426892295, 7261820.0 ], [ 529811.181452158722095, 7261830.0 ], [ 529804.042188582126983, 7261840.000000000931323 ], [ 529797.957472912967205, 7261850.0 ], [ 529792.663915163138881, 7261860.0 ], [ 529787.882391101680696, 7261870.0 ], [ 529783.681352890678681, 7261880.0 ], [ 529780.076866232673638, 7261890.0 ], [ 529776.700938943075016, 7261900.0 ], [ 529773.310235233511776, 7261910.0 ], [ 529770.0, 7261920.0 ], [ 529766.689764766488224, 7261930.0 ], [ 529763.299061056924984, 7261940.0 ], [ 529759.923133767326362, 7261950.0 ], [ 529756.319539319956675, 7261960.0 ], [ 529752.128783074789681, 7261970.0 ], [ 529747.423233035369776, 7261980.0 ], [ 529742.490510976989754, 7261990.0 ], [ 529737.509489023126662, 7262000.0 ], [ 529732.576766964630224, 7262010.0 ], [ 529727.871216925210319, 7262020.0 ], [ 529723.680460680043325, 7262030.0 ], [ 529720.075974022038281, 7262040.0 ], [ 529716.689764766488224, 7262050.0 ], [ 529713.223979245638475, 7262060.0 ], [ 529709.563190286629833, 7262070.0 ], [ 529705.226127570495009, 7262080.0 ], [ 529700.0, 7262090.0 ], [ 529694.773872429504991, 7262100.0 ], [ 529690.436809713486582, 7262110.0 ], [ 529686.776020754361525, 7262120.0 ], [ 529683.310235233511776, 7262130.0 ], [ 529679.924918188829906, 7262140.0 ], [ 529676.329821285791695, 7262150.0 ], [ 529672.205649307463318, 7262160.0 ], [ 529667.794350692536682, 7262170.0 ], [ 529663.671070924843661, 7262180.0 ], [ 529660.087148198508658, 7262189.999107789248228 ], [ 529656.788087141467258, 7262199.987933613359928 ], [ 529653.758219123352319, 7262209.900785414502025 ], [ 529651.551677605253644, 7262219.453693735413253 ], [ 529650.447983889840543, 7262227.913190307095647 ], [ 529650.087148198392242, 7262234.243011592887342 ] ] } },
{ "type": "Feature", "properties": { "id": 5, "reference_id": 4, "dune_id": 4, "dune_name": "The Star Dune", "acquisition_date": "2022-05-14", "length_m": 648.94574736026391 }, "geometry": { "type": "LineString", "coordinates": [ [ 533005.756988407694735, 7261863.681352891027927 ], [ 533012.08680969348643, 7261866.416969484649599 ], [ 533020.546306264819577, 7261868.906588250771165 ], [ 533030.099214585614391, 7261871.093411749228835 ], [ 533040.012066387105733, 7261873.583922727033496 ], [ 533050.000892210751772, 7261876.329821286723018 ], [ 533060.0, 7261878.545752558857203 ], [ 533070.0, 7261880.0 ], [ 533080.0, 7261881.454247441142797 ], [ 533090.0, 7261883.670178714208305 ], [ 533100.0, 7261886.416077273897827 ], [ 533110.0, 7261888.907480461522937 ], [ 533120.0, 7261891.10458592697978 ], [ 533130.0, 7261893.670178715139627 ], [ 533140.0, 7261896.766630999743938 ], [ 533150.0, 7261900.010281965136528 ], [ 533160.0, 7261903.310235233977437 ], [ 533170.0, 7261906.689764766953886 ], [ 533180.0, 7261909.989718034863472 ], [ 533190.0, 7261913.233369002118707 ], [ 533200.0, 7261916.329821286723018 ], [ 533210.0, 7261918.895414073951542 ], [ 533220.0, 7261921.093411749228835 ], [ 533230.0, 7261923.594204692170024 ], [ 533240.0, 7261926.406687518581748 ], [ 533250.0, 7261928.916870215907693 ], [ 533260.0, 7261931.180559948086739 ], [ 533270.0, 7261934.030122194439173 ], [ 533280.0, 7261937.860042748972774 ], [ 533290.0, 7261942.139957251027226 ], [ 533300.0, 7261945.969877805560827 ], [ 533310.0, 7261948.819440051913261 ], [ 533320.0, 7261951.083129784092307 ], [ 533330.0, 7261953.593312481418252 ], [ 533340.0, 7261956.405795307829976 ], [ 533350.0, 7261958.906588250771165 ], [ 533360.0, 7261961.10458592697978 ], [ 533370.0, 7261963.670178714208305 ], [ 533380.000000000116415, 7261966.766630999743938 ], [ 533390.0, 7261970.010281966067851 ], [ 533400.000000000116415, 7261973.310235233977437 ], [ 533410.0, 7261976.690656977705657 ], [ 533420.0, 7261980.0 ], [ 533430.0, 7261983.310235233977437 ], [ 533440.0, 7261986.700938943773508 ], [ 533450.0, 7261990.076866232790053 ], [ 533460.0, 7261993.680460680276155 ], [ 533470.0, 7261997.870324715040624 ], [ 533480.0, 7262002.566484998911619 ], [ 533490.0, 7262007.434407211840153 ], [ 533500.0, 7262012.140849461778998 ], [ 533510.0, 7262016.405795307829976 ], [ 533520.0, 7262020.35994348116219 ], [ 533530.0, 7262024.763590464368463 ], [ 533540.0, 7262029.999107789248228 ], [ 533550.0, 7262035.225235359743237 ], [ 533560.0, 7262039.552016111090779 ], [ 533570.0, 7262043.13593883626163 ], [ 533579.999107789364643, 7262046.231498911976814 ], [ 533589.987933612894267, 7262048.447430184110999 ], [ 533599.900785414385609, 7262049.552016111090779 ], [ 533609.453693735180423, 7262049.912851801142097 ], [ 533617.91319030651357, 7262049.9888258241117 ], [ 533624.243011592305265, 7262049.999107789248228 ] ] } },
{ "type": "Feature", "properties": { "id": 6, "reference_id": 6, "dune_id": 6, "dune_name": "The Star Dune", "acquisition_date": "2022-05-14", "length_m": 748.67397734944427 }, "geometry": { "type": "LineString", "coordinates": [ [ 533580.447091679205187, 7262784.243011591956019 ], [ 533581.540503428783268, 7262777.913190307095647 ], [ 533583.671070924960077, 7262769.453693735413253 ], [ 533586.340995462262072, 7262759.900785414502025 ], [ 533588.54664476972539, 7262749.987933613359928 ], [ 533590.0, 7262739.999107789248228 ], [ 533591.45335523027461, 7262730.0 ], [ 533593.659004537737928, 7262720.0 ], [ 533596.328929075039923, 7262710.0 ], [ 533598.459496571216732, 7262700.0 ], [ 533599.553800531546585, 7262690.0 ], [ 533599.924025978078134, 7262680.0 ], [ 533600.075974022038281, 7262670.0 ], [ 533600.44619946856983, 7262660.0 ], [ 533601.540503428783268, 7262650.0 ], [ 533603.671070924960077, 7262640.0 ], [ 533606.340995462378487, 7262630.0 ], [ 533608.54664476972539, 7262620.0 ], [ 533610.0, 7262610.0 ], [ 533611.45335523027461, 7262600.000000000931323 ], [ 533613.659896748373285, 7262590.0 ], [ 533616.340103251626715, 7262580.0 ], [ 533618.54664476972539, 7262570.0 ], [ 533620.0, 7262560.0 ], [ 533621.454247440909967, 7262550.0 ], [ 533623.670178714208305, 7262540.0 ], [ 533626.416077273548581, 7262530.0 ], [ 533628.907480461173691, 7262520.0 ], [ 533631.104585926048458, 7262510.0 ], [ 533633.670178714208305, 7262500.0 ], [ 533636.766630999278277, 7262490.0 ], [ 533640.01028196583502, 7262480.0 ], [ 533643.310235233511776, 7262470.0 ], [ 533646.689764766488224, 7262460.0 ], [ 533649.989718034281395, 7262450.0 ], [ 533653.233369000838138, 7262440.0 ], [ 533656.329821285791695, 7262430.0 ], [ 533658.895414073951542, 7262420.0 ], [ 533661.092519538942724, 7262410.0 ], [ 533663.583030515816063, 7262400.0 ], [ 533666.319539319956675, 7262390.0 ], [ 533668.469778537051752, 7262380.0 ], [ 533669.639164308551699, 7262370.0 ], [ 533670.348769304342568, 7262360.0 ], [ 533671.442181053804234, 7262350.0 ], [ 533673.222194824367762, 7262340.000000000931323 ], [ 533674.789317857124843, 7262330.0 ], [ 533674.789317857124843, 7262320.0 ], [ 533673.223087035119534, 7262310.0 ], [ 533671.452463019639254, 7262300.0 ], [ 533670.424743326264434, 7262290.0 ], [ 533669.999107789364643, 7262280.0 ], [ 533669.56408249726519, 7262270.0 ], [ 533668.460388781968504, 7262260.0 ], [ 533666.329821285791695, 7262250.0 ], [ 533663.670178714208305, 7262240.0 ], [ 533661.540503428783268, 7262230.0 ], [ 533660.447091679088771, 7262220.0 ], [ 533660.086255987756886, 7262210.0 ], [ 533660.0, 7262200.0 ], [ 533659.913744012243114, 7262190.0 ], [ 533659.552908320911229, 7262180.0 ], [ 533658.459496571216732, 7262170.0 ], [ 533656.329821285791695, 7262160.0 ], [ 533653.670178714208305, 7262150.0 ], [ 533651.540503428783268, 7262140.0 ], [ 533650.447091679205187, 7262130.0 ], [ 533650.087148198508658, 7262120.0 ], [ 533650.011174176470377, 7262110.0 ], [ 533650.000892210751772, 7262100.000446105375886 ], [ 533650.0, 7262090.006479298695922 ], [ 533650.0, 7262080.055640487000346 ], [ 533650.0, 7262070.322760425508022 ], [ 533650.0, 7262061.316557979211211 ], [ 533650.0, 7262053.921899050474167 ], [ 533650.0, 7262048.921899050474167 ] ] } },
{ "type": "Feature", "properties": { "id": 7, "reference_id": 2, "dune_id": 2, "dune_name": "Big Mommy Dune", "acquisition_date": "2022-05-14", "length_m": 768.18712838421243 }, "geometry": { "type": "LineString", "coordinates": [ [ 528435.756988407694735, 7260664.205310802906752 ], [ 528442.08680969348643, 7260668.329482780769467 ], [ 528450.546306264819577, 7260673.76939329970628 ], [ 528460.099214585614391, 7260680.098322374746203 ], [ 528470.012066387105733, 7260686.777805175632238 ], [ 528480.000892210751772, 7260693.671070925891399 ], [ 528490.0, 7260701.103693716228008 ], [ 528500.0, 7260708.896306284703314 ], [ 528510.0, 7260716.329821286723018 ], [ 528520.0, 7260723.233369001187384 ], [ 528530.0, 7260729.989718034863472 ], [ 528540.0, 7260736.688872556202114 ], [ 528550.0, 7260743.299061057157815 ], [ 528560.0, 7260749.923133767209947 ], [ 528570.0, 7260756.319539319723845 ], [ 528580.0, 7260762.129675284959376 ], [ 528590.0, 7260767.433515001088381 ], [ 528600.0, 7260772.566484998911619 ], [ 528610.0, 7260777.869432505220175 ], [ 528620.0, 7260783.669286504387856 ], [ 528630.0, 7260789.989718034863472 ], [ 528640.0, 7260796.252955053001642 ], [ 528650.0, 7260801.75944983959198 ], [ 528660.0, 7260806.252955053001642 ], [ 528670.0, 7260809.989718034863472 ], [ 528680.0, 7260813.669286504387856 ], [ 528690.0, 7260817.86943250335753 ], [ 528700.0, 7260822.566484998911619 ], [ 528710.0, 7260827.433515001088381 ], [ 528720.0, 7260832.13056749664247 ], [ 528730.0, 7260836.329821286723018 ], [ 528740.0, 7260839.999107789248228 ], [ 528750.0, 7260843.659896748140454 ], [ 528760.0, 7260847.793458482250571 ], [ 528770.0, 7260852.205649306997657 ], [ 528780.0, 7260856.329821285791695 ], [ 528790.0, 7260859.924025978893042 ], [ 528800.0, 7260863.299061058089137 ], [ 528810.0, 7260866.689764767885208 ], [ 528820.0, 7260870.0 ], [ 528830.0, 7260873.309343023225665 ], [ 528840.0, 7260876.689764766953886 ], [ 528850.0, 7260879.989718034863472 ], [ 528860.0, 7260883.233369002118707 ], [ 528870.0, 7260886.329821286723018 ], [ 528880.0, 7260888.895414073951542 ], [ 528890.0, 7260891.093411749228835 ], [ 528900.0, 7260893.594204692170024 ], [ 528910.0, 7260896.405795307829976 ], [ 528920.0, 7260898.905696040019393 ], [ 528930.0, 7260901.094303959980607 ], [ 528940.0, 7260903.594204693101346 ], [ 528950.0, 7260906.405795308761299 ], [ 528960.0, 7260908.905696040019393 ], [ 528970.0, 7260911.094303959980607 ], [ 528980.0, 7260913.594204692170024 ], [ 528990.0, 7260916.406687518581748 ], [ 529000.0, 7260918.916870215907693 ], [ 529010.0, 7260921.180559948086739 ], [ 529020.0, 7260924.031014406122267 ], [ 529030.0, 7260927.870324715040624 ], [ 529040.0, 7260932.216823483817279 ], [ 529050.0, 7260936.340995462611318 ], [ 529060.0, 7260940.0 ], [ 529070.0, 7260943.659896748140454 ], [ 529080.0, 7260947.793458482250571 ], [ 529089.999107789248228, 7260952.205649308860302 ], [ 529099.987933612894267, 7260956.328929075971246 ], [ 529109.900785414385609, 7260959.912851802073419 ], [ 529119.453693735296838, 7260963.211912859231234 ], [ 529127.91319030651357, 7260966.241780877113342 ], [ 529134.243011592421681, 7260968.448322394862771 ] ] } },
{ "type": "Feature", "properties": { "id": 8, "reference_id": 3, "dune_id": 3, "dune_name": "Big Mommy Dune", "acquisition_date": "2022-05-14", "length_m": 1254.0623754731384 }, "geometry": { "type": "LineString", "coordinates": [ [ 530244.243011592421681, 7260570.000892210751772 ], [ 530237.91319030651357, 7260570.011174176819623 ], [ 530229.453693735180423, 7260570.087148198857903 ], [ 530219.900785414385609, 7260570.447091680020094 ], [ 530209.987933612894267, 7260571.540503429248929 ], [ 530199.999107789248228, 7260573.671070925891399 ], [ 530190.0, 7260576.340995462611318 ], [ 530180.0, 7260578.546644769608974 ], [ 530170.000000000116415, 7260580.0 ], [ 530160.0, 7260581.454247441142797 ], [ 530150.0, 7260583.670178714208305 ], [ 530140.0, 7260586.416077273897827 ], [ 530130.0, 7260588.906588250771165 ], [ 530120.0, 7260591.093411749228835 ], [ 530110.0, 7260593.583030516281724 ], [ 530100.0, 7260596.319539319723845 ], [ 530090.0, 7260598.469778537750244 ], [ 530080.0, 7260599.640056519769132 ], [ 530070.0, 7260600.35994348116219 ], [ 530060.0, 7260601.529329252429307 ], [ 530050.0, 7260603.669286504387856 ], [ 530040.0, 7260606.329821286723018 ], [ 530030.0, 7260608.459496571682394 ], [ 530020.0, 7260609.552908320911229 ], [ 530010.0, 7260609.912851802073419 ], [ 530000.0, 7260609.9888258241117 ], [ 529990.0, 7260609.999107789248228 ], [ 529980.0, 7260609.999107789248228 ], [ 529970.0, 7260609.9888258241117 ], [ 529960.0, 7260609.912851802073419 ], [ 529950.0, 7260609.552908320911229 ], [ 529940.0, 7260608.459496571682394 ], [ 529930.0, 7260606.329821286723018 ], [ 529920.0, 7260603.670178715139627 ], [ 529910.0, 7260601.540503429248929 ], [ 529900.0, 7260600.447091680020094 ], [ 529890.0, 7260600.087148198857903 ], [ 529880.0, 7260600.011174176819623 ], [ 529870.0, 7260600.000892210751772 ], [ 529860.0, 7260600.0 ], [ 529850.0, 7260600.0 ], [ 529840.0, 7260600.0 ], [ 529830.0, 7260600.0 ], [ 529820.0, 7260600.000892210751772 ], [ 529810.0, 7260600.011174176819623 ], [ 529800.0, 7260600.087148198857903 ], [ 529790.0, 7260600.447091680020094 ], [ 529780.0, 7260601.540503429248929 ], [ 529770.0, 7260603.670178715139627 ], [ 529760.0, 7260606.329821286723018 ], [ 529750.0, 7260608.459496571682394 ], [ 529740.0, 7260609.552908320911229 ], [ 529730.0, 7260609.913744012825191 ], [ 529720.0, 7260610.0 ], [ 529710.0, 7260610.086255988106132 ], [ 529700.0, 7260610.447091680020094 ], [ 529690.0, 7260611.540503429248929 ], [ 529680.0, 7260613.670178715139627 ], [ 529670.0, 7260616.329821286723018 ], [ 529660.0, 7260618.460388782434165 ], [ 529650.0, 7260619.564082497730851 ], [ 529640.0, 7260620.0 ], [ 529630.0, 7260620.435917503200471 ], [ 529620.0, 7260621.539611218497157 ], [ 529610.0, 7260623.670178714208305 ], [ 529600.0, 7260626.330713496543467 ], [ 529590.0, 7260628.470670747570693 ], [ 529580.0, 7260629.64005651883781 ], [ 529570.0, 7260630.35994348116219 ], [ 529560.0, 7260631.530221463181078 ], [ 529550.0, 7260633.680460680276155 ], [ 529540.0, 7260636.416969483718276 ], [ 529530.0, 7260638.907480461522937 ], [ 529520.0, 7260641.10458592697978 ], [ 529510.0, 7260643.670178715139627 ], [ 529500.000000000116415, 7260646.765738788992167 ], [ 529490.0, 7260650.0 ], [ 529480.0, 7260653.234261211939156 ], [ 529470.0, 7260656.330713496543467 ], [ 529460.0, 7260658.906588250771165 ], [ 529450.0, 7260661.179667737334967 ], [ 529440.000000000116415, 7260664.031014406122267 ], [ 529430.0, 7260667.871216925792396 ], [ 529420.0, 7260672.22710544988513 ], [ 529410.0, 7260676.417861694470048 ], [ 529400.0, 7260680.372009867802262 ], [ 529390.0, 7260684.851630873046815 ], [ 529380.0, 7260690.458265855908394 ], [ 529370.0, 7260696.864953374490142 ], [ 529360.000892210635357, 7260703.768501089885831 ], [ 529350.011174176586792, 7260711.552569815889001 ], [ 529340.087148198392242, 7260720.447983889840543 ], [ 529330.447983889840543, 7260730.087148198857903 ], [ 529321.551677605253644, 7260740.011174176819623 ], [ 529313.757326912716962, 7260750.000892210751772 ], [ 529306.777805175748654, 7260760.0 ], [ 529300.011174176470377, 7260770.0 ], [ 529293.310235233511776, 7260780.000000000931323 ], [ 529286.690656977239996, 7260790.0 ], [ 529280.0, 7260800.0 ], [ 529273.309343022760004, 7260810.0 ], [ 529266.690656977239996, 7260820.0 ], [ 529260.0, 7260830.0 ], [ 529253.309343022876419, 7260840.0 ], [ 529246.690656977239996, 7260850.0 ], [ 529240.0, 7260860.0 ], [ 529233.31023523339536, 7260870.0 ], [ 529226.700938943075016, 7260880.0 ], [ 529220.075974022038281, 7260890.0 ], [ 529213.670178714208305, 7260900.0 ], [ 529207.794350692536682, 7260910.0 ], [ 529202.206541518098675, 7260920.0 ], [ 529196.340995462262072, 7260930.0 ], [ 529190.012512492481619, 7260939.999553894624114 ], [ 529183.763806211645715, 7260949.993520701304078 ], [ 529178.372164669446647, 7260959.944359514862299 ], [ 529174.428856642101891, 7260969.6772395754233 ], [ 529172.40907751803752, 7260978.683442020788789 ], [ 529172.294247423531488, 7260986.078100949525833 ], [ 529173.252951052039862, 7260991.078100949525833 ] ] } },
{ "type": "Feature", "properties": { "id": 9, "reference_id": 1, "dune_id": 1, "dune_name": "Big Mommy Dune", "acquisition_date": "2022-05-14", "length_m": 1381.3301803883924 }, "geometry": { "type": "LineString", "coordinates": [ [ 529176.835089357104152, 7260998.921899050474167 ], [ 529178.164910642895848, 7261003.921899050474167 ], [ 529179.229748285724781, 7261011.316557979211211 ], [ 529179.776454160455614, 7261020.322760425508022 ], [ 529179.956425900803879, 7261030.055640487000346 ], [ 529179.994412911823019, 7261040.006479299627244 ], [ 529179.999553894740529, 7261050.000446105375886 ], [ 529179.999107789364643, 7261060.0 ], [ 529179.988825823529623, 7261070.0 ], [ 529179.912851801607758, 7261080.0 ], [ 529179.552908320794813, 7261090.0 ], [ 529178.458604360581376, 7261100.0 ], [ 529176.318647109321319, 7261110.0 ], [ 529173.582138305064291, 7261120.000000000931323 ], [ 529171.082237573107705, 7261130.0 ], [ 529168.819440052029677, 7261140.0 ], [ 529165.968985594343394, 7261150.0 ], [ 529162.129675285541452, 7261160.0 ], [ 529157.784068726818077, 7261170.0 ], [ 529153.669286503572948, 7261180.0 ], [ 529150.075974022038281, 7261190.0 ], [ 529146.700046732323244, 7261200.0 ], [ 529143.299953267676756, 7261210.000000000931323 ], [ 529139.923133767326362, 7261220.0 ], [ 529136.319539319956675, 7261230.0 ], [ 529132.129675285425037, 7261240.0 ], [ 529127.433515001204796, 7261250.0 ], [ 529122.566484998911619, 7261260.0 ], [ 529117.869432503939606, 7261270.0 ], [ 529113.670178714208305, 7261280.0 ], [ 529110.0, 7261290.0 ], [ 529106.329821285791695, 7261300.0 ], [ 529102.130567496176809, 7261310.000000000931323 ], [ 529097.433515001204796, 7261320.0 ], [ 529092.566484998911619, 7261330.0 ], [ 529087.870324714574963, 7261340.0 ], [ 529083.680460680043325, 7261350.0 ], [ 529080.076866232557222, 7261360.0 ], [ 529076.700046732323244, 7261370.0 ], [ 529073.299953267676756, 7261380.0 ], [ 529069.924025978078134, 7261390.0 ], [ 529066.329821285791695, 7261400.0 ], [ 529062.205649307463318, 7261410.0 ], [ 529057.794350692536682, 7261420.0 ], [ 529053.670178714208305, 7261430.0 ], [ 529050.075974021921866, 7261440.0 ], [ 529046.700938942958601, 7261450.0 ], [ 529043.311127444147132, 7261460.0 ], [ 529040.01028196583502, 7261470.000000000931323 ], [ 529036.766630999278277, 7261480.0 ], [ 529033.670178714208305, 7261490.0 ], [ 529031.104585926048458, 7261500.0 ], [ 529028.907480461173691, 7261510.0 ], [ 529026.416969484183937, 7261520.0 ], [ 529023.680460680043325, 7261530.0 ], [ 529021.530221462948248, 7261540.0 ], [ 529020.359943480812944, 7261550.0 ], [ 529019.640056519303471, 7261560.000000000931323 ], [ 529018.470670747803524, 7261570.0 ], [ 529016.331605707178824, 7261580.0 ], [ 529013.681352890795097, 7261590.0 ], [ 529011.62765162717551, 7261600.0 ], [ 529010.894183358410373, 7261610.0 ], [ 529011.62765162717551, 7261620.0 ], [ 529013.682245101314038, 7261630.0 ], [ 529016.341887672897428, 7261640.0 ], [ 529018.54664476972539, 7261650.0 ], [ 529020.000892210751772, 7261660.0 ], [ 529021.464529406744987, 7261670.0 ], [ 529023.747044946881942, 7261680.0 ], [ 529026.787194930715486, 7261690.0 ], [ 529030.088040409144014, 7261700.0 ], [ 529033.682245101314038, 7261710.0 ], [ 529037.881498890928924, 7261720.0 ], [ 529042.653633197303861, 7261730.000000000931323 ], [ 529047.880606680293567, 7261740.0 ], [ 529053.671070924960077, 7261750.0 ], [ 529060.0, 7261760.0 ], [ 529066.329821285791695, 7261770.0 ], [ 529072.129675285425037, 7261780.0 ], [ 529077.42234082473442, 7261790.0 ], [ 529082.478444589767605, 7261800.0 ], [ 529087.411166648147628, 7261810.0 ], [ 529092.041634876397438, 7261820.0 ], [ 529095.870663219597191, 7261830.0 ], [ 529098.360281985718757, 7261840.000000000931323 ], [ 529099.453693735413253, 7261850.0 ], [ 529099.452801524661481, 7261860.0 ], [ 529098.350000019883737, 7261870.0 ], [ 529095.793796986807138, 7261880.0 ], [ 529091.670517219230533, 7261890.0 ], [ 529086.231498910929076, 7261900.0 ], [ 529079.911959590855986, 7261910.0 ], [ 529073.298168846289627, 7261920.0 ], [ 529066.68976476660464, 7261930.0 ], [ 529060.0, 7261940.0 ], [ 529053.310235233511776, 7261950.0 ], [ 529046.700938942958601, 7261960.0 ], [ 529040.076866232673638, 7261970.0 ], [ 529033.681352890795097, 7261980.0 ], [ 529027.881498891045339, 7261990.0 ], [ 529022.653633197303861, 7262000.0 ], [ 529017.881498890928924, 7262010.0 ], [ 529013.681352890795097, 7262020.0 ], [ 529010.076866232673638, 7262030.0 ], [ 529006.700046732323244, 7262040.0 ], [ 529003.299953267676756, 7262050.0 ], [ 528999.923133767442778, 7262060.0 ], [ 528996.31953932007309, 7262070.0 ], [ 528992.128783074789681, 7262080.0 ], [ 528987.42234082473442, 7262090.0 ], [ 528982.478444589767605, 7262100.0 ], [ 528977.411166648264043, 7262110.0 ], [ 528972.041634876397438, 7262120.0 ], [ 528965.871555430116132, 7262130.0 ], [ 528958.371456162189133, 7262140.0 ], [ 528949.541734144324437, 7262149.999107789248228 ], [ 528939.911959590972401, 7262159.9888258241117 ], [ 528929.988825823529623, 7262169.911959591321647 ], [ 528919.999107789364643, 7262179.541734144091606 ], [ 528910.0, 7262188.371456162072718 ], [ 528900.0, 7262195.871555430814624 ], [ 528890.0, 7262202.042527087032795 ], [ 528880.000892210751772, 7262207.422340825200081 ], [ 528870.012066387105733, 7262212.564700577408075 ], [ 528860.099214585614391, 7262217.85825832746923 ], [ 528850.546306264819577, 7262223.582138305529952 ], [ 528842.086809693370014, 7262229.541734144091606 ], [ 528835.756988407694735, 7262234.701277447864413 ] ] } }
]
}
