{
"type": "FeatureCollection",
"name": "crests_2022_06_2022-06-08",
"crs": { "type": "name", "properties": { "name": "urn:ogc:def:crs:EPSG::32733" } },
"features": [
{ "type": "Feature", "properties": { "id": 0, "reference_id": 6, "dune_id": 6, "dune_name": "The Star Dune", "acquisition_date": "2022-06-08", "length_m": 119.35523700253218 }, "geometry": { "type": "LineString", "coordinates": [ [ 533660.0, 7262184.243011591956019 ], [ 533660.0, 7262177.913190307095647 ], [ 533660.0, 7262169.453693735413253 ], [ 533660.0, 7262159.900785414502025 ], [ 533660.0, 7262149.987933613359928 ], [ 533660.0, 7262139.999107789248228 ], [ 533660.0, 7262130.0 ], [ 533659.999107789248228, 7262120.0 ], [ 533659.988825823529623, 7262110.000892210751772 ], [ 533659.912851801607758, 7262100.012066387571394 ], [ 533659.552908320911229, 7262090.099214586429298 ], [ 533658.459496571216732, 7262080.546306265518069 ], [ 533656.329821285791695, 7262072.086809692904353 ], [ 533653.670178714208305, 7262065.756988408043981 ] ] } },
{ "type": "Feature", "properties": { "id": 1, "reference_id": 6, "dune_id": 6, "dune_name": "The Star Dune", "acquisition_date": "2022-06-08", "length_m": 553.98489815890628 }, "geometry": { "type": "LineString", "coordinates": [ [ 533560.458265855675563, 7262844.243011592887342 ], [ 533561.62765162717551, 7262837.913190307095647 ], [ 533564.117270393413492, 7262829.453693736344576 ], [ 533567.871216925210319, 7262819.900785414502025 ], [ 533572.140849462011829, 7262809.987933613359928 ], [ 533575.969877805095166, 7262799.999107789248228 ], [ 533578.819440052029677, 7262790.0 ], [ 533581.082237573107705, 7262780.0 ], [ 533583.583030515816063, 7262770.0 ], [ 533586.329821285791695, 7262760.0 ], [ 533588.545752559090033, 7262750.0 ], [ 533590.0, 7262740.0 ], [ 533591.45335523027461, 7262730.0 ], [ 533593.659004537737928, 7262720.0 ], [ 533596.328929075039923, 7262710.0 ], [ 533598.460388781968504, 7262700.0 ], [ 533599.56408249726519, 7262690.0 ], [ 533600.0, 7262680.0 ], [ 533600.43591750273481, 7262670.0 ], [ 533601.539611218031496, 7262660.0 ], [ 533603.670178714208305, 7262650.0 ], [ 533606.330713496543467, 7262640.0 ], [ 533608.470670747803524, 7262630.0 ], [ 533609.640056519303471, 7262620.0 ], [ 533610.359943480696529, 7262610.0 ], [ 533611.530221462948248, 7262600.000000000931323 ], [ 533613.680460680043325, 7262590.0 ], [ 533616.416969484183937, 7262580.0 ], [ 533618.907480461173691, 7262570.0 ], [ 533621.104585925932042, 7262560.0 ], [ 533623.670178714208305, 7262550.0 ], [ 533626.765738788526505, 7262540.0 ], [ 533630.0, 7262530.0 ], [ 533633.234261211473495, 7262520.0 ], [ 533636.329821285791695, 7262510.0 ], [ 533638.896306284703314, 7262500.0 ], [ 533641.103693715413101, 7262490.0 ], [ 533643.670178714208305, 7262480.0 ], [ 533646.765738788526505, 7262470.0 ], [ 533650.0, 7262460.0 ], [ 533653.234261211473495, 7262450.0 ], [ 533656.329821285791695, 7262440.0 ], [ 533658.895414073951542, 7262430.0 ], [ 533661.093411749578081, 7262420.0 ], [ 533663.594204692286439, 7262410.0 ], [ 533666.405795307829976, 7262400.0 ], [ 533668.905696039786562, 7262390.0 ], [ 533671.093411749578081, 7262380.0 ], [ 533673.583030515816063, 7262370.0 ], [ 533676.318647109437734, 7262360.0 ], [ 533678.458604360697791, 7262350.000892210751772 ], [ 533679.552908320911229, 7262340.012066387571394 ], [ 533679.912851801607758, 7262330.099214585497975 ], [ 533679.988825823646039, 7262320.546306265518069 ], [ 533679.999107789364643, 7262312.086809693835676 ], [ 533680.0, 7262305.756988408043981 ] ] } },
{ "type": "Feature", "properties": { "id": 2, "reference_id": 1, "dune_id": 1, "dune_name": "Big Mommy Dune", "acquisition_date": "2022-06-08", "length_m": 467.19983979060208 }, "geometry": { "type": "LineString", "coordinates": [ [ 529099.541734144324437, 7261865.756988408043981 ], [ 529098.371456162305549, 7261872.086809693835676 ], [ 529095.870663219597191, 7261880.546306265518069 ], [ 529092.031352910562418, 7261890.099214585497975 ], [ 529087.335192626225762, 7261900.012066386640072 ], [ 529082.117608898319304, 7261910.000892210751772 ], [ 529076.318647109321319, 7261920.0 ], [ 529069.923133767326362, 7261930.0 ], [ 529063.299061057041399, 7261940.0 ], [ 529056.68976476660464, 7261950.0 ], [ 529050.000892210635357, 7261960.0 ], [ 529043.32051719923038, 7261970.0 ], [ 529036.777805175632238, 7261980.0 ], [ 529030.447983889840543, 7261990.0 ], [ 529024.861020627897233, 7262000.0 ], [ 529020.447983889840543, 7262010.0 ], [ 529016.776912965113297, 7262020.0 ], [ 529013.310235233511776, 7262030.0 ], [ 529009.924025978078134, 7262040.0 ], [ 529006.31953932007309, 7262050.0 ], [ 529002.128783074789681, 7262060.0 ], [ 528997.423233035369776, 7262070.0 ], [ 528992.489618766237982, 7262080.0 ], [ 528987.498314846656285, 7262090.0 ], [ 528982.488726555602625, 7262100.0 ], [ 528977.4120588588994, 7262110.0 ], [ 528972.041634876397438, 7262120.0 ], [ 528965.871555430116132, 7262130.0 ], [ 528958.371456162189133, 7262140.0 ], [ 528949.541734144324437, 7262150.0 ], [ 528939.911959590972401, 7262159.999107789248228 ], [ 528929.988825823529623, 7262169.9888258241117 ], [ 528919.999107789364643, 7262179.911959591321647 ], [ 528910.0, 7262189.541734144091606 ], [ 528900.0, 7262198.371456162072718 ], [ 528890.0, 7262205.871555430814624 ], [ 528880.000892210751772, 7262212.041634877212346 ], [ 528870.012066387105733, 7262217.411166648380458 ], [ 528860.099214585614391, 7262222.477552378550172 ], [ 528850.546306264819577, 7262227.411166648380458 ], [ 528842.086809693370014, 7262232.041634876281023 ], [ 528835.756988407694735, 7262235.871555430814624 ] ] } },
{ "type": "Feature", "properties": { "id": 3, "reference_id": 1, "dune_id": 1, "dune_name": "Big Mommy Dune", "acquisition_date": "2022-06-08", "length_m": 88.486023183912039 }, "geometry": { "type": "LineString", "coordinates": [ [ 529020.0, 7261555.756988408043981 ], [ 529020.0, 7261562.086809693835676 ], [ 529020.0, 7261570.546306264586747 ], [ 529020.0, 7261580.099214585497975 ], [ 529020.0, 7261590.012066387571394 ], [ 529020.0, 7261600.0 ], [ 529020.0, 7261609.987933613359928 ], [ 529020.0, 7261619.900785414502025 ], [ 529020.0, 7261629.453693736344576 ], [ 529020.0, 7261637.913190307095647 ], [ 529020.0, 7261644.243011591956019 ] ] } },
{ "type": "Feature", "properties": { "id": 4, "reference_id": 1, "dune_id": 1, "dune_name": "Big Mommy Dune", "acquisition_date": "2022-06-08", "length_m": 446.10195130580223 }, "geometry": { "type": "LineString", "coordinates": [ [ 529179.912851801607758, 7261105.756988408043981 ], [ 529179.552016110159457, 7261112.086809692904353 ], [ 529178.448322394862771, 7261120.546306265518069 ], [ 529176.241780876647681, 7261130.099214586429298 ], [ 529173.211912858532742, 7261140.012066387571394 ], [ 529169.912851801607758, 7261150.000892210751772 ], [ 529166.328929075156339, 7261160.0 ], [ 529162.205649307463318, 7261170.0 ], [ 529157.794350692536682, 7261180.0 ], [ 529153.670178714208305, 7261190.0 ], [ 529150.075974022038281, 7261200.0 ], [ 529146.700046732323244, 7261210.000000000931323 ], [ 529143.299953267676756, 7261220.0 ], [ 529139.924025978078134, 7261230.0 ], [ 529136.329821285791695, 7261240.0 ], [ 529132.205649307463318, 7261250.0 ], [ 529127.793458481901325, 7261260.0 ], [ 529123.6598967484897, 7261270.0 ], [ 529119.999107789364643, 7261280.0 ], [ 529116.329821285791695, 7261290.0 ], [ 529112.129675285541452, 7261300.0 ], [ 529107.423233035369776, 7261310.000000000931323 ], [ 529102.490510976873338, 7261320.0 ], [ 529097.509489023126662, 7261330.0 ], [ 529092.576766964746639, 7261340.0 ], [ 529087.871216925210319, 7261350.0 ], [ 529083.680460680043325, 7261360.0 ], [ 529080.076866232557222, 7261370.0 ], [ 529076.700046732323244, 7261380.0 ], [ 529073.299953267676756, 7261390.0 ], [ 529069.924025978078134, 7261400.0 ], [ 529066.329821285791695, 7261410.0 ], [ 529062.205649307463318, 7261420.0 ], [ 529057.794350692536682, 7261430.0 ], [ 529053.670178714208305, 7261440.0 ], [ 529050.075974021921866, 7261450.0 ], [ 529046.700938942958601, 7261460.0 ], [ 529043.311127444147132, 7261470.000000000931323 ], [ 529040.011174176470377, 7261479.999107789248228 ], [ 529036.777805175632238, 7261489.987933613359928 ], [ 529033.757326912600547, 7261499.900785414502025 ], [ 529031.551677605253644, 7261509.453693735413253 ], [ 529030.447983889840543, 7261517.913190307095647 ], [ 529030.087148198508658, 7261524.243011592887342 ] ] } },
{ "type": "Feature", "properties": { "id": 5, "reference_id": 1, "dune_id": 1, "dune_name": "Big Mommy Dune", "acquisition_date": "2022-06-08", "length_m": 96.832408248033261 }, "geometry": { "type": "LineString", "coordinates": [ [ 529041.638825803645886, 7261715.756988408043981 ], [ 529044.204418591805734, 7261722.086809692904353 ], [ 529048.318308604415506, 7261730.546306265518069 ], [ 529053.681352890678681, 7261740.099214586429298 ], [ 529059.640056519303471, 7261750.012066386640072 ], [ 529065.149261337821372, 7261760.0 ], [ 529069.541734144440852, 7261769.987933613359928 ], [ 529073.135046625975519, 7261779.900785414502025 ], [ 529076.231498910812661, 7261789.453693736344576 ], [ 529078.447430184110999, 7261797.913190307095647 ], [ 529079.552016110159457, 7261804.243011591956019 ] ] } },
{ "type": "Feature", "properties": { "id": 6, "reference_id": 3, "dune_id": 3, "dune_name": "Big Mommy Dune", "acquisition_date": "2022-06-08", "length_m": 1042.8804024131398 }, "geometry": { "type": "LineString", "coordinates": [ [ 530044.243011592305265, 7260610.0 ], [ 530037.91319030651357, 7260610.0 ], [ 530029.453693735180423, 7260610.0 ], [ 530019.900785414502025, 7260610.0 ], [ 530009.987933612894267, 7260610.0 ], [ 529999.999107789364643, 7260610.0 ], [ 529990.0, 7260610.0 ], [ 529980.0, 7260610.0 ], [ 529970.0, 7260610.0 ], [ 529960.0, 7260610.0 ], [ 529950.0, 7260610.0 ], [ 529940.0, 7260610.0 ], [ 529930.0, 7260610.0 ], [ 529920.0, 7260610.0 ], [ 529910.0, 7260610.0 ], [ 529900.0, 7260609.999107789248228 ], [ 529890.0, 7260609.9888258241117 ], [ 529880.0, 7260609.912851802073419 ], [ 529870.0, 7260609.553800531663001 ], [ 529860.0, 7260608.470670748502016 ], [ 529850.0, 7260606.416969485580921 ], [ 529840.0, 7260604.117270393297076 ], [ 529830.0, 7260603.081006857566535 ], [ 529820.0, 7260604.117270393297076 ], [ 529810.0, 7260606.416969485580921 ], [ 529800.0, 7260608.470670748502016 ], [ 529790.0, 7260609.553800531663001 ], [ 529780.0, 7260609.912851802073419 ], [ 529770.0, 7260609.9888258241117 ], [ 529760.0, 7260609.999107789248228 ], [ 529750.0, 7260610.000892210751772 ], [ 529740.0, 7260610.011174176819623 ], [ 529730.0, 7260610.087148198857903 ], [ 529720.0, 7260610.447091680020094 ], [ 529710.0, 7260611.540503429248929 ], [ 529700.0, 7260613.670178715139627 ], [ 529690.0, 7260616.329821286723018 ], [ 529680.0, 7260618.459496571682394 ], [ 529670.0, 7260619.552908320911229 ], [ 529660.0, 7260619.913744012825191 ], [ 529650.0, 7260620.0 ], [ 529640.0, 7260620.086255988106132 ], [ 529630.0, 7260620.447091679088771 ], [ 529620.0, 7260621.540503429248929 ], [ 529610.0, 7260623.671070924960077 ], [ 529600.0, 7260626.340995462611318 ], [ 529590.0, 7260628.546644769608974 ], [ 529580.0, 7260630.0 ], [ 529570.0, 7260631.454247441142797 ], [ 529560.0, 7260633.670178715139627 ], [ 529550.0, 7260636.416077274829149 ], [ 529540.0, 7260638.906588250771165 ], [ 529530.0, 7260641.094303959980607 ], [ 529520.0, 7260643.594204693101346 ], [ 529510.0, 7260646.405795307829976 ], [ 529500.000000000116415, 7260648.906588250771165 ], [ 529490.0, 7260651.10458592697978 ], [ 529480.0, 7260653.670178714208305 ], [ 529470.0, 7260656.766630999743938 ], [ 529460.0, 7260660.010281966067851 ], [ 529450.0, 7260663.310235233977437 ], [ 529440.000000000116415, 7260666.690656977705657 ], [ 529430.0, 7260670.000892210751772 ], [ 529420.0, 7260673.320517199113965 ], [ 529410.0, 7260676.777805175632238 ], [ 529400.0, 7260680.447983888909221 ], [ 529390.0, 7260684.861912839114666 ], [ 529380.0, 7260690.459158066660166 ], [ 529370.000892210635357, 7260696.864953374490142 ], [ 529360.011174176353961, 7260703.768501089885831 ], [ 529350.087148198508658, 7260711.552569815889001 ], [ 529340.447091679205187, 7260720.447983889840543 ], [ 529331.54139563953504, 7260730.087148198857903 ], [ 529323.681352890678681, 7260740.011174176819623 ], [ 529316.416969484300353, 7260750.000892210751772 ], [ 529308.907480461173691, 7260760.0 ], [ 529301.104585926048458, 7260770.0 ], [ 529293.671070924960077, 7260780.000000000931323 ], [ 529286.776912964996882, 7260790.0 ], [ 529280.086255987756886, 7260800.0 ], [ 529273.671070924960077, 7260810.0 ], [ 529267.794350692536682, 7260820.0 ], [ 529262.205649307463318, 7260830.0 ], [ 529256.32982128590811, 7260840.0 ], [ 529249.924025978078134, 7260850.0 ], [ 529243.299953267676756, 7260860.0 ], [ 529236.700046732323244, 7260870.0 ], [ 529230.075974021921866, 7260880.0 ], [ 529223.670178714208305, 7260890.0 ], [ 529217.794350692536682, 7260900.0 ], [ 529212.205649307463318, 7260910.0 ], [ 529206.328929075039923, 7260920.0 ], [ 529199.913297906983644, 7260929.999107789248228 ], [ 529193.21839215757791, 7260939.987933613359928 ], [ 529186.297421363065951, 7260949.900785415433347 ], [ 529178.771082820021547, 7260959.453693736344576 ], [ 529170.868574089254253, 7260967.913190307095647 ], [ 529163.83475085219834, 7260974.243011591956019 ], [ 529158.910724874120206, 7260977.913190307095647 ] ] } },
{ "type": "Feature", "properties": { "id": 7, "reference_id": 3, "dune_id": 3, "dune_name": "Big Mommy Dune", "acquisition_date": "2022-06-08", "length_m": 172.7498281633861 }, "geometry": { "type": "LineString", "coordinates": [ [ 530244.243011592421681, 7260570.000892210751772 ], [ 530237.91319030651357, 7260570.011174176819623 ], [ 530229.453693735180423, 7260570.087148198857903 ], [ 530219.900785414385609, 7260570.447091680020094 ], [ 530209.987933612894267, 7260571.541395640000701 ], [ 530199.999107789248228, 7260573.681352891027927 ], [ 530190.0, 7260576.417861695401371 ], [ 530180.0, 7260578.917762426659465 ], [ 530170.000000000116415, 7260581.180559948086739 ], [ 530160.0, 7260584.030122194439173 ], [ 530150.0, 7260587.859150538221002 ], [ 530140.0, 7260592.128783075138927 ], [ 530130.0, 7260595.882729606702924 ], [ 530120.000892210751772, 7260598.372348373755813 ], [ 530110.012066387222148, 7260599.541734144091606 ], [ 530100.099214585614391, 7260599.911959591321647 ], [ 530090.546306264819577, 7260599.9888258241117 ], [ 530082.08680969348643, 7260599.999107789248228 ], [ 530075.756988407694735, 7260600.0 ] ] } },
{ "type": "Feature", "properties": { "id": 8, "reference_id": 4, "dune_id": 4, "dune_name": "The Star Dune", "acquisition_date": "2022-06-08", "length_m": 656.96800513567302 }, "geometry": { "type": "LineString", "coordinates": [ [ 533631.078100949525833, 7262051.453355230391026 ], [ 533626.078100949409418, 7262053.222194824367762 ], [ 533618.683442020905204, 7262054.778143681585789 ], [ 533609.677239574841224, 7262054.701277447864413 ], [ 533599.94435951358173, 7262052.76482117921114 ], [ 533589.993520701071247, 7262049.824811393395066 ], [ 533579.999553894740529, 7262046.307472933083773 ], [ 533570.0, 7262042.127890864387155 ], [ 533560.0, 7262037.423233035951853 ], [ 533550.0, 7262032.490510977804661 ], [ 533540.0, 7262027.509489023126662 ], [ 533530.0, 7262022.57676696497947 ], [ 533520.0, 7262017.870324715040624 ], [ 533510.0, 7262013.670178714208305 ], [ 533500.0, 7262010.000892210751772 ], [ 533490.0, 7262006.340103251859546 ], [ 533480.0, 7262002.206541518680751 ], [ 533470.0, 7261997.794350693002343 ], [ 533460.0, 7261993.670178715139627 ], [ 533450.0, 7261990.075974022038281 ], [ 533440.0, 7261986.700938943773508 ], [ 533430.0, 7261983.310235233977437 ], [ 533420.0, 7261980.0 ], [ 533410.0, 7261976.690656977705657 ], [ 533400.000000000116415, 7261973.310235233977437 ], [ 533390.0, 7261970.010281966067851 ], [ 533380.000000000116415, 7261966.766630999743938 ], [ 533370.0, 7261963.670178714208305 ], [ 533360.0, 7261961.103693716228008 ], [ 533350.0, 7261958.896306285634637 ], [ 533340.0, 7261956.329821286723018 ], [ 533330.0, 7261953.233369001187384 ], [ 533320.0, 7261949.989718034863472 ], [ 533310.0, 7261946.689764766022563 ], [ 533300.0, 7261943.310235233977437 ], [ 533290.0, 7261940.010281966067851 ], [ 533280.0, 7261936.766630999743938 ], [ 533270.0, 7261933.670178715139627 ], [ 533260.0, 7261931.104585926048458 ], [ 533250.0, 7261928.906588250771165 ], [ 533240.0, 7261926.405795307829976 ], [ 533230.0, 7261923.594204692170024 ], [ 533220.0, 7261921.093411749228835 ], [ 533210.0, 7261918.895414073951542 ], [ 533200.0, 7261916.329821286723018 ], [ 533190.0, 7261913.233369002118707 ], [ 533180.0, 7261909.989718034863472 ], [ 533170.0, 7261906.689764766953886 ], [ 533160.0, 7261903.310235233977437 ], [ 533150.0, 7261900.010281965136528 ], [ 533140.0, 7261896.766630999743938 ], [ 533130.0, 7261893.670178715139627 ], [ 533120.0, 7261891.10458592697978 ], [ 533110.0, 7261888.907480461522937 ], [ 533100.0, 7261886.416077273897827 ], [ 533090.0, 7261883.670178714208305 ], [ 533080.0, 7261881.454247441142797 ], [ 533070.0, 7261880.0 ], [ 533060.0, 7261878.545752558857203 ], [ 533050.000892210751772, 7261876.329821286723018 ], [ 533040.012066387105733, 7261873.583922727033496 ], [ 533030.099214585614391, 7261871.093411749228835 ], [ 533020.546306264819577, 7261868.906588250771165 ], [ 533012.08680969348643, 7261866.416969484649599 ], [ 533005.756988407694735, 7261863.681352891027927 ] ] } },
{ "type": "Feature", "properties": { "id": 9, "reference_id": 5, "dune_id": 5, "dune_name": "The Star Dune", "acquisition_date": "2022-06-08", "length_m": 932.87335054680875 }, "geometry": { "type": "LineString", "coordinates": [ [ 534336.318647109321319, 7261505.756988408043981 ], [ 534333.582138305064291, 7261512.086809692904353 ], [ 534331.081345362472348, 7261520.546306265518069 ], [ 534328.807373664923944, 7261530.099214585497975 ], [ 534325.870663219480775, 7261540.012066386640072 ], [ 534321.594543197192252, 7261550.000892210751772 ], [ 534315.78440723172389, 7261559.999107790179551 ], [ 534308.360281985718757, 7261569.9888258241117 ], [ 534299.54084193368908, 7261579.912851802073419 ], [ 534289.911959590855986, 7261589.552016110159457 ], [ 534279.988825823529623, 7261598.448322394862771 ], [ 534269.999107789248228, 7261606.241780877113342 ], [ 534260.0, 7261613.211912859231234 ], [ 534250.0, 7261619.912851801142097 ], [ 534240.0, 7261626.328929075039923 ], [ 534230.0, 7261632.205649307928979 ], [ 534220.0, 7261637.793458482250571 ], [ 534210.0, 7261643.659004538320005 ], [ 534200.0, 7261649.987933613359928 ], [ 534190.0, 7261656.241780877113342 ], [ 534180.0, 7261661.671409429982305 ], [ 534170.0, 7261665.794689197093248 ], [ 534160.0, 7261668.36117419693619 ], [ 534150.0, 7261669.541734145022929 ], [ 534140.0, 7261669.923133767209947 ], [ 534130.0, 7261670.075974022038281 ], [ 534120.0, 7261670.446199468336999 ], [ 534110.0, 7261671.540503429248929 ], [ 534100.0, 7261673.670178714208305 ], [ 534090.0, 7261676.330713496543467 ], [ 534080.0, 7261678.470670748502016 ], [ 534070.0, 7261679.640056519769132 ], [ 534060.0, 7261680.35994348116219 ], [ 534050.0, 7261681.529329252429307 ], [ 534040.0, 7261683.669286504387856 ], [ 534030.0, 7261686.33071349747479 ], [ 534020.0, 7261688.470670748502016 ], [ 534010.0, 7261689.64005651883781 ], [ 534000.0, 7261690.35994348116219 ], [ 533990.0, 7261691.530221464112401 ], [ 533980.0, 7261693.680460680276155 ], [ 533970.0, 7261696.416969484649599 ], [ 533960.0, 7261698.907480461522937 ], [ 533950.0, 7261701.105478137731552 ], [ 533940.0, 7261703.681352891027927 ], [ 533930.0, 7261706.85288698785007 ], [ 533920.0, 7261710.447091680020094 ], [ 533910.0, 7261714.774764640256763 ], [ 533900.0, 7261720.000892210751772 ], [ 533890.0, 7261725.237301746383309 ], [ 533880.0, 7261729.650338485836983 ], [ 533870.0, 7261733.671070925891399 ], [ 533860.0, 7261738.230268195271492 ], [ 533850.0, 7261743.746152736246586 ], [ 533840.0, 7261750.011174176819623 ], [ 533830.0, 7261756.34188767336309 ], [ 533820.000892210635357, 7261762.217715695500374 ], [ 533810.011174176470377, 7261767.881498890928924 ], [ 533800.087148198392242, 7261774.118162604048848 ], [ 533790.447983889840543, 7261781.627651628106833 ], [ 533781.552569815889001, 7261790.458265855908394 ], [ 533773.76939329970628, 7261800.088040409609675 ], [ 533766.875235339859501, 7261810.011174177750945 ], [ 533760.535132088349201, 7261820.000892210751772 ], [ 533755.222748530097306, 7261830.0 ], [ 533751.551677605253644, 7261840.000000000931323 ], [ 533748.983454483095556, 7261850.0 ], [ 533746.340103251626715, 7261860.0 ], [ 533743.22397924575489, 7261870.0 ], [ 533739.912851801607758, 7261880.0 ], [ 533736.318647109437734, 7261890.0 ], [ 533732.128783074906096, 7261900.0 ], [ 533727.423233035253361, 7261910.0 ], [ 533722.489618766237982, 7261920.0 ], [ 533717.49831484653987, 7261930.0 ], [ 533712.489618766237982, 7261940.0 ], [ 533707.423233035369776, 7261950.0 ], [ 533702.128783074789681, 7261960.0 ], [ 533696.31953932007309, 7261970.0 ], [ 533689.923133767326362, 7261980.0 ], [ 533683.299953267676756, 7261989.999107789248228 ], [ 533676.700938943075016, 7261999.987933613359928 ], [ 533670.088040409144014, 7262009.900785414502025 ], [ 533663.768501089187339, 7262019.453693735413253 ], [ 533658.329482780769467, 7262027.913190307095647 ], [ 533654.20531080244109, 7262034.243011591956019 ] ] } },
{ "type": "Feature", "properties": { "id": 10, "reference_id": 2, "dune_id": 2, "dune_name": "Big Mommy Dune", "acquisition_date": "2022-06-08", "length_m": 787.33792513352716 }, "geometry": { "type": "LineString", "coordinates": [ [ 529151.078100949409418, 7260978.448322394862771 ], [ 529146.078100949409418, 7260976.241780877113342 ], [ 529138.683442020905204, 7260973.211912859231234 ], [ 529129.677239574841224, 7260969.911959590390325 ], [ 529119.944359513698146, 7260966.318647108972073 ], [ 529109.993520701071247, 7260962.128783075138927 ], [ 529099.999553894624114, 7260957.423233035951853 ], [ 529090.0, 7260952.490510977804661 ], [ 529080.0, 7260947.509489023126662 ], [ 529070.0, 7260942.576766964048147 ], [ 529060.0, 7260937.871216924861073 ], [ 529050.0, 7260933.680460680276155 ], [ 529040.0, 7260930.07686623185873 ], [ 529030.0, 7260926.700938943773508 ], [ 529020.0, 7260923.311127444729209 ], [ 529010.0, 7260920.0111741758883 ], [ 529000.0, 7260916.776912964880466 ], [ 528990.0, 7260913.746152736246586 ], [ 528980.0, 7260911.464529406279325 ], [ 528970.0, 7260910.0 ], [ 528960.0, 7260908.535470593720675 ], [ 528950.0, 7260906.253847264684737 ], [ 528940.0, 7260903.223979245871305 ], [ 528930.0, 7260899.999107789248228 ], [ 528920.0, 7260896.765738788992167 ], [ 528910.0, 7260893.670178714208305 ], [ 528900.0, 7260891.10458592697978 ], [ 528890.0, 7260888.906588250771165 ], [ 528880.0, 7260886.405795307829976 ], [ 528870.0, 7260883.594204692170024 ], [ 528860.0, 7260881.093411750160158 ], [ 528850.0, 7260878.895414074882865 ], [ 528840.0, 7260876.328929075971246 ], [ 528830.0, 7260873.223087035119534 ], [ 528820.0, 7260869.913744012825191 ], [ 528810.0, 7260866.328929075971246 ], [ 528800.0, 7260862.205649307928979 ], [ 528790.0, 7260857.794350693002343 ], [ 528780.0, 7260853.670178714208305 ], [ 528770.0, 7260850.075974022038281 ], [ 528760.0, 7260846.700046733021736 ], [ 528750.0, 7260843.299953267909586 ], [ 528740.0, 7260839.92313376814127 ], [ 528730.0, 7260836.319539319723845 ], [ 528720.0, 7260832.128783075138927 ], [ 528710.0, 7260827.423233035951853 ], [ 528700.0, 7260822.489618766121566 ], [ 528690.0, 7260817.499207057058811 ], [ 528680.0, 7260812.499900732189417 ], [ 528670.0, 7260807.500099267810583 ], [ 528660.0, 7260802.499900732189417 ], [ 528650.0, 7260797.500099267810583 ], [ 528640.0, 7260792.499900732189417 ], [ 528630.0, 7260787.499207057058811 ], [ 528620.0, 7260782.489618767052889 ], [ 528610.0, 7260777.423233035951853 ], [ 528600.0, 7260772.128783075138927 ], [ 528590.0, 7260766.319539319723845 ], [ 528580.0, 7260759.92313376814127 ], [ 528570.0, 7260753.299061057157815 ], [ 528560.0, 7260746.689764766953886 ], [ 528550.0, 7260740.0 ], [ 528540.0, 7260733.309343023225665 ], [ 528530.0, 7260726.690656976774335 ], [ 528520.0, 7260720.0 ], [ 528510.0, 7260713.309343023225665 ], [ 528500.0, 7260706.690656977705657 ], [ 528490.0, 7260700.000000000931323 ], [ 528480.000892210751772, 7260693.310235233977437 ], [ 528470.012066387105733, 7260686.70183115452528 ], [ 528460.099214585614391, 7260680.088040409609675 ], [ 528450.546306264819577, 7260673.768501089885831 ], [ 528442.08680969348643, 7260668.329482780769467 ], [ 528435.756988407694735, 7260664.205310802906752 ] ] } },
{ "type": "Feature", "properties": { "id": 11, "reference_id": 7, "dune_id": 7, "dune_name": "Inverted Y Dune", "acquisition_date": "2022-06-08", "length_m": 650.16528344719552 }, "geometry": { "type": "LineString", "coordinates": [ [ 530135.756988407694735, 7261641.540503429248929 ], [ 530142.08680969348643, 7261643.670178715139627 ], [ 530150.546306264819577, 7261646.329821286723018 ], [ 530160.099214585614391, 7261648.459496572613716 ], [ 530170.012066387222148, 7261649.552908321842551 ], [ 530180.000892210751772, 7261649.912851802073419 ], [ 530190.0, 7261649.9888258241117 ], [ 530200.0, 7261649.998215579427779 ], [ 530210.0, 7261649.9888258241117 ], [ 530220.0, 7261649.912851802073419 ], [ 530230.0, 7261649.552908321842551 ], [ 530240.0, 7261648.459496572613716 ], [ 530250.0, 7261646.328929075971246 ], [ 530260.0, 7261643.659004538320005 ], [ 530270.0, 7261641.453355230391026 ], [ 530280.0, 7261639.999107789248228 ], [ 530290.0, 7261638.535470593720675 ], [ 530300.0, 7261636.253847263753414 ], [ 530310.0, 7261633.223087035119534 ], [ 530320.0, 7261629.9888258241117 ], [ 530330.0, 7261626.688872555270791 ], [ 530340.0, 7261623.299061057157815 ], [ 530350.0, 7261619.92313376814127 ], [ 530360.0, 7261616.319539319723845 ], [ 530370.0, 7261612.128783075138927 ], [ 530380.0, 7261607.422340825200081 ], [ 530390.0, 7261602.479336800985038 ], [ 530400.0, 7261597.422340825200081 ], [ 530410.0, 7261592.128783075138927 ], [ 530420.0, 7261586.318647108972073 ], [ 530430.000000000116415, 7261579.911959591321647 ], [ 530440.0, 7261573.211912859231234 ], [ 530450.0, 7261566.241780877113342 ], [ 530459.999107789364643, 7261558.448322394862771 ], [ 530469.988825823529623, 7261549.552016110159457 ], [ 530479.912851801607758, 7261539.912851801142097 ], [ 530489.552016110159457, 7261529.9888258241117 ], [ 530498.448322394862771, 7261519.999107789248228 ], [ 530506.242673087399453, 7261510.0 ], [ 530513.222194824367762, 7261500.0 ], [ 530519.988825823529623, 7261490.0 ], [ 530526.689764766488224, 7261480.0 ], [ 530533.309343022760004, 7261470.000000000931323 ], [ 530540.0, 7261460.0 ], [ 530546.690656977239996, 7261450.0 ], [ 530553.310235233511776, 7261440.0 ], [ 530560.011174176470377, 7261430.0 ], [ 530566.777805175632238, 7261420.0 ], [ 530573.757326912600547, 7261410.0 ], [ 530581.551677605253644, 7261400.0 ], [ 530590.447983889840543, 7261390.0 ], [ 530600.087148198392242, 7261380.0 ], [ 530610.01028196583502, 7261370.000892210751772 ], [ 530619.988825823646039, 7261360.012066386640072 ], [ 530629.900785414502025, 7261350.099214585497975 ], [ 530639.453693735296838, 7261340.546306265518069 ], [ 530647.913190306629986, 7261332.086809693835676 ], [ 530654.243011592305265, 7261325.756988408043981 ] ] } },
{ "type": "Feature", "properties": { "id": 12, "reference_id": 8, "dune_id": 8, "dune_name": "Inverted Y Dune", "acquisition_date": "2022-06-08", "length_m": 736.9190551736516 }, "geometry": { "type": "LineString", "coordinates": [ [ 530554.243011592305265, 7261165.6698402101174 ], [ 530547.91319030651357, 7261171.638825803995132 ], [ 530539.453693735296838, 7261178.993736449629068 ], [ 530529.900785414385609, 7261186.329821286723018 ], [ 530519.987933612894267, 7261193.135938837192953 ], [ 530509.999107789248228, 7261199.454585945233703 ], [ 530500.0, 7261204.690103271976113 ], [ 530490.0, 7261208.00033850595355 ], [ 530480.0, 7261209.464867912232876 ], [ 530470.0, 7261209.901677625253797 ], [ 530460.0, 7261209.987041402608156 ], [ 530450.0, 7261209.987933613359928 ], [ 530440.0, 7261209.912851802073419 ], [ 530430.000000000116415, 7261209.552908320911229 ], [ 530420.0, 7261208.459496571682394 ], [ 530410.0, 7261206.329821285791695 ], [ 530400.0, 7261203.670178713276982 ], [ 530390.0, 7261201.540503428317606 ], [ 530380.0, 7261200.447091678157449 ], [ 530370.0, 7261200.088040409609675 ], [ 530360.0, 7261200.022348353639245 ], [ 530350.0, 7261200.088040409609675 ], [ 530340.0, 7261200.447091678157449 ], [ 530330.0, 7261201.541395639069378 ], [ 530320.0, 7261203.681352891027927 ], [ 530310.0, 7261206.417861694470048 ], [ 530300.0, 7261208.917762426659465 ], [ 530290.0, 7261211.181452158838511 ], [ 530280.0, 7261214.041296372190118 ], [ 530270.0, 7261217.947190947830677 ], [ 530260.0, 7261222.587941141799092 ], [ 530250.0, 7261227.522447621449828 ], [ 530240.0, 7261232.588833352550864 ], [ 530230.0, 7261237.958365123718977 ], [ 530220.000892210635357, 7261244.128444569185376 ], [ 530210.011174176470377, 7261251.628543837927282 ], [ 530200.088040409144014, 7261260.458265855908394 ], [ 530190.458265855675563, 7261270.088040409609675 ], [ 530181.628543837810867, 7261280.0111741758883 ], [ 530174.128444569883868, 7261290.000892210751772 ], [ 530167.958365123602562, 7261300.0 ], [ 530162.588833351852372, 7261310.000000000931323 ], [ 530157.521555410232395, 7261320.0 ], [ 530152.577659175381996, 7261330.0 ], [ 530147.871216925326735, 7261340.0 ], [ 530143.681352890678681, 7261350.0 ], [ 530140.087148198392242, 7261360.0 ], [ 530136.776912964996882, 7261370.0 ], [ 530133.671070924960077, 7261380.0 ], [ 530131.104585926048458, 7261390.0 ], [ 530128.907480461173691, 7261400.0 ], [ 530126.416969484183937, 7261410.0 ], [ 530123.680460680043325, 7261420.0 ], [ 530121.530221462948248, 7261430.0 ], [ 530120.359943480812944, 7261440.0 ], [ 530119.640056519303471, 7261450.0 ], [ 530118.470670747803524, 7261460.0 ], [ 530116.330713496543467, 7261470.000000000931323 ], [ 530113.670178714208305, 7261480.0 ], [ 530111.540503428666852, 7261490.0 ], [ 530110.447091679205187, 7261500.0 ], [ 530110.086255987756886, 7261510.0 ], [ 530110.0, 7261520.0 ], [ 530109.913744012243114, 7261530.0 ], [ 530109.552462215535343, 7261539.999553894624114 ], [ 530108.453909483039752, 7261549.993520701304078 ], [ 530106.286247186595574, 7261559.944359513930976 ], [ 530103.446632874663919, 7261569.6772395754233 ], [ 530100.770251714391634, 7261578.683442020788789 ], [ 530098.612002322101034, 7261586.078100949525833 ], [ 530096.922237555496395, 7261591.078100949525833 ] ] } },
{ "type": "Feature", "properties": { "id": 13, "reference_id": 9, "dune_id": 9, "dune_name": "Inverted Y Dune", "acquisition_date": "2022-06-08", "length_m": 801.29290643388117 }, "geometry": { "type": "LineString", "coordinates": [ [ 530091.078100949525833, 7261598.910724874585867 ], [ 530086.078100949409418, 7261603.833858641795814 ], [ 530078.683442020905204, 7261610.858292123302817 ], [ 530069.677239574841224, 7261618.695108798332512 ], [ 530059.944359513698146, 7261625.937477882951498 ], [ 530049.993520701071247, 7261632.12498040869832 ], [ 530039.999553894624114, 7261637.783622621558607 ], [ 530030.0, 7261643.669286504387856 ], [ 530020.0, 7261650.075974022038281 ], [ 530010.0, 7261656.700938943773508 ], [ 530000.0, 7261663.311127444729209 ], [ 529990.0, 7261670.010281966067851 ], [ 529980.0, 7261676.766630999743938 ], [ 529970.0, 7261683.670178715139627 ], [ 529960.0, 7261691.10458592697978 ], [ 529950.0, 7261698.907480461522937 ], [ 529940.0, 7261706.416969484649599 ], [ 529930.0, 7261713.681352891027927 ], [ 529920.0, 7261721.541395640000701 ], [ 529910.0, 7261730.447091680020094 ], [ 529900.0, 7261740.087148198857903 ], [ 529890.0, 7261750.011174176819623 ], [ 529880.0, 7261760.000892210751772 ], [ 529870.0, 7261770.0 ], [ 529860.000892210751772, 7261780.0 ], [ 529850.011174176470377, 7261790.0 ], [ 529840.087148198392242, 7261800.0 ], [ 529830.447983889840543, 7261810.0 ], [ 529821.552569815889001, 7261820.0 ], [ 529813.768501089187339, 7261830.0 ], [ 529806.864953374140896, 7261840.000000000931323 ], [ 529800.45915806631092, 7261850.0 ], [ 529794.861912838649005, 7261860.0 ], [ 529790.447983889840543, 7261870.0 ], [ 529786.777805175632238, 7261880.0 ], [ 529783.32051719923038, 7261890.0 ], [ 529780.000892210751772, 7261900.0 ], [ 529776.690656977239996, 7261910.0 ], [ 529773.309343022760004, 7261920.0 ], [ 529770.0, 7261930.0 ], [ 529766.689764766488224, 7261940.0 ], [ 529763.299061056924984, 7261950.0 ], [ 529759.923133767326362, 7261960.0 ], [ 529756.319539319956675, 7261970.0 ], [ 529752.128783074789681, 7261980.0 ], [ 529747.423233035369776, 7261990.0 ], [ 529742.490510976989754, 7262000.0 ], [ 529737.509489023126662, 7262010.0 ], [ 529732.575874753994867, 7262020.0 ], [ 529727.860042748739943, 7262030.0 ], [ 529723.593312481534667, 7262040.0 ], [ 529719.629774553468451, 7262050.0 ], [ 529715.160435514291748, 7262060.0 ], [ 529709.640948729938827, 7262070.0 ], [ 529703.680460680043325, 7262080.0 ], [ 529698.30713442794513, 7262090.0 ], [ 529694.11637818266172, 7262100.0 ], [ 529691.180559947970323, 7262110.0 ], [ 529688.830614228500053, 7262120.0 ], [ 529685.959595839260146, 7262130.0 ], [ 529682.053701263503172, 7262140.0 ], [ 529677.423233035369776, 7262150.0 ], [ 529672.565592788159847, 7262160.0 ], [ 529667.870324714574963, 7262170.0 ], [ 529663.681352890678681, 7262180.0 ], [ 529660.088040409144014, 7262189.999107789248228 ], [ 529656.788087141467258, 7262199.987933613359928 ], [ 529653.758219123352319, 7262209.900785414502025 ], [ 529651.551677605253644, 7262219.453693735413253 ], [ 529650.447983889840543, 7262227.913190307095647 ], [ 529650.087148198392242, 7262234.243011592887342 ] ] } }
]
}
