{
"type": "FeatureCollection",
"name": "crests_2026_02_2026-02-07",
"crs": { "type": "name", "properties": { "name": "urn:ogc:def:crs:EPSG::32733" } },
"features": [
{ "type": "Feature", "properties": { "id": 0, "reference_id": 7, "dune_id": 7, "dune_name": "Inverted Y Dune", "acquisition_date": "2026-02-07", "length_m": 81.203837682436188 }, "geometry": { "type": "LineString", "coordinates": [ [ 530105.756988407694735, 7261630.447983890771866 ], [ 530112.08680969348643, 7261631.551677605137229 ], [ 530120.546306264819577, 7261633.757326913066208 ], [ 530130.099214585614391, 7261636.776020754128695 ], [ 530140.011174176586792, 7261639.9888258241117 ], [ 530149.988825823646039, 7261643.135938837192953 ], [ 530159.900785414502025, 7261645.795581408776343 ], [ 530169.453693735296838, 7261646.907818966545165 ], [ 530177.91319030651357, 7261645.881837395951152 ], [ 530184.243011592421681, 7261643.583030516281724 ] ] } },
{ "type": "Feature", "properties": { "id": 1, "reference_id": 7, "dune_id": 7, "dune_name": "Inverted Y Dune", "acquisition_date": "2026-02-07", "length_m": 502.50039724056694 }, "geometry": { "type": "LineString", "coordinates": [ [ 530614.254185768775642, 7261365.756988408043981 ], [ 530608.000338505022228, 7261372.086809692904353 ], [ 530599.901677625137381, 7261380.546306265518069 ], [ 530591.452463019639254, 7261390.099214585497975 ], [ 530583.745260525494814, 7261400.012066387571394 ], [ 530576.776912964996882, 7261410.000892210751772 ], [ 530570.011174176470377, 7261420.0 ], [ 530563.310235233511776, 7261430.0 ], [ 530556.690656977239996, 7261440.0 ], [ 530550.0, 7261450.0 ], [ 530543.309343022760004, 7261460.0 ], [ 530536.689764766488224, 7261470.000000000931323 ], [ 530529.988825823529623, 7261480.0 ], [ 530523.222194824367762, 7261490.0 ], [ 530516.242673087399453, 7261500.0 ], [ 530508.448322394862771, 7261510.0 ], [ 530499.552016110159457, 7261520.0 ], [ 530489.912851801607758, 7261529.999107789248228 ], [ 530479.988825823529623, 7261539.9888258241117 ], [ 530469.999107789364643, 7261549.912851801142097 ], [ 530460.0, 7261559.552016111090779 ], [ 530450.0, 7261568.448322394862771 ], [ 530440.0, 7261576.241780877113342 ], [ 530430.000000000116415, 7261583.211020648479462 ], [ 530420.0, 7261589.901677625253797 ], [ 530410.0, 7261596.241780877113342 ], [ 530400.0, 7261601.757665418088436 ], [ 530390.0, 7261606.242673087865114 ], [ 530380.0, 7261609.912851801142097 ], [ 530370.0, 7261613.298168847337365 ], [ 530360.0, 7261616.689764766953886 ], [ 530350.0, 7261620.0 ], [ 530340.0, 7261623.309343023225665 ], [ 530330.0, 7261626.689764766022563 ], [ 530320.0, 7261629.9888258241117 ], [ 530310.0, 7261633.222194824367762 ], [ 530300.0, 7261636.242673087865114 ], [ 530290.0, 7261638.448322394862771 ], [ 530280.0, 7261639.552016111090779 ], [ 530270.000892210751772, 7261639.912851801142097 ], [ 530260.012066387105733, 7261639.9888258241117 ], [ 530250.099214585614391, 7261639.999107789248228 ], [ 530240.546306264703162, 7261640.0 ], [ 530232.08680969348643, 7261640.0 ], [ 530225.756988407694735, 7261640.0 ] ] } },
{ "type": "Feature", "properties": { "id": 2, "reference_id": 8, "dune_id": 8, "dune_name": "Inverted Y Dune", "acquisition_date": "2026-02-07", "length_m": 404.22813366170209 }, "geometry": { "type": "LineString", "coordinates": [ [ 530244.243011592421681, 7261232.086809693835676 ], [ 530237.91319030651357, 7261235.756988408043981 ], [ 530229.453693735180423, 7261242.086809693835676 ], [ 530219.900785414385609, 7261250.546306264586747 ], [ 530209.988825823646039, 7261260.099214585497975 ], [ 530200.01028196583502, 7261270.012066387571394 ], [ 530190.088040409144014, 7261280.000892210751772 ], [ 530180.458265855675563, 7261290.0 ], [ 530171.628543837927282, 7261300.0 ], [ 530164.129336780519225, 7261310.000000000931323 ], [ 530157.969539300072938, 7261320.0 ], [ 530152.675089339609258, 7261330.0 ], [ 530147.958365123718977, 7261340.0 ], [ 530144.042188582126983, 7261350.0 ], [ 530141.181452158722095, 7261360.0 ], [ 530138.916870216256939, 7261370.0 ], [ 530136.406687518465333, 7261380.0 ], [ 530133.594204692170024, 7261390.0 ], [ 530131.094303960213438, 7261400.0 ], [ 530128.906588250538334, 7261410.0 ], [ 530126.416077273664996, 7261420.0 ], [ 530123.670178714208305, 7261430.0 ], [ 530121.454247441026382, 7261440.0 ], [ 530120.0, 7261450.0 ], [ 530118.54664476972539, 7261460.0 ], [ 530116.340995462262072, 7261470.000000000931323 ], [ 530113.671070924960077, 7261480.0 ], [ 530111.540503428666852, 7261490.0 ], [ 530110.447091679205187, 7261500.0 ], [ 530110.087148198392242, 7261510.0 ], [ 530110.01028196583502, 7261520.0 ], [ 530109.989718034281395, 7261530.0 ], [ 530109.912405696231872, 7261539.999553894624114 ], [ 530109.547321232617833, 7261549.993520701304078 ], [ 530108.415922472137026, 7261559.944359513930976 ], [ 530106.106275446247309, 7261569.6772395754233 ], [ 530102.899926999816671, 7261578.683442020788789 ], [ 530099.705414071679115, 7261586.078100949525833 ], [ 530097.282181036309339, 7261591.078100949525833 ] ] } },
{ "type": "Feature", "properties": { "id": 3, "reference_id": 8, "dune_id": 8, "dune_name": "Inverted Y Dune", "acquisition_date": "2026-02-07", "length_m": 167.17182273745885 }, "geometry": { "type": "LineString", "coordinates": [ [ 530554.243011592305265, 7261174.129336780868471 ], [ 530547.91319030651357, 7261177.968647089786828 ], [ 530539.453693735296838, 7261182.663915162906051 ], [ 530529.900785414385609, 7261187.870324714109302 ], [ 530519.987933612894267, 7261193.583030515350401 ], [ 530509.999107789248228, 7261199.541734144091606 ], [ 530500.0, 7261204.701277447864413 ], [ 530490.0, 7261208.001230716705322 ], [ 530480.0, 7261209.464867912232876 ], [ 530470.0, 7261209.901677625253797 ], [ 530460.0, 7261209.987933613359928 ], [ 530450.0, 7261209.999107790179551 ], [ 530440.000892210751772, 7261210.000000000931323 ], [ 530430.012066387222148, 7261210.000000000931323 ], [ 530420.099214585614391, 7261210.000000000931323 ], [ 530410.546306264819577, 7261210.000000000931323 ], [ 530402.08680969348643, 7261210.000000000931323 ], [ 530395.756988407694735, 7261210.000000000931323 ] ] } },
{ "type": "Feature", "properties": { "id": 4, "reference_id": 9, "dune_id": 9, "dune_name": "Inverted Y Dune", "acquisition_date": "2026-02-07", "length_m": 759.1916617696271 }, "geometry": { "type": "LineString", "coordinates": [ [ 530091.078100949525833, 7261598.921006839722395 ], [ 530086.078100949409418, 7261603.910724874585867 ], [ 530078.683442020905204, 7261611.229409780353308 ], [ 530069.677239574841224, 7261619.874776534736156 ], [ 530059.944359513698146, 7261628.503962881863117 ], [ 530049.993520701071247, 7261636.248260175809264 ], [ 530039.999553894624114, 7261643.21235896460712 ], [ 530030.0, 7261649.912851802073419 ], [ 530020.0, 7261656.328929075039923 ], [ 530010.0, 7261662.205649307928979 ], [ 530000.0, 7261667.794350693002343 ], [ 529990.0, 7261673.670178714208305 ], [ 529980.0, 7261680.075974022038281 ], [ 529970.0, 7261686.700938943773508 ], [ 529960.0, 7261693.311127444729209 ], [ 529950.0, 7261700.011174177750945 ], [ 529940.0, 7261706.777805175632238 ], [ 529930.0, 7261713.757326913066208 ], [ 529920.0, 7261721.551677605137229 ], [ 529910.0, 7261730.447983890771866 ], [ 529900.0, 7261740.087148198857903 ], [ 529890.0, 7261750.011174176819623 ], [ 529880.0, 7261760.000892210751772 ], [ 529870.0, 7261770.0 ], [ 529860.000892210751772, 7261780.0 ], [ 529850.011174176470377, 7261790.0 ], [ 529840.087148198392242, 7261800.0 ], [ 529830.447983889840543, 7261810.0 ], [ 529821.552569815889001, 7261820.0 ], [ 529813.768501089187339, 7261830.0 ], [ 529806.864953374140896, 7261840.000000000931323 ], [ 529800.45915806631092, 7261850.0 ], [ 529794.861912838649005, 7261860.0 ], [ 529790.447983889840543, 7261870.0 ], [ 529786.777805175632238, 7261880.0 ], [ 529783.32051719923038, 7261890.0 ], [ 529780.000892210751772, 7261900.0 ], [ 529776.690656977239996, 7261910.0 ], [ 529773.309343022760004, 7261920.0 ], [ 529770.0, 7261930.0 ], [ 529766.689764766488224, 7261940.0 ], [ 529763.299061056924984, 7261950.0 ], [ 529759.923133767326362, 7261960.0 ], [ 529756.319539319956675, 7261970.0 ], [ 529752.128783074789681, 7261980.0 ], [ 529747.423233035369776, 7261990.0 ], [ 529742.490510976989754, 7262000.0 ], [ 529737.509489023126662, 7262010.0 ], [ 529732.576766964630224, 7262020.0 ], [ 529727.871216925210319, 7262030.0 ], [ 529723.680460680043325, 7262040.0 ], [ 529720.075974022038281, 7262050.0 ], [ 529716.689764766488224, 7262060.0 ], [ 529713.223087035003118, 7262070.0 ], [ 529709.552908320911229, 7262080.0 ], [ 529705.150153548456728, 7262090.0 ], [ 529699.639164308551699, 7262100.0 ], [ 529693.670178714208305, 7262110.0 ], [ 529688.231160405906849, 7262120.0 ], [ 529683.75643470196519, 7262130.0 ], [ 529680.087148198508658, 7262140.0 ], [ 529676.701831153710373, 7262149.999107789248228 ], [ 529673.311127444147132, 7262159.987933613359928 ], [ 529670.011174176470377, 7262169.900785414502025 ], [ 529666.777805175632238, 7262179.453693735413253 ], [ 529663.757326912600547, 7262187.913190307095647 ], [ 529661.551677605137229, 7262194.243011591956019 ] ] } },
{ "type": "Feature", "properties": { "id": 5, "reference_id": 3, "dune_id": 3, "dune_name": "Big Mommy Dune", "acquisition_date": "2026-02-07", "length_m": 358.70991662188629 }, "geometry": { "type": "LineString", "coordinates": [ [ 529374.243011592305265, 7260695.756988408043981 ], [ 529367.91319030651357, 7260702.086809693835676 ], [ 529359.453693735180423, 7260710.546306265518069 ], [ 529349.901677625253797, 7260720.099214585497975 ], [ 529339.999107789364643, 7260730.012066388502717 ], [ 529330.086255987756886, 7260740.000892210751772 ], [ 529320.447983889956959, 7260750.0 ], [ 529311.551677605253644, 7260760.0 ], [ 529303.757326912600547, 7260770.0 ], [ 529296.777805175632238, 7260780.000000000931323 ], [ 529290.011174176470377, 7260790.0 ], [ 529283.310235233511776, 7260800.0 ], [ 529276.690656977239996, 7260810.0 ], [ 529270.0, 7260820.0 ], [ 529263.309343022760004, 7260830.0 ], [ 529256.690656977356412, 7260840.0 ], [ 529250.0, 7260850.0 ], [ 529243.310235233511776, 7260860.0 ], [ 529236.700938942958601, 7260870.0 ], [ 529230.075974021921866, 7260880.0 ], [ 529223.670178714208305, 7260890.0 ], [ 529217.794350692536682, 7260900.0 ], [ 529212.206541518098675, 7260910.0 ], [ 529206.340995462262072, 7260920.0 ], [ 529200.012066387105733, 7260930.0 ], [ 529193.758219123352319, 7260939.999553894624114 ], [ 529188.328590570250526, 7260949.993520701304078 ], [ 529184.205310802557506, 7260959.944359514862299 ], [ 529181.638825803645886, 7260969.6772395754233 ], [ 529180.45915806631092, 7260978.683442020788789 ], [ 529180.088040409144014, 7260986.078100949525833 ], [ 529180.011174176470377, 7260991.078100949525833 ] ] } },
{ "type": "Feature", "properties": { "id": 6, "reference_id": 3, "dune_id": 3, "dune_name": "Big Mommy Dune", "acquisition_date": "2026-02-07", "length_m": 205.07362017536067 }, "geometry": { "type": "LineString", "coordinates": [ [ 529614.243011592421681, 7260630.011174176819623 ], [ 529607.91319030651357, 7260630.087148198857903 ], [ 529599.453693735180423, 7260630.447091680020094 ], [ 529589.900785414502025, 7260631.540503429248929 ], [ 529579.987933612894267, 7260633.671070925891399 ], [ 529569.999107789248228, 7260636.340995462611318 ], [ 529560.0, 7260638.546644769608974 ], [ 529550.0, 7260640.000892210751772 ], [ 529540.0, 7260641.464529407210648 ], [ 529530.0, 7260643.746152736246586 ], [ 529520.0, 7260646.776020754128695 ], [ 529510.0, 7260650.000892210751772 ], [ 529500.000000000116415, 7260653.234261211939156 ], [ 529490.0, 7260656.329821285791695 ], [ 529480.0, 7260658.896306285634637 ], [ 529470.0, 7260661.103693716228008 ], [ 529460.000892210751772, 7260663.670178714208305 ], [ 529450.012066387105733, 7260666.765738788992167 ], [ 529440.099214585614391, 7260669.999107789248228 ], [ 529430.546306264819577, 7260673.223087035119534 ], [ 529422.08680969348643, 7260676.242673087865114 ], [ 529415.756988407694735, 7260678.448322394862771 ] ] } },
{ "type": "Feature", "properties": { "id": 7, "reference_id": 3, "dune_id": 3, "dune_name": "Big Mommy Dune", "acquisition_date": "2026-02-07", "length_m": 605.37561241201206 }, "geometry": { "type": "LineString", "coordinates": [ [ 530244.243011592421681, 7260570.087148198857903 ], [ 530237.91319030651357, 7260570.447091680020094 ], [ 530229.453693735180423, 7260571.540503429248929 ], [ 530219.900785414385609, 7260573.671070925891399 ], [ 530209.987933612894267, 7260576.340995462611318 ], [ 530199.999107789248228, 7260578.546644769608974 ], [ 530190.0, 7260580.0 ], [ 530180.0, 7260581.453355230391026 ], [ 530170.000000000116415, 7260583.659896748140454 ], [ 530160.0, 7260586.340103251859546 ], [ 530150.0, 7260588.546644769608974 ], [ 530140.0, 7260590.0 ], [ 530130.0, 7260591.453355230391026 ], [ 530120.0, 7260593.659004537388682 ], [ 530110.0, 7260596.329821285791695 ], [ 530100.0, 7260598.470670748502016 ], [ 530090.0, 7260599.640056519769132 ], [ 530080.0, 7260600.359051270410419 ], [ 530070.0, 7260601.518155076541007 ], [ 530060.0, 7260603.583030516281724 ], [ 530050.0, 7260605.893903782591224 ], [ 530040.0, 7260607.006141341291368 ], [ 530030.0, 7260606.329821286723018 ], [ 530020.0, 7260605.12353394459933 ], [ 530010.0, 7260605.199507966637611 ], [ 530000.0, 7260606.776020754128695 ], [ 529990.0, 7260608.546644770540297 ], [ 529980.0, 7260609.564082497730851 ], [ 529970.0, 7260609.913744012825191 ], [ 529960.0, 7260609.9888258241117 ], [ 529950.0, 7260609.999107789248228 ], [ 529940.0, 7260610.0 ], [ 529930.0, 7260609.999107789248228 ], [ 529920.0, 7260609.9888258241117 ], [ 529910.0, 7260609.912851802073419 ], [ 529900.0, 7260609.552908320911229 ], [ 529890.0, 7260608.459496571682394 ], [ 529880.0, 7260606.329821286723018 ], [ 529870.0, 7260603.670178715139627 ], [ 529860.0, 7260601.541395640000701 ], [ 529850.0, 7260600.458265855908394 ], [ 529840.0, 7260600.174296397715807 ], [ 529830.0, 7260600.458265855908394 ], [ 529820.0, 7260601.541395640000701 ], [ 529810.0, 7260603.670178715139627 ], [ 529800.0, 7260606.329821286723018 ], [ 529790.0, 7260608.459496571682394 ], [ 529780.0, 7260609.552908320911229 ], [ 529770.0, 7260609.913744012825191 ], [ 529760.0, 7260610.0 ], [ 529750.0, 7260610.086255988106132 ], [ 529740.0, 7260610.447091680020094 ], [ 529730.0, 7260611.540503429248929 ], [ 529720.0, 7260613.670178715139627 ], [ 529710.0, 7260616.329821286723018 ], [ 529700.0, 7260618.459496571682394 ], [ 529690.000892210751772, 7260619.552908320911229 ], [ 529680.012066387222148, 7260619.912851802073419 ], [ 529670.099214585614391, 7260619.9888258241117 ], [ 529660.546306264819577, 7260619.999107790179551 ], [ 529652.08680969348643, 7260620.0 ], [ 529645.756988407694735, 7260620.0 ] ] } },
{ "type": "Feature", "properties": { "id": 8, "reference_id": 1, "dune_id": 1, "dune_name": "Big Mommy Dune", "acquisition_date": "2026-02-07", "length_m": 1296.0844444862232 }, "geometry": { "type": "LineString", "coordinates": [ [ 529180.000892210751772, 7260998.921899050474167 ], [ 529180.011174176470377, 7261003.921899050474167 ], [ 529180.087148198392242, 7261011.316557979211211 ], [ 529180.447091679205187, 7261020.322760425508022 ], [ 529181.539611218031496, 7261030.055640487000346 ], [ 529183.659004537737928, 7261040.006479299627244 ], [ 529186.242673087399453, 7261050.000446105375886 ], [ 529188.012404892127961, 7261060.0 ], [ 529188.012404892127961, 7261070.0 ], [ 529186.241780876764096, 7261080.0 ], [ 529183.647830361267552, 7261090.0 ], [ 529181.452463019639254, 7261100.0 ], [ 529179.999107789364643, 7261110.0 ], [ 529178.535470593255013, 7261120.000000000931323 ], [ 529176.253847263869829, 7261130.0 ], [ 529173.223087035003118, 7261140.0 ], [ 529169.988825823529623, 7261150.0 ], [ 529166.688872555969283, 7261160.0 ], [ 529163.299061057041399, 7261170.0 ], [ 529159.924025978078134, 7261180.0 ], [ 529156.329821285791695, 7261190.0 ], [ 529152.205649307463318, 7261200.0 ], [ 529147.793458481901325, 7261210.000000000931323 ], [ 529143.659896748373285, 7261220.0 ], [ 529139.999107789364643, 7261230.0 ], [ 529136.329821285791695, 7261240.0 ], [ 529132.129675285425037, 7261250.0 ], [ 529127.423233035369776, 7261260.0 ], [ 529122.490510976989754, 7261270.0 ], [ 529117.509489023126662, 7261280.0 ], [ 529112.576766964630224, 7261290.0 ], [ 529107.870324714574963, 7261300.0 ], [ 529103.670178714208305, 7261310.000000000931323 ], [ 529100.000892210751772, 7261320.0 ], [ 529096.340103251626715, 7261330.0 ], [ 529092.20654151821509, 7261340.0 ], [ 529087.794350692536682, 7261350.0 ], [ 529083.670178714208305, 7261360.0 ], [ 529080.075081811286509, 7261370.0 ], [ 529076.689764766488224, 7261380.0 ], [ 529073.223979245638475, 7261390.0 ], [ 529069.56408249726519, 7261400.0 ], [ 529065.236409536213614, 7261410.0 ], [ 529060.075974022038281, 7261420.0 ], [ 529055.134708120953292, 7261430.0 ], [ 529051.540503428783268, 7261440.0 ], [ 529048.9825622724602, 7261450.0 ], [ 529046.340995462262072, 7261460.0 ], [ 529043.235153422108851, 7261470.000000000931323 ], [ 529040.0, 7261480.0 ], [ 529036.765738788526505, 7261490.0 ], [ 529033.670178714208305, 7261500.0 ], [ 529031.104585926048458, 7261510.0 ], [ 529028.907480461173691, 7261520.0 ], [ 529026.416969484183937, 7261530.0 ], [ 529023.681352890678681, 7261540.0 ], [ 529021.541395639418624, 7261550.0 ], [ 529020.447091679205187, 7261560.000000000931323 ], [ 529020.087148198508658, 7261570.0 ], [ 529020.011174176470377, 7261580.0 ], [ 529020.000892210751772, 7261590.0 ], [ 529020.0, 7261600.0 ], [ 529020.0, 7261610.0 ], [ 529020.0, 7261620.0 ], [ 529020.000892210751772, 7261630.0 ], [ 529020.011174176470377, 7261640.0 ], [ 529020.087148198508658, 7261650.0 ], [ 529020.447983889840543, 7261660.0 ], [ 529021.552569815889001, 7261670.0 ], [ 529023.768501089187339, 7261680.0 ], [ 529026.864953374140896, 7261690.0 ], [ 529030.458265855675563, 7261700.0 ], [ 529034.851630872813985, 7261710.0 ], [ 529040.372009867918678, 7261720.0 ], [ 529046.416969484183937, 7261730.000000000931323 ], [ 529052.216823483933695, 7261740.0 ], [ 529057.794350692536682, 7261750.0 ], [ 529063.659896748373285, 7261760.0 ], [ 529069.999107789364643, 7261770.0 ], [ 529076.328929075039923, 7261780.0 ], [ 529082.119393319706433, 7261790.0 ], [ 529087.346366802696139, 7261800.0 ], [ 529092.118501109071076, 7261810.0 ], [ 529096.316862688050605, 7261820.0 ], [ 529099.900785414502025, 7261830.0 ], [ 529103.123872449388728, 7261840.000000000931323 ], [ 529105.782622810336761, 7261850.0 ], [ 529106.809496591216885, 7261860.0 ], [ 529105.346705307718366, 7261870.0 ], [ 529101.58336902083829, 7261880.0 ], [ 529096.2203247344587, 7261890.0 ], [ 529089.911067380220629, 7261900.0 ], [ 529083.298168846289627, 7261910.0 ], [ 529076.689764766488224, 7261920.0 ], [ 529070.0, 7261930.0 ], [ 529063.310235233511776, 7261940.0 ], [ 529056.700938943075016, 7261950.0 ], [ 529050.076866232673638, 7261960.0 ], [ 529043.68046067992691, 7261970.0 ], [ 529037.871216925210319, 7261980.0 ], [ 529032.577659175381996, 7261990.0 ], [ 529027.520663199597038, 7262000.0 ], [ 529022.577659175381996, 7262010.0 ], [ 529017.871216925326735, 7262020.0 ], [ 529013.680460680043325, 7262030.0 ], [ 529010.075974022038281, 7262040.0 ], [ 529006.68976476660464, 7262050.0 ], [ 529003.223087035119534, 7262060.0 ], [ 528999.552908320911229, 7262070.0 ], [ 528995.149261337821372, 7262080.0 ], [ 528989.628882342833094, 7262090.0 ], [ 528983.593312481534667, 7262100.0 ], [ 528977.859150538104586, 7262110.0 ], [ 528972.564700577524491, 7262120.0 ], [ 528967.42234082473442, 7262130.0 ], [ 528962.042527087032795, 7262139.999107789248228 ], [ 528955.872447640867904, 7262149.987933613359928 ], [ 528948.383522549294867, 7262159.900785414502025 ], [ 528939.640948729938827, 7262169.453693735413253 ], [ 528930.458265855675563, 7262177.913190307095647 ], [ 528922.075635517016053, 7262184.243011591956019 ], [ 528915.756096197059378, 7262187.913190307095647 ] ] } },
{ "type": "Feature", "properties": { "id": 9, "reference_id": 5, "dune_id": 5, "dune_name": "The Star Dune", "acquisition_date": "2026-02-07", "length_m": 1136.6095546462266 }, "geometry": { "type": "LineString", "coordinates": [ [ 534334.789317857124843, 7261305.756988408043981 ], [ 534330.0, 7261312.086809693835676 ], [ 534325.210682142991573, 7261320.546306264586747 ], [ 534321.987595107872039, 7261330.099214585497975 ], [ 534320.534239877597429, 7261340.012066386640072 ], [ 534320.098322374862619, 7261350.000892210751772 ], [ 534320.012066387105733, 7261360.0 ], [ 534320.001784421387129, 7261370.0 ], [ 534320.011174176470377, 7261380.0 ], [ 534320.087148198392242, 7261390.0 ], [ 534320.447091679205187, 7261400.0 ], [ 534321.540503428666852, 7261410.0 ], [ 534323.670178714208305, 7261420.0 ], [ 534326.329821285791695, 7261430.0 ], [ 534328.459496571333148, 7261440.0 ], [ 534329.552908320794813, 7261450.0 ], [ 534329.912851801607758, 7261460.0 ], [ 534329.988825823529623, 7261470.000000000931323 ], [ 534329.999107789364643, 7261480.0 ], [ 534330.0, 7261490.0 ], [ 534329.999107789364643, 7261500.0 ], [ 534329.987933612894267, 7261510.0 ], [ 534329.900785414385609, 7261520.0 ], [ 534329.453693735296838, 7261530.0 ], [ 534327.91319030651357, 7261540.0 ], [ 534324.243011592421681, 7261550.0 ], [ 534317.91319030651357, 7261559.999107790179551 ], [ 534309.453693735296838, 7261569.9888258241117 ], [ 534299.900785414502025, 7261579.912851802073419 ], [ 534289.987933612894267, 7261589.552016110159457 ], [ 534279.999107789248228, 7261598.448322394862771 ], [ 534270.0, 7261606.242673087865114 ], [ 534260.0, 7261613.222194824367762 ], [ 534250.0, 7261619.9888258241117 ], [ 534240.0, 7261626.688872555270791 ], [ 534230.0, 7261633.299061057157815 ], [ 534220.0, 7261639.92313376814127 ], [ 534210.0, 7261646.318647109903395 ], [ 534200.0, 7261652.117608899250627 ], [ 534190.0, 7261657.335192626342177 ], [ 534180.0, 7261662.031352911144495 ], [ 534170.0, 7261665.871555430814624 ], [ 534160.0, 7261668.382630338892341 ], [ 534150.0, 7261669.62888234294951 ], [ 534140.0, 7261670.359051270410419 ], [ 534130.0, 7261671.529329252429307 ], [ 534120.0, 7261673.670178714208305 ], [ 534110.0, 7261676.340995462611318 ], [ 534100.0, 7261678.546644769608974 ], [ 534090.0, 7261680.0 ], [ 534080.0, 7261681.453355230391026 ], [ 534070.0, 7261683.659004537388682 ], [ 534060.0, 7261686.329821286723018 ], [ 534050.0, 7261688.470670748502016 ], [ 534040.0, 7261689.64005651883781 ], [ 534030.0, 7261690.35994348116219 ], [ 534020.0, 7261691.529329253360629 ], [ 534010.0, 7261693.670178714208305 ], [ 534000.0, 7261696.340995462611318 ], [ 533990.0, 7261698.546644769608974 ], [ 533980.0, 7261700.000892210751772 ], [ 533970.0, 7261701.464529407210648 ], [ 533960.0, 7261703.746152736246586 ], [ 533950.0, 7261706.776912964880466 ], [ 533940.0, 7261710.0111741758883 ], [ 533930.0, 7261713.311127444729209 ], [ 533920.0, 7261716.700938943773508 ], [ 533910.0, 7261720.076866232790053 ], [ 533900.0, 7261723.680460680276155 ], [ 533890.0, 7261727.871216925792396 ], [ 533880.0, 7261732.576766965910792 ], [ 533870.0, 7261737.510381234809756 ], [ 533860.0, 7261742.501685153692961 ], [ 533850.0, 7261747.511273445561528 ], [ 533840.0, 7261752.58794114086777 ], [ 533830.0, 7261757.958365123718977 ], [ 533820.0, 7261764.128444569185376 ], [ 533810.000892210635357, 7261771.628543837927282 ], [ 533800.012066387105733, 7261780.458265855908394 ], [ 533790.098322374979034, 7261790.088040409609675 ], [ 533780.535132088232785, 7261800.011174176819623 ], [ 533771.998769284342416, 7261810.000892210751772 ], [ 533765.298722552019171, 7261820.0 ], [ 533760.45915806631092, 7261830.0 ], [ 533756.428143660770729, 7261840.000000000931323 ], [ 533752.217715694569051, 7261850.0 ], [ 533747.794350692536682, 7261860.0 ], [ 533743.659896748373285, 7261870.0 ], [ 533739.999107789364643, 7261880.0 ], [ 533736.329821285791695, 7261890.0 ], [ 533732.129675285425037, 7261900.0 ], [ 533727.423233035253361, 7261910.0 ], [ 533722.489618766237982, 7261920.0 ], [ 533717.499207057291642, 7261930.0 ], [ 533712.499900731956586, 7261940.0 ], [ 533707.499207057408057, 7261950.0 ], [ 533702.489618766237982, 7261960.0 ], [ 533697.423233035369776, 7261970.0 ], [ 533692.129675285541452, 7261980.0 ], [ 533686.330267391167581, 7261989.999553894624114 ], [ 533680.005587088293396, 7261999.993520701304078 ], [ 533673.714645024156198, 7262009.944359513930976 ], [ 533668.105044730589725, 7262019.677239574491978 ], [ 533663.435059088165872, 7262028.683442020788789 ], [ 533659.803736446541734, 7262036.078100949525833 ], [ 533657.294247423415072, 7262041.078100949525833 ] ] } },
{ "type": "Feature", "properties": { "id": 10, "reference_id": 6, "dune_id": 6, "dune_name": "The Star Dune", "acquisition_date": "2026-02-07", "length_m": 895.75149171158455 }, "geometry": { "type": "LineString", "coordinates": [ [ 533653.176084819366224, 7262048.921899050474167 ], [ 533651.922237555496395, 7262053.921899050474167 ], [ 533651.217343393596821, 7262061.316557979211211 ], [ 533651.764049268327653, 7262070.322760425508022 ], [ 533653.713752813404426, 7262080.055640487000346 ], [ 533656.335408374085091, 7262090.006479298695922 ], [ 533658.459942676592618, 7262100.000446105375886 ], [ 533659.552908320911229, 7262110.0 ], [ 533659.912851801607758, 7262120.0 ], [ 533659.988825823529623, 7262130.0 ], [ 533659.999107789248228, 7262140.0 ], [ 533660.0, 7262150.0 ], [ 533660.0, 7262160.0 ], [ 533660.000892210751772, 7262170.0 ], [ 533660.011174176470377, 7262180.0 ], [ 533660.087148198392242, 7262190.0 ], [ 533660.447091679088771, 7262200.0 ], [ 533661.540503428783268, 7262210.0 ], [ 533663.670178714208305, 7262220.0 ], [ 533666.330713496543467, 7262230.0 ], [ 533668.470670747803524, 7262240.0 ], [ 533669.640056519303471, 7262250.0 ], [ 533670.359943480696529, 7262260.0 ], [ 533671.529329252196476, 7262270.0 ], [ 533673.669286503456533, 7262280.0 ], [ 533676.329821285791695, 7262290.0 ], [ 533678.459496571333148, 7262300.0 ], [ 533679.552016110159457, 7262310.0 ], [ 533679.901677625137381, 7262320.0 ], [ 533679.901677625137381, 7262330.0 ], [ 533679.552016110159457, 7262340.000000000931323 ], [ 533678.458604360697791, 7262350.0 ], [ 533676.318647109437734, 7262360.0 ], [ 533673.583030515816063, 7262370.0 ], [ 533671.093411749578081, 7262380.0 ], [ 533668.905696039786562, 7262390.0 ], [ 533666.405795307829976, 7262400.0 ], [ 533663.594204692286439, 7262410.0 ], [ 533661.093411749578081, 7262420.0 ], [ 533658.895414073951542, 7262430.0 ], [ 533656.329821285791695, 7262440.0 ], [ 533653.233369000838138, 7262450.0 ], [ 533649.989718034281395, 7262460.0 ], [ 533646.689764766488224, 7262470.0 ], [ 533643.310235233511776, 7262480.0 ], [ 533640.01028196583502, 7262490.0 ], [ 533636.766630999278277, 7262500.0 ], [ 533633.670178714208305, 7262510.0 ], [ 533631.104585926048458, 7262520.0 ], [ 533628.907480461173691, 7262530.0 ], [ 533626.416077273548581, 7262540.0 ], [ 533623.670178714208305, 7262550.0 ], [ 533621.454247440909967, 7262560.0 ], [ 533620.0, 7262570.0 ], [ 533618.54664476972539, 7262580.0 ], [ 533616.340995462378487, 7262590.0 ], [ 533613.670178714208305, 7262600.000000000931323 ], [ 533611.529329252312891, 7262610.0 ], [ 533610.359943480696529, 7262620.0 ], [ 533609.640056519303471, 7262630.0 ], [ 533608.470670747803524, 7262640.0 ], [ 533606.330713496543467, 7262650.0 ], [ 533603.670178714208305, 7262660.0 ], [ 533601.540503428783268, 7262670.0 ], [ 533600.447091679205187, 7262680.0 ], [ 533600.086255987756886, 7262690.0 ], [ 533600.0, 7262700.0 ], [ 533599.913744012243114, 7262710.0 ], [ 533599.552908320794813, 7262720.0 ], [ 533598.458604360581376, 7262730.0 ], [ 533596.318647109321319, 7262740.0 ], [ 533593.583030515816063, 7262750.0 ], [ 533591.092519538942724, 7262760.0 ], [ 533588.895414073951542, 7262770.0 ], [ 533586.328929075156339, 7262780.0 ], [ 533583.223087035119534, 7262790.0 ], [ 533579.91374401235953, 7262800.0 ], [ 533576.328929075156339, 7262810.0 ], [ 533572.205649307463318, 7262820.0 ], [ 533567.794350692653097, 7262830.0 ], [ 533563.671070924843661, 7262840.0 ], [ 533560.087148198392242, 7262850.0 ], [ 533556.788087141467258, 7262860.0 ], [ 533553.758219123352319, 7262870.000000000931323 ], [ 533551.551677605253644, 7262879.999107789248228 ], [ 533550.447983889840543, 7262889.987933613359928 ], [ 533550.087148198392242, 7262899.900785414502025 ], [ 533550.011174176470377, 7262909.453693736344576 ], [ 533550.000892210751772, 7262917.913190307095647 ], [ 533550.0, 7262924.243011591956019 ] ] } },
{ "type": "Feature", "properties": { "id": 11, "reference_id": 4, "dune_id": 4, "dune_name": "The Star Dune", "acquisition_date": "2026-02-07", "length_m": 132.36417876310881 }, "geometry": { "type": "LineString", "coordinates": [ [ 533344.243011592421681, 7261949.9888258241117 ], [ 533337.91319030651357, 7261949.911959590390325 ], [ 533329.453693735296838, 7261949.541734144091606 ], [ 533319.900785414385609, 7261948.372348373755813 ], [ 533309.987933612894267, 7261945.882729606702924 ], [ 533299.999107789364643, 7261942.129675285890698 ], [ 533290.0, 7261937.870324714109302 ], [ 533280.0, 7261934.117270393297076 ], [ 533270.0, 7261931.626759416423738 ], [ 533260.000892210751772, 7261930.447091679088771 ], [ 533250.012066387222148, 7261930.000892210751772 ], [ 533240.099214585730806, 7261929.564082497730851 ], [ 533230.546306264819577, 7261928.460388782434165 ], [ 533222.08680969348643, 7261926.329821286723018 ], [ 533215.756988407694735, 7261923.670178715139627 ] ] } },
{ "type": "Feature", "properties": { "id": 12, "reference_id": 2, "dune_id": 2, "dune_name": "Big Mommy Dune", "acquisition_date": "2026-02-07", "length_m": 432.70282095932032 }, "geometry": { "type": "LineString", "coordinates": [ [ 528814.243011592305265, 7260869.541734145022929 ], [ 528807.91319030651357, 7260868.372348373755813 ], [ 528799.453693735296838, 7260865.881837396882474 ], [ 528789.900785414502025, 7260862.118501110002398 ], [ 528779.987933612894267, 7260857.782284305430949 ], [ 528769.999107789364643, 7260853.659004537388682 ], [ 528760.0, 7260850.0 ], [ 528750.0, 7260846.340103251859546 ], [ 528740.0, 7260842.206541518680751 ], [ 528730.0, 7260837.793458482250571 ], [ 528720.0, 7260833.659004537388682 ], [ 528710.0, 7260829.9888258241117 ], [ 528700.0, 7260826.252955053001642 ], [ 528690.0, 7260821.75944983959198 ], [ 528680.0, 7260816.252955053001642 ], [ 528670.0, 7260809.989718034863472 ], [ 528660.0, 7260803.66928650252521 ], [ 528650.0, 7260797.870324714109302 ], [ 528640.0, 7260792.576766965910792 ], [ 528630.0, 7260787.509489024057984 ], [ 528620.0, 7260782.490510977804661 ], [ 528610.0, 7260777.423233035951853 ], [ 528600.0, 7260772.128783075138927 ], [ 528590.0, 7260766.319539319723845 ], [ 528580.0, 7260759.92313376814127 ], [ 528570.0, 7260753.299061057157815 ], [ 528560.0, 7260746.689764766953886 ], [ 528550.0, 7260740.0 ], [ 528540.0, 7260733.309343023225665 ], [ 528530.0, 7260726.690656976774335 ], [ 528520.0, 7260720.0 ], [ 528510.0, 7260713.309343023225665 ], [ 528500.0, 7260706.690656977705657 ], [ 528490.0, 7260700.000000000931323 ], [ 528480.000892210751772, 7260693.310235233977437 ], [ 528470.012066387105733, 7260686.70183115452528 ], [ 528460.099214585614391, 7260680.088040409609675 ], [ 528450.546306264819577, 7260673.768501089885831 ], [ 528442.08680969348643, 7260668.329482780769467 ], [ 528435.756988407694735, 7260664.205310802906752 ] ] } }
]
}
