{
"type": "FeatureCollection",
"name": "crests_2021_06_2021-06-13",
"crs": { "type": "name", "properties": { "name": "urn:ogc:def:crs:EPSG::32733" } },
"features": [
{ "type": "Feature", "properties": { "id": 0, "reference_id": 4, "dune_id": 4, "dune_name": "The Star Dune", "acquisition_date": "2021-06-13", "length_m": 648.79353119843461 }, "geometry": { "type": "LineString", "coordinates": [ [ 533624.243011592305265, 7262059.552908321842551 ], [ 533617.91319030651357, 7262058.458604361861944 ], [ 533609.453693735180423, 7262056.318647109903395 ], [ 533599.900785414385609, 7262053.582138305529952 ], [ 533589.987933612894267, 7262051.082237573340535 ], [ 533579.999107789364643, 7262048.818547841161489 ], [ 533570.0, 7262045.958703628741205 ], [ 533560.0, 7262042.052809053100646 ], [ 533550.0, 7262037.412951069884002 ], [ 533540.0, 7262032.489618767052889 ], [ 533530.0, 7262027.509489023126662 ], [ 533520.0, 7262022.57676696497947 ], [ 533510.0, 7262017.870324715040624 ], [ 533500.0, 7262013.670178714208305 ], [ 533490.0, 7262010.000892210751772 ], [ 533480.0, 7262006.340103251859546 ], [ 533470.0, 7262002.206541518680751 ], [ 533460.0, 7261997.794350693002343 ], [ 533450.0, 7261993.670178715139627 ], [ 533440.0, 7261990.075974022038281 ], [ 533430.0, 7261986.700938943773508 ], [ 533420.0, 7261983.311127444729209 ], [ 533410.0, 7261980.010281965136528 ], [ 533400.000000000116415, 7261976.766630999743938 ], [ 533390.0, 7261973.670178714208305 ], [ 533380.000000000116415, 7261971.103693716228008 ], [ 533370.0, 7261968.896306285634637 ], [ 533360.0, 7261966.329821286723018 ], [ 533350.0, 7261963.234261211939156 ], [ 533340.0, 7261960.0 ], [ 533330.0, 7261956.765738788992167 ], [ 533320.0, 7261953.669286504387856 ], [ 533310.0, 7261951.093411749228835 ], [ 533300.0, 7261948.820332262665033 ], [ 533290.0, 7261945.969877805560827 ], [ 533280.0, 7261942.140849461778998 ], [ 533270.0, 7261937.870324714109302 ], [ 533260.0, 7261934.106096217408776 ], [ 533250.0, 7261931.540503429248929 ], [ 533240.0, 7261930.010281966067851 ], [ 533230.0, 7261928.536362804472446 ], [ 533220.0, 7261926.253847263753414 ], [ 533210.0, 7261923.223087035119534 ], [ 533200.0, 7261919.9888258241117 ], [ 533190.0, 7261916.689764766022563 ], [ 533180.0, 7261913.310235233977437 ], [ 533170.0, 7261910.010281966999173 ], [ 533160.0, 7261906.766630999743938 ], [ 533150.0, 7261903.670178715139627 ], [ 533140.0, 7261901.104585926048458 ], [ 533130.0, 7261898.906588250771165 ], [ 533120.0, 7261896.405795307829976 ], [ 533110.0, 7261893.594204692170024 ], [ 533100.0, 7261891.094303959980607 ], [ 533090.0, 7261888.906588250771165 ], [ 533080.0, 7261886.416077273897827 ], [ 533070.0, 7261883.670178714208305 ], [ 533060.0, 7261881.454247441142797 ], [ 533050.000892210751772, 7261880.0 ], [ 533040.012066387105733, 7261878.546644769608974 ], [ 533030.099214585614391, 7261876.340995462611318 ], [ 533020.546306264819577, 7261873.671070925891399 ], [ 533012.08680969348643, 7261871.540503429248929 ], [ 533005.756988407694735, 7261870.447091680020094 ] ] } },
{ "type": "Feature", "properties": { "id": 1, "reference_id": 3, "dune_id": 3, "dune_name": "Big Mommy Dune", "acquisition_date": "2021-06-13", "length_m": 361.12598274219545 }, "geometry": { "type": "LineString", "coordinates": [ [ 529374.243011592305265, 7260695.756988408043981 ], [ 529367.91319030651357, 7260702.086809693835676 ], [ 529359.453693735180423, 7260710.546306265518069 ], [ 529349.900785414502025, 7260720.099214585497975 ], [ 529339.988825823529623, 7260730.012066388502717 ], [ 529330.01028196583502, 7260740.000892210751772 ], [ 529320.087148198508658, 7260750.0 ], [ 529310.447983889956959, 7260760.0 ], [ 529301.551677605253644, 7260770.0 ], [ 529293.758219123352319, 7260780.000000000931323 ], [ 529286.788087141467258, 7260790.0 ], [ 529280.087148198392242, 7260800.0 ], [ 529273.671070924960077, 7260810.0 ], [ 529267.794350692536682, 7260820.0 ], [ 529262.205649307463318, 7260830.0 ], [ 529256.32982128590811, 7260840.0 ], [ 529249.924025978078134, 7260850.0 ], [ 529243.299061057041399, 7260860.0 ], [ 529236.689764766488224, 7260870.0 ], [ 529230.0, 7260880.0 ], [ 529223.310235233511776, 7260890.0 ], [ 529216.700938943075016, 7260900.0 ], [ 529210.076866232557222, 7260910.0 ], [ 529203.68046067992691, 7260920.0 ], [ 529197.871216925210319, 7260930.0 ], [ 529192.578105280757882, 7260939.999553894624114 ], [ 529187.527142498525791, 7260949.993520701304078 ], [ 529182.632407451048493, 7260959.944359514862299 ], [ 529178.181910963263363, 7260969.6772395754233 ], [ 529174.898696284275502, 7260978.683442020788789 ], [ 529173.463633195031434, 7260986.078100949525833 ], [ 529173.623176498571411, 7260991.078100949525833 ] ] } },
{ "type": "Feature", "properties": { "id": 2, "reference_id": 3, "dune_id": 3, "dune_name": "Big Mommy Dune", "acquisition_date": "2021-06-13", "length_m": 305.84097123890302 }, "geometry": { "type": "LineString", "coordinates": [ [ 529405.756988407694735, 7260678.458604359999299 ], [ 529412.08680969348643, 7260676.318647108972073 ], [ 529420.546306264819577, 7260673.583030516281724 ], [ 529430.099214585614391, 7260671.092519538477063 ], [ 529440.012066387222148, 7260668.895414074882865 ], [ 529450.000892210751772, 7260666.329821285791695 ], [ 529460.0, 7260663.234261211939156 ], [ 529470.0, 7260660.0 ], [ 529480.0, 7260656.765738788992167 ], [ 529490.0, 7260653.670178714208305 ], [ 529500.000000000116415, 7260651.10458592697978 ], [ 529510.0, 7260648.906588250771165 ], [ 529520.0, 7260646.405795307829976 ], [ 529530.0, 7260643.594204693101346 ], [ 529540.0, 7260641.094303959980607 ], [ 529550.0, 7260638.906588250771165 ], [ 529560.0, 7260636.416969483718276 ], [ 529570.0, 7260633.680460680276155 ], [ 529580.0, 7260631.530221463181078 ], [ 529590.0, 7260630.35994348116219 ], [ 529600.0, 7260629.64005651883781 ], [ 529610.0, 7260628.470670747570693 ], [ 529620.0, 7260626.330713496543467 ], [ 529630.0, 7260623.670178714208305 ], [ 529640.0, 7260621.540503429248929 ], [ 529650.0, 7260620.447091679088771 ], [ 529659.999107789364643, 7260620.087148198857903 ], [ 529669.987933612894267, 7260620.011174176819623 ], [ 529679.900785414502025, 7260620.000892210751772 ], [ 529689.453693735296838, 7260620.0 ], [ 529697.91319030651357, 7260620.0 ], [ 529704.243011592305265, 7260620.0 ] ] } },
{ "type": "Feature", "properties": { "id": 3, "reference_id": 3, "dune_id": 3, "dune_name": "Big Mommy Dune", "acquisition_date": "2021-06-13", "length_m": 248.48602318461053 }, "geometry": { "type": "LineString", "coordinates": [ [ 529735.756988407694735, 7260610.0 ], [ 529742.08680969348643, 7260610.0 ], [ 529750.546306264819577, 7260610.0 ], [ 529760.099214585614391, 7260610.0 ], [ 529770.012066387222148, 7260610.0 ], [ 529780.000892210751772, 7260610.0 ], [ 529790.0, 7260610.0 ], [ 529800.0, 7260610.0 ], [ 529810.0, 7260610.0 ], [ 529820.0, 7260610.0 ], [ 529830.0, 7260610.0 ], [ 529840.0, 7260610.0 ], [ 529850.0, 7260610.0 ], [ 529860.0, 7260610.0 ], [ 529870.0, 7260610.0 ], [ 529880.0, 7260610.0 ], [ 529890.0, 7260610.0 ], [ 529900.0, 7260610.0 ], [ 529910.0, 7260610.0 ], [ 529920.0, 7260610.0 ], [ 529930.0, 7260610.0 ], [ 529939.999107789248228, 7260610.0 ], [ 529949.987933612894267, 7260610.0 ], [ 529959.900785414502025, 7260610.0 ], [ 529969.453693735180423, 7260610.0 ], [ 529977.91319030651357, 7260610.0 ], [ 529984.243011592305265, 7260610.0 ] ] } },
{ "type": "Feature", "properties": { "id": 4, "reference_id": 3, "dune_id": 3, "dune_name": "Big Mommy Dune", "acquisition_date": "2021-06-13", "length_m": 151.9814500569853 }, "geometry": { "type": "LineString", "coordinates": [ [ 530085.756988407694735, 7260599.999107789248228 ], [ 530092.08680969348643, 7260599.9888258241117 ], [ 530100.546306264819577, 7260599.912851802073419 ], [ 530110.099214585614391, 7260599.552908321842551 ], [ 530120.012066387222148, 7260598.458604360930622 ], [ 530130.000892210751772, 7260596.318647108972073 ], [ 530140.0, 7260593.583030516281724 ], [ 530150.0, 7260591.093411749228835 ], [ 530160.0, 7260588.905696040019393 ], [ 530170.000000000116415, 7260586.405795307829976 ], [ 530180.0, 7260583.594204692170024 ], [ 530189.999107789248228, 7260581.094303959980607 ], [ 530199.987933612894267, 7260578.906588250771165 ], [ 530209.900785414502025, 7260576.416969484649599 ], [ 530219.453693735296838, 7260573.681352891027927 ], [ 530227.91319030651357, 7260571.541395640000701 ], [ 530234.243011592421681, 7260570.447091680020094 ] ] } },
{ "type": "Feature", "properties": { "id": 5, "reference_id": 8, "dune_id": 8, "dune_name": "Inverted Y Dune", "acquisition_date": "2021-06-13", "length_m": 426.80376237440998 }, "geometry": { "type": "LineString", "coordinates": [ [ 530264.243011592421681, 7261221.639718014746904 ], [ 530257.913190306629986, 7261224.216484978795052 ], [ 530249.453693735180423, 7261228.416630979627371 ], [ 530239.900785414502025, 7261234.216484978795052 ], [ 530229.987933612777852, 7261241.639718014746904 ], [ 530219.999107789248228, 7261250.459158066660166 ], [ 530210.0, 7261260.088040409609675 ], [ 530200.000892210751772, 7261270.011174176819623 ], [ 530190.012066387105733, 7261280.000892210751772 ], [ 530180.098322374862619, 7261290.0 ], [ 530170.535132088349201, 7261300.0 ], [ 530161.999661495094188, 7261310.000000000931323 ], [ 530155.309004517970607, 7261320.0 ], [ 530150.535132088349201, 7261330.0 ], [ 530146.78897935221903, 7261340.0 ], [ 530143.322301620617509, 7261350.0 ], [ 530140.011174176586792, 7261360.0 ], [ 530136.766630999278277, 7261370.0 ], [ 530133.670178714208305, 7261380.0 ], [ 530131.104585926048458, 7261390.0 ], [ 530128.907480461173691, 7261400.0 ], [ 530126.416077273664996, 7261410.0 ], [ 530123.670178714208305, 7261420.0 ], [ 530121.454247441026382, 7261430.0 ], [ 530120.0, 7261440.0 ], [ 530118.54664476972539, 7261450.0 ], [ 530116.340995462262072, 7261460.0 ], [ 530113.671070924960077, 7261470.000000000931323 ], [ 530111.539611218031496, 7261480.0 ], [ 530110.43591750273481, 7261490.0 ], [ 530110.0, 7261500.0 ], [ 530109.564082497381605, 7261510.0 ], [ 530108.460388781968504, 7261520.0 ], [ 530106.329821285791695, 7261530.0 ], [ 530103.670178714208305, 7261539.999553894624114 ], [ 530101.540503428783268, 7261549.993520701304078 ], [ 530100.447091679205187, 7261559.944359513930976 ], [ 530100.087148198508658, 7261569.6772395754233 ], [ 530100.011174176470377, 7261578.683442020788789 ], [ 530100.000892210751772, 7261586.078100949525833 ], [ 530100.0, 7261591.078100949525833 ] ] } },
{ "type": "Feature", "properties": { "id": 6, "reference_id": 8, "dune_id": 8, "dune_name": "Inverted Y Dune", "acquisition_date": "2021-06-13", "length_m": 122.00030110483559 }, "geometry": { "type": "LineString", "coordinates": [ [ 530514.243011592421681, 7261195.210682143457234 ], [ 530507.91319030651357, 7261200.0 ], [ 530499.453693735296838, 7261204.789317857474089 ], [ 530489.900785414385609, 7261208.012404892593622 ], [ 530479.987933612894267, 7261209.465760122984648 ], [ 530469.999107789364643, 7261209.901677625253797 ], [ 530460.0, 7261209.987933613359928 ], [ 530450.0, 7261209.999107790179551 ], [ 530440.000892210751772, 7261210.000000000931323 ], [ 530430.012066387222148, 7261210.000000000931323 ], [ 530420.099214585614391, 7261210.000000000931323 ], [ 530410.546306264819577, 7261210.000000000931323 ], [ 530402.08680969348643, 7261210.000000000931323 ], [ 530395.756988407694735, 7261210.000000000931323 ] ] } },
{ "type": "Feature", "properties": { "id": 7, "reference_id": 9, "dune_id": 9, "dune_name": "Inverted Y Dune", "acquisition_date": "2021-06-13", "length_m": 764.84404391814917 }, "geometry": { "type": "LineString", "coordinates": [ [ 530097.91319030651357, 7261598.834750852547586 ], [ 530094.243011592421681, 7261603.473915160633624 ], [ 530087.913190306629986, 7261609.764880374073982 ], [ 530079.453693735180423, 7261616.565433513373137 ], [ 530069.900785414502025, 7261623.277835311368108 ], [ 530059.987933612894267, 7261629.995305122807622 ], [ 530049.999107789364643, 7261636.689318661578 ], [ 530040.0, 7261643.299061058089137 ], [ 530030.0, 7261649.924025977961719 ], [ 530020.0, 7261656.329821285791695 ], [ 530010.0, 7261662.205649307928979 ], [ 530000.0, 7261667.794350693002343 ], [ 529990.0, 7261673.670178714208305 ], [ 529980.0, 7261680.075974022038281 ], [ 529970.0, 7261686.700938943773508 ], [ 529960.0, 7261693.311127444729209 ], [ 529950.0, 7261700.011174177750945 ], [ 529940.0, 7261706.777805175632238 ], [ 529930.0, 7261713.757326913066208 ], [ 529920.0, 7261721.551677605137229 ], [ 529910.0, 7261730.447983890771866 ], [ 529900.0, 7261740.087148198857903 ], [ 529890.0, 7261750.011174176819623 ], [ 529880.0, 7261760.000892210751772 ], [ 529870.0, 7261770.0 ], [ 529860.000892210751772, 7261780.0 ], [ 529850.011174176470377, 7261790.0 ], [ 529840.088040409144014, 7261800.0 ], [ 529830.458265855675563, 7261810.0 ], [ 529821.628543837927282, 7261820.0 ], [ 529814.128444569883868, 7261830.0 ], [ 529807.958365123718977, 7261840.000000000931323 ], [ 529802.588833351852372, 7261850.0 ], [ 529797.521555410232395, 7261860.0 ], [ 529792.577659175381996, 7261870.0 ], [ 529787.871216925210319, 7261880.0 ], [ 529783.680460680043325, 7261890.0 ], [ 529780.076866232673638, 7261900.0 ], [ 529776.700938943075016, 7261910.0 ], [ 529773.310235233511776, 7261920.0 ], [ 529770.0, 7261930.0 ], [ 529766.689764766488224, 7261940.0 ], [ 529763.299061056924984, 7261950.0 ], [ 529759.923133767326362, 7261960.0 ], [ 529756.319539319956675, 7261970.0 ], [ 529752.128783074789681, 7261980.0 ], [ 529747.423233035369776, 7261990.0 ], [ 529742.490510976989754, 7262000.0 ], [ 529737.510381233762018, 7262010.0 ], [ 529732.587048930465244, 7262020.0 ], [ 529727.946298736496828, 7262030.0 ], [ 529724.030122195021249, 7262040.0 ], [ 529721.094303960213438, 7262050.0 ], [ 529718.469778537051752, 7262060.0 ], [ 529714.86618408979848, 7262070.0 ], [ 529709.923133767442778, 7262080.0 ], [ 529704.753308498067781, 7262090.0 ], [ 529700.359051270061173, 7262100.0 ], [ 529696.405795307829976, 7262110.0 ], [ 529692.139957251260057, 7262120.0 ], [ 529687.424125246005133, 7262130.0 ], [ 529682.490510976873338, 7262140.0 ], [ 529677.510381233762018, 7262149.999107789248228 ], [ 529672.5879411411006, 7262159.987933613359928 ], [ 529667.958365123718977, 7262169.900785414502025 ], [ 529664.128444569883868, 7262179.453693735413253 ], [ 529661.628543837927282, 7262187.913190307095647 ], [ 529660.458265855675563, 7262194.243011591956019 ] ] } },
{ "type": "Feature", "properties": { "id": 8, "reference_id": 1, "dune_id": 1, "dune_name": "Big Mommy Dune", "acquisition_date": "2021-06-13", "length_m": 1382.210836267599 }, "geometry": { "type": "LineString", "coordinates": [ [ 529176.835089357104152, 7260998.921899050474167 ], [ 529178.164910642895848, 7261003.921899050474167 ], [ 529179.229748285724781, 7261011.316557979211211 ], [ 529179.776454160455614, 7261020.322760425508022 ], [ 529179.956425900803879, 7261030.055640487000346 ], [ 529179.994412911823019, 7261040.006479299627244 ], [ 529179.999553894740529, 7261050.000446105375886 ], [ 529180.0, 7261060.0 ], [ 529179.999107789364643, 7261070.0 ], [ 529179.988825823529623, 7261080.0 ], [ 529179.912851801607758, 7261090.0 ], [ 529179.552016110159457, 7261100.0 ], [ 529178.448322394862771, 7261110.0 ], [ 529176.242673087399453, 7261120.000000000931323 ], [ 529173.222194824367762, 7261130.0 ], [ 529169.988825823529623, 7261140.0 ], [ 529166.689764766488224, 7261150.0 ], [ 529163.309343022760004, 7261160.0 ], [ 529160.0, 7261170.0 ], [ 529156.690656977239996, 7261180.0 ], [ 529153.309343022760004, 7261190.0 ], [ 529150.0, 7261200.0 ], [ 529146.689764766488224, 7261210.000000000931323 ], [ 529143.299061056924984, 7261220.0 ], [ 529139.923133767326362, 7261230.0 ], [ 529136.319539319956675, 7261240.0 ], [ 529132.129675285425037, 7261250.0 ], [ 529127.433515001204796, 7261260.0 ], [ 529122.566484998911619, 7261270.0 ], [ 529117.869432503939606, 7261280.0 ], [ 529113.670178714208305, 7261290.0 ], [ 529110.0, 7261300.0 ], [ 529106.329821285791695, 7261310.000000000931323 ], [ 529102.130567496176809, 7261320.0 ], [ 529097.433515001204796, 7261330.0 ], [ 529092.566484998911619, 7261340.0 ], [ 529087.870324714574963, 7261350.0 ], [ 529083.680460680043325, 7261360.0 ], [ 529080.076866232557222, 7261370.0 ], [ 529076.700046732323244, 7261380.0 ], [ 529073.299953267676756, 7261390.0 ], [ 529069.924025978078134, 7261400.0 ], [ 529066.329821285791695, 7261410.0 ], [ 529062.205649307463318, 7261420.0 ], [ 529057.794350692536682, 7261430.0 ], [ 529053.670178714208305, 7261440.0 ], [ 529050.075974021921866, 7261450.0 ], [ 529046.700938942958601, 7261460.0 ], [ 529043.311127444147132, 7261470.000000000931323 ], [ 529040.01028196583502, 7261480.0 ], [ 529036.766630999278277, 7261490.0 ], [ 529033.670178714208305, 7261500.0 ], [ 529031.104585926048458, 7261510.0 ], [ 529028.907480461173691, 7261520.0 ], [ 529026.416969484183937, 7261530.0 ], [ 529023.681352890678681, 7261540.0 ], [ 529021.541395639418624, 7261550.0 ], [ 529020.447091679205187, 7261560.000000000931323 ], [ 529020.087148198508658, 7261570.0 ], [ 529020.011174176470377, 7261580.0 ], [ 529020.000892210751772, 7261590.0 ], [ 529020.0, 7261600.0 ], [ 529020.0, 7261610.0 ], [ 529020.0, 7261620.0 ], [ 529020.000892210751772, 7261630.0 ], [ 529020.011174176470377, 7261640.0 ], [ 529020.087148198508658, 7261650.0 ], [ 529020.447983889840543, 7261660.0 ], [ 529021.551677605137229, 7261670.0 ], [ 529023.758219123352319, 7261680.0 ], [ 529026.78897935221903, 7261690.0 ], [ 529030.099214585614391, 7261700.0 ], [ 529033.768501089187339, 7261710.0 ], [ 529038.317416393663734, 7261720.0 ], [ 529044.106988427578472, 7261730.000000000931323 ], [ 529051.103693715296686, 7261740.0 ], [ 529058.460388781968504, 7261750.0 ], [ 529064.789317857124843, 7261760.0 ], [ 529069.552908320794813, 7261770.0 ], [ 529073.583030515816063, 7261780.0 ], [ 529077.858258327352814, 7261790.0 ], [ 529082.564700577524491, 7261800.0 ], [ 529087.42234082473442, 7261810.0 ], [ 529092.042527087032795, 7261820.0 ], [ 529095.871555430232547, 7261830.0 ], [ 529098.370563951553777, 7261840.000000000931323 ], [ 529099.529667757218704, 7261850.0 ], [ 529099.813637216109782, 7261860.0 ], [ 529099.453693735413253, 7261870.0 ], [ 529097.999446294270456, 7261880.0 ], [ 529094.690995482262224, 7261890.0 ], [ 529089.464867911767215, 7261900.0 ], [ 529083.211020647897385, 7261910.0 ], [ 529076.678590590134263, 7261920.0 ], [ 529069.999107789364643, 7261930.0 ], [ 529063.309343022760004, 7261940.0 ], [ 529056.690656977239996, 7261950.0 ], [ 529050.000892210635357, 7261960.0 ], [ 529043.32051719923038, 7261970.0 ], [ 529036.777805175632238, 7261980.0 ], [ 529030.447983889840543, 7261990.0 ], [ 529024.861020627897233, 7262000.0 ], [ 529020.447983889840543, 7262010.0 ], [ 529016.777805175632238, 7262020.0 ], [ 529013.320517199346796, 7262030.0 ], [ 529010.000892210751772, 7262040.0 ], [ 529006.68976476660464, 7262050.0 ], [ 529003.299061057041399, 7262060.0 ], [ 528999.923133767442778, 7262070.0 ], [ 528996.318647109437734, 7262080.0 ], [ 528992.117608898319304, 7262090.0 ], [ 528987.335192626225762, 7262100.0 ], [ 528982.031352910678834, 7262110.0 ], [ 528975.870663219597191, 7262120.0 ], [ 528968.371456162189133, 7262130.0 ], [ 528959.541734144324437, 7262140.0 ], [ 528949.911959590855986, 7262150.0 ], [ 528939.988825823529623, 7262159.999107789248228 ], [ 528929.999107789364643, 7262169.9888258241117 ], [ 528920.0, 7262179.911959591321647 ], [ 528910.0, 7262189.541734144091606 ], [ 528900.0, 7262198.371456162072718 ], [ 528890.0, 7262205.871555430814624 ], [ 528880.000892210751772, 7262212.041634877212346 ], [ 528870.012066387105733, 7262217.411166648380458 ], [ 528860.099214585614391, 7262222.477552378550172 ], [ 528850.546306264819577, 7262227.411166648380458 ], [ 528842.086809693370014, 7262232.041634876281023 ], [ 528835.756988407694735, 7262235.871555430814624 ] ] } },
{ "type": "Feature", "properties": { "id": 9, "reference_id": 5, "dune_id": 5, "dune_name": "The Star Dune", "acquisition_date": "2021-06-13", "length_m": 1141.7388333087029 }, "geometry": { "type": "LineString", "coordinates": [ [ 534334.702169658616185, 7261305.756988408043981 ], [ 534329.553800531546585, 7261312.086809693835676 ], [ 534323.681352890678681, 7261320.546306264586747 ], [ 534318.404564592172392, 7261330.099214585497975 ], [ 534314.65151027101092, 7261340.012066386640072 ], [ 534313.179329232312739, 7261350.000892210751772 ], [ 534314.129336780519225, 7261360.0 ], [ 534316.417861694935709, 7261370.0 ], [ 534318.470670747687109, 7261380.0 ], [ 534319.554692742181942, 7261390.0 ], [ 534319.924025978078134, 7261400.0 ], [ 534320.075974021921866, 7261410.0 ], [ 534320.446199468453415, 7261420.0 ], [ 534321.540503428666852, 7261430.0 ], [ 534323.670178714208305, 7261440.0 ], [ 534326.329821285791695, 7261450.0 ], [ 534328.459496571333148, 7261460.0 ], [ 534329.552016110159457, 7261470.000000000931323 ], [ 534329.901677625137381, 7261480.0 ], [ 534329.901677625137381, 7261490.0 ], [ 534329.552016110159457, 7261500.0 ], [ 534328.458604360581376, 7261510.0 ], [ 534326.317754898685962, 7261520.0 ], [ 534323.570964128593914, 7261530.0 ], [ 534320.99419716396369, 7261540.0 ], [ 534318.360281985718757, 7261550.0 ], [ 534314.330159790813923, 7261559.999107790179551 ], [ 534307.924364482983947, 7261569.9888258241117 ], [ 534299.454585945932195, 7261579.912851802073419 ], [ 534289.900785414502025, 7261589.552016110159457 ], [ 534279.987933612894267, 7261598.448322394862771 ], [ 534269.999107789248228, 7261606.242673087865114 ], [ 534260.0, 7261613.222194824367762 ], [ 534250.0, 7261619.9888258241117 ], [ 534240.0, 7261626.689764766022563 ], [ 534230.0, 7261633.309343023225665 ], [ 534220.0, 7261639.999107789248228 ], [ 534210.0, 7261646.678590590134263 ], [ 534200.0, 7261653.211020648479462 ], [ 534190.0, 7261659.464867912232876 ], [ 534180.0, 7261664.690995482727885 ], [ 534170.0, 7261668.001230715774 ], [ 534160.0, 7261669.476042088121176 ], [ 534150.0, 7261669.9888258241117 ], [ 534140.0, 7261670.435025292448699 ], [ 534130.0, 7261671.539611218497157 ], [ 534120.0, 7261673.670178714208305 ], [ 534110.0, 7261676.329821285791695 ], [ 534100.0, 7261678.460388781502843 ], [ 534090.0, 7261679.564082497730851 ], [ 534080.0, 7261680.0 ], [ 534070.0, 7261680.435917503200471 ], [ 534060.0, 7261681.539611218497157 ], [ 534050.0, 7261683.671070925891399 ], [ 534040.0, 7261686.340995462611318 ], [ 534030.0, 7261688.546644769608974 ], [ 534020.0, 7261690.0 ], [ 534010.0, 7261691.454247441142797 ], [ 534000.0, 7261693.670178714208305 ], [ 533990.0, 7261696.416077273897827 ], [ 533980.0, 7261698.906588250771165 ], [ 533970.0, 7261701.094303959980607 ], [ 533960.0, 7261703.594204692170024 ], [ 533950.0, 7261706.406687518581748 ], [ 533940.0, 7261708.916870215907693 ], [ 533930.0, 7261711.181452158838511 ], [ 533920.0, 7261714.041296371258795 ], [ 533910.0, 7261717.946298737078905 ], [ 533900.0, 7261722.576766964048147 ], [ 533890.0, 7261727.434407211840153 ], [ 533880.0, 7261732.13056749664247 ], [ 533870.0, 7261736.33071349747479 ], [ 533860.0, 7261740.010281966067851 ], [ 533850.0, 7261743.747044946998358 ], [ 533840.0, 7261748.241442372091115 ], [ 533830.0, 7261753.758219122886658 ], [ 533820.000892210635357, 7261760.098322375677526 ], [ 533810.011174176470377, 7261766.788979351520538 ], [ 533800.087148198392242, 7261773.75821912381798 ], [ 533790.447983889840543, 7261781.551677605137229 ], [ 533781.552569815889001, 7261790.447983890771866 ], [ 533773.76939329970628, 7261800.087148198857903 ], [ 533766.875235339859501, 7261810.011174177750945 ], [ 533760.535132088349201, 7261820.000892210751772 ], [ 533755.222748530097306, 7261830.0 ], [ 533751.551677605253644, 7261840.000000000931323 ], [ 533748.983454483095556, 7261850.0 ], [ 533746.340103251626715, 7261860.0 ], [ 533743.22397924575489, 7261870.0 ], [ 533739.912851801607758, 7261880.0 ], [ 533736.318647109437734, 7261890.0 ], [ 533732.128783074906096, 7261900.0 ], [ 533727.423233035253361, 7261910.0 ], [ 533722.489618766237982, 7261920.0 ], [ 533717.49831484653987, 7261930.0 ], [ 533712.489618766237982, 7261940.0 ], [ 533707.423233035369776, 7261950.0 ], [ 533702.129675285541452, 7261960.0 ], [ 533696.32982128590811, 7261970.0 ], [ 533690.0, 7261980.0 ], [ 533683.670624819584191, 7261989.999553894624114 ], [ 533677.875911802751943, 7261999.993520701304078 ], [ 533672.621233274578117, 7262009.944359513930976 ], [ 533667.745101249776781, 7262019.677239574491978 ], [ 533663.359085066244006, 7262028.683442020788789 ], [ 533659.793454480706714, 7262036.078100949525833 ], [ 533657.293355212779716, 7262041.078100949525833 ] ] } },
{ "type": "Feature", "properties": { "id": 10, "reference_id": 6, "dune_id": 6, "dune_name": "The Star Dune", "acquisition_date": "2021-06-13", "length_m": 854.85330425057009 }, "geometry": { "type": "LineString", "coordinates": [ [ 533653.164910642895848, 7262048.921899050474167 ], [ 533651.835981567739509, 7262053.921899050474167 ], [ 533650.78142589086201, 7262061.316557979211211 ], [ 533650.310694038053043, 7262070.322760425508022 ], [ 533650.490665778401308, 7262080.055640487000346 ], [ 533651.546090516960248, 7262090.006479298695922 ], [ 533653.670624819584191, 7262100.000446105375886 ], [ 533656.329821285791695, 7262110.0 ], [ 533658.459496571216732, 7262120.0 ], [ 533659.552908320911229, 7262130.0 ], [ 533659.912851801607758, 7262140.0 ], [ 533659.988825823529623, 7262150.0 ], [ 533659.999107789248228, 7262160.0 ], [ 533660.000892210751772, 7262170.0 ], [ 533660.011174176470377, 7262180.0 ], [ 533660.087148198392242, 7262190.0 ], [ 533660.447091679088771, 7262200.0 ], [ 533661.540503428783268, 7262210.0 ], [ 533663.670178714208305, 7262220.0 ], [ 533666.329821285791695, 7262230.0 ], [ 533668.459496571333148, 7262240.0 ], [ 533669.553800531546585, 7262250.0 ], [ 533669.924025978078134, 7262260.0 ], [ 533670.075974022038281, 7262270.0 ], [ 533670.44619946856983, 7262280.0 ], [ 533671.540503428783268, 7262290.0 ], [ 533673.669286503456533, 7262300.0 ], [ 533676.318647109437734, 7262310.0 ], [ 533678.37234837282449, 7262320.0 ], [ 533679.105816641706042, 7262330.0 ], [ 533678.37234837282449, 7262340.000000000931323 ], [ 533676.317754898685962, 7262350.0 ], [ 533673.658112327102572, 7262360.0 ], [ 533671.453355230391026, 7262370.0 ], [ 533670.0, 7262380.0 ], [ 533668.545752559090033, 7262390.0 ], [ 533666.329821285791695, 7262400.0 ], [ 533663.583922726451419, 7262410.0 ], [ 533661.092519538942724, 7262420.0 ], [ 533658.895414073951542, 7262430.0 ], [ 533656.329821285791695, 7262440.0 ], [ 533653.233369000838138, 7262450.0 ], [ 533649.989718034281395, 7262460.0 ], [ 533646.689764766488224, 7262470.0 ], [ 533643.310235233511776, 7262480.0 ], [ 533640.01028196583502, 7262490.0 ], [ 533636.766630999278277, 7262500.0 ], [ 533633.670178714208305, 7262510.0 ], [ 533631.104585926048458, 7262520.0 ], [ 533628.906588250421919, 7262530.0 ], [ 533626.405795307713561, 7262540.0 ], [ 533623.594204692170024, 7262550.0 ], [ 533621.094303960213438, 7262560.0 ], [ 533618.905696039786562, 7262570.0 ], [ 533616.405795307829976, 7262580.0 ], [ 533613.594204692170024, 7262590.0 ], [ 533611.094303960213438, 7262600.000000000931323 ], [ 533608.906588250421919, 7262610.0 ], [ 533606.416969484183937, 7262620.0 ], [ 533603.681352890678681, 7262630.0 ], [ 533601.541395639418624, 7262640.0 ], [ 533600.44619946856983, 7262650.0 ], [ 533600.075974022038281, 7262660.0 ], [ 533599.924025978078134, 7262670.0 ], [ 533599.553800531546585, 7262680.0 ], [ 533598.459496571216732, 7262690.0 ], [ 533596.329821285791695, 7262700.0 ], [ 533593.669286503456533, 7262710.0 ], [ 533591.529329252196476, 7262720.0 ], [ 533590.359943480696529, 7262730.0 ], [ 533589.640056519303471, 7262740.0 ], [ 533588.469778537051752, 7262750.0 ], [ 533586.31953932007309, 7262760.0 ], [ 533583.583030515816063, 7262770.0 ], [ 533581.092519538942724, 7262780.0 ], [ 533578.895414074067958, 7262790.0 ], [ 533576.32982128590811, 7262800.0 ], [ 533573.233369000838138, 7262810.0 ], [ 533569.98971803416498, 7262820.0 ], [ 533566.68976476660464, 7262830.0 ], [ 533563.310235233511776, 7262839.999107789248228 ], [ 533560.011174176470377, 7262849.987933613359928 ], [ 533556.777805175632238, 7262859.900785414502025 ], [ 533553.757326912600547, 7262869.453693735413253 ], [ 533551.551677605253644, 7262877.913190307095647 ], [ 533550.447983889840543, 7262884.243011591956019 ] ] } },
{ "type": "Feature", "properties": { "id": 11, "reference_id": 7, "dune_id": 7, "dune_name": "Inverted Y Dune", "acquisition_date": "2021-06-13", "length_m": 552.64338122550009 }, "geometry": { "type": "LineString", "coordinates": [ [ 530634.243011592421681, 7261345.756988408043981 ], [ 530627.914082517265342, 7261352.086809692904353 ], [ 530619.464867911767215, 7261360.546306265518069 ], [ 530609.987933612894267, 7261370.099214585497975 ], [ 530600.43591750273481, 7261380.012066387571394 ], [ 530591.550785394501872, 7261390.000892210751772 ], [ 530583.757326912600547, 7261400.0 ], [ 530576.777805175632238, 7261410.0 ], [ 530570.011174176470377, 7261420.0 ], [ 530563.310235233511776, 7261430.0 ], [ 530556.690656977239996, 7261440.0 ], [ 530550.0, 7261450.0 ], [ 530543.309343022760004, 7261460.0 ], [ 530536.689764766488224, 7261470.000000000931323 ], [ 530529.988825823529623, 7261480.0 ], [ 530523.222194824367762, 7261490.0 ], [ 530516.242673087399453, 7261500.0 ], [ 530508.448322394862771, 7261510.0 ], [ 530499.552016110159457, 7261520.0 ], [ 530489.912851801607758, 7261529.999107789248228 ], [ 530479.988825823529623, 7261539.9888258241117 ], [ 530469.999107789364643, 7261549.912851801142097 ], [ 530460.0, 7261559.552016111090779 ], [ 530450.0, 7261568.448322394862771 ], [ 530440.0, 7261576.241780877113342 ], [ 530430.000000000116415, 7261583.211020648479462 ], [ 530420.0, 7261589.901677625253797 ], [ 530410.0, 7261596.241780877113342 ], [ 530400.0, 7261601.758557628840208 ], [ 530390.0, 7261606.252955053001642 ], [ 530380.0, 7261609.9888258241117 ], [ 530370.0, 7261613.659004538320005 ], [ 530360.0, 7261617.793458482250571 ], [ 530350.0, 7261622.205649307928979 ], [ 530340.0, 7261626.328929075039923 ], [ 530330.0, 7261629.913744011893868 ], [ 530320.0, 7261633.223087035119534 ], [ 530310.0, 7261636.328929075971246 ], [ 530300.0, 7261638.895414074882865 ], [ 530290.0, 7261641.092519538477063 ], [ 530280.0, 7261643.583030516281724 ], [ 530270.0, 7261646.318647109903395 ], [ 530260.0, 7261648.458604361861944 ], [ 530250.000892210635357, 7261649.552908321842551 ], [ 530240.012066387222148, 7261649.912851802073419 ], [ 530230.099214585614391, 7261649.9888258241117 ], [ 530220.546306264819577, 7261649.999107790179551 ], [ 530212.08680969348643, 7261650.0 ], [ 530205.756988407694735, 7261650.0 ] ] } },
{ "type": "Feature", "properties": { "id": 12, "reference_id": 2, "dune_id": 2, "dune_name": "Big Mommy Dune", "acquisition_date": "2021-06-13", "length_m": 654.63412307117437 }, "geometry": { "type": "LineString", "coordinates": [ [ 529094.243011592305265, 7260958.448322394862771 ], [ 529087.913190306629986, 7260956.241780877113342 ], [ 529079.453693735180423, 7260953.211912859231234 ], [ 529069.900785414502025, 7260949.912851802073419 ], [ 529059.987933612894267, 7260946.328929075039923 ], [ 529049.999107789248228, 7260942.205649306997657 ], [ 529040.0, 7260937.794350693002343 ], [ 529030.0, 7260933.671070924960077 ], [ 529020.0, 7260930.086255988106132 ], [ 529010.0, 7260926.776912964880466 ], [ 529000.0, 7260923.671070925891399 ], [ 528990.0, 7260921.104585926048458 ], [ 528980.0, 7260918.906588250771165 ], [ 528970.0, 7260916.405795307829976 ], [ 528960.0, 7260913.594204692170024 ], [ 528950.0, 7260911.093411749228835 ], [ 528940.0, 7260908.895414074882865 ], [ 528930.0, 7260906.329821286723018 ], [ 528920.0, 7260903.234261211939156 ], [ 528910.0, 7260900.0 ], [ 528900.0, 7260896.765738788992167 ], [ 528890.0, 7260893.670178714208305 ], [ 528880.0, 7260891.103693716228008 ], [ 528870.0, 7260888.896306284703314 ], [ 528860.0, 7260886.329821286723018 ], [ 528850.0, 7260883.233369002118707 ], [ 528840.0, 7260879.989718034863472 ], [ 528830.0, 7260876.688872556202114 ], [ 528820.0, 7260873.299061057157815 ], [ 528810.0, 7260869.924025978893042 ], [ 528800.0, 7260866.329821286723018 ], [ 528790.0, 7260862.205649307928979 ], [ 528780.0, 7260857.794350693002343 ], [ 528770.0, 7260853.670178714208305 ], [ 528760.0, 7260850.075974022038281 ], [ 528750.0, 7260846.700046733021736 ], [ 528740.0, 7260843.299953267909586 ], [ 528730.0, 7260839.92313376814127 ], [ 528720.0, 7260836.319539319723845 ], [ 528710.0, 7260832.128783075138927 ], [ 528700.0, 7260827.423233035951853 ], [ 528690.0, 7260822.489618766121566 ], [ 528680.0, 7260817.499207057058811 ], [ 528670.0, 7260812.499900732189417 ], [ 528660.0, 7260807.500099267810583 ], [ 528650.0, 7260802.499900732189417 ], [ 528640.0, 7260797.499207057990134 ], [ 528630.0, 7260792.489618767052889 ], [ 528620.0, 7260787.423233035951853 ], [ 528610.0, 7260782.128783075138927 ], [ 528600.0, 7260776.319539319723845 ], [ 528590.0, 7260769.923133767209947 ], [ 528580.0, 7260763.299061057157815 ], [ 528570.0, 7260756.689764766953886 ], [ 528560.0, 7260750.0 ], [ 528550.0, 7260743.309343023225665 ], [ 528540.000892210751772, 7260736.690656977705657 ], [ 528530.012066387105733, 7260730.000892210751772 ], [ 528520.099214585614391, 7260723.321409409865737 ], [ 528510.546306264819577, 7260716.788979351520538 ], [ 528502.08680969348643, 7260710.535132088698447 ], [ 528495.756988407694735, 7260705.309004518203437 ] ] } }
]
}
