{
"type": "FeatureCollection",
"name": "crests_2019_07_2019-07-14",
"crs": { "type": "name", "properties": { "name": "urn:ogc:def:crs:EPSG::32733" } },
"features": [
{ "type": "Feature", "properties": { "id": 0, "reference_id": 4, "dune_id": 4, "dune_name": "The Star Dune", "acquisition_date": "2019-07-14", "length_m": 607.60868613725518 }, "geometry": { "type": "LineString", "coordinates": [ [ 533584.243011592305265, 7262049.541734144091606 ], [ 533577.91319030651357, 7262048.371456163004041 ], [ 533569.453693735180423, 7262045.871555430814624 ], [ 533559.900785414385609, 7262042.041634876281023 ], [ 533549.987933612894267, 7262037.41205885913223 ], [ 533539.999107789364643, 7262032.489618767052889 ], [ 533530.0, 7262027.509489023126662 ], [ 533520.0, 7262022.57676696497947 ], [ 533510.0, 7262017.870324715040624 ], [ 533500.0, 7262013.670178714208305 ], [ 533490.0, 7262010.000892210751772 ], [ 533480.0, 7262006.340103251859546 ], [ 533470.0, 7262002.206541518680751 ], [ 533460.0, 7261997.794350693002343 ], [ 533450.0, 7261993.670178715139627 ], [ 533440.0, 7261990.075974022038281 ], [ 533430.0, 7261986.700938943773508 ], [ 533420.0, 7261983.310235233977437 ], [ 533410.0, 7261980.0 ], [ 533400.000000000116415, 7261976.690656977705657 ], [ 533390.0, 7261973.310235233977437 ], [ 533380.000000000116415, 7261970.010281966067851 ], [ 533370.0, 7261966.766630999743938 ], [ 533360.0, 7261963.670178714208305 ], [ 533350.0, 7261961.103693716228008 ], [ 533340.0, 7261958.896306285634637 ], [ 533330.0, 7261956.329821286723018 ], [ 533320.0, 7261953.233369001187384 ], [ 533310.0, 7261949.989718034863472 ], [ 533300.0, 7261946.689764766022563 ], [ 533290.0, 7261943.310235233977437 ], [ 533280.0, 7261940.010281966067851 ], [ 533270.0, 7261936.766630999743938 ], [ 533260.0, 7261933.670178715139627 ], [ 533250.0, 7261931.103693715296686 ], [ 533240.0, 7261928.896306285634637 ], [ 533230.0, 7261926.329821286723018 ], [ 533220.0, 7261923.233369001187384 ], [ 533210.0, 7261919.989718034863472 ], [ 533200.0, 7261916.689764766022563 ], [ 533190.0, 7261913.310235233977437 ], [ 533180.0, 7261910.010281966999173 ], [ 533170.0, 7261906.766630999743938 ], [ 533160.0, 7261903.670178715139627 ], [ 533150.0, 7261901.104585926048458 ], [ 533140.0, 7261898.906588250771165 ], [ 533130.0, 7261896.405795307829976 ], [ 533120.0, 7261893.594204692170024 ], [ 533110.0, 7261891.094303959980607 ], [ 533100.0, 7261888.906588250771165 ], [ 533090.0, 7261886.416077273897827 ], [ 533080.0, 7261883.670178714208305 ], [ 533070.0, 7261881.454247441142797 ], [ 533060.0, 7261880.0 ], [ 533050.000892210751772, 7261878.546644769608974 ], [ 533040.012066387105733, 7261876.340995462611318 ], [ 533030.099214585614391, 7261873.671070925891399 ], [ 533020.546306264819577, 7261871.540503429248929 ], [ 533012.08680969348643, 7261870.447091680020094 ], [ 533005.756988407694735, 7261870.087148198857903 ] ] } },
{ "type": "Feature", "properties": { "id": 1, "reference_id": 1, "dune_id": 1, "dune_name": "Big Mommy Dune", "acquisition_date": "2019-07-14", "length_m": 796.23371777308625 }, "geometry": { "type": "LineString", "coordinates": [ [ 529020.0, 7261555.756988408043981 ], [ 529020.0, 7261562.086809693835676 ], [ 529020.0, 7261570.546306264586747 ], [ 529020.0, 7261580.099214585497975 ], [ 529020.0, 7261590.012066387571394 ], [ 529020.0, 7261600.000892210751772 ], [ 529020.0, 7261610.0 ], [ 529020.0, 7261620.0 ], [ 529020.000892210751772, 7261630.0 ], [ 529020.011174176470377, 7261640.0 ], [ 529020.087148198508658, 7261650.0 ], [ 529020.447091679205187, 7261660.0 ], [ 529021.541395639418624, 7261670.0 ], [ 529023.681352890678681, 7261680.0 ], [ 529026.417861694935709, 7261690.0 ], [ 529028.918654637644067, 7261700.0 ], [ 529031.1917341244407, 7261710.0 ], [ 529034.118162604048848, 7261720.0 ], [ 529038.318308604415506, 7261730.000000000931323 ], [ 529043.767608878435567, 7261740.0 ], [ 529050.088040409144014, 7261750.0 ], [ 529056.700938943075016, 7261760.0 ], [ 529063.299953267676756, 7261770.0 ], [ 529069.923133767326362, 7261780.0 ], [ 529076.318647109321319, 7261790.0 ], [ 529082.117608898319304, 7261800.0 ], [ 529087.335192626225762, 7261810.0 ], [ 529092.031352910562418, 7261820.0 ], [ 529095.869771008845419, 7261830.0 ], [ 529098.360281985718757, 7261840.000000000931323 ], [ 529099.453693735413253, 7261850.0 ], [ 529099.453693735413253, 7261860.0 ], [ 529098.360281985718757, 7261870.0 ], [ 529095.869771008845419, 7261880.0 ], [ 529092.030460699927062, 7261890.0 ], [ 529087.324910660507157, 7261900.0 ], [ 529082.041634876281023, 7261910.0 ], [ 529075.958703628624789, 7261920.0 ], [ 529068.829722017864697, 7261930.0 ], [ 529061.169385771499947, 7261940.0 ], [ 529054.030122194904834, 7261950.0 ], [ 529047.870324714458548, 7261960.0 ], [ 529042.216823483933695, 7261970.0 ], [ 529036.341887672897428, 7261980.0 ], [ 529030.011174176586792, 7261990.0 ], [ 529023.747044946881942, 7262000.0 ], [ 529018.241442371741869, 7262010.0 ], [ 529013.757326912600547, 7262020.0 ], [ 529010.087148198508658, 7262030.0 ], [ 529006.701831153710373, 7262040.0 ], [ 529003.310235233511776, 7262050.0 ], [ 528999.999107789364643, 7262060.0 ], [ 528996.67948280076962, 7262070.0 ], [ 528993.222194824367762, 7262080.0 ], [ 528989.552016110159457, 7262090.0 ], [ 528985.138087161350995, 7262100.0 ], [ 528979.540841933805496, 7262110.0 ], [ 528973.135046625975519, 7262120.0 ], [ 528966.231498910929076, 7262130.0 ], [ 528958.447430184110999, 7262140.0 ], [ 528949.552016110159457, 7262150.0 ], [ 528939.912851801607758, 7262159.999107789248228 ], [ 528929.988825823529623, 7262169.9888258241117 ], [ 528919.999107789364643, 7262179.911959591321647 ], [ 528910.0, 7262189.541734144091606 ], [ 528900.0, 7262198.371456162072718 ], [ 528890.0, 7262205.871555430814624 ], [ 528880.000892210751772, 7262212.041634877212346 ], [ 528870.012066387105733, 7262217.411166648380458 ], [ 528860.099214585614391, 7262222.477552378550172 ], [ 528850.546306264819577, 7262227.411166648380458 ], [ 528842.086809693370014, 7262232.041634876281023 ], [ 528835.756988407694735, 7262235.871555430814624 ] ] } },
{ "type": "Feature", "properties": { "id": 2, "reference_id": 1, "dune_id": 1, "dune_name": "Big Mommy Dune", "acquisition_date": "2019-07-14", "length_m": 517.70318648745047 }, "geometry": { "type": "LineString", "coordinates": [ [ 529181.539611218031496, 7261035.756988408043981 ], [ 529183.659004537737928, 7261042.086809693835676 ], [ 529186.242673087399453, 7261050.546306265518069 ], [ 529188.012404892127961, 7261060.099214585497975 ], [ 529188.011512681492604, 7261070.012066387571394 ], [ 529186.231498910929076, 7261080.000892210751772 ], [ 529183.571856339345686, 7261090.0 ], [ 529181.091627328190953, 7261100.0 ], [ 529178.895414074067958, 7261110.0 ], [ 529176.329821285791695, 7261120.000000000931323 ], [ 529173.234261211473495, 7261130.0 ], [ 529170.0, 7261140.0 ], [ 529166.765738788526505, 7261150.0 ], [ 529163.669286503456533, 7261160.0 ], [ 529161.093411749578081, 7261170.0 ], [ 529158.819440052146092, 7261180.0 ], [ 529155.958703628624789, 7261190.0 ], [ 529152.052809052867815, 7261200.0 ], [ 529147.412951069534756, 7261210.000000000931323 ], [ 529142.489618766354397, 7261220.0 ], [ 529137.509489023126662, 7261230.0 ], [ 529132.576766964746639, 7261240.0 ], [ 529127.871216925326735, 7261250.0 ], [ 529123.680460680043325, 7261260.0 ], [ 529120.076866232673638, 7261270.0 ], [ 529116.700046732323244, 7261280.0 ], [ 529113.299953267676756, 7261290.0 ], [ 529109.924025978078134, 7261300.0 ], [ 529106.329821285791695, 7261310.000000000931323 ], [ 529102.205649307463318, 7261320.0 ], [ 529097.793458481901325, 7261330.0 ], [ 529093.6598967484897, 7261340.0 ], [ 529089.999107789248228, 7261350.0 ], [ 529086.329821285791695, 7261360.0 ], [ 529082.130567496176809, 7261370.0 ], [ 529077.433515001088381, 7261380.0 ], [ 529072.566484998911619, 7261390.0 ], [ 529067.870324714574963, 7261400.0 ], [ 529063.68046067992691, 7261410.0 ], [ 529060.076866232673638, 7261420.0 ], [ 529056.700938943075016, 7261430.0 ], [ 529053.310235233511776, 7261440.0 ], [ 529050.0, 7261450.0 ], [ 529046.690656977239996, 7261460.0 ], [ 529043.31023523339536, 7261470.000000000931323 ], [ 529040.011174176470377, 7261479.999107789248228 ], [ 529036.777805175632238, 7261489.987933613359928 ], [ 529033.757326912600547, 7261499.900785414502025 ], [ 529031.551677605253644, 7261509.453693735413253 ], [ 529030.447983889840543, 7261517.913190307095647 ], [ 529030.087148198508658, 7261524.243011592887342 ] ] } },
{ "type": "Feature", "properties": { "id": 3, "reference_id": 7, "dune_id": 7, "dune_name": "Inverted Y Dune", "acquisition_date": "2019-07-14", "length_m": 584.7549587993077 }, "geometry": { "type": "LineString", "coordinates": [ [ 530614.243903803057037, 7261365.756988408043981 ], [ 530607.924364482983947, 7261372.086809692904353 ], [ 530599.54084193368908, 7261380.546306265518069 ], [ 530590.348769304226153, 7261390.099214585497975 ], [ 530581.539611218031496, 7261400.012066387571394 ], [ 530573.75643470196519, 7261410.000892210751772 ], [ 530566.777805175632238, 7261420.0 ], [ 530560.011174176470377, 7261430.0 ], [ 530553.311127444147132, 7261440.0 ], [ 530546.700938943075016, 7261450.0 ], [ 530540.075974021921866, 7261460.0 ], [ 530533.669286503456533, 7261470.000000000931323 ], [ 530527.783176516182721, 7261480.0 ], [ 530522.118501109071076, 7261490.0 ], [ 530515.881837395951152, 7261500.0 ], [ 530508.37234837282449, 7261510.0 ], [ 530499.541734144324437, 7261520.0 ], [ 530489.911959590855986, 7261529.999107789248228 ], [ 530479.988825823529623, 7261539.9888258241117 ], [ 530469.999107789364643, 7261549.912851801142097 ], [ 530460.0, 7261559.552016111090779 ], [ 530450.0, 7261568.447430184110999 ], [ 530440.0, 7261576.231498911976814 ], [ 530430.000000000116415, 7261583.135046625509858 ], [ 530420.0, 7261589.541734145022929 ], [ 530410.0, 7261595.148369127884507 ], [ 530400.0, 7261599.627990132197738 ], [ 530390.0, 7261603.583030516281724 ], [ 530380.0, 7261607.783176516182721 ], [ 530370.0, 7261612.204757097177207 ], [ 530360.0, 7261616.329821286723018 ], [ 530350.0, 7261619.924025978893042 ], [ 530340.0, 7261623.299061057157815 ], [ 530330.0, 7261626.688872555270791 ], [ 530320.0, 7261629.989718034863472 ], [ 530310.0, 7261633.233369001187384 ], [ 530300.0, 7261636.329821285791695 ], [ 530290.0, 7261638.895414074882865 ], [ 530280.0, 7261641.092519538477063 ], [ 530270.0, 7261643.583030516281724 ], [ 530260.0, 7261646.318647109903395 ], [ 530250.0, 7261648.458604361861944 ], [ 530240.0, 7261649.552908321842551 ], [ 530230.0, 7261649.912851802073419 ], [ 530220.0, 7261649.987933613359928 ], [ 530210.0, 7261649.987933613359928 ], [ 530200.0, 7261649.912851802073419 ], [ 530190.000892210751772, 7261649.552908321842551 ], [ 530180.012066387222148, 7261648.459496572613716 ], [ 530170.099214585614391, 7261646.329821286723018 ], [ 530160.546306264819577, 7261643.670178715139627 ], [ 530152.08680969348643, 7261641.540503429248929 ], [ 530145.75698840781115, 7261640.447091680020094 ] ] } },
{ "type": "Feature", "properties": { "id": 4, "reference_id": 2, "dune_id": 2, "dune_name": "Big Mommy Dune", "acquisition_date": "2019-07-14", "length_m": 801.11914843972579 }, "geometry": { "type": "LineString", "coordinates": [ [ 529151.078100949409418, 7260978.448322394862771 ], [ 529146.078100949409418, 7260976.241780877113342 ], [ 529138.683442020905204, 7260973.211912859231234 ], [ 529129.677239574841224, 7260969.912851801142097 ], [ 529119.944359513698146, 7260966.328929075971246 ], [ 529109.993520701071247, 7260962.205649307928979 ], [ 529099.999553894624114, 7260957.793458482250571 ], [ 529090.0, 7260953.659896749071777 ], [ 529080.0, 7260950.000000000931323 ], [ 529070.0, 7260946.340103251859546 ], [ 529060.0, 7260942.206541517749429 ], [ 529050.0, 7260937.794350693002343 ], [ 529040.0, 7260933.671070924960077 ], [ 529030.0, 7260930.086255988106132 ], [ 529020.0, 7260926.776912964880466 ], [ 529010.0, 7260923.671070925891399 ], [ 529000.0, 7260921.104585926048458 ], [ 528990.0, 7260918.906588250771165 ], [ 528980.0, 7260916.405795307829976 ], [ 528970.0, 7260913.594204692170024 ], [ 528960.0, 7260911.093411749228835 ], [ 528950.0, 7260908.895414074882865 ], [ 528940.0, 7260906.329821286723018 ], [ 528930.0, 7260903.234261211939156 ], [ 528920.0, 7260900.0 ], [ 528910.0, 7260896.765738788992167 ], [ 528900.0, 7260893.670178714208305 ], [ 528890.0, 7260891.10458592697978 ], [ 528880.0, 7260888.906588250771165 ], [ 528870.0, 7260886.405795307829976 ], [ 528860.0, 7260883.594204692170024 ], [ 528850.0, 7260881.093411750160158 ], [ 528840.0, 7260878.895414074882865 ], [ 528830.0, 7260876.328929075971246 ], [ 528820.0, 7260873.223087035119534 ], [ 528810.0, 7260869.913744012825191 ], [ 528800.0, 7260866.328929075971246 ], [ 528790.0, 7260862.205649307928979 ], [ 528780.0, 7260857.794350693002343 ], [ 528770.0, 7260853.670178714208305 ], [ 528760.0, 7260850.075974022038281 ], [ 528750.0, 7260846.700046733021736 ], [ 528740.0, 7260843.299953267909586 ], [ 528730.0, 7260839.92313376814127 ], [ 528720.0, 7260836.319539319723845 ], [ 528710.0, 7260832.128783075138927 ], [ 528700.0, 7260827.423233035951853 ], [ 528690.0, 7260822.489618766121566 ], [ 528680.0, 7260817.499207057058811 ], [ 528670.0, 7260812.499900732189417 ], [ 528660.0, 7260807.499207057058811 ], [ 528650.0, 7260802.489618767052889 ], [ 528640.0, 7260797.423233035951853 ], [ 528630.0, 7260792.129675285890698 ], [ 528620.0, 7260786.329821286723018 ], [ 528610.0, 7260779.999107790179551 ], [ 528600.0, 7260773.659896748140454 ], [ 528590.0, 7260767.793458482250571 ], [ 528580.0, 7260762.205649306997657 ], [ 528570.0, 7260756.329821286723018 ], [ 528560.0, 7260749.924025977961719 ], [ 528550.0, 7260743.299061057157815 ], [ 528540.0, 7260736.688872556202114 ], [ 528530.0, 7260729.989718034863472 ], [ 528520.0, 7260723.233369001187384 ], [ 528510.0, 7260716.329821286723018 ], [ 528500.0, 7260708.896306284703314 ], [ 528490.0, 7260701.103693716228008 ], [ 528480.0, 7260693.670178715139627 ], [ 528470.000892210751772, 7260686.766630999743938 ], [ 528460.012066387105733, 7260680.0111741758883 ], [ 528450.099214585614391, 7260673.322301620617509 ], [ 528440.546306264819577, 7260666.788979352451861 ], [ 528432.08680969348643, 7260660.535132088698447 ], [ 528425.756988407694735, 7260655.309004518203437 ] ] } },
{ "type": "Feature", "properties": { "id": 5, "reference_id": 5, "dune_id": 5, "dune_name": "The Star Dune", "acquisition_date": "2019-07-14", "length_m": 1143.5170233953495 }, "geometry": { "type": "LineString", "coordinates": [ [ 534334.429374376311898, 7261305.756988408043981 ], [ 534328.906588250538334, 7261312.086809693835676 ], [ 534323.08100685745012, 7261320.546306264586747 ], [ 534319.327952536288649, 7261330.099214585497975 ], [ 534318.404564592172392, 7261340.012066386640072 ], [ 534319.004910625400953, 7261350.000892210751772 ], [ 534319.652122906409204, 7261360.0 ], [ 534319.924918188713491, 7261370.0 ], [ 534319.990610244916752, 7261380.0 ], [ 534320.01028196583502, 7261390.0 ], [ 534320.087148198392242, 7261400.0 ], [ 534320.447091679205187, 7261410.0 ], [ 534321.540503428666852, 7261420.0 ], [ 534323.670178714208305, 7261430.0 ], [ 534326.329821285791695, 7261440.0 ], [ 534328.459496571333148, 7261450.0 ], [ 534329.552908320794813, 7261460.0 ], [ 534329.912851801607758, 7261470.000000000931323 ], [ 534329.988825823529623, 7261480.0 ], [ 534329.998215578729287, 7261490.0 ], [ 534329.988825823529623, 7261500.0 ], [ 534329.912851801607758, 7261510.0 ], [ 534329.552016110159457, 7261520.0 ], [ 534328.447430184110999, 7261530.0 ], [ 534326.23060670029372, 7261540.0 ], [ 534323.123872449505143, 7261549.999107789248228 ], [ 534319.453693735296838, 7261559.9888258241117 ], [ 534314.690103271510452, 7261569.912851802073419 ], [ 534308.000338505022228, 7261579.552908320911229 ], [ 534299.464867911767215, 7261588.458604360930622 ], [ 534289.901677625020966, 7261596.318647108972073 ], [ 534279.987933612894267, 7261603.582138305529952 ], [ 534269.999107789248228, 7261611.082237573340535 ], [ 534260.0, 7261618.819440051913261 ], [ 534250.0, 7261625.968985594809055 ], [ 534240.0, 7261632.128783075138927 ], [ 534230.0, 7261637.77289455011487 ], [ 534220.0, 7261643.582138305529952 ], [ 534210.0, 7261649.62799013312906 ], [ 534200.0, 7261655.148369127884507 ], [ 534190.0, 7261659.541734144091606 ], [ 534180.0, 7261663.135046625509858 ], [ 534170.0, 7261666.232391122728586 ], [ 534160.0, 7261668.458604360930622 ], [ 534150.0, 7261669.63916430901736 ], [ 534140.0, 7261670.35994348116219 ], [ 534130.0, 7261671.529329252429307 ], [ 534120.0, 7261673.669286503456533 ], [ 534110.0, 7261676.329821285791695 ], [ 534100.0, 7261678.460388781502843 ], [ 534090.0, 7261679.564082497730851 ], [ 534080.0, 7261680.0 ], [ 534070.0, 7261680.435917503200471 ], [ 534060.0, 7261681.539611218497157 ], [ 534050.0, 7261683.671070925891399 ], [ 534040.0, 7261686.340995462611318 ], [ 534030.0, 7261688.546644769608974 ], [ 534020.0, 7261690.0 ], [ 534010.0, 7261691.454247441142797 ], [ 534000.0, 7261693.670178714208305 ], [ 533990.0, 7261696.416077273897827 ], [ 533980.0, 7261698.907480461522937 ], [ 533970.0, 7261701.10458592697978 ], [ 533960.0, 7261703.670178714208305 ], [ 533950.0, 7261706.766630999743938 ], [ 533940.0, 7261710.010281965136528 ], [ 533930.0, 7261713.311127444729209 ], [ 533920.0, 7261716.700938943773508 ], [ 533910.0, 7261720.076866232790053 ], [ 533900.0, 7261723.680460680276155 ], [ 533890.0, 7261727.871216925792396 ], [ 533880.0, 7261732.576766965910792 ], [ 533870.0, 7261737.510381234809756 ], [ 533860.0, 7261742.501685153692961 ], [ 533850.0, 7261747.511273445561528 ], [ 533840.0, 7261752.58794114086777 ], [ 533830.0, 7261757.958365123718977 ], [ 533820.0, 7261764.128444569185376 ], [ 533810.000892210635357, 7261771.628543837927282 ], [ 533800.011174176470377, 7261780.458265855908394 ], [ 533790.088040409144014, 7261790.088040409609675 ], [ 533780.45915806631092, 7261800.011174176819623 ], [ 533771.638825803645886, 7261810.000892210751772 ], [ 533764.205310802557506, 7261820.0 ], [ 533758.329482780885883, 7261830.0 ], [ 533753.768501089187339, 7261840.000000000931323 ], [ 533750.088040409144014, 7261850.0 ], [ 533746.700938942958601, 7261860.0 ], [ 533743.299953267676756, 7261870.0 ], [ 533739.923133767442778, 7261880.0 ], [ 533736.31953932007309, 7261890.0 ], [ 533732.128783074906096, 7261900.0 ], [ 533727.423233035253361, 7261910.0 ], [ 533722.489618766237982, 7261920.0 ], [ 533717.49831484653987, 7261930.0 ], [ 533712.489618766237982, 7261940.0 ], [ 533707.423233035369776, 7261950.0 ], [ 533702.128783074789681, 7261960.0 ], [ 533696.31953932007309, 7261970.0 ], [ 533689.923133767326362, 7261980.0 ], [ 533683.299953267676756, 7261989.999553894624114 ], [ 533676.700938943075016, 7261999.993520701304078 ], [ 533670.088040409144014, 7262009.944359513930976 ], [ 533663.768501089187339, 7262019.677239574491978 ], [ 533658.329482780769467, 7262028.683442020788789 ], [ 533654.20531080244109, 7262036.078100949525833 ], [ 533651.638825803645886, 7262041.078100949525833 ] ] } },
{ "type": "Feature", "properties": { "id": 6, "reference_id": 6, "dune_id": 6, "dune_name": "The Star Dune", "acquisition_date": "2019-07-14", "length_m": 814.04557680318896 }, "geometry": { "type": "LineString", "coordinates": [ [ 533650.087148198508658, 7262048.921899050474167 ], [ 533650.447091679205187, 7262053.921899050474167 ], [ 533651.540503428783268, 7262061.316557979211211 ], [ 533653.670178714208305, 7262070.322760425508022 ], [ 533656.329821285791695, 7262080.055640487000346 ], [ 533658.459496571216732, 7262090.006479298695922 ], [ 533659.552908320911229, 7262100.000446105375886 ], [ 533659.912851801607758, 7262110.0 ], [ 533659.988825823529623, 7262120.0 ], [ 533659.999107789248228, 7262130.0 ], [ 533660.0, 7262140.0 ], [ 533660.0, 7262150.0 ], [ 533660.0, 7262160.0 ], [ 533660.0, 7262170.0 ], [ 533660.000892210751772, 7262180.0 ], [ 533660.011174176470377, 7262190.0 ], [ 533660.087148198392242, 7262200.0 ], [ 533660.447091679088771, 7262210.0 ], [ 533661.540503428783268, 7262220.0 ], [ 533663.670178714208305, 7262230.0 ], [ 533666.329821285791695, 7262240.0 ], [ 533668.459496571333148, 7262250.0 ], [ 533669.553800531546585, 7262260.0 ], [ 533669.924025978078134, 7262270.0 ], [ 533670.075974022038281, 7262280.0 ], [ 533670.44619946856983, 7262290.0 ], [ 533671.539611218031496, 7262300.0 ], [ 533673.659004537737928, 7262310.0 ], [ 533676.242673087399453, 7262320.0 ], [ 533678.012404892127961, 7262330.0 ], [ 533678.012404892127961, 7262340.000000000931323 ], [ 533676.242673087399453, 7262350.0 ], [ 533673.658112327102572, 7262360.0 ], [ 533671.528437041561119, 7262370.0 ], [ 533670.359943480696529, 7262380.0 ], [ 533669.639164308551699, 7262390.0 ], [ 533668.459496571333148, 7262400.0 ], [ 533666.243565298151225, 7262410.0 ], [ 533663.223087035119534, 7262420.0 ], [ 533659.999107789248228, 7262430.0 ], [ 533656.765738788526505, 7262440.0 ], [ 533653.670178714208305, 7262450.0 ], [ 533651.103693715413101, 7262460.0 ], [ 533648.896306284703314, 7262470.0 ], [ 533646.329821285791695, 7262480.0 ], [ 533643.234261211473495, 7262490.0 ], [ 533640.000000000116415, 7262500.0 ], [ 533636.765738788526505, 7262510.0 ], [ 533633.670178714208305, 7262520.0 ], [ 533631.104585926048458, 7262530.0 ], [ 533628.906588250421919, 7262540.0 ], [ 533626.405795307713561, 7262550.0 ], [ 533623.594204692170024, 7262560.0 ], [ 533621.094303960213438, 7262570.0 ], [ 533618.906588250421919, 7262580.0 ], [ 533616.416969484183937, 7262590.0 ], [ 533613.681352890795097, 7262600.000000000931323 ], [ 533611.540503428783268, 7262610.0 ], [ 533610.43591750273481, 7262620.0 ], [ 533610.0, 7262630.0 ], [ 533609.56408249726519, 7262640.0 ], [ 533608.460388781968504, 7262650.0 ], [ 533606.329821285791695, 7262660.0 ], [ 533603.670178714208305, 7262670.0 ], [ 533601.540503428783268, 7262680.0 ], [ 533600.44619946856983, 7262690.0 ], [ 533600.075974022038281, 7262700.0 ], [ 533599.924025978078134, 7262710.0 ], [ 533599.552908320794813, 7262720.0 ], [ 533598.448322394862771, 7262730.0 ], [ 533596.242673087399453, 7262740.0 ], [ 533593.222194824367762, 7262750.0 ], [ 533589.988825823529623, 7262760.0 ], [ 533586.688872555969283, 7262770.0 ], [ 533583.299061057041399, 7262780.0 ], [ 533579.924025978078134, 7262790.0 ], [ 533576.330713496543467, 7262799.999107789248228 ], [ 533572.216823483933695, 7262809.987933613359928 ], [ 533567.881498891045339, 7262819.900785414502025 ], [ 533564.118162604048848, 7262829.453693736344576 ], [ 533561.62765162717551, 7262837.913190307095647 ], [ 533560.458265855675563, 7262844.243011592887342 ] ] } },
{ "type": "Feature", "properties": { "id": 7, "reference_id": 3, "dune_id": 3, "dune_name": "Big Mommy Dune", "acquisition_date": "2019-07-14", "length_m": 1221.5042069166475 }, "geometry": { "type": "LineString", "coordinates": [ [ 530244.243011592421681, 7260570.011174176819623 ], [ 530237.91319030651357, 7260570.087148198857903 ], [ 530229.453693735180423, 7260570.447091680020094 ], [ 530219.900785414385609, 7260571.541395640000701 ], [ 530209.987933612894267, 7260573.681352891027927 ], [ 530199.999107789248228, 7260576.416969484649599 ], [ 530190.0, 7260578.906588250771165 ], [ 530180.0, 7260581.094303959980607 ], [ 530170.000000000116415, 7260583.594204692170024 ], [ 530160.0, 7260586.405795307829976 ], [ 530150.0, 7260588.905696040019393 ], [ 530140.0, 7260591.093411749228835 ], [ 530130.0, 7260593.583030516281724 ], [ 530120.0, 7260596.318647108972073 ], [ 530110.0, 7260598.459496571682394 ], [ 530100.0, 7260599.564082497730851 ], [ 530090.0, 7260600.0 ], [ 530080.0, 7260600.435917503200471 ], [ 530070.0, 7260601.539611218497157 ], [ 530060.0, 7260603.670178715139627 ], [ 530050.0, 7260606.329821286723018 ], [ 530040.0, 7260608.459496571682394 ], [ 530030.0, 7260609.552908320911229 ], [ 530020.0, 7260609.912851802073419 ], [ 530010.0, 7260609.9888258241117 ], [ 530000.0, 7260609.999107789248228 ], [ 529990.0, 7260610.0 ], [ 529980.0, 7260610.0 ], [ 529970.0, 7260610.0 ], [ 529960.0, 7260610.0 ], [ 529950.0, 7260610.0 ], [ 529940.0, 7260610.0 ], [ 529930.0, 7260610.0 ], [ 529920.0, 7260610.0 ], [ 529910.0, 7260609.999107789248228 ], [ 529900.0, 7260609.9888258241117 ], [ 529890.0, 7260609.912851802073419 ], [ 529880.0, 7260609.552908320911229 ], [ 529870.0, 7260608.459496571682394 ], [ 529860.0, 7260606.33071349747479 ], [ 529850.0, 7260603.681352891027927 ], [ 529840.0, 7260601.62765162717551 ], [ 529830.0, 7260600.894183358177543 ], [ 529820.0, 7260601.62765162717551 ], [ 529810.0, 7260603.681352891027927 ], [ 529800.0, 7260606.33071349747479 ], [ 529790.0, 7260608.459496571682394 ], [ 529780.0, 7260609.552908320911229 ], [ 529770.0, 7260609.912851802073419 ], [ 529760.0, 7260609.989718034863472 ], [ 529750.0, 7260610.010281966067851 ], [ 529740.0, 7260610.087148198857903 ], [ 529730.0, 7260610.447091680020094 ], [ 529720.0, 7260611.540503429248929 ], [ 529710.0, 7260613.670178715139627 ], [ 529700.0, 7260616.329821286723018 ], [ 529690.0, 7260618.459496571682394 ], [ 529680.0, 7260619.553800531663001 ], [ 529670.0, 7260619.924025977961719 ], [ 529660.0, 7260620.075974022038281 ], [ 529650.0, 7260620.446199468336999 ], [ 529640.0, 7260621.540503429248929 ], [ 529630.0, 7260623.670178714208305 ], [ 529620.0, 7260626.330713496543467 ], [ 529610.0, 7260628.470670747570693 ], [ 529600.0, 7260629.64005651883781 ], [ 529590.0, 7260630.35994348116219 ], [ 529580.0, 7260631.530221463181078 ], [ 529570.0, 7260633.680460680276155 ], [ 529560.0, 7260636.416969483718276 ], [ 529550.0, 7260638.906588250771165 ], [ 529540.0, 7260641.094303959980607 ], [ 529530.0, 7260643.594204693101346 ], [ 529520.0, 7260646.405795307829976 ], [ 529510.0, 7260648.906588250771165 ], [ 529500.000000000116415, 7260651.10458592697978 ], [ 529490.0, 7260653.670178714208305 ], [ 529480.0, 7260656.765738788992167 ], [ 529470.0, 7260660.0 ], [ 529460.0, 7260663.234261211939156 ], [ 529450.0, 7260666.329821285791695 ], [ 529440.000000000116415, 7260668.896306285634637 ], [ 529430.0, 7260671.104585926048458 ], [ 529420.0, 7260673.682245101779699 ], [ 529410.0, 7260676.864953374490142 ], [ 529400.0, 7260680.545414052903652 ], [ 529390.0, 7260685.309896728955209 ], [ 529380.0, 7260691.999661494977772 ], [ 529370.0, 7260700.535132088698447 ], [ 529360.0, 7260710.098322374746203 ], [ 529350.0, 7260720.012066386640072 ], [ 529340.000892210751772, 7260730.000892210751772 ], [ 529330.011174176470377, 7260740.0 ], [ 529320.087148198508658, 7260750.0 ], [ 529310.447983889956959, 7260760.0 ], [ 529301.551677605253644, 7260770.0 ], [ 529293.758219123352319, 7260780.000000000931323 ], [ 529286.788087141467258, 7260790.0 ], [ 529280.087148198392242, 7260800.0 ], [ 529273.671070924960077, 7260810.0 ], [ 529267.794350692536682, 7260820.0 ], [ 529262.205649307463318, 7260830.0 ], [ 529256.32982128590811, 7260840.0 ], [ 529249.924025978078134, 7260850.0 ], [ 529243.299061057041399, 7260860.0 ], [ 529236.689764766488224, 7260870.0 ], [ 529230.0, 7260880.0 ], [ 529223.310235233511776, 7260890.0 ], [ 529216.700938943075016, 7260900.0 ], [ 529210.076866232557222, 7260910.0 ], [ 529203.681352890562266, 7260919.999107789248228 ], [ 529197.882391101680696, 7260929.987933613359928 ], [ 529192.664807373774238, 7260939.900785414502025 ], [ 529187.968647089437582, 7260949.453693735413253 ], [ 529184.129336780519225, 7260957.913190307095647 ], [ 529181.628543837927282, 7260964.243011592887342 ] ] } },
{ "type": "Feature", "properties": { "id": 8, "reference_id": 8, "dune_id": 8, "dune_name": "Inverted Y Dune", "acquisition_date": "2019-07-14", "length_m": 732.77610089290056 }, "geometry": { "type": "LineString", "coordinates": [ [ 530554.243011592305265, 7261171.999661495909095 ], [ 530547.91319030651357, 7261175.309004518203437 ], [ 530539.453693735296838, 7261180.534239877015352 ], [ 530529.900785414385609, 7261186.776912964880466 ], [ 530519.987933612894267, 7261193.223087035119534 ], [ 530509.999107789248228, 7261199.465760122984648 ], [ 530500.0, 7261204.690995481796563 ], [ 530490.0, 7261208.00033850595355 ], [ 530480.0, 7261209.464867912232876 ], [ 530470.0, 7261209.901677625253797 ], [ 530460.0, 7261209.987933613359928 ], [ 530450.0, 7261209.998215579427779 ], [ 530440.0, 7261209.9888258241117 ], [ 530430.000000000116415, 7261209.912851802073419 ], [ 530420.0, 7261209.552908320911229 ], [ 530410.0, 7261208.459496571682394 ], [ 530400.0, 7261206.329821285791695 ], [ 530390.0, 7261203.670178713276982 ], [ 530380.0, 7261201.541395639069378 ], [ 530370.0, 7261200.458265855908394 ], [ 530360.0, 7261200.174296397715807 ], [ 530350.0, 7261200.458265855908394 ], [ 530340.0, 7261201.541395639069378 ], [ 530330.0, 7261203.671070924028754 ], [ 530320.0, 7261206.340995462611318 ], [ 530310.0, 7261208.547536980360746 ], [ 530300.0, 7261210.011174176819623 ], [ 530290.0, 7261211.541395640000701 ], [ 530280.0, 7261214.117270393297076 ], [ 530270.0, 7261217.957472912967205 ], [ 530260.0, 7261222.588833352550864 ], [ 530250.0, 7261227.522447621449828 ], [ 530240.0, 7261232.588833352550864 ], [ 530230.0, 7261237.958365123718977 ], [ 530220.000892210635357, 7261244.128444569185376 ], [ 530210.011174176470377, 7261251.628543837927282 ], [ 530200.087148198392242, 7261260.458265855908394 ], [ 530190.447983889840543, 7261270.088040409609675 ], [ 530181.552569815889001, 7261280.0111741758883 ], [ 530173.768501089187339, 7261290.000892210751772 ], [ 530166.864953374140896, 7261300.0 ], [ 530160.45915806631092, 7261310.000000000931323 ], [ 530154.861912838649005, 7261320.0 ], [ 530150.447983889840543, 7261330.0 ], [ 530146.777805175632238, 7261340.0 ], [ 530143.321409409982152, 7261350.0 ], [ 530140.011174176586792, 7261360.0 ], [ 530136.766630999278277, 7261370.0 ], [ 530133.670178714208305, 7261380.0 ], [ 530131.104585926048458, 7261390.0 ], [ 530128.907480461173691, 7261400.0 ], [ 530126.416077273664996, 7261410.0 ], [ 530123.670178714208305, 7261420.0 ], [ 530121.454247441026382, 7261430.0 ], [ 530120.0, 7261440.0 ], [ 530118.54664476972539, 7261450.0 ], [ 530116.340995462262072, 7261460.0 ], [ 530113.671070924960077, 7261470.000000000931323 ], [ 530111.540503428666852, 7261480.0 ], [ 530110.447091679205187, 7261490.0 ], [ 530110.087148198392242, 7261500.0 ], [ 530110.01028196583502, 7261510.0 ], [ 530109.989718034281395, 7261520.0 ], [ 530109.912851801607758, 7261530.0 ], [ 530109.552908320911229, 7261539.999553894624114 ], [ 530108.459496571333148, 7261549.993520701304078 ], [ 530106.329821285791695, 7261559.944359513930976 ], [ 530103.670178714208305, 7261569.6772395754233 ], [ 530101.540503428783268, 7261578.683442020788789 ], [ 530100.447091679205187, 7261586.078100949525833 ], [ 530100.087148198508658, 7261591.078100949525833 ] ] } },
{ "type": "Feature", "properties": { "id": 9, "reference_id": 9, "dune_id": 9, "dune_name": "Inverted Y Dune", "acquisition_date": "2019-07-14", "length_m": 764.22414075979009 }, "geometry": { "type": "LineString", "coordinates": [ [ 530097.91319030651357, 7261598.834750852547586 ], [ 530094.243011592421681, 7261603.473915160633624 ], [ 530087.913190306629986, 7261609.764880374073982 ], [ 530079.453693735180423, 7261616.565433513373137 ], [ 530069.900785414502025, 7261623.277835311368108 ], [ 530059.987933612894267, 7261629.995305122807622 ], [ 530049.999107789364643, 7261636.689318661578 ], [ 530040.0, 7261643.299061058089137 ], [ 530030.0, 7261649.924025977961719 ], [ 530020.0, 7261656.329821285791695 ], [ 530010.0, 7261662.205649307928979 ], [ 530000.0, 7261667.794350693002343 ], [ 529990.0, 7261673.670178714208305 ], [ 529980.0, 7261680.075974022038281 ], [ 529970.0, 7261686.700938943773508 ], [ 529960.0, 7261693.311127444729209 ], [ 529950.0, 7261700.011174177750945 ], [ 529940.0, 7261706.777805175632238 ], [ 529930.0, 7261713.757326913066208 ], [ 529920.0, 7261721.551677605137229 ], [ 529910.0, 7261730.447983890771866 ], [ 529900.0, 7261740.087148198857903 ], [ 529890.0, 7261750.011174176819623 ], [ 529880.0, 7261760.000892210751772 ], [ 529870.000892210751772, 7261770.0 ], [ 529860.011174176470377, 7261780.0 ], [ 529850.087148198392242, 7261790.0 ], [ 529840.447091679205187, 7261800.0 ], [ 529831.541395639418624, 7261810.0 ], [ 529823.682245101314038, 7261820.0 ], [ 529816.428143660770729, 7261830.0 ], [ 529808.994628659682348, 7261840.000000000931323 ], [ 529801.552569815889001, 7261850.0 ], [ 529795.221856319345534, 7261860.0 ], [ 529790.523957911878824, 7261870.0 ], [ 529786.788087141467258, 7261880.0 ], [ 529783.321409409982152, 7261890.0 ], [ 529780.000892210751772, 7261900.0 ], [ 529776.690656977239996, 7261910.0 ], [ 529773.309343022760004, 7261920.0 ], [ 529770.0, 7261930.0 ], [ 529766.689764766488224, 7261940.0 ], [ 529763.299061056924984, 7261950.0 ], [ 529759.923133767326362, 7261960.0 ], [ 529756.319539319956675, 7261970.0 ], [ 529752.128783074789681, 7261980.0 ], [ 529747.423233035369776, 7261990.0 ], [ 529742.490510976989754, 7262000.0 ], [ 529737.509489023126662, 7262010.0 ], [ 529732.576766964630224, 7262020.0 ], [ 529727.871216925210319, 7262030.0 ], [ 529723.680460680043325, 7262040.0 ], [ 529720.076866232790053, 7262050.0 ], [ 529716.700046732323244, 7262060.0 ], [ 529713.299953267676756, 7262070.0 ], [ 529709.923133767442778, 7262080.0 ], [ 529706.31953932007309, 7262090.0 ], [ 529702.128783074789681, 7262100.0 ], [ 529697.423233035369776, 7262110.0 ], [ 529692.490510976873338, 7262120.0 ], [ 529687.509489023126662, 7262130.0 ], [ 529682.576766964630224, 7262140.0 ], [ 529677.871216925210319, 7262149.999107789248228 ], [ 529673.681352890678681, 7262159.987933613359928 ], [ 529670.088040409144014, 7262169.900785414502025 ], [ 529666.788087141467258, 7262179.453693735413253 ], [ 529663.758219123352319, 7262187.913190307095647 ], [ 529661.551677605137229, 7262194.243011591956019 ] ] } }
]
}
