{
"type": "FeatureCollection",
"name": "crests_2024_02_2024-02-03",
"crs": { "type": "name", "properties": { "name": "urn:ogc:def:crs:EPSG::32733" } },
"features": [
{ "type": "Feature", "properties": { "id": 0, "reference_id": 7, "dune_id": 7, "dune_name": "Inverted Y Dune", "acquisition_date": "2024-02-03", "length_m": 416.2994057148843 }, "geometry": { "type": "LineString", "coordinates": [ [ 530295.756988407694735, 7261629.9888258241117 ], [ 530302.08680969348643, 7261629.912851801142097 ], [ 530310.546306264819577, 7261629.552016110159457 ], [ 530320.099214585614391, 7261628.448322394862771 ], [ 530330.012066387105733, 7261626.241780877113342 ], [ 530340.000892210751772, 7261623.211912859231234 ], [ 530350.0, 7261619.911959590390325 ], [ 530360.0, 7261616.318647109903395 ], [ 530370.0, 7261612.128783075138927 ], [ 530380.0, 7261607.423233035951853 ], [ 530390.0, 7261602.489618767052889 ], [ 530400.0, 7261597.498314846307039 ], [ 530410.0, 7261592.488726556301117 ], [ 530420.0, 7261587.412058860063553 ], [ 530430.000000000116415, 7261582.041634876281023 ], [ 530440.0, 7261575.871555430814624 ], [ 530450.0, 7261568.371456163004041 ], [ 530460.0, 7261559.541734145022929 ], [ 530469.999107789364643, 7261549.911959590390325 ], [ 530479.988825823529623, 7261539.9888258241117 ], [ 530489.912851801607758, 7261529.999107789248228 ], [ 530499.552016110159457, 7261520.0 ], [ 530508.448322394862771, 7261510.0 ], [ 530516.242673087399453, 7261500.0 ], [ 530523.222194824367762, 7261490.0 ], [ 530529.988825823529623, 7261480.0 ], [ 530536.689764766488224, 7261470.000000000931323 ], [ 530543.31023523339536, 7261460.0 ], [ 530550.01028196583502, 7261450.0 ], [ 530556.766630999161862, 7261440.0 ], [ 530563.670178714208305, 7261430.0 ], [ 530571.103693715296686, 7261420.000892210751772 ], [ 530578.895414073951542, 7261410.012066386640072 ], [ 530586.317754898685962, 7261400.099214585497975 ], [ 530593.135046625975519, 7261390.546306265518069 ], [ 530599.454585945932195, 7261382.086809692904353 ], [ 530604.690103271510452, 7261375.756988408043981 ] ] } },
{ "type": "Feature", "properties": { "id": 1, "reference_id": 7, "dune_id": 7, "dune_name": "Inverted Y Dune", "acquisition_date": "2024-02-03", "length_m": 60.291431807206372 }, "geometry": { "type": "LineString", "coordinates": [ [ 530194.243011592421681, 7261643.669286504387856 ], [ 530187.91319030651357, 7261646.318647109903395 ], [ 530179.454585945932195, 7261648.372348373755813 ], [ 530169.912851801607758, 7261649.105816641822457 ], [ 530160.087148198508658, 7261648.372348373755813 ], [ 530150.545414054067805, 7261646.318647109903395 ], [ 530142.08680969348643, 7261643.669286504387856 ], [ 530135.756988407694735, 7261641.540503429248929 ] ] } },
{ "type": "Feature", "properties": { "id": 2, "reference_id": 3, "dune_id": 3, "dune_name": "Big Mommy Dune", "acquisition_date": "2024-02-03", "length_m": 169.78275120145648 }, "geometry": { "type": "LineString", "coordinates": [ [ 529735.756988407694735, 7260610.0 ], [ 529742.08680969348643, 7260609.999107789248228 ], [ 529750.546306264819577, 7260609.9888258241117 ], [ 529760.099214585614391, 7260609.912851802073419 ], [ 529770.012066387222148, 7260609.553800531663001 ], [ 529780.000892210751772, 7260608.470670748502016 ], [ 529790.0, 7260606.416969485580921 ], [ 529800.0, 7260604.117270393297076 ], [ 529810.0, 7260603.081006857566535 ], [ 529820.0, 7260604.117270393297076 ], [ 529830.0, 7260606.416969485580921 ], [ 529840.0, 7260608.469778537750244 ], [ 529850.0, 7260609.543518566526473 ], [ 529859.999107789364643, 7260609.836877780035138 ], [ 529869.987933612894267, 7260609.62888234294951 ], [ 529879.900785414385609, 7260608.905696040019393 ], [ 529889.453693735180423, 7260607.870324715040624 ], [ 529897.91319030651357, 7260607.34035742841661 ], [ 529904.243011592421681, 7260607.870324715040624 ] ] } },
{ "type": "Feature", "properties": { "id": 3, "reference_id": 3, "dune_id": 3, "dune_name": "Big Mommy Dune", "acquisition_date": "2024-02-03", "length_m": 100.12243224255089 }, "geometry": { "type": "LineString", "coordinates": [ [ 529965.756988407694735, 7260603.223979245871305 ], [ 529972.08680969348643, 7260604.800492033362389 ], [ 529980.546306264819577, 7260604.876466056331992 ], [ 529990.099214585614391, 7260603.670178715139627 ], [ 530000.012066387105733, 7260602.992966448888183 ], [ 530010.000892210751772, 7260604.094922041520476 ], [ 530019.999107789248228, 7260606.328929075971246 ], [ 530029.987933612894267, 7260608.023579068481922 ], [ 530039.900785414385609, 7260608.013297103345394 ], [ 530049.453693735180423, 7260606.242673087865114 ], [ 530057.91319030651357, 7260603.659004537388682 ], [ 530064.243011592305265, 7260601.539611218497157 ] ] } },
{ "type": "Feature", "properties": { "id": 4, "reference_id": 3, "dune_id": 3, "dune_name": "Big Mommy Dune", "acquisition_date": "2024-02-03", "length_m": 153.99989668024935 }, "geometry": { "type": "LineString", "coordinates": [ [ 530244.243011592421681, 7260560.457373645156622 ], [ 530237.91319030651357, 7260561.616477450355887 ], [ 530229.453693735180423, 7260564.031014405190945 ], [ 530219.900785414385609, 7260567.434407211840153 ], [ 530209.987933612894267, 7260570.677212266251445 ], [ 530199.999107789248228, 7260572.670816748403013 ], [ 530190.0, 7260573.670178715139627 ], [ 530180.0, 7260575.199507966637611 ], [ 530170.000000000116415, 7260578.230268195271492 ], [ 530160.0, 7260582.216823483817279 ], [ 530150.0, 7260585.980159770697355 ], [ 530140.000892210751772, 7260588.820332262665033 ], [ 530130.012066387222148, 7260591.082237573340535 ], [ 530120.099214585614391, 7260593.582138305529952 ], [ 530110.546306264819577, 7260596.318647108972073 ], [ 530102.08680969348643, 7260598.458604360930622 ], [ 530095.756988407694735, 7260599.552908321842551 ] ] } },
{ "type": "Feature", "properties": { "id": 5, "reference_id": 3, "dune_id": 3, "dune_name": "Big Mommy Dune", "acquisition_date": "2024-02-03", "length_m": 358.26338002242863 }, "geometry": { "type": "LineString", "coordinates": [ [ 529374.243011592305265, 7260695.756988408043981 ], [ 529367.91319030651357, 7260702.086809693835676 ], [ 529359.453693735180423, 7260710.546306265518069 ], [ 529349.901677625253797, 7260720.099214585497975 ], [ 529339.999107789364643, 7260730.012066388502717 ], [ 529330.086255987756886, 7260740.000892210751772 ], [ 529320.447983889956959, 7260750.0 ], [ 529311.551677605253644, 7260760.0 ], [ 529303.757326912600547, 7260770.0 ], [ 529296.777805175632238, 7260780.000000000931323 ], [ 529290.011174176470377, 7260790.0 ], [ 529283.311127444263548, 7260800.0 ], [ 529276.700938943075016, 7260810.0 ], [ 529270.075974022038281, 7260820.0 ], [ 529263.670178714208305, 7260830.0 ], [ 529257.794350692653097, 7260840.0 ], [ 529252.205649307463318, 7260850.0 ], [ 529246.32982128590811, 7260860.0 ], [ 529239.924025977961719, 7260870.0 ], [ 529233.299953267676756, 7260880.0 ], [ 529226.700046732323244, 7260890.0 ], [ 529220.075974022038281, 7260900.0 ], [ 529213.670178714208305, 7260910.0 ], [ 529207.795242903288454, 7260920.0 ], [ 529202.217715694569051, 7260930.0 ], [ 529196.428143660654314, 7260939.999553894624114 ], [ 529190.45915806631092, 7260949.993520701304078 ], [ 529185.298722552019171, 7260959.944359514862299 ], [ 529181.998769284342416, 7260969.6772395754233 ], [ 529180.535132088349201, 7260978.683442020788789 ], [ 529180.098322374862619, 7260986.078100949525833 ], [ 529180.012066387222148, 7260991.078100949525833 ] ] } },
{ "type": "Feature", "properties": { "id": 6, "reference_id": 3, "dune_id": 3, "dune_name": "Big Mommy Dune", "acquisition_date": "2024-02-03", "length_m": 100.74686141671832 }, "geometry": { "type": "LineString", "coordinates": [ [ 529515.75698840781115, 7260649.552908321842551 ], [ 529522.08680969348643, 7260648.458604360930622 ], [ 529530.546306264819577, 7260646.318647109903395 ], [ 529540.099214585614391, 7260643.583030516281724 ], [ 529550.012066387105733, 7260641.093411749228835 ], [ 529560.000892210751772, 7260638.906588250771165 ], [ 529569.999107789248228, 7260636.416969483718276 ], [ 529579.987933612894267, 7260633.681352891027927 ], [ 529589.900785414502025, 7260631.541395640000701 ], [ 529599.453693735180423, 7260630.447091680020094 ], [ 529607.91319030651357, 7260630.087148198857903 ], [ 529614.243011592421681, 7260630.011174176819623 ] ] } },
{ "type": "Feature", "properties": { "id": 7, "reference_id": 1, "dune_id": 1, "dune_name": "Big Mommy Dune", "acquisition_date": "2024-02-03", "length_m": 684.76429998393201 }, "geometry": { "type": "LineString", "coordinates": [ [ 529020.0, 7261555.756988408043981 ], [ 529020.0, 7261562.086809693835676 ], [ 529020.0, 7261570.546306264586747 ], [ 529020.0, 7261580.099214585497975 ], [ 529020.0, 7261590.012066387571394 ], [ 529020.0, 7261600.000892210751772 ], [ 529020.0, 7261610.0 ], [ 529020.0, 7261620.0 ], [ 529020.000892210751772, 7261630.0 ], [ 529020.011174176470377, 7261640.0 ], [ 529020.087148198508658, 7261650.0 ], [ 529020.447983889840543, 7261660.0 ], [ 529021.551677605137229, 7261670.0 ], [ 529023.758219123352319, 7261680.0 ], [ 529026.78897935221903, 7261690.0 ], [ 529030.098322374979034, 7261700.0 ], [ 529033.758219123352319, 7261710.0 ], [ 529038.242334582377225, 7261720.0 ], [ 529043.757326912600547, 7261730.000000000931323 ], [ 529050.087148198508658, 7261740.0 ], [ 529056.700938943075016, 7261750.0 ], [ 529063.299953267676756, 7261760.0 ], [ 529069.923133767326362, 7261770.0 ], [ 529076.318647109321319, 7261780.0 ], [ 529082.118501109071076, 7261790.0 ], [ 529087.346366802696139, 7261800.0 ], [ 529092.118501109071076, 7261810.0 ], [ 529096.316862688050605, 7261820.0 ], [ 529099.900785414502025, 7261830.0 ], [ 529103.123872449388728, 7261840.000000000931323 ], [ 529105.782622810336761, 7261850.0 ], [ 529106.809496591216885, 7261860.0 ], [ 529105.346705307718366, 7261870.0 ], [ 529101.58336902083829, 7261880.0 ], [ 529096.2203247344587, 7261890.0 ], [ 529089.911067380220629, 7261900.0 ], [ 529083.298168846289627, 7261910.0 ], [ 529076.689764766488224, 7261920.0 ], [ 529070.0, 7261930.0 ], [ 529063.310235233511776, 7261940.0 ], [ 529056.700938943075016, 7261950.0 ], [ 529050.076866232673638, 7261960.0 ], [ 529043.68046067992691, 7261970.0 ], [ 529037.871216925210319, 7261980.0 ], [ 529032.577659175381996, 7261990.0 ], [ 529027.520663199597038, 7262000.0 ], [ 529022.577659175381996, 7262010.0 ], [ 529017.871216925326735, 7262020.0 ], [ 529013.680460680043325, 7262030.0 ], [ 529010.075974022038281, 7262040.0 ], [ 529006.68976476660464, 7262050.0 ], [ 529003.223087035119534, 7262060.0 ], [ 528999.552908320911229, 7262070.0 ], [ 528995.149261337821372, 7262080.0 ], [ 528989.628882342833094, 7262090.0 ], [ 528983.593312481534667, 7262100.0 ], [ 528977.859150538104586, 7262110.0 ], [ 528972.564700577524491, 7262120.0 ], [ 528967.423233035369776, 7262129.999107789248228 ], [ 528962.054593474254943, 7262139.987933613359928 ], [ 528955.970770015846938, 7262149.900785414502025 ], [ 528948.917762426892295, 7262159.453693735413253 ], [ 528941.628543837810867, 7262167.913190307095647 ], [ 528935.668947998550721, 7262174.243011591956019 ] ] } },
{ "type": "Feature", "properties": { "id": 8, "reference_id": 1, "dune_id": 1, "dune_name": "Big Mommy Dune", "acquisition_date": "2024-02-03", "length_m": 445.75576717721611 }, "geometry": { "type": "LineString", "coordinates": [ [ 529179.912851801607758, 7261105.756988408043981 ], [ 529179.552016110159457, 7261112.086809692904353 ], [ 529178.448322394862771, 7261120.546306265518069 ], [ 529176.242673087399453, 7261130.099214586429298 ], [ 529173.222194824367762, 7261140.012066387571394 ], [ 529169.988825823529623, 7261150.000892210751772 ], [ 529166.688872555969283, 7261160.0 ], [ 529163.299061057041399, 7261170.0 ], [ 529159.924025978078134, 7261180.0 ], [ 529156.329821285791695, 7261190.0 ], [ 529152.205649307463318, 7261200.0 ], [ 529147.793458481901325, 7261210.000000000931323 ], [ 529143.659896748373285, 7261220.0 ], [ 529140.0, 7261230.0 ], [ 529136.340103251626715, 7261240.0 ], [ 529132.20654151821509, 7261250.0 ], [ 529127.793458481901325, 7261260.0 ], [ 529123.6598967484897, 7261270.0 ], [ 529120.000000000116415, 7261280.0 ], [ 529116.340103251626715, 7261290.0 ], [ 529112.205649307463318, 7261300.0 ], [ 529107.783176516066305, 7261310.000000000931323 ], [ 529103.583922726451419, 7261320.0 ], [ 529099.639164308551699, 7261330.0 ], [ 529095.236409536330029, 7261340.0 ], [ 529090.000892210751772, 7261350.0 ], [ 529084.773872429504991, 7261360.0 ], [ 529080.436809713370167, 7261370.0 ], [ 529076.776020754361525, 7261380.0 ], [ 529073.310235233511776, 7261390.0 ], [ 529069.924918188713491, 7261400.0 ], [ 529066.329821285791695, 7261410.0 ], [ 529062.205649307463318, 7261420.0 ], [ 529057.794350692536682, 7261430.0 ], [ 529053.671070924960077, 7261440.0 ], [ 529050.086255987756886, 7261450.0 ], [ 529046.776912964880466, 7261460.0 ], [ 529043.671070924843661, 7261470.000000000931323 ], [ 529041.104585926048458, 7261479.999107789248228 ], [ 529038.907480461057276, 7261489.987933613359928 ], [ 529036.416969484183937, 7261499.900785414502025 ], [ 529033.681352890795097, 7261509.453693735413253 ], [ 529031.54139563953504, 7261517.913190307095647 ], [ 529030.447091679205187, 7261524.243011592887342 ] ] } },
{ "type": "Feature", "properties": { "id": 9, "reference_id": 1, "dune_id": 1, "dune_name": "Big Mommy Dune", "acquisition_date": "2024-02-03", "length_m": 76.281445203293146 }, "geometry": { "type": "LineString", "coordinates": [ [ 529180.000892210751772, 7260998.921899050474167 ], [ 529180.011174176470377, 7261003.921899050474167 ], [ 529180.087148198392242, 7261011.316557979211211 ], [ 529180.447091679205187, 7261020.322760425508022 ], [ 529181.540503428783268, 7261030.054748276248574 ], [ 529183.670178714208305, 7261039.99441291205585 ], [ 529186.329821285791695, 7261049.901231519877911 ], [ 529188.459496571333148, 7261059.453693735413253 ], [ 529189.552908320911229, 7261067.913190307095647 ], [ 529189.912851801607758, 7261074.243011591956019 ] ] } },
{ "type": "Feature", "properties": { "id": 10, "reference_id": 8, "dune_id": 8, "dune_name": "Inverted Y Dune", "acquisition_date": "2024-02-03", "length_m": 402.77330578239099 }, "geometry": { "type": "LineString", "coordinates": [ [ 530244.243011592421681, 7261232.086809693835676 ], [ 530237.91319030651357, 7261235.756988408043981 ], [ 530229.453693735180423, 7261242.086809693835676 ], [ 530219.900785414385609, 7261250.546306264586747 ], [ 530209.988825823646039, 7261260.099214585497975 ], [ 530200.01028196583502, 7261270.012066387571394 ], [ 530190.088040409144014, 7261280.000892210751772 ], [ 530180.45915806631092, 7261290.0 ], [ 530171.638825803645886, 7261300.0 ], [ 530164.20531080244109, 7261310.000000000931323 ], [ 530158.329482780885883, 7261320.0 ], [ 530153.768501089187339, 7261330.0 ], [ 530150.088040409144014, 7261340.0 ], [ 530146.701831153710373, 7261350.0 ], [ 530143.311127444263548, 7261360.0 ], [ 530140.01028196583502, 7261370.0 ], [ 530136.766630999278277, 7261380.0 ], [ 530133.670178714208305, 7261390.0 ], [ 530131.104585926048458, 7261400.0 ], [ 530128.907480461173691, 7261410.0 ], [ 530126.416969484183937, 7261420.0 ], [ 530123.680460680043325, 7261430.0 ], [ 530121.530221462948248, 7261440.0 ], [ 530120.359943480812944, 7261450.0 ], [ 530119.640056519303471, 7261460.0 ], [ 530118.470670747803524, 7261470.000000000931323 ], [ 530116.330713496543467, 7261480.0 ], [ 530113.670178714208305, 7261490.0 ], [ 530111.540503428666852, 7261500.0 ], [ 530110.447091679205187, 7261510.0 ], [ 530110.086255987756886, 7261520.0 ], [ 530110.0, 7261530.0 ], [ 530109.913744012243114, 7261539.999553894624114 ], [ 530109.552908320911229, 7261549.993520701304078 ], [ 530108.459496571333148, 7261559.944359513930976 ], [ 530106.329821285791695, 7261569.6772395754233 ], [ 530103.670178714208305, 7261578.683442020788789 ], [ 530101.540503428783268, 7261586.078100949525833 ], [ 530100.447091679205187, 7261591.078100949525833 ] ] } },
{ "type": "Feature", "properties": { "id": 11, "reference_id": 8, "dune_id": 8, "dune_name": "Inverted Y Dune", "acquisition_date": "2024-02-03", "length_m": 68.335678249800836 }, "geometry": { "type": "LineString", "coordinates": [ [ 530544.243011592305265, 7261175.309004518203437 ], [ 530537.91319030651357, 7261180.534239877015352 ], [ 530529.454585945932195, 7261186.776912964880466 ], [ 530519.912851801607758, 7261193.223087035119534 ], [ 530510.087148198392242, 7261199.465760122984648 ], [ 530500.545414054067805, 7261204.690995481796563 ], [ 530492.08680969348643, 7261208.00033850595355 ], [ 530485.756988407694735, 7261209.464867912232876 ] ] } },
{ "type": "Feature", "properties": { "id": 12, "reference_id": 9, "dune_id": 9, "dune_name": "Inverted Y Dune", "acquisition_date": "2024-02-03", "length_m": 805.73484815412678 }, "geometry": { "type": "LineString", "coordinates": [ [ 530097.91319030651357, 7261598.834750852547586 ], [ 530094.243011592421681, 7261603.473915160633624 ], [ 530087.913190306629986, 7261609.764880374073982 ], [ 530079.453693735180423, 7261616.565433513373137 ], [ 530069.900785414502025, 7261623.277835311368108 ], [ 530059.987933612894267, 7261629.995305122807622 ], [ 530049.999107789364643, 7261636.689318661578 ], [ 530040.0, 7261643.299061058089137 ], [ 530030.0, 7261649.924025977961719 ], [ 530020.0, 7261656.329821285791695 ], [ 530010.0, 7261662.205649307928979 ], [ 530000.0, 7261667.794350693002343 ], [ 529990.0, 7261673.670178714208305 ], [ 529980.0, 7261680.075974022038281 ], [ 529970.0, 7261686.700938943773508 ], [ 529960.0, 7261693.311127444729209 ], [ 529950.0, 7261700.011174177750945 ], [ 529940.0, 7261706.777805175632238 ], [ 529930.0, 7261713.757326913066208 ], [ 529920.0, 7261721.551677605137229 ], [ 529910.0, 7261730.447983890771866 ], [ 529900.0, 7261740.087148198857903 ], [ 529890.0, 7261750.011174176819623 ], [ 529880.0, 7261760.000892210751772 ], [ 529870.000892210751772, 7261770.0 ], [ 529860.011174176470377, 7261780.0 ], [ 529850.087148198392242, 7261790.0 ], [ 529840.447983889840543, 7261800.0 ], [ 529831.551677605137229, 7261810.0 ], [ 529823.758219123352319, 7261820.0 ], [ 529816.78897935221903, 7261830.0 ], [ 529810.098322374979034, 7261840.000000000931323 ], [ 529803.758219123352319, 7261850.0 ], [ 529798.242334582377225, 7261860.0 ], [ 529793.757326912600547, 7261870.0 ], [ 529790.087148198392242, 7261880.0 ], [ 529786.700938942958601, 7261890.0 ], [ 529783.299953267676756, 7261900.0 ], [ 529779.924025977961719, 7261910.0 ], [ 529776.329821285791695, 7261920.0 ], [ 529772.205649307463318, 7261930.0 ], [ 529767.793458481901325, 7261940.0 ], [ 529763.659896748373285, 7261950.0 ], [ 529759.999107789364643, 7261960.0 ], [ 529756.329821285791695, 7261970.0 ], [ 529752.130567496176809, 7261980.0 ], [ 529747.433515001204796, 7261990.0 ], [ 529742.566484998911619, 7262000.0 ], [ 529737.869432503823191, 7262010.0 ], [ 529733.670178714208305, 7262020.0 ], [ 529730.0, 7262030.0 ], [ 529726.329821285791695, 7262040.0 ], [ 529722.129675285541452, 7262050.0 ], [ 529717.423233035369776, 7262060.0 ], [ 529712.490510976873338, 7262070.0 ], [ 529707.509489023126662, 7262080.0 ], [ 529702.576766964746639, 7262090.0 ], [ 529697.871216925210319, 7262100.0 ], [ 529693.680460680043325, 7262110.0 ], [ 529690.075974022038281, 7262120.0 ], [ 529686.68976476660464, 7262130.0 ], [ 529683.22397924575489, 7262140.0 ], [ 529679.563190286629833, 7262150.0 ], [ 529675.226127570495009, 7262160.0 ], [ 529670.0, 7262170.0 ], [ 529664.774764640256763, 7262180.0 ], [ 529660.447983889840543, 7262189.999107789248228 ], [ 529656.864061163505539, 7262199.987933613359928 ], [ 529653.768501089187339, 7262209.900785414502025 ], [ 529651.552569815889001, 7262219.453693735413253 ], [ 529650.447983889840543, 7262227.913190307095647 ], [ 529650.087148198392242, 7262234.243011592887342 ] ] } },
{ "type": "Feature", "properties": { "id": 13, "reference_id": 5, "dune_id": 5, "dune_name": "The Star Dune", "acquisition_date": "2024-02-03", "length_m": 1137.0758313031631 }, "geometry": { "type": "LineString", "coordinates": [ [ 534334.789317857124843, 7261305.756988408043981 ], [ 534330.0, 7261312.086809693835676 ], [ 534325.210682142991573, 7261320.546306264586747 ], [ 534321.987595107872039, 7261330.099214585497975 ], [ 534320.534239877597429, 7261340.012066386640072 ], [ 534320.098322374862619, 7261350.000892210751772 ], [ 534320.012066387105733, 7261360.0 ], [ 534320.000892210751772, 7261370.0 ], [ 534320.000892210751772, 7261380.0 ], [ 534320.011174176470377, 7261390.0 ], [ 534320.087148198392242, 7261400.0 ], [ 534320.447091679205187, 7261410.0 ], [ 534321.540503428666852, 7261420.0 ], [ 534323.670178714208305, 7261430.0 ], [ 534326.329821285791695, 7261440.0 ], [ 534328.459496571333148, 7261450.0 ], [ 534329.552908320794813, 7261460.0 ], [ 534329.912851801607758, 7261470.000000000931323 ], [ 534329.988825823529623, 7261480.0 ], [ 534329.999107789364643, 7261490.0 ], [ 534329.999107789364643, 7261500.0 ], [ 534329.987933612894267, 7261510.0 ], [ 534329.900785414385609, 7261520.0 ], [ 534329.453693735296838, 7261530.0 ], [ 534327.91319030651357, 7261540.0 ], [ 534324.243011592421681, 7261550.0 ], [ 534317.91319030651357, 7261560.000000000931323 ], [ 534309.453693735296838, 7261569.999107789248228 ], [ 534299.900785414502025, 7261579.9888258241117 ], [ 534289.987933612894267, 7261589.911959591321647 ], [ 534279.999107789248228, 7261599.541734145022929 ], [ 534270.0, 7261608.372348373755813 ], [ 534260.0, 7261615.881837395951152 ], [ 534250.0, 7261622.118501109071076 ], [ 534240.0, 7261627.782284305430949 ], [ 534230.0, 7261633.658112327568233 ], [ 534220.0, 7261639.9888258241117 ], [ 534210.0, 7261646.252955053932965 ], [ 534200.0, 7261651.758557628840208 ], [ 534190.0, 7261656.241780877113342 ], [ 534180.0, 7261659.902569836005569 ], [ 534170.0, 7261663.222194824367762 ], [ 534160.0, 7261666.328929075971246 ], [ 534150.0, 7261668.895414074882865 ], [ 534140.0, 7261671.092519538477063 ], [ 534130.0, 7261673.583922727033496 ], [ 534120.0, 7261676.329821285791695 ], [ 534110.0, 7261678.545752558857203 ], [ 534100.0, 7261680.0 ], [ 534090.0, 7261681.453355230391026 ], [ 534080.0, 7261683.659004537388682 ], [ 534070.0, 7261686.328929075971246 ], [ 534060.0, 7261688.459496572613716 ], [ 534050.0, 7261689.553800532594323 ], [ 534040.0, 7261689.924025978893042 ], [ 534030.0, 7261690.075974022038281 ], [ 534020.0, 7261690.446199469268322 ], [ 534010.0, 7261691.541395640000701 ], [ 534000.0, 7261693.681352891027927 ], [ 533990.0, 7261696.416969484649599 ], [ 533980.0, 7261698.907480461522937 ], [ 533970.0, 7261701.10458592697978 ], [ 533960.0, 7261703.670178714208305 ], [ 533950.0, 7261706.766630999743938 ], [ 533940.0, 7261710.010281965136528 ], [ 533930.0, 7261713.311127444729209 ], [ 533920.0, 7261716.700938943773508 ], [ 533910.0, 7261720.076866232790053 ], [ 533900.0, 7261723.680460680276155 ], [ 533890.0, 7261727.871216925792396 ], [ 533880.0, 7261732.576766965910792 ], [ 533870.0, 7261737.510381234809756 ], [ 533860.0, 7261742.501685153692961 ], [ 533850.0, 7261747.511273445561528 ], [ 533840.0, 7261752.58794114086777 ], [ 533830.0, 7261757.958365123718977 ], [ 533820.0, 7261764.128444569185376 ], [ 533810.000892210635357, 7261771.628543837927282 ], [ 533800.011174176470377, 7261780.458265855908394 ], [ 533790.088040409144014, 7261790.088040409609675 ], [ 533780.45915806631092, 7261800.011174176819623 ], [ 533771.638825803645886, 7261810.000892210751772 ], [ 533764.205310802557506, 7261820.0 ], [ 533758.329482780885883, 7261830.0 ], [ 533753.768501089187339, 7261840.000000000931323 ], [ 533750.088040409144014, 7261850.0 ], [ 533746.700938942958601, 7261860.0 ], [ 533743.299953267676756, 7261870.0 ], [ 533739.923133767442778, 7261880.0 ], [ 533736.31953932007309, 7261890.0 ], [ 533732.128783074906096, 7261900.0 ], [ 533727.423233035253361, 7261910.0 ], [ 533722.489618766237982, 7261920.0 ], [ 533717.499207057291642, 7261930.0 ], [ 533712.499900731956586, 7261940.0 ], [ 533707.499207057408057, 7261950.0 ], [ 533702.489618766237982, 7261960.0 ], [ 533697.423233035369776, 7261970.0 ], [ 533692.129675285541452, 7261980.0 ], [ 533686.330267391167581, 7261989.999553894624114 ], [ 533680.005587088293396, 7261999.993520701304078 ], [ 533673.714645024156198, 7262009.944359513930976 ], [ 533668.105044730589725, 7262019.677239574491978 ], [ 533663.435059088165872, 7262028.683442020788789 ], [ 533659.803736446541734, 7262036.078100949525833 ], [ 533657.294247423415072, 7262041.078100949525833 ] ] } },
{ "type": "Feature", "properties": { "id": 14, "reference_id": 6, "dune_id": 6, "dune_name": "The Star Dune", "acquisition_date": "2024-02-03", "length_m": 896.66573440676109 }, "geometry": { "type": "LineString", "coordinates": [ [ 533653.165802853647619, 7262048.921899050474167 ], [ 533651.846263533574529, 7262053.921899050474167 ], [ 533650.857399912783876, 7262061.316557979211211 ], [ 533650.670637518749572, 7262070.322760425508022 ], [ 533651.584077527979389, 7262080.055640487000346 ], [ 533653.675765802385285, 7262090.006479298695922 ], [ 533656.330267391167581, 7262100.000446105375886 ], [ 533658.459496571216732, 7262110.0 ], [ 533659.552908320911229, 7262120.0 ], [ 533659.912851801607758, 7262130.0 ], [ 533659.988825823529623, 7262140.0 ], [ 533659.999107789248228, 7262150.0 ], [ 533660.0, 7262160.0 ], [ 533660.0, 7262170.0 ], [ 533660.000892210751772, 7262180.0 ], [ 533660.011174176470377, 7262190.0 ], [ 533660.087148198392242, 7262200.0 ], [ 533660.447091679088771, 7262210.0 ], [ 533661.540503428783268, 7262220.0 ], [ 533663.671070924960077, 7262230.0 ], [ 533666.340995462378487, 7262240.0 ], [ 533668.546644769841805, 7262250.0 ], [ 533670.0, 7262260.0 ], [ 533671.453355230391026, 7262270.0 ], [ 533673.659004537737928, 7262280.0 ], [ 533676.328929075156339, 7262290.0 ], [ 533678.459496571333148, 7262300.0 ], [ 533679.552016110159457, 7262310.0 ], [ 533679.901677625137381, 7262320.0 ], [ 533679.901677625137381, 7262330.0 ], [ 533679.552016110159457, 7262340.000000000931323 ], [ 533678.458604360697791, 7262350.0 ], [ 533676.318647109437734, 7262360.0 ], [ 533673.583030515816063, 7262370.0 ], [ 533671.093411749578081, 7262380.0 ], [ 533668.905696039786562, 7262390.0 ], [ 533666.405795307829976, 7262400.0 ], [ 533663.594204692286439, 7262410.0 ], [ 533661.093411749578081, 7262420.0 ], [ 533658.895414073951542, 7262430.0 ], [ 533656.329821285791695, 7262440.0 ], [ 533653.234261211473495, 7262450.0 ], [ 533650.0, 7262460.0 ], [ 533646.765738788526505, 7262470.0 ], [ 533643.670178714208305, 7262480.0 ], [ 533641.104585926048458, 7262490.0 ], [ 533638.906588250538334, 7262500.0 ], [ 533636.405795307829976, 7262510.0 ], [ 533633.594204692286439, 7262520.0 ], [ 533631.094303960213438, 7262530.0 ], [ 533628.905696039786562, 7262540.0 ], [ 533626.405795307713561, 7262550.0 ], [ 533623.594204692170024, 7262560.0 ], [ 533621.094303960213438, 7262570.0 ], [ 533618.906588250421919, 7262580.0 ], [ 533616.416969484183937, 7262590.0 ], [ 533613.680460680043325, 7262600.000000000931323 ], [ 533611.530221462948248, 7262610.0 ], [ 533610.359943480696529, 7262620.0 ], [ 533609.640056519303471, 7262630.0 ], [ 533608.470670747803524, 7262640.0 ], [ 533606.330713496543467, 7262650.0 ], [ 533603.670178714208305, 7262660.0 ], [ 533601.540503428783268, 7262670.0 ], [ 533600.44619946856983, 7262680.0 ], [ 533600.075974022038281, 7262690.0 ], [ 533599.924025978078134, 7262700.0 ], [ 533599.553800531546585, 7262710.0 ], [ 533598.459496571216732, 7262720.0 ], [ 533596.328929075039923, 7262730.0 ], [ 533593.659004537737928, 7262740.0 ], [ 533591.452463019639254, 7262750.0 ], [ 533589.988825823529623, 7262760.0 ], [ 533588.459496571216732, 7262770.0 ], [ 533585.893011572421528, 7262780.0 ], [ 533582.119393319706433, 7262790.0 ], [ 533577.783176516182721, 7262800.0 ], [ 533573.669286503572948, 7262810.0 ], [ 533570.075974022038281, 7262820.0 ], [ 533566.700938943075016, 7262830.0 ], [ 533563.311127444147132, 7262840.0 ], [ 533560.011174176470377, 7262850.0 ], [ 533556.776912964996882, 7262860.0 ], [ 533553.746152736246586, 7262870.000000000931323 ], [ 533551.464529406744987, 7262879.999107789248228 ], [ 533550.000892210751772, 7262889.987933613359928 ], [ 533548.54664476972539, 7262899.900785414502025 ], [ 533546.340995462378487, 7262909.453693736344576 ], [ 533543.671070924960077, 7262917.913190307095647 ], [ 533541.540503428783268, 7262924.243011591956019 ] ] } },
{ "type": "Feature", "properties": { "id": 15, "reference_id": 4, "dune_id": 4, "dune_name": "The Star Dune", "acquisition_date": "2024-02-03", "length_m": 195.05862206365066 }, "geometry": { "type": "LineString", "coordinates": [ [ 533194.243011592305265, 7261909.912851802073419 ], [ 533187.91319030651357, 7261909.552016111090779 ], [ 533179.453693735180423, 7261908.448322394862771 ], [ 533169.900785414502025, 7261906.242673087865114 ], [ 533159.987933612894267, 7261903.223087035119534 ], [ 533149.999107789364643, 7261899.999107789248228 ], [ 533140.0, 7261896.765738788992167 ], [ 533130.0, 7261893.670178715139627 ], [ 533120.0, 7261891.103693716228008 ], [ 533110.0, 7261888.896306285634637 ], [ 533100.0, 7261886.329821285791695 ], [ 533090.0, 7261883.234261211007833 ], [ 533080.0, 7261880.000892210751772 ], [ 533070.0, 7261876.776020754128695 ], [ 533060.0, 7261873.746152736246586 ], [ 533050.000892210751772, 7261871.464529407210648 ], [ 533040.012066387105733, 7261870.000892210751772 ], [ 533030.099214585614391, 7261868.546644769608974 ], [ 533020.546306264819577, 7261866.340995462611318 ], [ 533012.08680969348643, 7261863.671070925891399 ], [ 533005.756988407694735, 7261861.540503429248929 ] ] } },
{ "type": "Feature", "properties": { "id": 16, "reference_id": 2, "dune_id": 2, "dune_name": "Big Mommy Dune", "acquisition_date": "2024-02-03", "length_m": 369.02538973705981 }, "geometry": { "type": "LineString", "coordinates": [ [ 528754.243011592305265, 7260848.37234837282449 ], [ 528747.91319030651357, 7260845.881837395951152 ], [ 528739.453693735180423, 7260842.118501109071076 ], [ 528729.900785414502025, 7260837.782284305430949 ], [ 528719.987933612894267, 7260833.659004537388682 ], [ 528709.999107789248228, 7260829.999107789248228 ], [ 528700.0, 7260826.329821285791695 ], [ 528690.0, 7260822.129675285890698 ], [ 528680.0, 7260817.422340825200081 ], [ 528670.0, 7260812.479336800053716 ], [ 528660.0, 7260807.422340825200081 ], [ 528650.0, 7260802.129675285890698 ], [ 528640.0, 7260796.329821286723018 ], [ 528630.0, 7260789.999107789248228 ], [ 528620.0, 7260783.659896748140454 ], [ 528610.0, 7260777.793458482250571 ], [ 528600.0, 7260772.205649307928979 ], [ 528590.0, 7260766.329821285791695 ], [ 528580.0, 7260759.924025977030396 ], [ 528570.0, 7260753.299061057157815 ], [ 528560.0, 7260746.689764766953886 ], [ 528550.0, 7260740.0 ], [ 528540.0, 7260733.309343023225665 ], [ 528530.0, 7260726.690656976774335 ], [ 528520.0, 7260720.0 ], [ 528510.0, 7260713.309343023225665 ], [ 528500.0, 7260706.690656977705657 ], [ 528490.0, 7260700.000000000931323 ], [ 528480.000892210751772, 7260693.310235233977437 ], [ 528470.012066387105733, 7260686.70183115452528 ], [ 528460.099214585614391, 7260680.088040409609675 ], [ 528450.546306264819577, 7260673.768501089885831 ], [ 528442.08680969348643, 7260668.329482780769467 ], [ 528435.756988407694735, 7260664.205310802906752 ] ] } },
{ "type": "Feature", "properties": { "id": 17, "reference_id": 2, "dune_id": 2, "dune_name": "Big Mommy Dune", "acquisition_date": "2024-02-03", "length_m": 92.894754170097627 }, "geometry": { "type": "LineString", "coordinates": [ [ 528785.756988407694735, 7260861.551677605137229 ], [ 528792.08680969348643, 7260863.757326913066208 ], [ 528800.546306264819577, 7260866.777805175632238 ], [ 528810.099214585614391, 7260870.011174176819623 ], [ 528820.012066387222148, 7260873.310235233977437 ], [ 528830.0, 7260876.689764766953886 ], [ 528839.987933612894267, 7260879.9888258241117 ], [ 528849.900785414502025, 7260883.222194824367762 ], [ 528859.453693735296838, 7260886.242673087865114 ], [ 528867.91319030651357, 7260888.448322394862771 ], [ 528874.243011592305265, 7260889.552016110159457 ] ] } }
]
}
