{
"type": "FeatureCollection",
"name": "crests_2023_08_2023-08-07",
"crs": { "type": "name", "properties": { "name": "urn:ogc:def:crs:EPSG::32733" } },
"features": [
{ "type": "Feature", "properties": { "id": 0, "reference_id": 1, "dune_id": 1, "dune_name": "Big Mommy Dune", "acquisition_date": "2023-08-07", "length_m": 489.71630948798395 }, "geometry": { "type": "LineString", "coordinates": [ [ 529099.988825823646039, 7261845.756988408043981 ], [ 529099.911959590855986, 7261852.086809693835676 ], [ 529099.541734144324437, 7261860.546306265518069 ], [ 529098.371456162305549, 7261870.099214585497975 ], [ 529095.870663219597191, 7261880.012066386640072 ], [ 529092.031352910562418, 7261890.000892210751772 ], [ 529087.335192626225762, 7261900.0 ], [ 529082.118501109071076, 7261910.0 ], [ 529076.328929075039923, 7261920.0 ], [ 529069.999107789364643, 7261930.0 ], [ 529063.659896748373285, 7261940.0 ], [ 529057.793458481901325, 7261950.0 ], [ 529052.206541518098675, 7261960.0 ], [ 529046.3401032515103, 7261970.0 ], [ 529040.000892210751772, 7261980.0 ], [ 529033.671070924960077, 7261990.0 ], [ 529027.880606680409983, 7262000.0 ], [ 529022.653633197303861, 7262010.0 ], [ 529017.880606680409983, 7262020.0 ], [ 529013.671070924960077, 7262030.0 ], [ 529010.000892210751772, 7262040.0 ], [ 529006.340103251626715, 7262050.0 ], [ 529002.205649307463318, 7262060.0 ], [ 528997.783176516182721, 7262070.0 ], [ 528993.583030515816063, 7262080.0 ], [ 528989.628882342833094, 7262090.0 ], [ 528985.159543303656392, 7262100.0 ], [ 528979.628882342833094, 7262110.0 ], [ 528973.582138305064291, 7262120.0 ], [ 528967.772002339712344, 7262130.0 ], [ 528962.117608898319304, 7262139.999107789248228 ], [ 528955.881837395951152, 7262149.9888258241117 ], [ 528948.37234837282449, 7262159.912851801142097 ], [ 528939.541734144440852, 7262169.552016111090779 ], [ 528929.911959590972401, 7262178.448322394862771 ], [ 528919.988825823529623, 7262186.241780877113342 ], [ 528909.999107789248228, 7262193.211912859231234 ], [ 528900.0, 7262199.912851802073419 ], [ 528890.0, 7262206.328929075039923 ], [ 528880.000892210751772, 7262212.204757097177207 ], [ 528870.012066387105733, 7262217.782284306362271 ], [ 528860.099214585614391, 7262223.571856339462101 ], [ 528850.546306264819577, 7262229.540841933339834 ], [ 528842.086809693370014, 7262234.701277447864413 ], [ 528835.756988407694735, 7262238.001230715774 ] ] } },
{ "type": "Feature", "properties": { "id": 1, "reference_id": 1, "dune_id": 1, "dune_name": "Big Mommy Dune", "acquisition_date": "2023-08-07", "length_m": 752.4536117969792 }, "geometry": { "type": "LineString", "coordinates": [ [ 529086.317754898685962, 7261814.243011592887342 ], [ 529083.571856339229271, 7261807.913190307095647 ], [ 529081.005371340317652, 7261799.453693735413253 ], [ 529078.447430184110999, 7261789.900785414502025 ], [ 529074.778143680654466, 7261779.987933613359928 ], [ 529069.476042088237591, 7261769.999107789248228 ], [ 529063.212805069284514, 7261760.0 ], [ 529056.68976476660464, 7261750.0 ], [ 529050.086255987756886, 7261740.0 ], [ 529043.757326912600547, 7261730.000000000931323 ], [ 529038.242334582377225, 7261720.0 ], [ 529033.758219123352319, 7261710.0 ], [ 529030.098322374979034, 7261700.0 ], [ 529026.78897935221903, 7261690.0 ], [ 529023.758219123352319, 7261680.0 ], [ 529021.551677605137229, 7261670.0 ], [ 529020.447983889840543, 7261660.0 ], [ 529020.087148198508658, 7261650.0 ], [ 529020.011174176470377, 7261640.0 ], [ 529020.000892210751772, 7261630.0 ], [ 529020.0, 7261620.0 ], [ 529020.0, 7261610.0 ], [ 529020.0, 7261600.0 ], [ 529020.000892210751772, 7261590.0 ], [ 529020.011174176470377, 7261580.0 ], [ 529020.087148198508658, 7261570.0 ], [ 529020.447091679205187, 7261560.000000000931323 ], [ 529021.541395639418624, 7261550.0 ], [ 529023.681352890678681, 7261540.0 ], [ 529026.416969484183937, 7261530.0 ], [ 529028.907480461173691, 7261520.0 ], [ 529031.104585926048458, 7261510.0 ], [ 529033.670178714208305, 7261500.0 ], [ 529036.766630999278277, 7261490.0 ], [ 529040.01028196583502, 7261480.0 ], [ 529043.31023523339536, 7261470.000000000931323 ], [ 529046.690656977239996, 7261460.0 ], [ 529050.0, 7261450.0 ], [ 529053.310235233511776, 7261440.0 ], [ 529056.700938943075016, 7261430.0 ], [ 529060.075974022038281, 7261420.0 ], [ 529063.670178714208305, 7261410.0 ], [ 529067.794350692536682, 7261400.0 ], [ 529072.20654151821509, 7261390.0 ], [ 529076.340103251626715, 7261380.0 ], [ 529080.000892210751772, 7261370.0 ], [ 529083.670178714208305, 7261360.0 ], [ 529087.869432503823191, 7261350.0 ], [ 529092.566484998911619, 7261340.0 ], [ 529097.433515001204796, 7261330.0 ], [ 529102.130567496176809, 7261320.0 ], [ 529106.329821285791695, 7261310.000000000931323 ], [ 529110.0, 7261300.0 ], [ 529113.670178714208305, 7261290.0 ], [ 529117.869432503939606, 7261280.0 ], [ 529122.566484998911619, 7261270.0 ], [ 529127.433515001204796, 7261260.0 ], [ 529132.130567496176809, 7261250.0 ], [ 529136.329821285791695, 7261240.0 ], [ 529139.999107789364643, 7261230.0 ], [ 529143.659896748373285, 7261220.0 ], [ 529147.793458481901325, 7261210.000000000931323 ], [ 529152.205649307463318, 7261200.0 ], [ 529156.329821285791695, 7261190.0 ], [ 529159.924025978078134, 7261180.0 ], [ 529163.299061057041399, 7261170.0 ], [ 529166.688872555969283, 7261160.0 ], [ 529169.988825823529623, 7261150.000892210751772 ], [ 529173.222194824367762, 7261140.012066387571394 ], [ 529176.242673087399453, 7261130.099214586429298 ], [ 529178.448322394862771, 7261120.546306265518069 ], [ 529179.552016110159457, 7261112.086809692904353 ], [ 529179.912851801607758, 7261105.756988408043981 ] ] } },
{ "type": "Feature", "properties": { "id": 2, "reference_id": 1, "dune_id": 1, "dune_name": "Big Mommy Dune", "acquisition_date": "2023-08-07", "length_m": 76.273361026106272 }, "geometry": { "type": "LineString", "coordinates": [ [ 529189.988825823529623, 7261074.243011591956019 ], [ 529189.912851801607758, 7261067.913190307095647 ], [ 529189.552908320911229, 7261059.453693735413253 ], [ 529188.459496571333148, 7261049.901231519877911 ], [ 529186.329821285791695, 7261039.99441291205585 ], [ 529183.670178714208305, 7261030.054748276248574 ], [ 529181.540503428783268, 7261020.322760425508022 ], [ 529180.447091679205187, 7261011.316557979211211 ], [ 529180.087148198392242, 7261003.921899050474167 ], [ 529180.011174176470377, 7260998.921899050474167 ] ] } },
{ "type": "Feature", "properties": { "id": 3, "reference_id": 8, "dune_id": 8, "dune_name": "Inverted Y Dune", "acquisition_date": "2023-08-07", "length_m": 428.51911418887778 }, "geometry": { "type": "LineString", "coordinates": [ [ 530264.243011592421681, 7261221.638825803995132 ], [ 530257.913190306629986, 7261224.205310802906752 ], [ 530249.453693735180423, 7261228.329482780769467 ], [ 530239.900785414502025, 7261233.76939329970628 ], [ 530229.987933612777852, 7261240.099214585497975 ], [ 530220.0, 7261246.788979351520538 ], [ 530210.011174176470377, 7261253.75821912381798 ], [ 530200.087148198392242, 7261261.551677605137229 ], [ 530190.447983889840543, 7261270.447983890771866 ], [ 530181.552569815889001, 7261280.087148198857903 ], [ 530173.768501089187339, 7261290.0111741758883 ], [ 530166.864953374140896, 7261300.000892210751772 ], [ 530160.45915806631092, 7261310.000000000931323 ], [ 530154.861912838649005, 7261320.0 ], [ 530150.447983889840543, 7261330.0 ], [ 530146.777805175632238, 7261340.0 ], [ 530143.321409409982152, 7261350.0 ], [ 530140.012066387222148, 7261360.0 ], [ 530136.776912964996882, 7261370.0 ], [ 530133.746152736246586, 7261380.0 ], [ 530131.464529406744987, 7261390.0 ], [ 530130.000892210751772, 7261400.0 ], [ 530128.54664476972539, 7261410.0 ], [ 530126.340103251626715, 7261420.0 ], [ 530123.659896748373285, 7261430.0 ], [ 530121.45335523027461, 7261440.0 ], [ 530120.0, 7261450.0 ], [ 530118.54664476972539, 7261460.0 ], [ 530116.340995462262072, 7261470.000000000931323 ], [ 530113.670178714208305, 7261480.0 ], [ 530111.529329252312891, 7261490.0 ], [ 530110.359943480812944, 7261500.0 ], [ 530109.640056519303471, 7261510.0 ], [ 530108.470670747803524, 7261520.0 ], [ 530106.330713496543467, 7261530.0 ], [ 530103.669732608832419, 7261539.999553894624114 ], [ 530101.534916340489872, 7261549.993520701304078 ], [ 530100.403517580009066, 7261559.944359513930976 ], [ 530099.863602358847857, 7261569.6772395754233 ], [ 530099.240922462078743, 7261578.683442020788789 ], [ 530098.165802853647619, 7261586.078100949525833 ], [ 530096.835089357104152, 7261591.078100949525833 ] ] } },
{ "type": "Feature", "properties": { "id": 4, "reference_id": 8, "dune_id": 8, "dune_name": "Inverted Y Dune", "acquisition_date": "2023-08-07", "length_m": 69.500838252453036 }, "geometry": { "type": "LineString", "coordinates": [ [ 530295.756988407694735, 7261209.999107790179551 ], [ 530302.08680969348643, 7261209.9888258241117 ], [ 530310.546306264819577, 7261209.912851802073419 ], [ 530320.098322374979034, 7261209.552908320911229 ], [ 530330.0, 7261208.459496571682394 ], [ 530339.901677625137381, 7261206.329821285791695 ], [ 530349.453693735180423, 7261203.670178713276982 ], [ 530357.91319030651357, 7261201.540503428317606 ], [ 530364.243011592305265, 7261200.447091678157449 ] ] } },
{ "type": "Feature", "properties": { "id": 5, "reference_id": 8, "dune_id": 8, "dune_name": "Inverted Y Dune", "acquisition_date": "2023-08-07", "length_m": 168.2762691802854 }, "geometry": { "type": "LineString", "coordinates": [ [ 530554.243011592305265, 7261171.999661495909095 ], [ 530547.91319030651357, 7261175.309004518203437 ], [ 530539.453693735296838, 7261180.534239877015352 ], [ 530529.900785414385609, 7261186.776912964880466 ], [ 530519.987933612894267, 7261193.223087035119534 ], [ 530509.999107789248228, 7261199.465760122984648 ], [ 530500.0, 7261204.690995481796563 ], [ 530490.0, 7261208.00033850595355 ], [ 530480.0, 7261209.464867912232876 ], [ 530470.0, 7261209.901677625253797 ], [ 530460.0, 7261209.987933613359928 ], [ 530450.0, 7261209.999107790179551 ], [ 530440.000892210751772, 7261210.000000000931323 ], [ 530430.012066387222148, 7261210.000000000931323 ], [ 530420.099214585614391, 7261210.000000000931323 ], [ 530410.546306264819577, 7261210.000000000931323 ], [ 530402.08680969348643, 7261210.000000000931323 ], [ 530395.756988407694735, 7261210.000000000931323 ] ] } },
{ "type": "Feature", "properties": { "id": 6, "reference_id": 9, "dune_id": 9, "dune_name": "Inverted Y Dune", "acquisition_date": "2023-08-07", "length_m": 759.07550035426925 }, "geometry": { "type": "LineString", "coordinates": [ [ 530091.525192628614604, 7261598.910724874585867 ], [ 530087.618604378192686, 7261603.833858641795814 ], [ 530082.353620734997094, 7261610.858292123302817 ], [ 530076.007060860632919, 7261618.695108798332512 ], [ 530068.403856084914878, 7261625.937477882951498 ], [ 530059.546429021982476, 7261632.12498040869832 ], [ 530049.912405696231872, 7261637.782730410806835 ], [ 530039.988825823529623, 7261643.659004538320005 ], [ 530029.999107789248228, 7261650.0 ], [ 530020.0, 7261656.340103251859546 ], [ 530010.0, 7261662.206541518680751 ], [ 530000.0, 7261667.794350693002343 ], [ 529990.0, 7261673.670178714208305 ], [ 529980.0, 7261680.075974022038281 ], [ 529970.0, 7261686.700938943773508 ], [ 529960.0, 7261693.311127444729209 ], [ 529950.0, 7261700.011174177750945 ], [ 529940.0, 7261706.777805175632238 ], [ 529930.0, 7261713.757326913066208 ], [ 529920.0, 7261721.551677605137229 ], [ 529910.0, 7261730.447983890771866 ], [ 529900.0, 7261740.087148198857903 ], [ 529890.0, 7261750.011174176819623 ], [ 529880.0, 7261760.000892210751772 ], [ 529870.000892210751772, 7261770.0 ], [ 529860.011174176470377, 7261780.0 ], [ 529850.087148198392242, 7261790.0 ], [ 529840.447983889840543, 7261800.0 ], [ 529831.551677605137229, 7261810.0 ], [ 529823.758219123352319, 7261820.0 ], [ 529816.78897935221903, 7261830.0 ], [ 529810.098322374979034, 7261840.000000000931323 ], [ 529803.758219123352319, 7261850.0 ], [ 529798.242334582377225, 7261860.0 ], [ 529793.757326912600547, 7261870.0 ], [ 529790.087148198392242, 7261880.0 ], [ 529786.700938942958601, 7261890.0 ], [ 529783.299953267676756, 7261900.0 ], [ 529779.924025977961719, 7261910.0 ], [ 529776.329821285791695, 7261920.0 ], [ 529772.205649307463318, 7261930.0 ], [ 529767.793458481901325, 7261940.0 ], [ 529763.659896748373285, 7261950.0 ], [ 529759.999107789364643, 7261960.0 ], [ 529756.329821285791695, 7261970.0 ], [ 529752.129675285425037, 7261980.0 ], [ 529747.423233035369776, 7261990.0 ], [ 529742.490510976989754, 7262000.0 ], [ 529737.509489023126662, 7262010.0 ], [ 529732.576766964630224, 7262020.0 ], [ 529727.870324714574963, 7262030.0 ], [ 529723.670178714208305, 7262040.0 ], [ 529720.0, 7262050.0 ], [ 529716.329821285791695, 7262060.0 ], [ 529712.130567496176809, 7262070.0 ], [ 529707.433515001088381, 7262080.0 ], [ 529702.566484998911619, 7262090.0 ], [ 529697.869432503823191, 7262100.0 ], [ 529693.670178714208305, 7262110.0 ], [ 529690.000892210751772, 7262120.0 ], [ 529686.340103251626715, 7262130.0 ], [ 529682.20654151821509, 7262140.0 ], [ 529677.794350692536682, 7262149.999107789248228 ], [ 529673.671070924960077, 7262159.987933613359928 ], [ 529670.087148198508658, 7262169.900785414502025 ], [ 529666.788087141467258, 7262179.453693735413253 ], [ 529663.758219123352319, 7262187.913190307095647 ], [ 529661.551677605137229, 7262194.243011591956019 ] ] } },
{ "type": "Feature", "properties": { "id": 7, "reference_id": 4, "dune_id": 4, "dune_name": "The Star Dune", "acquisition_date": "2023-08-07", "length_m": 648.29676780577199 }, "geometry": { "type": "LineString", "coordinates": [ [ 533005.756988407694735, 7261870.447091680020094 ], [ 533012.08680969348643, 7261871.540503429248929 ], [ 533020.546306264819577, 7261873.671070925891399 ], [ 533030.099214585614391, 7261876.340995462611318 ], [ 533040.012066387105733, 7261878.546644769608974 ], [ 533050.000892210751772, 7261880.0 ], [ 533060.0, 7261881.453355230391026 ], [ 533070.0, 7261883.659896748140454 ], [ 533080.0, 7261886.340103251859546 ], [ 533090.0, 7261888.546644769608974 ], [ 533100.0, 7261890.000892210751772 ], [ 533110.0, 7261891.464529407210648 ], [ 533120.0, 7261893.746152736246586 ], [ 533130.0, 7261896.776912964880466 ], [ 533140.0, 7261900.0111741758883 ], [ 533150.0, 7261903.310235233977437 ], [ 533160.0, 7261906.689764766953886 ], [ 533170.0, 7261909.989718034863472 ], [ 533180.0, 7261913.233369002118707 ], [ 533190.0, 7261916.329821286723018 ], [ 533200.0, 7261918.895414073951542 ], [ 533210.0, 7261921.093411749228835 ], [ 533220.0, 7261923.594204692170024 ], [ 533230.0, 7261926.405795307829976 ], [ 533240.0, 7261928.906588250771165 ], [ 533250.0, 7261931.104585926048458 ], [ 533260.0, 7261933.670178715139627 ], [ 533270.0, 7261936.765738788992167 ], [ 533280.0, 7261940.0 ], [ 533290.0, 7261943.234261211007833 ], [ 533300.0, 7261946.329821284860373 ], [ 533310.0, 7261948.896306285634637 ], [ 533320.0, 7261951.103693716228008 ], [ 533330.0, 7261953.670178715139627 ], [ 533340.0, 7261956.766630999743938 ], [ 533350.0, 7261960.010281966999173 ], [ 533360.0, 7261963.310235233977437 ], [ 533370.0, 7261966.690656977705657 ], [ 533380.000000000116415, 7261970.0 ], [ 533390.0, 7261973.309343023225665 ], [ 533400.000000000116415, 7261976.690656977705657 ], [ 533410.0, 7261980.0 ], [ 533420.0, 7261983.309343023225665 ], [ 533430.0, 7261986.690656976774335 ], [ 533440.0, 7261990.0 ], [ 533450.0, 7261993.310235233977437 ], [ 533460.0, 7261996.700938943773508 ], [ 533470.0, 7262000.076866233721375 ], [ 533480.0, 7262003.680460680276155 ], [ 533490.0, 7262007.871216924861073 ], [ 533500.0, 7262012.576766964048147 ], [ 533510.0, 7262017.510381234809756 ], [ 533520.0, 7262022.500792942941189 ], [ 533530.0, 7262027.499207057058811 ], [ 533540.0, 7262032.488726556301117 ], [ 533550.0, 7262037.412951069884002 ], [ 533560.0, 7262042.052809053100646 ], [ 533570.0, 7262045.957811417989433 ], [ 533579.999107789364643, 7262048.80737366527319 ], [ 533589.987933612894267, 7262050.995089374482632 ], [ 533599.900785414385609, 7262053.135046626441181 ], [ 533609.453693735180423, 7262054.778143681585789 ], [ 533617.91319030651357, 7262054.788425646722317 ], [ 533624.243011592305265, 7262053.223087035119534 ] ] } },
{ "type": "Feature", "properties": { "id": 8, "reference_id": 3, "dune_id": 3, "dune_name": "Big Mommy Dune", "acquisition_date": "2023-08-07", "length_m": 1042.5195373188631 }, "geometry": { "type": "LineString", "coordinates": [ [ 529180.011174176470377, 7260991.078100949525833 ], [ 529180.088040409144014, 7260986.078100949525833 ], [ 529180.45915806631092, 7260978.683442020788789 ], [ 529181.638825803645886, 7260969.6772395754233 ], [ 529184.205310802557506, 7260959.944359514862299 ], [ 529188.329482780885883, 7260949.993520701304078 ], [ 529193.768501089070924, 7260939.999553894624114 ], [ 529200.088040409144014, 7260930.0 ], [ 529206.701831153710373, 7260920.0 ], [ 529213.310235233511776, 7260910.0 ], [ 529220.0, 7260900.0 ], [ 529226.689764766488224, 7260890.0 ], [ 529233.299061056924984, 7260880.0 ], [ 529239.924025977961719, 7260870.0 ], [ 529246.32982128590811, 7260860.0 ], [ 529252.205649307463318, 7260850.0 ], [ 529257.794350692653097, 7260840.0 ], [ 529263.670178714208305, 7260830.0 ], [ 529270.075974022038281, 7260820.0 ], [ 529276.700938943075016, 7260810.0 ], [ 529283.311127444263548, 7260800.0 ], [ 529290.011174176470377, 7260790.0 ], [ 529296.777805175632238, 7260780.000000000931323 ], [ 529303.757326912600547, 7260770.0 ], [ 529311.551677605253644, 7260760.0 ], [ 529320.447983889956959, 7260750.0 ], [ 529330.087148198392242, 7260740.0 ], [ 529340.011174176470377, 7260730.000892210751772 ], [ 529350.000892210751772, 7260720.012066386640072 ], [ 529360.0, 7260710.099214585497975 ], [ 529370.0, 7260700.545414054766297 ], [ 529380.0, 7260692.075635517016053 ], [ 529390.0, 7260685.669840209186077 ], [ 529400.0, 7260681.638825803995132 ], [ 529410.0, 7260678.994628659449518 ], [ 529420.0, 7260676.34188767336309 ], [ 529430.0, 7260673.234261211007833 ], [ 529440.000000000116415, 7260669.989718034863472 ], [ 529450.0, 7260666.689764766953886 ], [ 529460.0, 7260663.310235233977437 ], [ 529470.0, 7260660.010281966067851 ], [ 529480.0, 7260656.766630999743938 ], [ 529490.0, 7260653.670178714208305 ], [ 529500.000000000116415, 7260651.10458592697978 ], [ 529510.0, 7260648.906588250771165 ], [ 529520.0, 7260646.405795307829976 ], [ 529530.0, 7260643.594204693101346 ], [ 529540.0, 7260641.094303959980607 ], [ 529550.0, 7260638.906588250771165 ], [ 529560.0, 7260636.416077274829149 ], [ 529570.0, 7260633.670178715139627 ], [ 529580.0, 7260631.454247441142797 ], [ 529590.0, 7260630.0 ], [ 529600.0, 7260628.546644769608974 ], [ 529610.0, 7260626.340995462611318 ], [ 529620.0, 7260623.671070924960077 ], [ 529630.0, 7260621.540503429248929 ], [ 529640.0, 7260620.447091679088771 ], [ 529650.0, 7260620.087148198857903 ], [ 529660.0, 7260620.010281966067851 ], [ 529670.0, 7260619.989718034863472 ], [ 529680.0, 7260619.912851802073419 ], [ 529690.0, 7260619.552908320911229 ], [ 529700.0, 7260618.459496571682394 ], [ 529710.0, 7260616.329821286723018 ], [ 529720.0, 7260613.670178715139627 ], [ 529730.0, 7260611.540503429248929 ], [ 529740.0, 7260610.447091680020094 ], [ 529750.0, 7260610.087148198857903 ], [ 529760.0, 7260610.010281966067851 ], [ 529770.0, 7260609.989718034863472 ], [ 529780.0, 7260609.912851802073419 ], [ 529790.0, 7260609.553800531663001 ], [ 529800.0, 7260608.470670748502016 ], [ 529810.0, 7260606.416969485580921 ], [ 529820.0, 7260604.117270393297076 ], [ 529830.0, 7260603.081006857566535 ], [ 529840.0, 7260604.117270393297076 ], [ 529850.0, 7260606.416969485580921 ], [ 529860.0, 7260608.470670748502016 ], [ 529870.0, 7260609.553800531663001 ], [ 529880.0, 7260609.912851802073419 ], [ 529890.0, 7260609.9888258241117 ], [ 529900.0, 7260609.999107789248228 ], [ 529910.0, 7260610.0 ], [ 529920.0, 7260610.0 ], [ 529930.0, 7260610.0 ], [ 529940.0, 7260610.0 ], [ 529950.0, 7260610.0 ], [ 529960.0, 7260610.0 ], [ 529970.0, 7260610.0 ], [ 529980.0, 7260610.0 ], [ 529990.0, 7260610.0 ], [ 529999.999107789364643, 7260610.0 ], [ 530009.987933612894267, 7260610.0 ], [ 530019.900785414502025, 7260610.0 ], [ 530029.453693735180423, 7260610.0 ], [ 530037.91319030651357, 7260610.0 ], [ 530044.243011592305265, 7260610.0 ] ] } },
{ "type": "Feature", "properties": { "id": 9, "reference_id": 3, "dune_id": 3, "dune_name": "Big Mommy Dune", "acquisition_date": "2023-08-07", "length_m": 172.25942351471971 }, "geometry": { "type": "LineString", "coordinates": [ [ 530244.243011592421681, 7260570.011174176819623 ], [ 530237.91319030651357, 7260570.087148198857903 ], [ 530229.453693735180423, 7260570.447091680020094 ], [ 530219.900785414385609, 7260571.541395640000701 ], [ 530209.987933612894267, 7260573.681352891027927 ], [ 530199.999107789248228, 7260576.416969484649599 ], [ 530190.0, 7260578.907480461522937 ], [ 530180.0, 7260581.104585926048458 ], [ 530170.000000000116415, 7260583.670178714208305 ], [ 530160.0, 7260586.765738788992167 ], [ 530150.0, 7260589.999107789248228 ], [ 530140.0, 7260593.223087035119534 ], [ 530130.0, 7260596.242673087865114 ], [ 530120.000892210751772, 7260598.448322394862771 ], [ 530110.012066387222148, 7260599.552016111090779 ], [ 530100.099214585614391, 7260599.912851802073419 ], [ 530090.546306264819577, 7260599.9888258241117 ], [ 530082.08680969348643, 7260599.999107789248228 ], [ 530075.756988407694735, 7260600.0 ] ] } },
{ "type": "Feature", "properties": { "id": 10, "reference_id": 5, "dune_id": 5, "dune_name": "The Star Dune", "acquisition_date": "2023-08-07", "length_m": 1138.6363886664406 }, "geometry": { "type": "LineString", "coordinates": [ [ 534334.703061869367957, 7261305.756988408043981 ], [ 534329.56408249726519, 7261312.086809693835676 ], [ 534323.757326912716962, 7261320.546306264586747 ], [ 534318.764508072868921, 7261330.099214585497975 ], [ 534315.744922020589001, 7261340.012066386640072 ], [ 534315.309004517854191, 7261350.000892210751772 ], [ 534316.788979352102615, 7261360.0 ], [ 534318.547536980360746, 7261370.0 ], [ 534319.564974708016962, 7261380.0 ], [ 534319.924918188713491, 7261390.0 ], [ 534320.075974021921866, 7261400.0 ], [ 534320.446199468453415, 7261410.0 ], [ 534321.540503428666852, 7261420.0 ], [ 534323.670178714208305, 7261430.0 ], [ 534326.329821285791695, 7261440.0 ], [ 534328.459496571333148, 7261450.0 ], [ 534329.552908320794813, 7261460.0 ], [ 534329.912851801607758, 7261470.000000000931323 ], [ 534329.988825823529623, 7261480.0 ], [ 534329.998215578729287, 7261490.0 ], [ 534329.988825823529623, 7261500.0 ], [ 534329.911959590855986, 7261510.0 ], [ 534329.54084193368908, 7261520.0 ], [ 534328.360281985718757, 7261530.0 ], [ 534325.783515021088533, 7261540.0 ], [ 534321.583369020721875, 7261550.0 ], [ 534315.783515021088533, 7261560.000000000931323 ], [ 534308.360281985718757, 7261569.999107789248228 ], [ 534299.54084193368908, 7261579.9888258241117 ], [ 534289.911959590855986, 7261589.912851802073419 ], [ 534279.988825823529623, 7261599.552016111090779 ], [ 534269.999107789248228, 7261608.448322394862771 ], [ 534260.0, 7261616.241780877113342 ], [ 534250.0, 7261623.211912859231234 ], [ 534240.0, 7261629.911959590390325 ], [ 534230.0, 7261636.318647109903395 ], [ 534220.0, 7261642.128783075138927 ], [ 534210.0, 7261647.422340825200081 ], [ 534200.0, 7261652.478444591164589 ], [ 534190.0, 7261657.411166648380458 ], [ 534180.0, 7261662.041634876281023 ], [ 534170.0, 7261665.872447641566396 ], [ 534160.0, 7261668.382630338892341 ], [ 534150.0, 7261669.62888234294951 ], [ 534140.0, 7261670.359051270410419 ], [ 534130.0, 7261671.529329252429307 ], [ 534120.0, 7261673.669286503456533 ], [ 534110.0, 7261676.330713496543467 ], [ 534100.0, 7261678.470670748502016 ], [ 534090.0, 7261679.640056519769132 ], [ 534080.0, 7261680.35994348116219 ], [ 534070.0, 7261681.529329252429307 ], [ 534060.0, 7261683.669286504387856 ], [ 534050.0, 7261686.33071349747479 ], [ 534040.0, 7261688.470670748502016 ], [ 534030.0, 7261689.64005651883781 ], [ 534020.0, 7261690.35994348116219 ], [ 534010.0, 7261691.529329253360629 ], [ 534000.0, 7261693.670178714208305 ], [ 533990.0, 7261696.340995462611318 ], [ 533980.0, 7261698.546644769608974 ], [ 533970.0, 7261700.000892210751772 ], [ 533960.0, 7261701.464529407210648 ], [ 533950.0, 7261703.747044946998358 ], [ 533940.0, 7261706.787194930948317 ], [ 533930.0, 7261710.088040409609675 ], [ 533920.0, 7261713.681352891027927 ], [ 533910.0, 7261717.871216924861073 ], [ 533900.0, 7261722.576766964048147 ], [ 533890.0, 7261727.510381233878434 ], [ 533880.0, 7261732.500792942941189 ], [ 533870.0, 7261737.500099267810583 ], [ 533860.0, 7261742.500792942941189 ], [ 533850.0, 7261747.511273445561528 ], [ 533840.0, 7261752.58794114086777 ], [ 533830.0, 7261757.958365123718977 ], [ 533820.0, 7261764.128444569185376 ], [ 533810.000892210635357, 7261771.628543837927282 ], [ 533800.012066387105733, 7261780.458265855908394 ], [ 533790.098322374979034, 7261790.088040409609675 ], [ 533780.535132088232785, 7261800.011174176819623 ], [ 533771.998769284342416, 7261810.000892210751772 ], [ 533765.298722552019171, 7261820.0 ], [ 533760.45915806631092, 7261830.0 ], [ 533756.428143660770729, 7261840.000000000931323 ], [ 533752.217715694569051, 7261850.0 ], [ 533747.794350692536682, 7261860.0 ], [ 533743.659896748373285, 7261870.0 ], [ 533739.999107789364643, 7261880.0 ], [ 533736.329821285791695, 7261890.0 ], [ 533732.129675285425037, 7261900.0 ], [ 533727.423233035253361, 7261910.0 ], [ 533722.489618766237982, 7261920.0 ], [ 533717.499207057291642, 7261930.0 ], [ 533712.499900731956586, 7261940.0 ], [ 533707.499207057408057, 7261950.0 ], [ 533702.489618766237982, 7261960.0 ], [ 533697.423233035369776, 7261970.0 ], [ 533692.129675285541452, 7261980.0 ], [ 533686.330267391167581, 7261989.999553894624114 ], [ 533680.005587088293396, 7261999.993520701304078 ], [ 533673.714645024156198, 7262009.944359513930976 ], [ 533668.105044730589725, 7262019.677239574491978 ], [ 533663.435059088165872, 7262028.683442020788789 ], [ 533659.803736446541734, 7262036.078100949525833 ], [ 533657.294247423415072, 7262041.078100949525833 ] ] } },
{ "type": "Feature", "properties": { "id": 11, "reference_id": 6, "dune_id": 6, "dune_name": "The Star Dune", "acquisition_date": "2023-08-07", "length_m": 750.67881773010743 }, "geometry": { "type": "LineString", "coordinates": [ [ 533653.165802853647619, 7262048.921899050474167 ], [ 533651.846263533574529, 7262053.921899050474167 ], [ 533650.857399912783876, 7262061.316557979211211 ], [ 533650.670637518749572, 7262070.322760425508022 ], [ 533651.584077527979389, 7262080.055640487000346 ], [ 533653.675765802385285, 7262090.006479298695922 ], [ 533656.330267391167581, 7262100.000446105375886 ], [ 533658.459496571216732, 7262110.0 ], [ 533659.552908320911229, 7262120.0 ], [ 533659.912851801607758, 7262130.0 ], [ 533659.988825823529623, 7262140.0 ], [ 533659.999107789248228, 7262150.0 ], [ 533660.0, 7262160.0 ], [ 533660.0, 7262170.0 ], [ 533660.000892210751772, 7262180.0 ], [ 533660.011174176470377, 7262190.0 ], [ 533660.087148198392242, 7262200.0 ], [ 533660.447091679088771, 7262210.0 ], [ 533661.540503428783268, 7262220.0 ], [ 533663.671070924960077, 7262230.0 ], [ 533666.340995462378487, 7262240.0 ], [ 533668.546644769841805, 7262250.0 ], [ 533670.0, 7262260.0 ], [ 533671.453355230391026, 7262270.0 ], [ 533673.659004537737928, 7262280.0 ], [ 533676.328929075156339, 7262290.0 ], [ 533678.459496571333148, 7262300.0 ], [ 533679.552016110159457, 7262310.0 ], [ 533679.901677625137381, 7262320.0 ], [ 533679.901677625137381, 7262330.0 ], [ 533679.552016110159457, 7262340.000000000931323 ], [ 533678.459496571333148, 7262350.0 ], [ 533676.328929075156339, 7262360.0 ], [ 533673.659004537737928, 7262370.0 ], [ 533671.453355230391026, 7262380.0 ], [ 533669.999107789364643, 7262390.0 ], [ 533668.535470593255013, 7262400.0 ], [ 533666.253847263869829, 7262410.0 ], [ 533663.223979245638475, 7262420.0 ], [ 533659.999107789248228, 7262430.0 ], [ 533656.765738788526505, 7262440.0 ], [ 533653.670178714208305, 7262450.0 ], [ 533651.103693715413101, 7262460.0 ], [ 533648.896306284703314, 7262470.0 ], [ 533646.329821285791695, 7262480.0 ], [ 533643.234261211473495, 7262490.0 ], [ 533640.000000000116415, 7262500.0 ], [ 533636.765738788526505, 7262510.0 ], [ 533633.670178714208305, 7262520.0 ], [ 533631.103693715296686, 7262530.0 ], [ 533628.896306284703314, 7262540.0 ], [ 533626.329821285791695, 7262550.0 ], [ 533623.234261211473495, 7262560.0 ], [ 533620.000892210635357, 7262570.0 ], [ 533616.776912964996882, 7262580.0 ], [ 533613.756434701848775, 7262590.0 ], [ 533611.540503428783268, 7262600.000000000931323 ], [ 533610.360835691448301, 7262610.0 ], [ 533609.640056519303471, 7262620.0 ], [ 533608.470670747803524, 7262630.0 ], [ 533606.330713496543467, 7262640.0 ], [ 533603.670178714208305, 7262650.0 ], [ 533601.539611218031496, 7262660.0 ], [ 533600.43591750273481, 7262670.0 ], [ 533600.0, 7262680.0 ], [ 533599.56408249726519, 7262690.0 ], [ 533598.460388781968504, 7262700.0 ], [ 533596.329821285791695, 7262710.0 ], [ 533593.669286503456533, 7262720.0 ], [ 533591.529329252196476, 7262730.0 ], [ 533590.359943480696529, 7262739.999107789248228 ], [ 533589.640056519303471, 7262749.987933613359928 ], [ 533588.470670747803524, 7262759.900785414502025 ], [ 533586.330713496543467, 7262769.453693735413253 ], [ 533583.670178714208305, 7262777.913190307095647 ], [ 533581.540503428783268, 7262784.243011591956019 ] ] } },
{ "type": "Feature", "properties": { "id": 12, "reference_id": 2, "dune_id": 2, "dune_name": "Big Mommy Dune", "acquisition_date": "2023-08-07", "length_m": 701.40621896578546 }, "geometry": { "type": "LineString", "coordinates": [ [ 529104.243011592421681, 7260959.552016111090779 ], [ 529097.913190306629986, 7260958.448322394862771 ], [ 529089.453693735180423, 7260956.241780877113342 ], [ 529079.900785414385609, 7260953.211912859231234 ], [ 529069.987933612894267, 7260949.912851802073419 ], [ 529059.999107789364643, 7260946.328929075039923 ], [ 529050.0, 7260942.205649306997657 ], [ 529040.0, 7260937.794350693002343 ], [ 529030.0, 7260933.671070924960077 ], [ 529020.0, 7260930.086255988106132 ], [ 529010.0, 7260926.776912964880466 ], [ 529000.0, 7260923.671070925891399 ], [ 528990.0, 7260921.103693715296686 ], [ 528980.0, 7260918.896306285634637 ], [ 528970.0, 7260916.329821285791695 ], [ 528960.0, 7260913.234261211939156 ], [ 528950.0, 7260910.000892210751772 ], [ 528940.0, 7260906.776020755060017 ], [ 528930.0, 7260903.746152737177908 ], [ 528920.0, 7260901.464529407210648 ], [ 528910.0, 7260900.0 ], [ 528900.0, 7260898.535470593720675 ], [ 528890.0, 7260896.253847263753414 ], [ 528880.0, 7260893.223087035119534 ], [ 528870.0, 7260889.9888258241117 ], [ 528860.0, 7260886.689764766022563 ], [ 528850.0, 7260883.309343023225665 ], [ 528840.0, 7260880.0 ], [ 528830.0, 7260876.689764766953886 ], [ 528820.0, 7260873.299061057157815 ], [ 528810.0, 7260869.924025978893042 ], [ 528800.0, 7260866.329821286723018 ], [ 528790.0, 7260862.205649307928979 ], [ 528780.0, 7260857.794350693002343 ], [ 528770.0, 7260853.670178714208305 ], [ 528760.0, 7260850.075974022038281 ], [ 528750.0, 7260846.700046733021736 ], [ 528740.0, 7260843.299953267909586 ], [ 528730.0, 7260839.92313376814127 ], [ 528720.0, 7260836.318647108972073 ], [ 528710.0, 7260832.118501109071076 ], [ 528700.0, 7260827.346366802230477 ], [ 528690.0, 7260822.119393319822848 ], [ 528680.0, 7260816.329821285791695 ], [ 528670.0, 7260810.010281966067851 ], [ 528660.0, 7260803.746152736246586 ], [ 528650.0, 7260798.230268195271492 ], [ 528640.0, 7260793.670178715139627 ], [ 528630.0, 7260789.640056519769132 ], [ 528620.0, 7260785.160435514524579 ], [ 528610.0, 7260779.628882343880832 ], [ 528600.0, 7260773.583030516281724 ], [ 528590.0, 7260767.783176516182721 ], [ 528580.0, 7260762.204757097177207 ], [ 528570.0, 7260756.329821286723018 ], [ 528560.0, 7260749.924025977961719 ], [ 528550.0, 7260743.299061057157815 ], [ 528540.0, 7260736.688872556202114 ], [ 528530.0, 7260729.989718034863472 ], [ 528520.0, 7260723.233369001187384 ], [ 528510.000892210751772, 7260716.33071349747479 ], [ 528500.012066387222148, 7260708.907480461522937 ], [ 528490.099214585614391, 7260701.191734124906361 ], [ 528480.546306264819577, 7260694.129336779937148 ], [ 528472.08680969348643, 7260688.405456803739071 ], [ 528465.756988407694735, 7260684.21559276804328 ] ] } },
{ "type": "Feature", "properties": { "id": 13, "reference_id": 7, "dune_id": 7, "dune_name": "Inverted Y Dune", "acquisition_date": "2023-08-07", "length_m": 611.30031046237002 }, "geometry": { "type": "LineString", "coordinates": [ [ 530654.243011592305265, 7261325.756988408043981 ], [ 530647.913190306629986, 7261332.086809693835676 ], [ 530639.453693735296838, 7261340.546306265518069 ], [ 530629.901677625137381, 7261350.099214585497975 ], [ 530619.999107789364643, 7261360.012066386640072 ], [ 530610.086255987756886, 7261370.000892210751772 ], [ 530600.447983889840543, 7261380.0 ], [ 530591.551677605137229, 7261390.0 ], [ 530583.757326912600547, 7261400.0 ], [ 530576.777805175632238, 7261410.0 ], [ 530570.011174176470377, 7261420.0 ], [ 530563.310235233511776, 7261430.0 ], [ 530556.690656977239996, 7261440.0 ], [ 530550.0, 7261450.0 ], [ 530543.309343022760004, 7261460.0 ], [ 530536.689764766488224, 7261470.000000000931323 ], [ 530529.988825823529623, 7261480.0 ], [ 530523.222194824367762, 7261490.0 ], [ 530516.242673087399453, 7261500.0 ], [ 530508.448322394862771, 7261510.0 ], [ 530499.552016110159457, 7261520.0 ], [ 530489.912851801607758, 7261529.999107789248228 ], [ 530479.988825823529623, 7261539.9888258241117 ], [ 530469.999107789364643, 7261549.912851801142097 ], [ 530460.0, 7261559.552016111090779 ], [ 530450.0, 7261568.448322394862771 ], [ 530440.0, 7261576.241780877113342 ], [ 530430.000000000116415, 7261583.211912859231234 ], [ 530420.0, 7261589.911959591321647 ], [ 530410.0, 7261596.317754898220301 ], [ 530400.0, 7261602.118501110002398 ], [ 530390.0, 7261607.346366802230477 ], [ 530380.0, 7261612.118501109071076 ], [ 530370.0, 7261616.318647109903395 ], [ 530360.0, 7261619.92313376814127 ], [ 530350.0, 7261623.299061057157815 ], [ 530340.0, 7261626.688872555270791 ], [ 530330.0, 7261629.989718034863472 ], [ 530320.0, 7261633.233369001187384 ], [ 530310.0, 7261636.329821285791695 ], [ 530300.0, 7261638.895414074882865 ], [ 530290.0, 7261641.092519538477063 ], [ 530280.0, 7261643.583030516281724 ], [ 530270.0, 7261646.318647109903395 ], [ 530260.0, 7261648.457712151110172 ], [ 530250.0, 7261649.542626355774701 ], [ 530240.0, 7261649.836877780035138 ], [ 530230.0, 7261649.628882343880832 ], [ 530220.000892210635357, 7261648.905696040019393 ], [ 530210.012066387105733, 7261647.870324714109302 ], [ 530200.099214585497975, 7261647.34035742841661 ], [ 530190.546306264819577, 7261647.870324714109302 ], [ 530182.08680969348643, 7261648.906588250771165 ], [ 530175.756988407694735, 7261649.640056519769132 ] ] } }
]
}
