{
"type": "FeatureCollection",
"name": "crests_2020_01_2020-01-05",
"crs": { "type": "name", "properties": { "name": "urn:ogc:def:crs:EPSG::32733" } },
"features": [
{ "type": "Feature", "properties": { "id": 0, "reference_id": 9, "dune_id": 9, "dune_name": "Inverted Y Dune", "acquisition_date": "2020-01-05", "length_m": 456.43992870680825 }, "geometry": { "type": "LineString", "coordinates": [ [ 529854.254185768775642, 7261785.756988408043981 ], [ 529848.000338504905812, 7261792.086809692904353 ], [ 529839.900785414502025, 7261800.546306265518069 ], [ 529831.442181053804234, 7261810.099214585497975 ], [ 529823.670178714208305, 7261820.012066387571394 ], [ 529816.427251450018957, 7261830.000892210751772 ], [ 529808.994628659682348, 7261840.000000000931323 ], [ 529801.552569815889001, 7261850.0 ], [ 529795.221856319345534, 7261860.0 ], [ 529790.523957911878824, 7261870.0 ], [ 529786.788087141467258, 7261880.0 ], [ 529783.322301620617509, 7261890.0 ], [ 529780.011174176586792, 7261900.0 ], [ 529776.766630999278277, 7261910.0 ], [ 529773.669286503456533, 7261920.0 ], [ 529771.093411749578081, 7261930.0 ], [ 529768.819440052029677, 7261940.0 ], [ 529765.958703628624789, 7261950.0 ], [ 529762.052809052867815, 7261960.0 ], [ 529757.412951069651172, 7261970.0 ], [ 529752.489618766237982, 7261980.0 ], [ 529747.509489023126662, 7261990.0 ], [ 529742.576766964630224, 7262000.0 ], [ 529737.871216925210319, 7262010.0 ], [ 529733.68046067992691, 7262020.0 ], [ 529730.075974021921866, 7262030.0 ], [ 529726.68976476660464, 7262040.0 ], [ 529723.22397924575489, 7262050.0 ], [ 529719.563190286629833, 7262060.0 ], [ 529715.226127570495009, 7262070.0 ], [ 529709.999107789248228, 7262080.0 ], [ 529704.763590463786386, 7262090.0 ], [ 529700.359943480696529, 7262100.0 ], [ 529696.405795307829976, 7262110.0 ], [ 529692.139957251260057, 7262120.0 ], [ 529687.424125246005133, 7262130.0 ], [ 529682.490510976873338, 7262140.0 ], [ 529677.510381233762018, 7262149.999107789248228 ], [ 529672.5879411411006, 7262159.987933613359928 ], [ 529667.958365123718977, 7262169.900785414502025 ], [ 529664.128444569883868, 7262179.453693735413253 ], [ 529661.628543837927282, 7262187.913190307095647 ], [ 529660.458265855675563, 7262194.243011591956019 ] ] } },
{ "type": "Feature", "properties": { "id": 1, "reference_id": 9, "dune_id": 9, "dune_name": "Inverted Y Dune", "acquisition_date": "2020-01-05", "length_m": 208.92392320258867 }, "geometry": { "type": "LineString", "coordinates": [ [ 529875.756988407694735, 7261764.243011591956019 ], [ 529882.08680969348643, 7261757.913190307095647 ], [ 529890.546306264819577, 7261749.453693735413253 ], [ 529900.099214585614391, 7261739.901677625253797 ], [ 529910.012066387222148, 7261730.000000000931323 ], [ 529920.000892210751772, 7261720.097430163994431 ], [ 529930.0, 7261710.535132087767124 ], [ 529940.0, 7261701.998769285157323 ], [ 529950.0, 7261695.297830341383815 ], [ 529960.0, 7261690.447983890771866 ], [ 529970.0, 7261686.340995462611318 ], [ 529980.0, 7261681.77062401548028 ], [ 529990.0, 7261676.253847263753414 ], [ 529999.999107789364643, 7261669.989718034863472 ], [ 530009.987933612894267, 7261663.670178715139627 ], [ 530019.900785414502025, 7261657.881498891860247 ], [ 530029.453693735180423, 7261652.664807373657823 ], [ 530037.91319030651357, 7261647.96864709071815 ], [ 530044.243011592305265, 7261644.129336781799793 ] ] } },
{ "type": "Feature", "properties": { "id": 2, "reference_id": 3, "dune_id": 3, "dune_name": "Big Mommy Dune", "acquisition_date": "2020-01-05", "length_m": 204.886345959805 }, "geometry": { "type": "LineString", "coordinates": [ [ 529170.535132088349201, 7260991.078100949525833 ], [ 529171.998769284342416, 7260986.078100949525833 ], [ 529175.298722552019171, 7260978.683442020788789 ], [ 529180.458265855675563, 7260969.6772395754233 ], [ 529186.417861694935709, 7260959.944359514862299 ], [ 529192.141741672647186, 7260949.993520701304078 ], [ 529197.434407211840153, 7260939.999553894624114 ], [ 529202.566484998795204, 7260930.0 ], [ 529207.870324714574963, 7260920.0 ], [ 529213.680460680043325, 7260910.0 ], [ 529220.076866232557222, 7260900.0 ], [ 529226.700938943075016, 7260890.0 ], [ 529233.31023523339536, 7260880.0 ], [ 529240.0, 7260870.0 ], [ 529246.68976476660464, 7260860.000892210751772 ], [ 529253.298168846406043, 7260850.012066386640072 ], [ 529259.911959590855986, 7260840.099214585497975 ], [ 529266.231498910929076, 7260830.546306265518069 ], [ 529271.670517219230533, 7260822.086809694766998 ], [ 529275.79468919755891, 7260815.756988408043981 ] ] } },
{ "type": "Feature", "properties": { "id": 3, "reference_id": 3, "dune_id": 3, "dune_name": "Big Mommy Dune", "acquisition_date": "2020-01-05", "length_m": 68.569591572718622 }, "geometry": { "type": "LineString", "coordinates": [ [ 529364.243011592305265, 7260705.756988408043981 ], [ 529357.914082517265342, 7260712.085917483083904 ], [ 529349.465760122518986, 7260720.534239877946675 ], [ 529340.0, 7260730.0 ], [ 529330.534239877713844, 7260739.465760122984648 ], [ 529322.085917482851073, 7260747.914082517847419 ], [ 529315.756988407694735, 7260754.243011591956019 ] ] } },
{ "type": "Feature", "properties": { "id": 4, "reference_id": 5, "dune_id": 5, "dune_name": "The Star Dune", "acquisition_date": "2020-01-05", "length_m": 332.90376012336219 }, "geometry": { "type": "LineString", "coordinates": [ [ 534245.756988407694735, 7261618.360281985253096 ], [ 534252.08680969348643, 7261615.783515021204948 ], [ 534260.546306264819577, 7261611.583369020372629 ], [ 534270.099214585614391, 7261605.783515021204948 ], [ 534280.011174176470377, 7261598.360281985253096 ], [ 534289.988825823646039, 7261589.540841934271157 ], [ 534299.900785414502025, 7261579.911959591321647 ], [ 534309.453693735296838, 7261569.9888258241117 ], [ 534317.91319030651357, 7261559.999107790179551 ], [ 534324.243011592421681, 7261550.0 ], [ 534327.91319030651357, 7261540.0 ], [ 534329.453693735296838, 7261530.0 ], [ 534329.900785414385609, 7261520.0 ], [ 534329.987933612894267, 7261510.0 ], [ 534329.998215578729287, 7261500.0 ], [ 534329.988825823529623, 7261490.0 ], [ 534329.912851801607758, 7261480.0 ], [ 534329.552908320794813, 7261470.000000000931323 ], [ 534328.459496571333148, 7261460.0 ], [ 534326.329821285791695, 7261450.0 ], [ 534323.670178714208305, 7261440.0 ], [ 534321.540503428666852, 7261430.0 ], [ 534320.446199468453415, 7261420.0 ], [ 534320.075974021921866, 7261410.0 ], [ 534319.924025978078134, 7261400.0 ], [ 534319.554692742181942, 7261390.0 ], [ 534318.470670747687109, 7261380.0 ], [ 534316.416969484300353, 7261370.000892210751772 ], [ 534314.117270393413492, 7261360.012066386640072 ], [ 534313.08100685745012, 7261350.099214585497975 ], [ 534314.117270393413492, 7261340.546306265518069 ], [ 534316.416969484300353, 7261332.086809693835676 ], [ 534318.470670747687109, 7261325.756988408043981 ] ] } },
{ "type": "Feature", "properties": { "id": 5, "reference_id": 5, "dune_id": 5, "dune_name": "The Star Dune", "acquisition_date": "2020-01-05", "length_m": 326.15397317978744 }, "geometry": { "type": "LineString", "coordinates": [ [ 533660.45915806631092, 7262041.078100949525833 ], [ 533661.638825803645886, 7262036.078100949525833 ], [ 533664.20531080244109, 7262028.683442020788789 ], [ 533668.328590570250526, 7262019.677239574491978 ], [ 533673.758219123352319, 7262009.944359513930976 ], [ 533680.012066387105733, 7261999.993520701304078 ], [ 533686.340995462262072, 7261989.999553894624114 ], [ 533692.206541518098675, 7261980.0 ], [ 533697.793458481901325, 7261970.0 ], [ 533703.659004537737928, 7261960.0 ], [ 533709.988825823529623, 7261950.0 ], [ 533716.252955053234473, 7261940.0 ], [ 533721.759449838893488, 7261930.0 ], [ 533726.252955053234473, 7261920.0 ], [ 533729.988825823529623, 7261910.0 ], [ 533733.659004537854344, 7261900.0 ], [ 533737.793458481901325, 7261890.0 ], [ 533742.206541518098675, 7261880.0 ], [ 533746.340103251626715, 7261870.0 ], [ 533750.000892210751772, 7261860.0 ], [ 533753.671070924960077, 7261850.0 ], [ 533757.880606680293567, 7261840.000000000931323 ], [ 533762.653633197303861, 7261830.0 ], [ 533767.881498891045339, 7261820.0 ], [ 533773.682245101314038, 7261810.0 ], [ 533780.087148198392242, 7261800.000892210751772 ], [ 533786.776020754361525, 7261790.012066386640072 ], [ 533793.659004537737928, 7261780.099214585497975 ], [ 533801.005371340550482, 7261770.546306265518069 ], [ 533808.361174196354114, 7261762.086809692904353 ], [ 533814.330159790813923, 7261755.756988408043981 ] ] } },
{ "type": "Feature", "properties": { "id": 6, "reference_id": 7, "dune_id": 7, "dune_name": "Inverted Y Dune", "acquisition_date": "2020-01-05", "length_m": 423.76866810652939 }, "geometry": { "type": "LineString", "coordinates": [ [ 530355.756988407694735, 7261609.552908320911229 ], [ 530362.08680969348643, 7261608.458604359999299 ], [ 530370.546306264819577, 7261606.318647109903395 ], [ 530380.099214585614391, 7261603.582138305529952 ], [ 530390.012066387222148, 7261601.081345362588763 ], [ 530400.000892210751772, 7261598.80737366527319 ], [ 530410.0, 7261595.870663219131529 ], [ 530420.0, 7261591.594543198123574 ], [ 530430.000000000116415, 7261585.78440723195672 ], [ 530440.0, 7261578.360281986184418 ], [ 530450.0, 7261569.540841934271157 ], [ 530460.0, 7261559.911959591321647 ], [ 530469.999107789364643, 7261549.9888258241117 ], [ 530479.988825823529623, 7261539.999107789248228 ], [ 530489.911959590855986, 7261530.0 ], [ 530499.541734144324437, 7261520.0 ], [ 530508.37234837282449, 7261510.0 ], [ 530515.881837395951152, 7261500.0 ], [ 530522.118501109071076, 7261490.0 ], [ 530527.783176516182721, 7261480.0 ], [ 530533.669286503456533, 7261470.000000000931323 ], [ 530540.075974021921866, 7261460.0 ], [ 530546.700938943075016, 7261450.0 ], [ 530553.311127444147132, 7261440.0 ], [ 530560.011174176470377, 7261430.0 ], [ 530566.777805175632238, 7261420.0 ], [ 530573.757326912600547, 7261410.0 ], [ 530581.551677605253644, 7261400.0 ], [ 530590.447983889840543, 7261390.0 ], [ 530600.087148198392242, 7261380.0 ], [ 530610.01028196583502, 7261370.000892210751772 ], [ 530619.988825823646039, 7261360.012066386640072 ], [ 530629.900785414502025, 7261350.099214585497975 ], [ 530639.453693735296838, 7261340.546306265518069 ], [ 530647.913190306629986, 7261332.086809693835676 ], [ 530654.243011592305265, 7261325.756988408043981 ] ] } },
{ "type": "Feature", "properties": { "id": 7, "reference_id": 7, "dune_id": 7, "dune_name": "Inverted Y Dune", "acquisition_date": "2020-01-05", "length_m": 112.4677326461115 }, "geometry": { "type": "LineString", "coordinates": [ [ 530095.756988407694735, 7261628.99462866038084 ], [ 530102.08680969348643, 7261628.328590570017695 ], [ 530110.546306264819577, 7261628.968009056523442 ], [ 530120.099214585614391, 7261631.987595107406378 ], [ 530130.012066387222148, 7261636.776912964880466 ], [ 530140.000892210751772, 7261641.769731804728508 ], [ 530150.0, 7261645.806755585595965 ], [ 530159.999107789364643, 7261648.362066407687962 ], [ 530169.987933612894267, 7261649.540841934271157 ], [ 530179.900785414385609, 7261649.911959591321647 ], [ 530189.453693735180423, 7261649.9888258241117 ], [ 530197.91319030651357, 7261649.999107790179551 ], [ 530204.243011592305265, 7261650.0 ] ] } },
{ "type": "Feature", "properties": { "id": 8, "reference_id": 8, "dune_id": 8, "dune_name": "Inverted Y Dune", "acquisition_date": "2020-01-05", "length_m": 379.32917439863797 }, "geometry": { "type": "LineString", "coordinates": [ [ 530096.846263533574529, 7261591.078100949525833 ], [ 530098.25205884128809, 7261586.078100949525833 ], [ 530099.676839964813553, 7261578.683442020788789 ], [ 530101.316957589122467, 7261569.6772395754233 ], [ 530103.626604615012184, 7261559.944359513930976 ], [ 530106.324234197614715, 7261549.993520701304078 ], [ 530108.459050465957262, 7261539.999553894624114 ], [ 530109.553800531546585, 7261530.0 ], [ 530109.924025978078134, 7261520.0 ], [ 530110.075974022038281, 7261510.0 ], [ 530110.44619946856983, 7261500.0 ], [ 530111.540503428666852, 7261490.0 ], [ 530113.671070924960077, 7261480.0 ], [ 530116.340995462262072, 7261470.000000000931323 ], [ 530118.54664476972539, 7261460.0 ], [ 530120.0, 7261450.0 ], [ 530121.454247441026382, 7261440.0 ], [ 530123.670178714208305, 7261430.0 ], [ 530126.416077273664996, 7261420.0 ], [ 530128.906588250538334, 7261410.0 ], [ 530131.094303960213438, 7261400.0 ], [ 530133.594204692170024, 7261390.0 ], [ 530136.406687518465333, 7261380.0 ], [ 530138.916870216256939, 7261370.0 ], [ 530141.181452158722095, 7261360.0 ], [ 530144.042188582126983, 7261350.0 ], [ 530147.958365123718977, 7261340.0 ], [ 530152.675089339609258, 7261330.0 ], [ 530157.969539300072938, 7261320.0 ], [ 530164.129336780519225, 7261310.000000000931323 ], [ 530171.628543837927282, 7261300.0 ], [ 530180.457373644923791, 7261290.000892210751772 ], [ 530190.075974022038281, 7261280.012066386640072 ], [ 530199.911959590855986, 7261270.099214585497975 ], [ 530209.454585945932195, 7261260.546306265518069 ], [ 530217.91319030651357, 7261252.086809693835676 ], [ 530224.243011592305265, 7261245.756988408043981 ] ] } },
{ "type": "Feature", "properties": { "id": 9, "reference_id": 6, "dune_id": 6, "dune_name": "The Star Dune", "acquisition_date": "2020-01-05", "length_m": 815.8131611936019 }, "geometry": { "type": "LineString", "coordinates": [ [ 533560.458265855675563, 7262844.243011592887342 ], [ 533561.628543837810867, 7262837.913190307095647 ], [ 533564.128444569883868, 7262829.453693736344576 ], [ 533567.957472912967205, 7262819.900785414502025 ], [ 533572.576766964746639, 7262809.987933613359928 ], [ 533577.423233035369776, 7262799.999107789248228 ], [ 533582.04252708714921, 7262790.0 ], [ 533585.872447640867904, 7262780.0 ], [ 533588.38263033865951, 7262770.0 ], [ 533589.628882342716679, 7262760.0 ], [ 533590.359051270061173, 7262750.0 ], [ 533591.529329252196476, 7262740.0 ], [ 533593.669286503456533, 7262730.0 ], [ 533596.329821285791695, 7262720.0 ], [ 533598.459496571216732, 7262710.0 ], [ 533599.553800531546585, 7262700.0 ], [ 533599.924025978078134, 7262690.0 ], [ 533600.075974022038281, 7262680.0 ], [ 533600.44619946856983, 7262670.0 ], [ 533601.540503428783268, 7262660.0 ], [ 533603.670178714208305, 7262650.0 ], [ 533606.330713496543467, 7262640.0 ], [ 533608.470670747803524, 7262630.0 ], [ 533609.640056519303471, 7262620.0 ], [ 533610.359943480696529, 7262610.0 ], [ 533611.530221462948248, 7262600.000000000931323 ], [ 533613.680460680043325, 7262590.0 ], [ 533616.416969484183937, 7262580.0 ], [ 533618.906588250421919, 7262570.0 ], [ 533621.094303960213438, 7262560.0 ], [ 533623.594204692170024, 7262550.0 ], [ 533626.405795307713561, 7262540.0 ], [ 533628.906588250421919, 7262530.0 ], [ 533631.104585926048458, 7262520.0 ], [ 533633.670178714208305, 7262510.0 ], [ 533636.766630999278277, 7262500.0 ], [ 533640.01028196583502, 7262490.0 ], [ 533643.310235233511776, 7262480.0 ], [ 533646.689764766488224, 7262470.0 ], [ 533649.989718034281395, 7262460.0 ], [ 533653.233369000838138, 7262450.0 ], [ 533656.329821285791695, 7262440.0 ], [ 533658.895414073951542, 7262430.0 ], [ 533661.093411749578081, 7262420.0 ], [ 533663.594204692286439, 7262410.0 ], [ 533666.405795307829976, 7262400.0 ], [ 533668.905696039786562, 7262390.0 ], [ 533671.093411749578081, 7262380.0 ], [ 533673.583030515816063, 7262370.0 ], [ 533676.318647109437734, 7262360.0 ], [ 533678.458604360697791, 7262350.0 ], [ 533679.552016110159457, 7262340.000000000931323 ], [ 533679.901677625137381, 7262330.0 ], [ 533679.901677625137381, 7262320.0 ], [ 533679.552016110159457, 7262310.0 ], [ 533678.459496571333148, 7262300.0 ], [ 533676.328929075156339, 7262290.0 ], [ 533673.659004537737928, 7262280.0 ], [ 533671.453355230391026, 7262270.0 ], [ 533670.0, 7262260.0 ], [ 533668.546644769841805, 7262250.0 ], [ 533666.340995462378487, 7262240.0 ], [ 533663.671070924960077, 7262230.0 ], [ 533661.540503428783268, 7262220.0 ], [ 533660.447091679088771, 7262210.0 ], [ 533660.087148198392242, 7262200.0 ], [ 533660.011174176470377, 7262190.0 ], [ 533660.000892210751772, 7262180.0 ], [ 533660.0, 7262170.0 ], [ 533659.999107789248228, 7262160.0 ], [ 533659.988825823529623, 7262150.0 ], [ 533659.912851801607758, 7262140.0 ], [ 533659.552908320911229, 7262130.0 ], [ 533658.459496571216732, 7262120.0 ], [ 533656.330713496543467, 7262110.0 ], [ 533653.681352890678681, 7262100.000446105375886 ], [ 533651.62765162717551, 7262090.006479298695922 ], [ 533650.894183358410373, 7262080.055640487000346 ], [ 533651.62765162717551, 7262070.322760425508022 ], [ 533653.681352890678681, 7262061.316557979211211 ], [ 533656.330713496543467, 7262053.921899050474167 ], [ 533658.459496571216732, 7262048.921899050474167 ] ] } },
{ "type": "Feature", "properties": { "id": 10, "reference_id": 2, "dune_id": 2, "dune_name": "Big Mommy Dune", "acquisition_date": "2020-01-05", "length_m": 369.46932389518935 }, "geometry": { "type": "LineString", "coordinates": [ [ 528754.243011592305265, 7260848.448322394862771 ], [ 528747.91319030651357, 7260846.241780877113342 ], [ 528739.453693735180423, 7260843.211912859231234 ], [ 528729.900785414502025, 7260839.911959590390325 ], [ 528719.987933612894267, 7260836.318647108972073 ], [ 528709.999107789248228, 7260832.128783075138927 ], [ 528700.0, 7260827.423233035951853 ], [ 528690.0, 7260822.489618766121566 ], [ 528680.0, 7260817.499207057058811 ], [ 528670.0, 7260812.499900732189417 ], [ 528660.0, 7260807.500099267810583 ], [ 528650.0, 7260802.499900732189417 ], [ 528640.0, 7260797.499207057990134 ], [ 528630.0, 7260792.489618767052889 ], [ 528620.0, 7260787.423233035951853 ], [ 528610.0, 7260782.128783075138927 ], [ 528600.0, 7260776.319539319723845 ], [ 528590.0, 7260769.923133767209947 ], [ 528580.0, 7260763.299061057157815 ], [ 528570.0, 7260756.689764766953886 ], [ 528560.0, 7260750.0 ], [ 528550.0, 7260743.309343023225665 ], [ 528540.0, 7260736.689764766953886 ], [ 528530.0, 7260729.989718034863472 ], [ 528520.0, 7260723.233369001187384 ], [ 528510.0, 7260716.329821286723018 ], [ 528500.0, 7260708.896306284703314 ], [ 528490.0, 7260701.103693716228008 ], [ 528480.000892210751772, 7260693.671070925891399 ], [ 528470.012066387105733, 7260686.777805175632238 ], [ 528460.099214585614391, 7260680.098322374746203 ], [ 528450.546306264819577, 7260673.76939329970628 ], [ 528442.08680969348643, 7260668.329482780769467 ], [ 528435.756988407694735, 7260664.205310802906752 ] ] } },
{ "type": "Feature", "properties": { "id": 11, "reference_id": 2, "dune_id": 2, "dune_name": "Big Mommy Dune", "acquisition_date": "2020-01-05", "length_m": 144.05137338700618 }, "geometry": { "type": "LineString", "coordinates": [ [ 528924.243011592305265, 7260899.912851802073419 ], [ 528917.91319030651357, 7260899.552016110159457 ], [ 528909.453693735296838, 7260898.448322394862771 ], [ 528899.900785414385609, 7260896.242673087865114 ], [ 528889.987933612777852, 7260893.223087035119534 ], [ 528879.999107789364643, 7260889.999107789248228 ], [ 528870.0, 7260886.765738788992167 ], [ 528860.0, 7260883.670178715139627 ], [ 528850.0, 7260881.103693716228008 ], [ 528840.0, 7260878.896306285634637 ], [ 528830.000892210751772, 7260876.329821286723018 ], [ 528820.012066387222148, 7260873.234261211939156 ], [ 528810.099214585614391, 7260870.000892210751772 ], [ 528800.546306264819577, 7260866.776912964880466 ], [ 528792.08680969348643, 7260863.757326913066208 ], [ 528785.756988407694735, 7260861.551677605137229 ] ] } },
{ "type": "Feature", "properties": { "id": 12, "reference_id": 1, "dune_id": 1, "dune_name": "Big Mommy Dune", "acquisition_date": "2020-01-05", "length_m": 1245.1105080155764 }, "geometry": { "type": "LineString", "coordinates": [ [ 528960.535132088349201, 7262154.243011591956019 ], [ 528961.998769284458831, 7262147.913190307095647 ], [ 528965.298722552135587, 7262139.453693735413253 ], [ 528970.458265855675563, 7262129.900785414502025 ], [ 528976.416969484300353, 7262119.987933613359928 ], [ 528982.130567496176809, 7262109.999107789248228 ], [ 528987.347259013331495, 7262100.0 ], [ 528992.118501108954661, 7262090.0 ], [ 528996.317754898685962, 7262080.0 ], [ 528999.912851801607758, 7262070.0 ], [ 529003.223087035119534, 7262060.0 ], [ 529006.32982128590811, 7262050.0 ], [ 529008.907480461173691, 7262040.0 ], [ 529011.190841913805343, 7262030.0 ], [ 529014.118162604048848, 7262020.0 ], [ 529018.317416393663734, 7262010.0 ], [ 529023.757326912600547, 7262000.0 ], [ 529030.012066387222148, 7261990.0 ], [ 529036.341887672897428, 7261980.0 ], [ 529042.216823483933695, 7261970.0 ], [ 529047.870324714458548, 7261960.0 ], [ 529054.031014405656606, 7261950.0 ], [ 529061.179667737334967, 7261940.0 ], [ 529068.905696039786562, 7261930.0 ], [ 529076.319539319956675, 7261920.0 ], [ 529083.146220802329481, 7261910.0 ], [ 529089.54084193368908, 7261900.0 ], [ 529095.126020774245262, 7261890.0 ], [ 529099.453693735413253, 7261880.0 ], [ 529102.687062736134976, 7261870.0 ], [ 529104.679821305791847, 7261860.0 ], [ 529104.689211060875095, 7261850.0 ], [ 529102.763928968692198, 7261840.000000000931323 ], [ 529099.824811392463744, 7261830.0 ], [ 529096.306580722215585, 7261820.0 ], [ 529092.117608898319304, 7261810.0 ], [ 529087.346366802696139, 7261800.0 ], [ 529082.119393319706433, 7261790.0 ], [ 529076.328929075039923, 7261780.0 ], [ 529069.999107789364643, 7261770.0 ], [ 529063.659896748373285, 7261760.0 ], [ 529057.793458481901325, 7261750.0 ], [ 529052.206541518098675, 7261740.0 ], [ 529046.340995462262072, 7261730.000000000931323 ], [ 529040.012066387105733, 7261720.0 ], [ 529033.758219123352319, 7261710.0 ], [ 529028.328590570250526, 7261700.0 ], [ 529024.20531080244109, 7261690.0 ], [ 529021.638825803645886, 7261680.0 ], [ 529020.458265855675563, 7261670.0 ], [ 529020.076866232673638, 7261660.0 ], [ 529019.924918188713491, 7261650.0 ], [ 529019.564974708016962, 7261640.0 ], [ 529018.54664476972539, 7261630.0 ], [ 529016.776912965113297, 7261620.0 ], [ 529015.210682142991573, 7261610.0 ], [ 529015.210682142991573, 7261600.0 ], [ 529016.776912965113297, 7261590.0 ], [ 529018.547536980360746, 7261580.0 ], [ 529019.575256673851982, 7261570.0 ], [ 529020.000892210751772, 7261560.000000000931323 ], [ 529020.436809713486582, 7261550.0 ], [ 529021.550785394501872, 7261540.0 ], [ 529023.757326912600547, 7261530.0 ], [ 529026.777805175632238, 7261520.0 ], [ 529030.011174176586792, 7261510.0 ], [ 529033.310235233511776, 7261500.0 ], [ 529036.690656977239996, 7261490.0 ], [ 529040.0, 7261480.0 ], [ 529043.31023523339536, 7261470.000000000931323 ], [ 529046.700938942958601, 7261460.0 ], [ 529050.075974021921866, 7261450.0 ], [ 529053.670178714208305, 7261440.0 ], [ 529057.794350692536682, 7261430.0 ], [ 529062.205649307463318, 7261420.0 ], [ 529066.329821285791695, 7261410.0 ], [ 529069.924025978078134, 7261400.0 ], [ 529073.299953267676756, 7261390.0 ], [ 529076.700046732323244, 7261380.0 ], [ 529080.075974022038281, 7261370.0 ], [ 529083.670178714208305, 7261360.0 ], [ 529087.794350692536682, 7261350.0 ], [ 529092.20654151821509, 7261340.0 ], [ 529096.340103251626715, 7261330.0 ], [ 529100.0, 7261320.0 ], [ 529103.659896748373285, 7261310.000000000931323 ], [ 529107.793458481901325, 7261300.0 ], [ 529112.206541518098675, 7261290.0 ], [ 529116.340103251626715, 7261280.0 ], [ 529120.000892210751772, 7261270.0 ], [ 529123.670178714208305, 7261260.0 ], [ 529127.870324714574963, 7261250.0 ], [ 529132.576766964746639, 7261240.0 ], [ 529137.509489023126662, 7261230.0 ], [ 529142.490510976873338, 7261220.0 ], [ 529147.423233035253361, 7261210.000000000931323 ], [ 529152.128783074906096, 7261200.0 ], [ 529156.31953932007309, 7261190.0 ], [ 529159.923133767442778, 7261180.0 ], [ 529163.299061057041399, 7261170.0 ], [ 529166.688872555969283, 7261160.0 ], [ 529169.988825823529623, 7261150.0 ], [ 529173.223087035003118, 7261140.0 ], [ 529176.253847263869829, 7261130.0 ], [ 529178.535470593255013, 7261120.000000000931323 ], [ 529179.999107789364643, 7261110.0 ], [ 529181.452463019639254, 7261100.0 ], [ 529183.647830361267552, 7261090.0 ], [ 529186.241780876764096, 7261080.0 ], [ 529188.012404892127961, 7261070.0 ], [ 529188.011512681492604, 7261060.0 ], [ 529186.231498910929076, 7261050.000446105375886 ], [ 529183.571856339345686, 7261040.006479299627244 ], [ 529181.092519538942724, 7261030.055640487000346 ], [ 529178.906588250538334, 7261020.322760425508022 ], [ 529176.416969484300353, 7261011.316557979211211 ], [ 529173.681352890678681, 7261003.921899050474167 ], [ 529171.541395639418624, 7260998.921899050474167 ] ] } }
]
}
