{
"type": "FeatureCollection",
"name": "crests_2019_12_2019-12-23",
"crs": { "type": "name", "properties": { "name": "urn:ogc:def:crs:EPSG::32733" } },
"features": [
{ "type": "Feature", "properties": { "id": 0, "reference_id": 8, "dune_id": 8, "dune_name": "Inverted Y Dune", "acquisition_date": "2019-12-23", "length_m": 421.20641266218826 }, "geometry": { "type": "LineString", "coordinates": [ [ 530264.243011592421681, 7261221.628543838858604 ], [ 530257.913190306629986, 7261224.129336780868471 ], [ 530249.453693735180423, 7261227.969539299607277 ], [ 530239.900785414502025, 7261232.675981549546123 ], [ 530229.987933612777852, 7261237.969539300538599 ], [ 530219.999107789248228, 7261244.129336779937148 ], [ 530210.000892210751772, 7261251.628543837927282 ], [ 530200.011174176586792, 7261260.458265855908394 ], [ 530190.088040409144014, 7261270.088040409609675 ], [ 530180.458265855675563, 7261280.0111741758883 ], [ 530171.628543837927282, 7261290.000892210751772 ], [ 530164.129336780519225, 7261300.0 ], [ 530157.968647089553997, 7261310.000000000931323 ], [ 530152.664807373890653, 7261320.0 ], [ 530147.882391101680696, 7261330.0 ], [ 530143.681352890678681, 7261340.0 ], [ 530140.076866232673638, 7261350.0 ], [ 530136.700938943075016, 7261360.0 ], [ 530133.311127444147132, 7261370.0 ], [ 530130.01028196583502, 7261380.0 ], [ 530126.766630999278277, 7261390.0 ], [ 530123.670178714208305, 7261400.0 ], [ 530121.104585926048458, 7261410.0 ], [ 530118.907480461173691, 7261420.0 ], [ 530116.416077273548581, 7261430.0 ], [ 530113.670178714208305, 7261440.0 ], [ 530111.454247441026382, 7261450.0 ], [ 530110.0, 7261460.0 ], [ 530108.54664476972539, 7261470.000000000931323 ], [ 530106.340995462262072, 7261480.0 ], [ 530103.671070924960077, 7261490.0 ], [ 530101.540503428783268, 7261500.0 ], [ 530100.447091679205187, 7261510.0 ], [ 530100.087148198508658, 7261520.0 ], [ 530100.010728071210906, 7261529.999553894624114 ], [ 530099.995305122458376, 7261539.993520701304078 ], [ 530099.956425900803879, 7261549.944359513930976 ], [ 530099.776454160455614, 7261559.6772395754233 ], [ 530099.229748285608366, 7261568.683442020788789 ], [ 530098.164910642895848, 7261576.078100949525833 ], [ 530096.835089357104152, 7261581.078100949525833 ] ] } },
{ "type": "Feature", "properties": { "id": 1, "reference_id": 8, "dune_id": 8, "dune_name": "Inverted Y Dune", "acquisition_date": "2019-12-23", "length_m": 58.486023184726946 }, "geometry": { "type": "LineString", "coordinates": [ [ 530454.243011592421681, 7261210.000000000931323 ], [ 530447.913190306629986, 7261210.000000000931323 ], [ 530439.454585945932195, 7261210.000000000931323 ], [ 530429.912851801607758, 7261210.000000000931323 ], [ 530420.087148198508658, 7261210.000000000931323 ], [ 530410.545414054067805, 7261210.000000000931323 ], [ 530402.08680969348643, 7261210.000000000931323 ], [ 530395.756988407694735, 7261210.000000000931323 ] ] } },
{ "type": "Feature", "properties": { "id": 2, "reference_id": 8, "dune_id": 8, "dune_name": "Inverted Y Dune", "acquisition_date": "2019-12-23", "length_m": 68.797339758480533 }, "geometry": { "type": "LineString", "coordinates": [ [ 530544.243011592305265, 7261174.21559276804328 ], [ 530537.91319030651357, 7261178.404564592055976 ], [ 530529.454585945932195, 7261184.117270393297076 ], [ 530519.912851801607758, 7261191.093411749228835 ], [ 530510.087148198392242, 7261198.372348371893167 ], [ 530500.545414054067805, 7261204.331052001565695 ], [ 530492.08680969348643, 7261207.924364482983947 ], [ 530485.756988407694735, 7261209.454585946165025 ] ] } },
{ "type": "Feature", "properties": { "id": 3, "reference_id": 9, "dune_id": 9, "dune_name": "Inverted Y Dune", "acquisition_date": "2019-12-23", "length_m": 768.84157298124478 }, "geometry": { "type": "LineString", "coordinates": [ [ 530092.618604378192686, 7261588.921006839722395 ], [ 530089.748279663734138, 7261593.910724874585867 ], [ 530085.013263306696899, 7261601.228517570532858 ], [ 530078.136736146174371, 7261609.864494569599628 ], [ 530069.497267834376544, 7261618.427988858893514 ], [ 530059.906372502679005, 7261625.888316694647074 ], [ 530049.988379718270153, 7261632.118947214446962 ], [ 530039.999107789364643, 7261637.783176516182721 ], [ 530030.0, 7261643.669286504387856 ], [ 530020.0, 7261650.075974022038281 ], [ 530010.0, 7261656.700938943773508 ], [ 530000.0, 7261663.310235233977437 ], [ 529990.0, 7261670.0 ], [ 529980.0, 7261676.690656976774335 ], [ 529970.0, 7261683.310235233977437 ], [ 529960.0, 7261690.011174176819623 ], [ 529950.0, 7261696.777805175632238 ], [ 529940.0, 7261703.757326913066208 ], [ 529930.0, 7261711.551677605137229 ], [ 529920.0, 7261720.447983889840543 ], [ 529910.0, 7261730.087148198857903 ], [ 529900.0, 7261740.011174176819623 ], [ 529890.0, 7261750.000892210751772 ], [ 529880.0, 7261760.0 ], [ 529870.0, 7261770.0 ], [ 529860.000892210751772, 7261780.0 ], [ 529850.011174176470377, 7261790.0 ], [ 529840.087148198392242, 7261800.0 ], [ 529830.447983889840543, 7261810.0 ], [ 529821.551677605137229, 7261820.0 ], [ 529813.758219123352319, 7261830.0 ], [ 529806.78897935221903, 7261840.000000000931323 ], [ 529800.098322374862619, 7261850.0 ], [ 529793.758219123352319, 7261860.0 ], [ 529788.24233458249364, 7261870.0 ], [ 529783.757326912600547, 7261880.0 ], [ 529780.087148198392242, 7261890.0 ], [ 529776.701831153710373, 7261900.0 ], [ 529773.310235233511776, 7261910.0 ], [ 529770.0, 7261920.0 ], [ 529766.689764766488224, 7261930.0 ], [ 529763.299061056924984, 7261940.0 ], [ 529759.923133767326362, 7261950.0 ], [ 529756.319539319956675, 7261960.0 ], [ 529752.129675285425037, 7261970.0 ], [ 529747.433515001204796, 7261980.0 ], [ 529742.566484998911619, 7261990.0 ], [ 529737.869432503823191, 7262000.0 ], [ 529733.670178714208305, 7262010.0 ], [ 529730.000892210635357, 7262020.0 ], [ 529726.340103251626715, 7262030.0 ], [ 529722.20654151821509, 7262040.0 ], [ 529717.793458481901325, 7262050.0 ], [ 529713.659896748373285, 7262060.0 ], [ 529709.999107789248228, 7262070.0 ], [ 529706.329821285791695, 7262080.0 ], [ 529702.129675285425037, 7262090.0 ], [ 529697.423233035369776, 7262100.0 ], [ 529692.489618766237982, 7262110.0 ], [ 529687.499207057291642, 7262120.0 ], [ 529682.500792942708358, 7262130.0 ], [ 529677.51127344451379, 7262140.0 ], [ 529672.5879411411006, 7262149.999107789248228 ], [ 529667.958365123718977, 7262159.987933613359928 ], [ 529664.128444569883868, 7262169.900785414502025 ], [ 529661.628543837927282, 7262179.453693735413253 ], [ 529660.458265855675563, 7262187.913190307095647 ], [ 529660.088040409144014, 7262194.243011591956019 ] ] } },
{ "type": "Feature", "properties": { "id": 4, "reference_id": 4, "dune_id": 4, "dune_name": "The Star Dune", "acquisition_date": "2019-12-23", "length_m": 175.35927032747668 }, "geometry": { "type": "LineString", "coordinates": [ [ 533174.243011592421681, 7261908.459496571682394 ], [ 533167.913190306629986, 7261906.329821286723018 ], [ 533159.453693735180423, 7261903.669286504387856 ], [ 533149.900785414502025, 7261901.529329252429307 ], [ 533139.987933612894267, 7261900.35994348116219 ], [ 533129.999107789364643, 7261899.639164308086038 ], [ 533120.0, 7261898.459496571682394 ], [ 533110.0, 7261896.243565298616886 ], [ 533100.0, 7261893.223087035119534 ], [ 533090.0, 7261890.0 ], [ 533080.0, 7261886.776020754128695 ], [ 533070.0, 7261883.746152736246586 ], [ 533060.0, 7261881.463637195527554 ], [ 533050.000892210751772, 7261879.989718034863472 ], [ 533040.012066387105733, 7261878.459496571682394 ], [ 533030.099214585614391, 7261875.893903783522546 ], [ 533020.546306264819577, 7261872.13056749664247 ], [ 533012.08680969348643, 7261867.870324715040624 ], [ 533005.756988407694735, 7261864.117270393297076 ] ] } },
{ "type": "Feature", "properties": { "id": 5, "reference_id": 7, "dune_id": 7, "dune_name": "Inverted Y Dune", "acquisition_date": "2019-12-23", "length_m": 649.83329562098538 }, "geometry": { "type": "LineString", "coordinates": [ [ 530135.756988407694735, 7261650.0 ], [ 530142.08680969348643, 7261650.0 ], [ 530150.546306264819577, 7261650.0 ], [ 530160.099214585614391, 7261650.0 ], [ 530170.012066387222148, 7261650.0 ], [ 530180.000892210751772, 7261650.0 ], [ 530190.0, 7261650.0 ], [ 530200.0, 7261650.0 ], [ 530210.0, 7261649.999107790179551 ], [ 530220.0, 7261649.9888258241117 ], [ 530230.0, 7261649.912851802073419 ], [ 530240.0, 7261649.552908321842551 ], [ 530250.0, 7261648.458604361861944 ], [ 530260.0, 7261646.318647109903395 ], [ 530270.0, 7261643.583030516281724 ], [ 530280.0, 7261641.092519538477063 ], [ 530290.0, 7261638.895414074882865 ], [ 530300.0, 7261636.329821285791695 ], [ 530310.0, 7261633.233369001187384 ], [ 530320.0, 7261629.989718034863472 ], [ 530330.0, 7261626.688872555270791 ], [ 530340.0, 7261623.299061057157815 ], [ 530350.0, 7261619.92313376814127 ], [ 530360.0, 7261616.319539319723845 ], [ 530370.0, 7261612.128783075138927 ], [ 530380.0, 7261607.423233035951853 ], [ 530390.0, 7261602.489618767052889 ], [ 530400.0, 7261597.498314846307039 ], [ 530410.0, 7261592.488726556301117 ], [ 530420.0, 7261587.412058860063553 ], [ 530430.000000000116415, 7261582.041634876281023 ], [ 530440.0, 7261575.871555430814624 ], [ 530450.0, 7261568.371456163004041 ], [ 530459.999107789364643, 7261559.541734145022929 ], [ 530469.988825823529623, 7261549.911959590390325 ], [ 530479.912851801607758, 7261539.9888258241117 ], [ 530489.552016110159457, 7261529.999107789248228 ], [ 530498.448322394862771, 7261520.0 ], [ 530506.241780876647681, 7261510.0 ], [ 530513.211912858532742, 7261500.0 ], [ 530519.912851801607758, 7261490.0 ], [ 530526.329821285791695, 7261480.0 ], [ 530532.215931273181923, 7261470.000000000931323 ], [ 530537.870324714574963, 7261460.0 ], [ 530544.031014405656606, 7261450.0 ], [ 530551.180559947970323, 7261440.0 ], [ 530558.917762426892295, 7261430.0 ], [ 530566.417861694935709, 7261420.0 ], [ 530573.681352890678681, 7261410.0 ], [ 530581.54139563953504, 7261400.0 ], [ 530590.447091679205187, 7261390.0 ], [ 530600.087148198392242, 7261380.0 ], [ 530610.01028196583502, 7261370.000892210751772 ], [ 530619.988825823646039, 7261360.012066386640072 ], [ 530629.900785414502025, 7261350.099214585497975 ], [ 530639.453693735296838, 7261340.546306265518069 ], [ 530647.913190306629986, 7261332.086809693835676 ], [ 530654.243011592305265, 7261325.756988408043981 ] ] } },
{ "type": "Feature", "properties": { "id": 6, "reference_id": 2, "dune_id": 2, "dune_name": "Big Mommy Dune", "acquisition_date": "2019-12-23", "length_m": 51.3468744234181 }, "geometry": { "type": "LineString", "coordinates": [ [ 529075.756988407694735, 7260951.551677605137229 ], [ 529082.085917482851073, 7260953.757326913066208 ], [ 529090.534239877713844, 7260956.776912964880466 ], [ 529100.0, 7260960.0 ], [ 529109.465760122402571, 7260963.223087035119534 ], [ 529117.914082517265342, 7260966.242673087865114 ], [ 529124.243011592421681, 7260968.448322394862771 ] ] } },
{ "type": "Feature", "properties": { "id": 7, "reference_id": 2, "dune_id": 2, "dune_name": "Big Mommy Dune", "acquisition_date": "2019-12-23", "length_m": 137.53683857135655 }, "geometry": { "type": "LineString", "coordinates": [ [ 528554.243011592305265, 7260729.91195959225297 ], [ 528547.91319030651357, 7260729.540841933339834 ], [ 528539.453693735296838, 7260728.360281986184418 ], [ 528529.900785414502025, 7260725.78440723195672 ], [ 528519.987933612894267, 7260721.594543197192252 ], [ 528509.999107789364643, 7260715.870663220062852 ], [ 528500.0, 7260708.808265876024961 ], [ 528490.0, 7260701.092519539408386 ], [ 528480.000892210751772, 7260693.670178715139627 ], [ 528470.012066387105733, 7260686.777805175632238 ], [ 528460.099214585614391, 7260680.098322374746203 ], [ 528450.546306264819577, 7260673.76939329970628 ], [ 528442.08680969348643, 7260668.329482780769467 ], [ 528435.756988407694735, 7260664.205310802906752 ] ] } },
{ "type": "Feature", "properties": { "id": 8, "reference_id": 2, "dune_id": 2, "dune_name": "Big Mommy Dune", "acquisition_date": "2019-12-23", "length_m": 148.80243674836163 }, "geometry": { "type": "LineString", "coordinates": [ [ 528595.756988407694735, 7260764.128444570116699 ], [ 528602.086809693602845, 7260767.958365123718977 ], [ 528610.546306264703162, 7260772.588833352550864 ], [ 528620.099214585614391, 7260777.522447621449828 ], [ 528630.012066387105733, 7260782.587941141799092 ], [ 528640.000892210751772, 7260787.947190947830677 ], [ 528650.0, 7260794.040404161438346 ], [ 528660.0, 7260801.170277982018888 ], [ 528670.0, 7260808.829722017981112 ], [ 528679.999107789364643, 7260815.958703628741205 ], [ 528689.987933612894267, 7260822.041634877212346 ], [ 528699.900785414502025, 7260827.324910661205649 ], [ 528709.453693735180423, 7260832.030460700392723 ], [ 528717.91319030651357, 7260835.870663220062852 ], [ 528724.243011592421681, 7260838.371456163004041 ] ] } },
{ "type": "Feature", "properties": { "id": 9, "reference_id": 2, "dune_id": 2, "dune_name": "Big Mommy Dune", "acquisition_date": "2019-12-23", "length_m": 125.07895834957145 }, "geometry": { "type": "LineString", "coordinates": [ [ 528904.243011592421681, 7260899.912851802073419 ], [ 528897.91319030651357, 7260899.552016110159457 ], [ 528889.453693735180423, 7260898.448322394862771 ], [ 528879.900785414385609, 7260896.242673087865114 ], [ 528869.987933612894267, 7260893.222194824367762 ], [ 528859.999107789364643, 7260889.9888258241117 ], [ 528850.0, 7260886.688872557133436 ], [ 528840.0, 7260883.299061058089137 ], [ 528830.000892210751772, 7260879.924025978893042 ], [ 528820.012066387222148, 7260876.33071349747479 ], [ 528810.099214585614391, 7260872.216823484748602 ], [ 528800.546306264819577, 7260867.881498891860247 ], [ 528792.08680969348643, 7260864.118162604048848 ], [ 528785.756988407694735, 7260861.627651628106833 ] ] } },
{ "type": "Feature", "properties": { "id": 10, "reference_id": 5, "dune_id": 5, "dune_name": "The Star Dune", "acquisition_date": "2019-12-23", "length_m": 101.08936066319168 }, "geometry": { "type": "LineString", "coordinates": [ [ 534334.342226177919656, 7261302.086809693835676 ], [ 534328.459496571333148, 7261305.756988408043981 ], [ 534321.540503428666852, 7261312.086809693835676 ], [ 534315.657773822080344, 7261320.546306264586747 ], [ 534312.074743306264281, 7261330.099214585497975 ], [ 534310.545414054067805, 7261340.012066386640072 ], [ 534310.099214585614391, 7261350.0 ], [ 534310.012066387222148, 7261359.987933613359928 ], [ 534310.000892210751772, 7261369.900785414502025 ], [ 534310.0, 7261379.453693735413253 ], [ 534310.0, 7261387.913190307095647 ], [ 534310.0, 7261394.243011592887342 ] ] } },
{ "type": "Feature", "properties": { "id": 11, "reference_id": 5, "dune_id": 5, "dune_name": "The Star Dune", "acquisition_date": "2019-12-23", "length_m": 916.12818197724198 }, "geometry": { "type": "LineString", "coordinates": [ [ 533651.628543837927282, 7262041.078100949525833 ], [ 533654.129336780519225, 7262036.078100949525833 ], [ 533657.968647089437582, 7262028.683442020788789 ], [ 533662.664807373774238, 7262019.677239574491978 ], [ 533667.881498891045339, 7262009.944359513930976 ], [ 533673.671070924960077, 7261999.993520701304078 ], [ 533680.0, 7261989.999553894624114 ], [ 533686.329821285791695, 7261980.0 ], [ 533692.129675285541452, 7261970.0 ], [ 533697.423233035369776, 7261960.0 ], [ 533702.489618766237982, 7261950.0 ], [ 533707.499207057408057, 7261940.0 ], [ 533712.499900731956586, 7261930.0 ], [ 533717.499207057291642, 7261920.0 ], [ 533722.489618766237982, 7261910.0 ], [ 533727.423233035253361, 7261900.0 ], [ 533732.128783074906096, 7261890.0 ], [ 533736.31953932007309, 7261880.0 ], [ 533739.923133767442778, 7261870.0 ], [ 533743.299953267676756, 7261860.0 ], [ 533746.700938942958601, 7261850.0 ], [ 533750.088040409144014, 7261840.000000000931323 ], [ 533753.768501089187339, 7261830.0 ], [ 533758.329482780885883, 7261820.0 ], [ 533764.205310802557506, 7261810.000892210751772 ], [ 533771.638825803645886, 7261800.011174176819623 ], [ 533780.45915806631092, 7261790.088040409609675 ], [ 533790.088040409144014, 7261780.459158066660166 ], [ 533800.011174176470377, 7261771.638825803995132 ], [ 533810.000892210635357, 7261764.205310802906752 ], [ 533820.0, 7261758.328590570017695 ], [ 533830.0, 7261753.758219122886658 ], [ 533840.0, 7261750.011174176819623 ], [ 533850.0, 7261746.33071349747479 ], [ 533860.0, 7261742.129675285890698 ], [ 533870.0, 7261737.423233035951853 ], [ 533880.0, 7261732.490510977804661 ], [ 533890.0, 7261727.509489023126662 ], [ 533900.0, 7261722.576766964048147 ], [ 533910.0, 7261717.871216924861073 ], [ 533920.0, 7261713.681352891027927 ], [ 533930.0, 7261710.088040409609675 ], [ 533940.0, 7261706.787194930948317 ], [ 533950.0, 7261703.747044946998358 ], [ 533960.0, 7261701.464529407210648 ], [ 533970.0, 7261700.000892210751772 ], [ 533980.0, 7261698.546644769608974 ], [ 533990.0, 7261696.340995462611318 ], [ 534000.0, 7261693.670178714208305 ], [ 534010.0, 7261691.529329253360629 ], [ 534020.0, 7261690.35994348116219 ], [ 534030.0, 7261689.64005651883781 ], [ 534040.0, 7261688.470670748502016 ], [ 534050.0, 7261686.33071349747479 ], [ 534060.0, 7261683.670178715139627 ], [ 534070.0, 7261681.539611218497157 ], [ 534080.0, 7261680.435917503200471 ], [ 534090.0, 7261680.0 ], [ 534100.0, 7261679.564082497730851 ], [ 534110.0, 7261678.460388781502843 ], [ 534120.0, 7261676.329821285791695 ], [ 534130.0, 7261673.669286503456533 ], [ 534140.0, 7261671.528437041677535 ], [ 534150.0, 7261670.34876930527389 ], [ 534160.0, 7261669.552016110159457 ], [ 534170.0, 7261668.01151268184185 ], [ 534180.0, 7261664.691887693479657 ], [ 534190.0, 7261659.464867912232876 ], [ 534200.0, 7261653.211020648479462 ], [ 534210.0, 7261646.677698379382491 ], [ 534220.0, 7261639.9888258241117 ], [ 534230.0, 7261633.233369001187384 ], [ 534240.0, 7261626.329821285791695 ], [ 534250.0, 7261618.895414074882865 ], [ 534260.0, 7261611.092519539408386 ], [ 534269.999107789248228, 7261603.583030516281724 ], [ 534279.987933612894267, 7261596.318647108972073 ], [ 534289.900785414502025, 7261588.458604360930622 ], [ 534299.453693735296838, 7261579.552908320911229 ], [ 534307.91319030651357, 7261569.913744012825191 ], [ 534314.243011592305265, 7261560.000892210751772 ], [ 534317.91319030651357, 7261550.098322374746203 ], [ 534319.453693735296838, 7261540.546306265518069 ], [ 534319.900785414385609, 7261532.086809693835676 ], [ 534319.987933612894267, 7261525.756988408043981 ] ] } },
{ "type": "Feature", "properties": { "id": 12, "reference_id": 6, "dune_id": 6, "dune_name": "The Star Dune", "acquisition_date": "2019-12-23", "length_m": 316.52903306944461 }, "geometry": { "type": "LineString", "coordinates": [ [ 533620.447983889840543, 7262534.243011591956019 ], [ 533621.551677605137229, 7262527.913190307095647 ], [ 533623.757326912600547, 7262519.453693736344576 ], [ 533626.777805175632238, 7262509.900785414502025 ], [ 533630.011174176470377, 7262499.987933613359928 ], [ 533633.310235233511776, 7262489.999107789248228 ], [ 533636.690656977239996, 7262480.0 ], [ 533640.000000000116415, 7262470.0 ], [ 533643.309343022760004, 7262460.0 ], [ 533646.689764766488224, 7262450.0 ], [ 533649.989718034281395, 7262440.0 ], [ 533653.233369000838138, 7262430.0 ], [ 533656.329821285791695, 7262420.0 ], [ 533658.895414073951542, 7262410.0 ], [ 533661.092519538942724, 7262400.0 ], [ 533663.583030515816063, 7262390.0 ], [ 533666.318647109437734, 7262380.0 ], [ 533668.458604360697791, 7262370.0 ], [ 533669.552908320911229, 7262360.0 ], [ 533669.912851801607758, 7262350.0 ], [ 533669.988825823646039, 7262340.000000000931323 ], [ 533669.999107789364643, 7262330.0 ], [ 533669.999107789364643, 7262320.0 ], [ 533669.988825823646039, 7262310.0 ], [ 533669.912851801607758, 7262300.0 ], [ 533669.552908320911229, 7262290.0 ], [ 533668.459496571333148, 7262280.0 ], [ 533666.329821285791695, 7262270.000892210751772 ], [ 533663.670178714208305, 7262260.012066387571394 ], [ 533661.540503428783268, 7262250.099214585497975 ], [ 533660.447091679088771, 7262240.546306265518069 ], [ 533660.087148198392242, 7262232.086809693835676 ], [ 533660.011174176470377, 7262225.756988408043981 ] ] } },
{ "type": "Feature", "properties": { "id": 13, "reference_id": 6, "dune_id": 6, "dune_name": "The Star Dune", "acquisition_date": "2019-12-23", "length_m": 145.32111254148185 }, "geometry": { "type": "LineString", "coordinates": [ [ 533650.0, 7262194.243011591956019 ], [ 533650.0, 7262187.913190307095647 ], [ 533650.0, 7262179.453693735413253 ], [ 533650.0, 7262169.900785414502025 ], [ 533650.0, 7262159.987933613359928 ], [ 533650.0, 7262149.999107789248228 ], [ 533650.0, 7262140.0 ], [ 533650.0, 7262130.0 ], [ 533650.0, 7262120.0 ], [ 533650.0, 7262110.0 ], [ 533650.0, 7262100.000446105375886 ], [ 533650.0, 7262090.006479298695922 ], [ 533650.0, 7262080.055640487000346 ], [ 533650.0, 7262070.322760425508022 ], [ 533650.0, 7262061.316557979211211 ], [ 533650.0, 7262053.921899050474167 ], [ 533650.0, 7262048.921899050474167 ] ] } },
{ "type": "Feature", "properties": { "id": 14, "reference_id": 3, "dune_id": 3, "dune_name": "Big Mommy Dune", "acquisition_date": "2019-12-23", "length_m": 606.38463096703106 }, "geometry": { "type": "LineString", "coordinates": [ [ 529176.788087141467258, 7260984.243011591956019 ], [ 529175.298722552019171, 7260977.913190307095647 ], [ 529175.668947998550721, 7260969.453693735413253 ], [ 529178.405456802807748, 7260959.900785414502025 ], [ 529182.675981550244614, 7260949.987933613359928 ], [ 529187.533621797454543, 7260939.999107789248228 ], [ 529192.588833351852372, 7260930.0 ], [ 529197.947190947132185, 7260920.0 ], [ 529204.041296371375211, 7260910.0 ], [ 529211.180559948086739, 7260900.0 ], [ 529218.906588250538334, 7260890.0 ], [ 529226.330713496543467, 7260880.0 ], [ 529233.233369000838138, 7260870.0 ], [ 529239.98971803416498, 7260860.0 ], [ 529246.68976476660464, 7260850.0 ], [ 529253.309343022876419, 7260840.0 ], [ 529260.0, 7260830.0 ], [ 529266.690656977239996, 7260820.0 ], [ 529273.310235233511776, 7260810.0 ], [ 529280.011174176470377, 7260800.0 ], [ 529286.777805175632238, 7260790.0 ], [ 529293.757326912600547, 7260780.000000000931323 ], [ 529301.551677605253644, 7260770.0 ], [ 529310.447983889956959, 7260760.0 ], [ 529320.087148198508658, 7260750.0 ], [ 529330.011174176470377, 7260740.0 ], [ 529340.000892210751772, 7260730.000892210751772 ], [ 529350.0, 7260720.012066386640072 ], [ 529360.0, 7260710.098322374746203 ], [ 529370.0, 7260700.535132088698447 ], [ 529380.0, 7260691.999661494977772 ], [ 529390.0, 7260685.309004518203437 ], [ 529400.0, 7260680.535132087767124 ], [ 529410.0, 7260676.788979351520538 ], [ 529420.0, 7260673.322301620617509 ], [ 529430.0, 7260670.0111741758883 ], [ 529440.000000000116415, 7260666.766630999743938 ], [ 529450.0, 7260663.670178714208305 ], [ 529460.0, 7260661.10458592697978 ], [ 529470.0, 7260658.907480461522937 ], [ 529480.0, 7260656.416077273897827 ], [ 529490.0, 7260653.670178714208305 ], [ 529500.000000000116415, 7260651.454247441142797 ], [ 529510.0, 7260650.0 ], [ 529520.0, 7260648.545752558857203 ], [ 529530.0, 7260646.329821286723018 ], [ 529540.0, 7260643.583922727033496 ], [ 529550.0, 7260641.093411749228835 ], [ 529560.0, 7260638.906588250771165 ], [ 529569.999107789248228, 7260636.416969483718276 ], [ 529579.987933612894267, 7260633.681352891027927 ], [ 529589.900785414502025, 7260631.541395640000701 ], [ 529599.453693735180423, 7260630.447091680020094 ], [ 529607.91319030651357, 7260630.087148198857903 ], [ 529614.243011592421681, 7260630.011174176819623 ] ] } },
{ "type": "Feature", "properties": { "id": 15, "reference_id": 3, "dune_id": 3, "dune_name": "Big Mommy Dune", "acquisition_date": "2019-12-23", "length_m": 269.41494234965887 }, "geometry": { "type": "LineString", "coordinates": [ [ 529645.756988407694735, 7260620.0 ], [ 529652.08680969348643, 7260620.0 ], [ 529660.546306264819577, 7260619.999107790179551 ], [ 529670.099214585614391, 7260619.9888258241117 ], [ 529680.012066387222148, 7260619.912851802073419 ], [ 529690.000892210751772, 7260619.552908320911229 ], [ 529700.0, 7260618.459496571682394 ], [ 529710.0, 7260616.329821286723018 ], [ 529720.0, 7260613.670178715139627 ], [ 529730.0, 7260611.540503429248929 ], [ 529740.0, 7260610.447091680020094 ], [ 529750.0, 7260610.087148198857903 ], [ 529760.0, 7260610.011174176819623 ], [ 529770.0, 7260610.000892210751772 ], [ 529780.0, 7260610.0 ], [ 529790.0, 7260610.0 ], [ 529800.0, 7260610.0 ], [ 529810.0, 7260610.0 ], [ 529820.0, 7260610.0 ], [ 529830.0, 7260610.0 ], [ 529840.0, 7260610.0 ], [ 529850.0, 7260610.0 ], [ 529860.0, 7260610.0 ], [ 529869.999107789364643, 7260610.0 ], [ 529879.987933612894267, 7260610.0 ], [ 529889.900785414385609, 7260610.0 ], [ 529899.453693735296838, 7260610.0 ], [ 529907.91319030651357, 7260610.0 ], [ 529914.243011592305265, 7260610.0 ] ] } },
{ "type": "Feature", "properties": { "id": 16, "reference_id": 3, "dune_id": 3, "dune_name": "Big Mommy Dune", "acquisition_date": "2019-12-23", "length_m": 213.3219494843122 }, "geometry": { "type": "LineString", "coordinates": [ [ 529995.756988407694735, 7260610.0 ], [ 530002.08680969348643, 7260609.999107789248228 ], [ 530010.546306264819577, 7260609.9888258241117 ], [ 530020.099214585497975, 7260609.912851802073419 ], [ 530030.012066387105733, 7260609.552908320911229 ], [ 530040.000892210751772, 7260608.459496571682394 ], [ 530050.0, 7260606.329821286723018 ], [ 530060.0, 7260603.670178715139627 ], [ 530070.0, 7260601.539611218497157 ], [ 530080.0, 7260600.435917503200471 ], [ 530090.0, 7260599.999107789248228 ], [ 530100.0, 7260599.552908321842551 ], [ 530110.0, 7260598.373240584507585 ], [ 530120.0, 7260595.882729606702924 ], [ 530130.0, 7260592.129675285890698 ], [ 530140.0, 7260587.870324715040624 ], [ 530150.0, 7260584.116378182545304 ], [ 530159.999107789364643, 7260581.616477450355887 ], [ 530169.987933612894267, 7260580.37111765705049 ], [ 530179.900785414385609, 7260579.640948729589581 ], [ 530189.453693735180423, 7260578.470670748502016 ], [ 530197.91319030651357, 7260576.33071349747479 ], [ 530204.243011592305265, 7260573.670178715139627 ] ] } },
{ "type": "Feature", "properties": { "id": 17, "reference_id": 1, "dune_id": 1, "dune_name": "Big Mommy Dune", "acquisition_date": "2019-12-23", "length_m": 1226.311066695662 }, "geometry": { "type": "LineString", "coordinates": [ [ 529180.0, 7261045.756988408043981 ], [ 529179.999107789364643, 7261052.086809693835676 ], [ 529179.988825823529623, 7261060.546306265518069 ], [ 529179.912851801607758, 7261070.099214585497975 ], [ 529179.552908320794813, 7261080.012066387571394 ], [ 529178.458604360581376, 7261090.000892210751772 ], [ 529176.318647109321319, 7261100.0 ], [ 529173.583030515816063, 7261110.0 ], [ 529171.092519538942724, 7261120.000000000931323 ], [ 529168.895414074067958, 7261130.0 ], [ 529166.329821285791695, 7261140.0 ], [ 529163.233369000954553, 7261150.0 ], [ 529159.989718034281395, 7261160.0 ], [ 529156.68976476660464, 7261170.0 ], [ 529153.309343022760004, 7261180.0 ], [ 529149.999107789364643, 7261190.0 ], [ 529146.67948280076962, 7261200.0 ], [ 529143.223087035119534, 7261210.000000000931323 ], [ 529139.563190286629833, 7261220.0 ], [ 529135.226127570495009, 7261230.0 ], [ 529130.0, 7261240.0 ], [ 529124.773872429504991, 7261250.0 ], [ 529120.436809713370167, 7261260.0 ], [ 529116.776912964996882, 7261270.0 ], [ 529113.32051719923038, 7261280.0 ], [ 529110.0, 7261290.0 ], [ 529106.67948280076962, 7261300.0 ], [ 529103.223087035003118, 7261310.000000000931323 ], [ 529099.563190286746249, 7261320.0 ], [ 529095.226127570495009, 7261330.0 ], [ 529090.0, 7261340.0 ], [ 529084.773872429504991, 7261350.0 ], [ 529080.436809713370167, 7261360.0 ], [ 529076.776020754361525, 7261370.0 ], [ 529073.310235233511776, 7261380.0 ], [ 529069.924918188713491, 7261390.0 ], [ 529066.329821285791695, 7261400.0 ], [ 529062.205649307463318, 7261410.0 ], [ 529057.794350692536682, 7261420.0 ], [ 529053.670178714208305, 7261430.0 ], [ 529050.075974021921866, 7261440.0 ], [ 529046.700938942958601, 7261450.0 ], [ 529043.311127444147132, 7261460.0 ], [ 529040.01028196583502, 7261470.000000000931323 ], [ 529036.766630999278277, 7261480.0 ], [ 529033.670178714208305, 7261490.0 ], [ 529031.104585926048458, 7261500.0 ], [ 529028.907480461173691, 7261510.0 ], [ 529026.416077273548581, 7261520.0 ], [ 529023.670178714208305, 7261530.0 ], [ 529021.454247440909967, 7261540.0 ], [ 529020.0, 7261550.0 ], [ 529018.54664476972539, 7261560.000000000931323 ], [ 529016.340995462378487, 7261570.0 ], [ 529013.671070924960077, 7261580.0 ], [ 529011.540503428783268, 7261590.0 ], [ 529010.447983889840543, 7261600.0 ], [ 529010.098322374979034, 7261610.0 ], [ 529010.098322374979034, 7261620.0 ], [ 529010.447983889840543, 7261630.0 ], [ 529011.541395639418624, 7261640.0 ], [ 529013.681352890795097, 7261650.0 ], [ 529016.417861694935709, 7261660.0 ], [ 529018.917762426892295, 7261670.0 ], [ 529021.180559948086739, 7261680.0 ], [ 529024.031014405656606, 7261690.0 ], [ 529027.871216925326735, 7261700.0 ], [ 529032.227105449768715, 7261710.0 ], [ 529036.417861694935709, 7261720.0 ], [ 529040.372009867918678, 7261730.000000000931323 ], [ 529044.850738662178628, 7261740.0 ], [ 529050.447091679205187, 7261750.0 ], [ 529056.776912964996882, 7261760.0 ], [ 529063.310235233511776, 7261770.0 ], [ 529069.924025978078134, 7261780.0 ], [ 529076.318647109321319, 7261790.0 ], [ 529082.117608898319304, 7261800.0 ], [ 529087.335192626225762, 7261810.0 ], [ 529092.031352910562418, 7261820.0 ], [ 529095.869771008845419, 7261830.0 ], [ 529098.360281985718757, 7261840.000000000931323 ], [ 529099.453693735413253, 7261850.0 ], [ 529099.452801524661481, 7261860.0 ], [ 529098.350000019883737, 7261870.0 ], [ 529095.793796986807138, 7261880.0 ], [ 529091.671409429865889, 7261890.0 ], [ 529086.241780876647681, 7261900.0 ], [ 529079.987933612894267, 7261910.0 ], [ 529073.658112327102572, 7261920.0 ], [ 529067.783176516066305, 7261930.0 ], [ 529062.129675285541452, 7261940.0 ], [ 529055.969877805095166, 7261950.0 ], [ 529048.830614228500053, 7261960.0 ], [ 529041.170277982251719, 7261970.0 ], [ 529034.041296371491626, 7261980.0 ], [ 529027.957472912967205, 7261990.0 ], [ 529022.663915163138881, 7262000.0 ], [ 529017.882391101680696, 7262010.0 ], [ 529013.681352890795097, 7262020.0 ], [ 529010.076866232673638, 7262030.0 ], [ 529006.700046732323244, 7262040.0 ], [ 529003.299953267676756, 7262050.0 ], [ 528999.923133767442778, 7262060.0 ], [ 528996.31953932007309, 7262070.0 ], [ 528992.128783074789681, 7262080.0 ], [ 528987.42234082473442, 7262090.0 ], [ 528982.478444589767605, 7262100.0 ], [ 528977.411166648264043, 7262110.0 ], [ 528972.041634876397438, 7262120.0 ], [ 528965.872447640867904, 7262129.999107789248228 ], [ 528958.383522549411282, 7262139.987933613359928 ], [ 528949.640948729938827, 7262149.900785414502025 ], [ 528940.458265855675563, 7262159.453693735413253 ], [ 528932.075635517016053, 7262167.913190307095647 ], [ 528925.756096196942963, 7262174.243011591956019 ] ] } }
]
}
