{
"type": "FeatureCollection",
"name": "crests_2020_06_2020-06-08",
"crs": { "type": "name", "properties": { "name": "urn:ogc:def:crs:EPSG::32733" } },
"features": [
{ "type": "Feature", "properties": { "id": 0, "reference_id": 8, "dune_id": 8, "dune_name": "Inverted Y Dune", "acquisition_date": "2020-06-08", "length_m": 426.61287813442868 }, "geometry": { "type": "LineString", "coordinates": [ [ 530264.243011592421681, 7261221.639718014746904 ], [ 530257.913190306629986, 7261224.216484978795052 ], [ 530249.453693735180423, 7261228.416630979627371 ], [ 530239.900785414502025, 7261234.216484978795052 ], [ 530229.987933612777852, 7261241.639718014746904 ], [ 530219.999107789248228, 7261250.459158066660166 ], [ 530210.0, 7261260.088040409609675 ], [ 530200.000892210751772, 7261270.011174176819623 ], [ 530190.012066387105733, 7261280.000892210751772 ], [ 530180.098322374862619, 7261290.0 ], [ 530170.535132088349201, 7261300.0 ], [ 530161.999661495094188, 7261310.000000000931323 ], [ 530155.309004517970607, 7261320.0 ], [ 530150.535132088349201, 7261330.0 ], [ 530146.78897935221903, 7261340.0 ], [ 530143.322301620617509, 7261350.0 ], [ 530140.012066387222148, 7261360.0 ], [ 530136.776912964996882, 7261370.0 ], [ 530133.746152736246586, 7261380.0 ], [ 530131.464529406744987, 7261390.0 ], [ 530130.000892210751772, 7261400.0 ], [ 530128.54664476972539, 7261410.0 ], [ 530126.340103251626715, 7261420.0 ], [ 530123.659896748373285, 7261430.0 ], [ 530121.45335523027461, 7261440.0 ], [ 530120.0, 7261450.0 ], [ 530118.54664476972539, 7261460.0 ], [ 530116.340995462262072, 7261470.000000000931323 ], [ 530113.671070924960077, 7261480.0 ], [ 530111.540503428666852, 7261490.0 ], [ 530110.44619946856983, 7261500.0 ], [ 530110.075974022038281, 7261510.0 ], [ 530109.924025978078134, 7261520.0 ], [ 530109.553800531546585, 7261530.0 ], [ 530108.459496571333148, 7261539.999553894624114 ], [ 530106.329821285791695, 7261549.993520701304078 ], [ 530103.670178714208305, 7261559.944359513930976 ], [ 530101.540503428783268, 7261569.6772395754233 ], [ 530100.447091679205187, 7261578.683442020788789 ], [ 530100.087148198508658, 7261586.078100949525833 ], [ 530100.011174176470377, 7261591.078100949525833 ] ] } },
{ "type": "Feature", "properties": { "id": 1, "reference_id": 8, "dune_id": 8, "dune_name": "Inverted Y Dune", "acquisition_date": "2020-06-08", "length_m": 169.83702942795287 }, "geometry": { "type": "LineString", "coordinates": [ [ 530554.243011592305265, 7261172.085917483083904 ], [ 530547.91319030651357, 7261175.744922020472586 ], [ 530539.453693735296838, 7261181.987595107406378 ], [ 530529.900785414385609, 7261190.0 ], [ 530519.987933612894267, 7261198.012404892593622 ], [ 530509.999107789248228, 7261204.255077979527414 ], [ 530500.0, 7261207.914082517847419 ], [ 530490.0, 7261209.453693735413253 ], [ 530480.0, 7261209.900785414502025 ], [ 530470.0, 7261209.987933613359928 ], [ 530460.0, 7261209.999107790179551 ], [ 530450.0, 7261210.000000000931323 ], [ 530440.000892210751772, 7261210.000000000931323 ], [ 530430.012066387222148, 7261210.000000000931323 ], [ 530420.099214585614391, 7261210.000000000931323 ], [ 530410.546306264819577, 7261210.000000000931323 ], [ 530402.08680969348643, 7261210.000000000931323 ], [ 530395.756988407694735, 7261210.000000000931323 ] ] } },
{ "type": "Feature", "properties": { "id": 2, "reference_id": 9, "dune_id": 9, "dune_name": "Inverted Y Dune", "acquisition_date": "2020-06-08", "length_m": 742.79462309903158 }, "geometry": { "type": "LineString", "coordinates": [ [ 530097.91319030651357, 7261598.834750852547586 ], [ 530094.243011592421681, 7261603.473915160633624 ], [ 530087.913190306629986, 7261609.764880374073982 ], [ 530079.453693735180423, 7261616.565433513373137 ], [ 530069.900785414502025, 7261623.277835311368108 ], [ 530059.987933612894267, 7261629.995305122807622 ], [ 530049.999107789364643, 7261636.689318661578 ], [ 530040.0, 7261643.299061058089137 ], [ 530030.0, 7261649.924025977961719 ], [ 530020.0, 7261656.329821285791695 ], [ 530010.0, 7261662.205649307928979 ], [ 530000.0, 7261667.794350693002343 ], [ 529990.0, 7261673.670178714208305 ], [ 529980.0, 7261680.075974022038281 ], [ 529970.0, 7261686.700938943773508 ], [ 529960.0, 7261693.311127444729209 ], [ 529950.0, 7261700.011174177750945 ], [ 529940.0, 7261706.777805175632238 ], [ 529930.0, 7261713.757326913066208 ], [ 529920.0, 7261721.551677605137229 ], [ 529910.0, 7261730.447983890771866 ], [ 529900.0, 7261740.087148198857903 ], [ 529890.0, 7261750.011174176819623 ], [ 529880.0, 7261760.000892210751772 ], [ 529870.000892210751772, 7261770.0 ], [ 529860.011174176470377, 7261780.0 ], [ 529850.087148198392242, 7261790.0 ], [ 529840.447091679205187, 7261800.0 ], [ 529831.541395639418624, 7261810.0 ], [ 529823.682245101314038, 7261820.0 ], [ 529816.429035871406086, 7261830.0 ], [ 529809.004910625400953, 7261840.000000000931323 ], [ 529801.628543837927282, 7261850.0 ], [ 529795.582692010793835, 7261860.0 ], [ 529791.62765162717551, 7261870.0 ], [ 529788.993736448930576, 7261880.0 ], [ 529786.341887673013844, 7261890.0 ], [ 529783.23426121158991, 7261900.0 ], [ 529779.98971803416498, 7261910.0 ], [ 529776.688872555852868, 7261920.0 ], [ 529773.299061056924984, 7261930.0 ], [ 529769.923133767442778, 7261940.0 ], [ 529766.31953932007309, 7261950.0 ], [ 529762.128783074906096, 7261960.0 ], [ 529757.423233035253361, 7261970.0 ], [ 529752.489618766237982, 7261980.0 ], [ 529747.499207057408057, 7261990.0 ], [ 529742.500792942708358, 7262000.0 ], [ 529737.510381233762018, 7262010.0 ], [ 529732.576766964630224, 7262020.0 ], [ 529727.871216925210319, 7262030.0 ], [ 529723.680460680043325, 7262040.0 ], [ 529720.076866232790053, 7262050.0 ], [ 529716.700938943075016, 7262060.0 ], [ 529713.310235233511776, 7262070.0 ], [ 529709.999107789248228, 7262080.0 ], [ 529706.67948280076962, 7262090.0 ], [ 529703.222194824367762, 7262100.0 ], [ 529699.552908320911229, 7262110.0 ], [ 529695.150153548456728, 7262120.0 ], [ 529689.640056519303471, 7262129.999107789248228 ], [ 529683.681352890678681, 7262139.987933613359928 ], [ 529678.318308604415506, 7262149.900785414502025 ], [ 529674.204418591805734, 7262159.453693735413253 ], [ 529671.638825803645886, 7262167.913190307095647 ], [ 529670.45915806631092, 7262174.243011591956019 ] ] } },
{ "type": "Feature", "properties": { "id": 3, "reference_id": 4, "dune_id": 4, "dune_name": "The Star Dune", "acquisition_date": "2020-06-08", "length_m": 648.16385664756365 }, "geometry": { "type": "LineString", "coordinates": [ [ 533005.756988407694735, 7261870.447091680020094 ], [ 533012.08680969348643, 7261871.540503429248929 ], [ 533020.546306264819577, 7261873.671070925891399 ], [ 533030.099214585614391, 7261876.340995462611318 ], [ 533040.012066387105733, 7261878.546644769608974 ], [ 533050.000892210751772, 7261880.0 ], [ 533060.0, 7261881.453355230391026 ], [ 533070.0, 7261883.659896748140454 ], [ 533080.0, 7261886.340103251859546 ], [ 533090.0, 7261888.546644769608974 ], [ 533100.0, 7261890.000892210751772 ], [ 533110.0, 7261891.464529407210648 ], [ 533120.0, 7261893.746152736246586 ], [ 533130.0, 7261896.776912964880466 ], [ 533140.0, 7261900.0111741758883 ], [ 533150.0, 7261903.310235233977437 ], [ 533160.0, 7261906.690656977705657 ], [ 533170.0, 7261910.0 ], [ 533180.0, 7261913.309343023225665 ], [ 533190.0, 7261916.689764766022563 ], [ 533200.0, 7261919.989718034863472 ], [ 533210.0, 7261923.233369001187384 ], [ 533220.0, 7261926.329821286723018 ], [ 533230.0, 7261928.896306285634637 ], [ 533240.0, 7261931.103693715296686 ], [ 533250.0, 7261933.670178715139627 ], [ 533260.0, 7261936.766630999743938 ], [ 533270.0, 7261940.010281966067851 ], [ 533280.0, 7261943.310235233977437 ], [ 533290.0, 7261946.689764766022563 ], [ 533300.0, 7261949.989718034863472 ], [ 533310.0, 7261953.233369001187384 ], [ 533320.0, 7261956.329821286723018 ], [ 533330.0, 7261958.896306285634637 ], [ 533340.0, 7261961.103693716228008 ], [ 533350.0, 7261963.670178714208305 ], [ 533360.0, 7261966.765738788992167 ], [ 533370.0, 7261970.0 ], [ 533380.000000000116415, 7261973.234261211939156 ], [ 533390.0, 7261976.329821285791695 ], [ 533400.000000000116415, 7261978.896306285634637 ], [ 533410.0, 7261981.103693715296686 ], [ 533420.0, 7261983.671070924960077 ], [ 533430.0, 7261986.776912964880466 ], [ 533440.0, 7261990.086255988106132 ], [ 533450.0, 7261993.671070925891399 ], [ 533460.0, 7261997.794350693002343 ], [ 533470.0, 7262002.206541518680751 ], [ 533480.0, 7262006.340103251859546 ], [ 533490.0, 7262010.000892210751772 ], [ 533500.0, 7262013.670178714208305 ], [ 533510.0, 7262017.870324715040624 ], [ 533520.0, 7262022.57676696497947 ], [ 533530.0, 7262027.509489023126662 ], [ 533540.0, 7262032.489618767052889 ], [ 533550.0, 7262037.412951069884002 ], [ 533560.0, 7262042.052809053100646 ], [ 533570.0, 7262045.957811417989433 ], [ 533579.999107789364643, 7262048.80737366527319 ], [ 533589.987933612894267, 7262050.995089374482632 ], [ 533599.900785414385609, 7262053.135046626441181 ], [ 533609.453693735180423, 7262054.778143681585789 ], [ 533617.91319030651357, 7262054.788425646722317 ], [ 533624.243011592305265, 7262053.223087035119534 ] ] } },
{ "type": "Feature", "properties": { "id": 4, "reference_id": 2, "dune_id": 2, "dune_name": "Big Mommy Dune", "acquisition_date": "2020-06-08", "length_m": 788.58865835274355 }, "geometry": { "type": "LineString", "coordinates": [ [ 529151.078100949409418, 7260978.372348373755813 ], [ 529146.078100949409418, 7260975.882729606702924 ], [ 529138.683442020905204, 7260972.128783075138927 ], [ 529129.677239574841224, 7260967.859150538221002 ], [ 529119.944359513698146, 7260964.029229983687401 ], [ 529109.993520701071247, 7260961.168493561446667 ], [ 529099.999553894624114, 7260958.819440051913261 ], [ 529090.0, 7260955.883621817454696 ], [ 529080.0, 7260951.69375778362155 ], [ 529070.0, 7260946.329821285791695 ], [ 529060.0, 7260940.435917502269149 ], [ 529050.0, 7260935.210682142525911 ], [ 529040.0, 7260931.551677605137229 ], [ 529030.0, 7260928.993736449629068 ], [ 529020.0, 7260926.416969484649599 ], [ 529010.0, 7260923.595096902921796 ], [ 529000.0, 7260921.094303959980607 ], [ 528990.0, 7260918.905696040019393 ], [ 528980.0, 7260916.405795307829976 ], [ 528970.0, 7260913.594204692170024 ], [ 528960.0, 7260911.094303959980607 ], [ 528950.0, 7260908.905696040019393 ], [ 528940.0, 7260906.405795308761299 ], [ 528930.0, 7260903.594204693101346 ], [ 528920.0, 7260901.094303959980607 ], [ 528910.0, 7260898.905696040019393 ], [ 528900.0, 7260896.405795307829976 ], [ 528890.0, 7260893.594204692170024 ], [ 528880.0, 7260891.093411749228835 ], [ 528870.0, 7260888.895414073951542 ], [ 528860.0, 7260886.329821286723018 ], [ 528850.0, 7260883.233369002118707 ], [ 528840.0, 7260879.989718034863472 ], [ 528830.0, 7260876.688872556202114 ], [ 528820.0, 7260873.299061057157815 ], [ 528810.0, 7260869.924025978893042 ], [ 528800.0, 7260866.329821286723018 ], [ 528790.0, 7260862.205649307928979 ], [ 528780.0, 7260857.794350693002343 ], [ 528770.0, 7260853.670178714208305 ], [ 528760.0, 7260850.075974022038281 ], [ 528750.0, 7260846.700046733021736 ], [ 528740.0, 7260843.299953267909586 ], [ 528730.0, 7260839.92313376814127 ], [ 528720.0, 7260836.319539319723845 ], [ 528710.0, 7260832.128783075138927 ], [ 528700.0, 7260827.423233035951853 ], [ 528690.0, 7260822.489618766121566 ], [ 528680.0, 7260817.499207057058811 ], [ 528670.0, 7260812.499900732189417 ], [ 528660.0, 7260807.500099267810583 ], [ 528650.0, 7260802.499900732189417 ], [ 528640.0, 7260797.499207057990134 ], [ 528630.0, 7260792.489618767052889 ], [ 528620.0, 7260787.423233035951853 ], [ 528610.0, 7260782.128783075138927 ], [ 528600.0, 7260776.319539319723845 ], [ 528590.0, 7260769.923133767209947 ], [ 528580.0, 7260763.299061057157815 ], [ 528570.0, 7260756.689764766953886 ], [ 528560.0, 7260750.0 ], [ 528550.0, 7260743.309343023225665 ], [ 528540.0, 7260736.689764766953886 ], [ 528530.0, 7260729.989718034863472 ], [ 528520.0, 7260723.233369001187384 ], [ 528510.0, 7260716.329821286723018 ], [ 528500.0, 7260708.896306284703314 ], [ 528490.0, 7260701.103693716228008 ], [ 528480.000892210751772, 7260693.671070925891399 ], [ 528470.012066387105733, 7260686.777805175632238 ], [ 528460.099214585614391, 7260680.098322374746203 ], [ 528450.546306264819577, 7260673.76939329970628 ], [ 528442.08680969348643, 7260668.329482780769467 ], [ 528435.756988407694735, 7260664.205310802906752 ] ] } },
{ "type": "Feature", "properties": { "id": 5, "reference_id": 5, "dune_id": 5, "dune_name": "The Star Dune", "acquisition_date": "2020-06-08", "length_m": 1139.5310736583176 }, "geometry": { "type": "LineString", "coordinates": [ [ 534334.789317857124843, 7261305.756988408043981 ], [ 534330.0, 7261312.086809693835676 ], [ 534325.210682142991573, 7261320.546306264586747 ], [ 534321.987595107872039, 7261330.099214585497975 ], [ 534320.534239877597429, 7261340.012066386640072 ], [ 534320.098322374862619, 7261350.000892210751772 ], [ 534320.012066387105733, 7261360.0 ], [ 534320.000892210751772, 7261370.0 ], [ 534320.0, 7261380.0 ], [ 534320.0, 7261390.0 ], [ 534320.000892210751772, 7261400.0 ], [ 534320.011174176470377, 7261410.0 ], [ 534320.087148198392242, 7261420.0 ], [ 534320.447091679205187, 7261430.0 ], [ 534321.540503428666852, 7261440.0 ], [ 534323.670178714208305, 7261450.0 ], [ 534326.329821285791695, 7261460.0 ], [ 534328.459496571333148, 7261470.000000000931323 ], [ 534329.552908320794813, 7261480.0 ], [ 534329.911959590855986, 7261490.0 ], [ 534329.977651647059247, 7261500.0 ], [ 534329.911959590855986, 7261510.0 ], [ 534329.552016110159457, 7261520.0 ], [ 534328.447430184110999, 7261530.0 ], [ 534326.23060670029372, 7261539.999107789248228 ], [ 534323.123872449505143, 7261549.9888258241117 ], [ 534319.453693735296838, 7261559.912851802073419 ], [ 534314.690103271510452, 7261569.552016110159457 ], [ 534308.000338505022228, 7261578.448322394862771 ], [ 534299.464867911767215, 7261586.242673087865114 ], [ 534289.901677625020966, 7261593.222194824367762 ], [ 534279.987933612894267, 7261599.9888258241117 ], [ 534269.999107789248228, 7261606.689764766953886 ], [ 534260.0, 7261613.309343023225665 ], [ 534250.0, 7261620.0 ], [ 534240.0, 7261626.690656976774335 ], [ 534230.0, 7261633.309343023225665 ], [ 534220.0, 7261639.999107789248228 ], [ 534210.0, 7261646.678590590134263 ], [ 534200.0, 7261653.211020648479462 ], [ 534190.0, 7261659.464867912232876 ], [ 534180.0, 7261664.691887693479657 ], [ 534170.0, 7261668.01151268184185 ], [ 534160.0, 7261669.552016110159457 ], [ 534150.0, 7261670.34876930527389 ], [ 534140.0, 7261671.528437041677535 ], [ 534130.0, 7261673.669286503456533 ], [ 534120.0, 7261676.329821285791695 ], [ 534110.0, 7261678.460388781502843 ], [ 534100.0, 7261679.564082497730851 ], [ 534090.0, 7261680.0 ], [ 534080.0, 7261680.435917503200471 ], [ 534070.0, 7261681.539611218497157 ], [ 534060.0, 7261683.670178715139627 ], [ 534050.0, 7261686.33071349747479 ], [ 534040.0, 7261688.470670748502016 ], [ 534030.0, 7261689.64005651883781 ], [ 534020.0, 7261690.35994348116219 ], [ 534010.0, 7261691.530221464112401 ], [ 534000.0, 7261693.680460680276155 ], [ 533990.0, 7261696.416969484649599 ], [ 533980.0, 7261698.906588250771165 ], [ 533970.0, 7261701.094303959980607 ], [ 533960.0, 7261703.594204692170024 ], [ 533950.0, 7261706.406687518581748 ], [ 533940.0, 7261708.916870215907693 ], [ 533930.0, 7261711.181452158838511 ], [ 533920.0, 7261714.041296371258795 ], [ 533910.0, 7261717.947190947830677 ], [ 533900.0, 7261722.58704893104732 ], [ 533890.0, 7261727.511273444630206 ], [ 533880.0, 7261732.500792942941189 ], [ 533870.0, 7261737.500099267810583 ], [ 533860.0, 7261742.500792942941189 ], [ 533850.0, 7261747.511273445561528 ], [ 533840.0, 7261752.58794114086777 ], [ 533830.0, 7261757.958365123718977 ], [ 533820.0, 7261764.128444569185376 ], [ 533810.000892210635357, 7261771.628543837927282 ], [ 533800.011174176470377, 7261780.458265855908394 ], [ 533790.088040409144014, 7261790.088040409609675 ], [ 533780.45915806631092, 7261800.011174176819623 ], [ 533771.638825803645886, 7261810.000892210751772 ], [ 533764.205310802557506, 7261820.0 ], [ 533758.329482780885883, 7261830.0 ], [ 533753.768501089187339, 7261840.000000000931323 ], [ 533750.088040409144014, 7261850.0 ], [ 533746.700938942958601, 7261860.0 ], [ 533743.299953267676756, 7261870.0 ], [ 533739.924025978078134, 7261880.0 ], [ 533736.329821285791695, 7261890.0 ], [ 533732.204757096711546, 7261900.0 ], [ 533727.783176516182721, 7261910.0 ], [ 533723.583030515816063, 7261920.0 ], [ 533719.628882342833094, 7261930.0 ], [ 533715.159543303539976, 7261940.0 ], [ 533709.628882342833094, 7261950.0 ], [ 533703.583030515816063, 7261960.0 ], [ 533697.783176516066305, 7261970.0 ], [ 533692.205649307463318, 7261980.0 ], [ 533686.340549356886186, 7261989.999553894624114 ], [ 533680.006479298928753, 7261999.993520701304078 ], [ 533673.714645024156198, 7262009.944359513930976 ], [ 533668.105044730589725, 7262019.677239574491978 ], [ 533663.435059088165872, 7262028.683442020788789 ], [ 533659.803736446541734, 7262036.078100949525833 ], [ 533657.294247423415072, 7262041.078100949525833 ] ] } },
{ "type": "Feature", "properties": { "id": 6, "reference_id": 6, "dune_id": 6, "dune_name": "The Star Dune", "acquisition_date": "2020-06-08", "length_m": 895.40612217231148 }, "geometry": { "type": "LineString", "coordinates": [ [ 533653.164910642895848, 7262048.921899050474167 ], [ 533651.835089357104152, 7262053.921899050474167 ], [ 533650.770251714391634, 7262061.316557979211211 ], [ 533650.223545839660801, 7262070.322760425508022 ], [ 533650.044466309947893, 7262080.055640487000346 ], [ 533650.016761264763772, 7262090.006479298695922 ], [ 533650.087594303768128, 7262100.000446105375886 ], [ 533650.447091679205187, 7262110.0 ], [ 533651.540503428783268, 7262120.0 ], [ 533653.670178714208305, 7262130.0 ], [ 533656.329821285791695, 7262140.0 ], [ 533658.459496571216732, 7262150.0 ], [ 533659.552908320911229, 7262160.0 ], [ 533659.912851801607758, 7262170.0 ], [ 533659.988825823529623, 7262180.0 ], [ 533660.0, 7262190.0 ], [ 533660.011174176470377, 7262200.0 ], [ 533660.087148198392242, 7262210.0 ], [ 533660.447091679088771, 7262220.0 ], [ 533661.540503428783268, 7262230.0 ], [ 533663.670178714208305, 7262240.0 ], [ 533666.330713496543467, 7262250.0 ], [ 533668.470670747803524, 7262260.0 ], [ 533669.640056519303471, 7262270.0 ], [ 533670.359943480696529, 7262280.0 ], [ 533671.529329252196476, 7262290.0 ], [ 533673.668394292821176, 7262300.0 ], [ 533676.318647109437734, 7262310.0 ], [ 533678.37234837282449, 7262320.0 ], [ 533679.105816641706042, 7262330.0 ], [ 533678.37234837282449, 7262340.000000000931323 ], [ 533676.317754898685962, 7262350.0 ], [ 533673.658112327102572, 7262360.0 ], [ 533671.453355230391026, 7262370.0 ], [ 533670.0, 7262380.0 ], [ 533668.545752559090033, 7262390.0 ], [ 533666.329821285791695, 7262400.0 ], [ 533663.583922726451419, 7262410.0 ], [ 533661.092519538942724, 7262420.0 ], [ 533658.895414073951542, 7262430.0 ], [ 533656.329821285791695, 7262440.0 ], [ 533653.233369000838138, 7262450.0 ], [ 533649.989718034281395, 7262460.0 ], [ 533646.689764766488224, 7262470.0 ], [ 533643.310235233511776, 7262480.0 ], [ 533640.011174176470377, 7262490.0 ], [ 533636.776912964996882, 7262500.0 ], [ 533633.746152736246586, 7262510.0 ], [ 533631.464529406744987, 7262520.0 ], [ 533630.000892210751772, 7262530.0 ], [ 533628.545752558973618, 7262540.0 ], [ 533626.329821285791695, 7262550.0 ], [ 533623.583922726451419, 7262560.0 ], [ 533621.093411749578081, 7262570.0 ], [ 533618.906588250421919, 7262580.0 ], [ 533616.416969484183937, 7262590.0 ], [ 533613.680460680043325, 7262600.000000000931323 ], [ 533611.530221462948248, 7262610.0 ], [ 533610.359943480696529, 7262620.0 ], [ 533609.640056519303471, 7262630.0 ], [ 533608.470670747803524, 7262640.0 ], [ 533606.330713496543467, 7262650.0 ], [ 533603.670178714208305, 7262660.0 ], [ 533601.540503428783268, 7262670.0 ], [ 533600.44619946856983, 7262680.0 ], [ 533600.075974022038281, 7262690.0 ], [ 533599.924025978078134, 7262700.0 ], [ 533599.553800531546585, 7262710.0 ], [ 533598.459496571216732, 7262720.0 ], [ 533596.328929075039923, 7262730.0 ], [ 533593.659004537737928, 7262740.0 ], [ 533591.45335523027461, 7262750.0 ], [ 533589.999107789248228, 7262760.0 ], [ 533588.535470593255013, 7262770.0 ], [ 533586.252955053234473, 7262780.0 ], [ 533583.212805069284514, 7262790.0 ], [ 533579.912851801607758, 7262800.0 ], [ 533576.328929075156339, 7262810.0 ], [ 533572.205649307463318, 7262820.0 ], [ 533567.794350692653097, 7262830.0 ], [ 533563.671070924843661, 7262840.0 ], [ 533560.087148198392242, 7262850.0 ], [ 533556.788087141467258, 7262860.0 ], [ 533553.758219123352319, 7262870.000000000931323 ], [ 533551.551677605253644, 7262879.999107789248228 ], [ 533550.447983889840543, 7262889.987933613359928 ], [ 533550.087148198392242, 7262899.900785414502025 ], [ 533550.011174176470377, 7262909.453693736344576 ], [ 533550.000892210751772, 7262917.913190307095647 ], [ 533550.0, 7262924.243011591956019 ] ] } },
{ "type": "Feature", "properties": { "id": 7, "reference_id": 3, "dune_id": 3, "dune_name": "Big Mommy Dune", "acquisition_date": "2020-06-08", "length_m": 1015.0646681638417 }, "geometry": { "type": "LineString", "coordinates": [ [ 529181.638825803645886, 7260964.243011592887342 ], [ 529184.205310802557506, 7260957.913190307095647 ], [ 529188.328590570250526, 7260949.453693735413253 ], [ 529193.758219123352319, 7260939.900785414502025 ], [ 529200.012066387105733, 7260929.987933613359928 ], [ 529206.340995462262072, 7260919.999107789248228 ], [ 529212.206541518098675, 7260910.0 ], [ 529217.794350692536682, 7260900.0 ], [ 529223.670178714208305, 7260890.0 ], [ 529230.075974021921866, 7260880.0 ], [ 529236.700046732323244, 7260870.0 ], [ 529243.299953267676756, 7260860.0 ], [ 529249.924025978078134, 7260850.0 ], [ 529256.32982128590811, 7260840.0 ], [ 529262.205649307463318, 7260830.0 ], [ 529267.794350692536682, 7260820.0 ], [ 529273.671070924960077, 7260810.0 ], [ 529280.087148198392242, 7260800.0 ], [ 529286.788087141467258, 7260790.0 ], [ 529293.758219123352319, 7260780.000000000931323 ], [ 529301.551677605253644, 7260770.0 ], [ 529310.447983889956959, 7260760.0 ], [ 529320.087148198508658, 7260750.0 ], [ 529330.011174176470377, 7260740.0 ], [ 529340.000892210751772, 7260730.000892210751772 ], [ 529350.0, 7260720.012066386640072 ], [ 529360.0, 7260710.099214585497975 ], [ 529370.0, 7260700.545414054766297 ], [ 529380.0, 7260692.075635517016053 ], [ 529390.0, 7260685.669840209186077 ], [ 529400.0, 7260681.638825803995132 ], [ 529410.0, 7260678.994628659449518 ], [ 529420.0, 7260676.34188767336309 ], [ 529430.0, 7260673.234261211007833 ], [ 529440.000000000116415, 7260669.989718034863472 ], [ 529450.0, 7260666.689764766953886 ], [ 529460.0, 7260663.310235233977437 ], [ 529470.0, 7260660.010281966067851 ], [ 529480.0, 7260656.766630999743938 ], [ 529490.0, 7260653.670178714208305 ], [ 529500.000000000116415, 7260651.10458592697978 ], [ 529510.0, 7260648.906588250771165 ], [ 529520.0, 7260646.405795307829976 ], [ 529530.0, 7260643.594204693101346 ], [ 529540.0, 7260641.094303959980607 ], [ 529550.0, 7260638.906588250771165 ], [ 529560.0, 7260636.416969483718276 ], [ 529570.0, 7260633.680460680276155 ], [ 529580.0, 7260631.530221463181078 ], [ 529590.0, 7260630.35994348116219 ], [ 529600.0, 7260629.64005651883781 ], [ 529610.0, 7260628.470670747570693 ], [ 529620.0, 7260626.330713496543467 ], [ 529630.0, 7260623.670178714208305 ], [ 529640.0, 7260621.540503429248929 ], [ 529650.0, 7260620.446199468336999 ], [ 529660.0, 7260620.075974022038281 ], [ 529670.0, 7260619.924025977961719 ], [ 529680.0, 7260619.553800531663001 ], [ 529690.0, 7260618.459496571682394 ], [ 529700.0, 7260616.329821286723018 ], [ 529710.0, 7260613.670178715139627 ], [ 529720.0, 7260611.540503429248929 ], [ 529730.0, 7260610.447091680020094 ], [ 529740.0, 7260610.087148198857903 ], [ 529750.0, 7260610.011174176819623 ], [ 529760.0, 7260610.000892210751772 ], [ 529770.0, 7260610.0 ], [ 529780.0, 7260610.0 ], [ 529790.0, 7260610.0 ], [ 529800.0, 7260610.0 ], [ 529810.0, 7260610.0 ], [ 529820.0, 7260610.0 ], [ 529830.0, 7260610.0 ], [ 529840.0, 7260610.0 ], [ 529850.0, 7260610.0 ], [ 529860.0, 7260610.0 ], [ 529870.0, 7260610.0 ], [ 529880.0, 7260610.0 ], [ 529890.0, 7260610.0 ], [ 529900.0, 7260610.0 ], [ 529910.0, 7260610.0 ], [ 529920.0, 7260610.0 ], [ 529930.0, 7260610.0 ], [ 529940.0, 7260610.0 ], [ 529950.0, 7260610.0 ], [ 529960.0, 7260610.0 ], [ 529970.0, 7260610.0 ], [ 529980.0, 7260610.0 ], [ 529990.0, 7260610.0 ], [ 529999.999107789364643, 7260610.0 ], [ 530009.987933612894267, 7260610.0 ], [ 530019.900785414502025, 7260610.0 ], [ 530029.453693735180423, 7260610.0 ], [ 530037.91319030651357, 7260610.0 ], [ 530044.243011592305265, 7260610.0 ] ] } },
{ "type": "Feature", "properties": { "id": 8, "reference_id": 3, "dune_id": 3, "dune_name": "Big Mommy Dune", "acquisition_date": "2020-06-08", "length_m": 171.92157863128458 }, "geometry": { "type": "LineString", "coordinates": [ [ 530244.243011592421681, 7260570.087148198857903 ], [ 530237.91319030651357, 7260570.447091680020094 ], [ 530229.453693735180423, 7260571.541395640000701 ], [ 530219.900785414385609, 7260573.681352891027927 ], [ 530209.987933612894267, 7260576.416969484649599 ], [ 530199.999107789248228, 7260578.906588250771165 ], [ 530190.0, 7260581.094303959980607 ], [ 530180.0, 7260583.594204692170024 ], [ 530170.000000000116415, 7260586.405795307829976 ], [ 530160.0, 7260588.905696040019393 ], [ 530150.0, 7260591.093411749228835 ], [ 530140.0, 7260593.583030516281724 ], [ 530130.0, 7260596.318647108972073 ], [ 530120.000892210751772, 7260598.458604360930622 ], [ 530110.012066387222148, 7260599.552908321842551 ], [ 530100.099214585614391, 7260599.912851802073419 ], [ 530090.546306264819577, 7260599.9888258241117 ], [ 530082.08680969348643, 7260599.999107789248228 ], [ 530075.756988407694735, 7260600.0 ] ] } },
{ "type": "Feature", "properties": { "id": 9, "reference_id": 1, "dune_id": 1, "dune_name": "Big Mommy Dune", "acquisition_date": "2020-06-08", "length_m": 792.70291748049635 }, "geometry": { "type": "LineString", "coordinates": [ [ 529020.0, 7261565.756988408043981 ], [ 529020.0, 7261572.086809693835676 ], [ 529020.0, 7261580.546306265518069 ], [ 529020.0, 7261590.099214585497975 ], [ 529020.0, 7261600.012066387571394 ], [ 529020.0, 7261610.000892210751772 ], [ 529020.000892210751772, 7261620.0 ], [ 529020.011174176470377, 7261630.0 ], [ 529020.087148198508658, 7261640.0 ], [ 529020.447983889840543, 7261650.0 ], [ 529021.551677605137229, 7261660.0 ], [ 529023.757326912600547, 7261670.0 ], [ 529026.777805175632238, 7261680.0 ], [ 529030.012066387222148, 7261690.0 ], [ 529033.322301620617509, 7261700.0 ], [ 529036.788087141467258, 7261710.0 ], [ 529040.523957911878824, 7261720.0 ], [ 529045.221856319345534, 7261730.000000000931323 ], [ 529051.551677605253644, 7261740.0 ], [ 529058.983454483095556, 7261750.0 ], [ 529066.340103251626715, 7261760.0 ], [ 529073.223087035003118, 7261770.0 ], [ 529079.902569835772738, 7261780.0 ], [ 529086.241780876647681, 7261790.0 ], [ 529091.757665417622775, 7261800.0 ], [ 529096.24088866612874, 7261810.0 ], [ 529099.890503448667005, 7261820.0 ], [ 529103.123872449388728, 7261830.0 ], [ 529105.793796986807138, 7261840.000000000931323 ], [ 529106.89575257897377, 7261850.0 ], [ 529105.783515021088533, 7261860.0 ], [ 529103.047898427466862, 7261870.0 ], [ 529099.529667757218704, 7261880.0 ], [ 529095.137194950715639, 7261890.0 ], [ 529089.552016110159457, 7261900.0 ], [ 529083.222194824367762, 7261910.0 ], [ 529076.67948280076962, 7261920.0 ], [ 529069.999107789364643, 7261930.0 ], [ 529063.309343022760004, 7261940.0 ], [ 529056.690656977239996, 7261950.0 ], [ 529050.000892210635357, 7261960.0 ], [ 529043.32051719923038, 7261970.0 ], [ 529036.777805175632238, 7261980.0 ], [ 529030.447983889840543, 7261990.0 ], [ 529024.861020627897233, 7262000.0 ], [ 529020.447983889840543, 7262010.0 ], [ 529016.777805175632238, 7262020.0 ], [ 529013.320517199346796, 7262030.0 ], [ 529010.000892210751772, 7262040.0 ], [ 529006.68976476660464, 7262050.0 ], [ 529003.299061057041399, 7262060.0 ], [ 528999.923133767442778, 7262070.0 ], [ 528996.318647109437734, 7262080.0 ], [ 528992.117608898319304, 7262090.0 ], [ 528987.335192626225762, 7262100.0 ], [ 528982.031352910678834, 7262110.0 ], [ 528975.870663219597191, 7262120.0 ], [ 528968.371456162189133, 7262130.0 ], [ 528959.541734144324437, 7262140.0 ], [ 528949.911959590855986, 7262150.0 ], [ 528939.988825823529623, 7262159.999107789248228 ], [ 528929.999107789364643, 7262169.9888258241117 ], [ 528920.0, 7262179.912851802073419 ], [ 528910.0, 7262189.552016111090779 ], [ 528900.0, 7262198.448322394862771 ], [ 528890.0, 7262206.241780877113342 ], [ 528880.000892210751772, 7262213.211020648479462 ], [ 528870.012066387105733, 7262219.900785414502025 ], [ 528860.099214585614391, 7262226.23060670029372 ], [ 528850.546306264819577, 7262231.670517219230533 ], [ 528842.086809693370014, 7262235.794689197093248 ], [ 528835.756988407694735, 7262238.361174196004868 ] ] } },
{ "type": "Feature", "properties": { "id": 10, "reference_id": 1, "dune_id": 1, "dune_name": "Big Mommy Dune", "acquisition_date": "2020-06-08", "length_m": 552.64051663032706 }, "geometry": { "type": "LineString", "coordinates": [ [ 529180.0, 7260998.921899050474167 ], [ 529180.000892210751772, 7261003.921899050474167 ], [ 529180.011174176470377, 7261011.316557979211211 ], [ 529180.086255987756886, 7261020.322760425508022 ], [ 529180.43591750273481, 7261030.055640487000346 ], [ 529181.453355230391026, 7261040.006479299627244 ], [ 529183.223087035119534, 7261050.000446105375886 ], [ 529184.789317857124843, 7261060.0 ], [ 529184.788425646489486, 7261070.0 ], [ 529183.211912858532742, 7261080.0 ], [ 529181.366207031882368, 7261090.0 ], [ 529179.987933612894267, 7261100.0 ], [ 529178.534578382619657, 7261110.0 ], [ 529176.253847263869829, 7261120.000000000931323 ], [ 529173.223087035003118, 7261130.0 ], [ 529169.988825823529623, 7261140.0 ], [ 529166.689764766488224, 7261150.0 ], [ 529163.309343022760004, 7261160.0 ], [ 529160.0, 7261170.0 ], [ 529156.68976476660464, 7261180.0 ], [ 529153.299061057041399, 7261190.0 ], [ 529149.924025978078134, 7261200.0 ], [ 529146.329821285791695, 7261210.000000000931323 ], [ 529142.205649307463318, 7261220.0 ], [ 529137.79345848178491, 7261230.0 ], [ 529133.659896748373285, 7261240.0 ], [ 529130.0, 7261250.0 ], [ 529126.340103251626715, 7261260.0 ], [ 529122.20654151821509, 7261270.0 ], [ 529117.793458481901325, 7261280.0 ], [ 529113.659896748373285, 7261290.0 ], [ 529110.0, 7261300.0 ], [ 529106.3401032515103, 7261310.000000000931323 ], [ 529102.206541518098675, 7261320.0 ], [ 529097.793458481901325, 7261330.0 ], [ 529093.6598967484897, 7261340.0 ], [ 529089.999107789248228, 7261350.0 ], [ 529086.329821285791695, 7261360.0 ], [ 529082.130567496176809, 7261370.0 ], [ 529077.433515001088381, 7261380.0 ], [ 529072.566484998911619, 7261390.0 ], [ 529067.870324714574963, 7261400.0 ], [ 529063.68046067992691, 7261410.0 ], [ 529060.076866232673638, 7261420.0 ], [ 529056.700938943075016, 7261430.0 ], [ 529053.311127444147132, 7261440.0 ], [ 529050.01028196583502, 7261450.0 ], [ 529046.766630999161862, 7261460.0 ], [ 529043.670178714208305, 7261470.000000000931323 ], [ 529041.104585926048458, 7261479.999107789248228 ], [ 529038.907480461057276, 7261489.987933613359928 ], [ 529036.416969484183937, 7261499.900785414502025 ], [ 529033.681352890795097, 7261509.453693735413253 ], [ 529031.54139563953504, 7261517.913190307095647 ], [ 529030.447091679205187, 7261524.243011592887342 ] ] } },
{ "type": "Feature", "properties": { "id": 11, "reference_id": 7, "dune_id": 7, "dune_name": "Inverted Y Dune", "acquisition_date": "2020-06-08", "length_m": 611.30548977542685 }, "geometry": { "type": "LineString", "coordinates": [ [ 530654.243011592305265, 7261325.756988408043981 ], [ 530647.913190306629986, 7261332.086809693835676 ], [ 530639.453693735296838, 7261340.546306265518069 ], [ 530629.901677625137381, 7261350.099214585497975 ], [ 530619.999107789364643, 7261360.012066386640072 ], [ 530610.086255987756886, 7261370.000892210751772 ], [ 530600.447983889840543, 7261380.0 ], [ 530591.551677605137229, 7261390.0 ], [ 530583.757326912600547, 7261400.0 ], [ 530576.777805175632238, 7261410.0 ], [ 530570.011174176470377, 7261420.0 ], [ 530563.310235233511776, 7261430.0 ], [ 530556.690656977239996, 7261440.0 ], [ 530550.0, 7261450.0 ], [ 530543.309343022760004, 7261460.0 ], [ 530536.689764766488224, 7261470.000000000931323 ], [ 530529.988825823529623, 7261480.0 ], [ 530523.222194824367762, 7261490.0 ], [ 530516.242673087399453, 7261500.0 ], [ 530508.448322394862771, 7261510.0 ], [ 530499.552016110159457, 7261520.0 ], [ 530489.912851801607758, 7261529.999107789248228 ], [ 530479.988825823529623, 7261539.9888258241117 ], [ 530469.999107789364643, 7261549.912851801142097 ], [ 530460.0, 7261559.552016111090779 ], [ 530450.0, 7261568.448322394862771 ], [ 530440.0, 7261576.241780877113342 ], [ 530430.000000000116415, 7261583.211020648479462 ], [ 530420.0, 7261589.901677625253797 ], [ 530410.0, 7261596.241780877113342 ], [ 530400.0, 7261601.758557628840208 ], [ 530390.0, 7261606.252955053001642 ], [ 530380.0, 7261609.9888258241117 ], [ 530370.0, 7261613.659004538320005 ], [ 530360.0, 7261617.793458482250571 ], [ 530350.0, 7261622.205649307928979 ], [ 530340.0, 7261626.329821285791695 ], [ 530330.0, 7261629.924025978893042 ], [ 530320.0, 7261633.299061057157815 ], [ 530310.0, 7261636.688872556202114 ], [ 530300.0, 7261639.9888258241117 ], [ 530290.0, 7261643.222194824367762 ], [ 530280.0, 7261646.242673087865114 ], [ 530270.0, 7261648.448322394862771 ], [ 530260.0, 7261649.552016111090779 ], [ 530250.0, 7261649.912851802073419 ], [ 530240.0, 7261649.9888258241117 ], [ 530230.0, 7261649.999107790179551 ], [ 530220.000892210635357, 7261650.0 ], [ 530210.012066387105733, 7261650.0 ], [ 530200.099214585497975, 7261650.0 ], [ 530190.546306264819577, 7261650.0 ], [ 530182.08680969348643, 7261650.0 ], [ 530175.756988407694735, 7261650.0 ] ] } }
]
}
