{
"type": "FeatureCollection",
"name": "crests_2020_07_2020-07-20",
"crs": { "type": "name", "properties": { "name": "urn:ogc:def:crs:EPSG::32733" } },
"features": [
{ "type": "Feature", "properties": { "id": 0, "reference_id": 5, "dune_id": 5, "dune_name": "The Star Dune", "acquisition_date": "2020-07-20", "length_m": 873.40285047135774 }, "geometry": { "type": "LineString", "coordinates": [ [ 534307.91319030651357, 7261565.756096197292209 ], [ 534304.243011592305265, 7261572.075635517947376 ], [ 534297.913190306629986, 7261580.459158066660166 ], [ 534289.453693735180423, 7261589.651230695657432 ], [ 534279.900785414502025, 7261598.460388782434165 ], [ 534269.987933612894267, 7261606.243565298616886 ], [ 534259.999107789248228, 7261613.222194824367762 ], [ 534250.0, 7261619.9888258241117 ], [ 534240.0, 7261626.688872555270791 ], [ 534230.0, 7261633.299061057157815 ], [ 534220.0, 7261639.92313376814127 ], [ 534210.0, 7261646.318647109903395 ], [ 534200.0, 7261652.117608899250627 ], [ 534190.0, 7261657.335192626342177 ], [ 534180.0, 7261662.031352911144495 ], [ 534170.0, 7261665.871555430814624 ], [ 534160.0, 7261668.382630338892341 ], [ 534150.0, 7261669.62888234294951 ], [ 534140.0, 7261670.359051270410419 ], [ 534130.0, 7261671.529329252429307 ], [ 534120.0, 7261673.669286503456533 ], [ 534110.0, 7261676.330713496543467 ], [ 534100.0, 7261678.470670748502016 ], [ 534090.0, 7261679.640056519769132 ], [ 534080.0, 7261680.35994348116219 ], [ 534070.0, 7261681.529329252429307 ], [ 534060.0, 7261683.669286504387856 ], [ 534050.0, 7261686.33071349747479 ], [ 534040.0, 7261688.470670748502016 ], [ 534030.0, 7261689.64005651883781 ], [ 534020.0, 7261690.35994348116219 ], [ 534010.0, 7261691.529329253360629 ], [ 534000.0, 7261693.670178714208305 ], [ 533990.0, 7261696.340995462611318 ], [ 533980.0, 7261698.546644769608974 ], [ 533970.0, 7261700.000892210751772 ], [ 533960.0, 7261701.464529407210648 ], [ 533950.0, 7261703.747044946998358 ], [ 533940.0, 7261706.787194930948317 ], [ 533930.0, 7261710.088040409609675 ], [ 533920.0, 7261713.681352891027927 ], [ 533910.0, 7261717.871216924861073 ], [ 533900.0, 7261722.576766964048147 ], [ 533890.0, 7261727.510381233878434 ], [ 533880.0, 7261732.500792942941189 ], [ 533870.0, 7261737.500099267810583 ], [ 533860.0, 7261742.499900732189417 ], [ 533850.0, 7261747.500099267810583 ], [ 533840.0, 7261752.500792942941189 ], [ 533830.0, 7261757.511273443698883 ], [ 533820.0, 7261762.587941141799092 ], [ 533810.0, 7261767.958365123718977 ], [ 533800.000892210751772, 7261774.128444570116699 ], [ 533790.012066387105733, 7261781.628543838858604 ], [ 533780.098322374979034, 7261790.458265855908394 ], [ 533770.535132088349201, 7261800.088040409609675 ], [ 533761.999661495094188, 7261810.011174177750945 ], [ 533755.309004517854191, 7261820.000892210751772 ], [ 533750.535132088349201, 7261830.0 ], [ 533746.788979352102615, 7261840.000000000931323 ], [ 533743.321409409865737, 7261850.0 ], [ 533740.000892210751772, 7261860.0 ], [ 533736.689764766488224, 7261870.0 ], [ 533733.299061057041399, 7261880.0 ], [ 533729.923133767326362, 7261890.0 ], [ 533726.319539319956675, 7261900.0 ], [ 533722.128783074906096, 7261910.0 ], [ 533717.42234082473442, 7261920.0 ], [ 533712.479336800519377, 7261930.0 ], [ 533707.42234082473442, 7261940.0 ], [ 533702.129675285541452, 7261950.0 ], [ 533696.32982128590811, 7261960.0 ], [ 533690.0, 7261970.0 ], [ 533683.670178714208305, 7261980.0 ], [ 533677.869878609199077, 7261989.999553894624114 ], [ 533672.5720720870886, 7261999.993520701304078 ], [ 533667.477981311036274, 7262009.944359513930976 ], [ 533662.365287512307987, 7262019.677239574491978 ], [ 533657.188113409327343, 7262028.683442020788789 ], [ 533652.293355212779716, 7262036.078100949525833 ], [ 533648.463633195031434, 7262041.078100949525833 ] ] } },
{ "type": "Feature", "properties": { "id": 1, "reference_id": 1, "dune_id": 1, "dune_name": "Big Mommy Dune", "acquisition_date": "2020-07-20", "length_m": 471.11597818887276 }, "geometry": { "type": "LineString", "coordinates": [ [ 529099.911959590855986, 7261865.756988408043981 ], [ 529099.540841933805496, 7261872.086809693835676 ], [ 529098.361174196470529, 7261880.546306265518069 ], [ 529095.79468919755891, 7261890.099214585497975 ], [ 529091.670517219230533, 7261900.012066386640072 ], [ 529086.23060670029372, 7261910.000892210751772 ], [ 529079.901677625020966, 7261920.0 ], [ 529073.222194824367762, 7261930.0 ], [ 529066.328929075156339, 7261940.0 ], [ 529058.896306284703314, 7261950.0 ], [ 529051.104585926048458, 7261960.0 ], [ 529043.681352890678681, 7261970.0 ], [ 529036.853779197670519, 7261980.0 ], [ 529030.458265855675563, 7261990.0 ], [ 529024.861912838649005, 7262000.0 ], [ 529020.447983889840543, 7262010.0 ], [ 529016.777805175632238, 7262020.0 ], [ 529013.320517199346796, 7262030.0 ], [ 529010.000892210751772, 7262040.0 ], [ 529006.68976476660464, 7262050.0 ], [ 529003.299061057041399, 7262060.0 ], [ 528999.923133767442778, 7262070.0 ], [ 528996.318647109437734, 7262080.0 ], [ 528992.118501108954661, 7262090.0 ], [ 528987.346366802696139, 7262100.0 ], [ 528982.118501109071076, 7262110.0 ], [ 528976.317754898685962, 7262120.0 ], [ 528969.911959590855986, 7262130.0 ], [ 528963.211912858532742, 7262139.999107789248228 ], [ 528956.241780876647681, 7262149.9888258241117 ], [ 528948.448322394862771, 7262159.912851801142097 ], [ 528939.552016110159457, 7262169.552016111090779 ], [ 528929.912851801607758, 7262178.448322394862771 ], [ 528919.988825823529623, 7262186.241780877113342 ], [ 528909.999107789248228, 7262193.211912859231234 ], [ 528900.0, 7262199.911959591321647 ], [ 528890.0, 7262206.318647108972073 ], [ 528880.000892210751772, 7262212.128783075138927 ], [ 528870.012066387105733, 7262217.422340825200081 ], [ 528860.099214585614391, 7262222.478444589301944 ], [ 528850.546306264819577, 7262227.411166648380458 ], [ 528842.086809693370014, 7262232.041634876281023 ], [ 528835.756988407694735, 7262235.871555430814624 ] ] } },
{ "type": "Feature", "properties": { "id": 2, "reference_id": 1, "dune_id": 1, "dune_name": "Big Mommy Dune", "acquisition_date": "2020-07-20", "length_m": 587.68793593340376 }, "geometry": { "type": "LineString", "coordinates": [ [ 529179.988825823529623, 7261075.756988408043981 ], [ 529179.912851801607758, 7261082.086809693835676 ], [ 529179.552908320794813, 7261090.546306265518069 ], [ 529178.458604360581376, 7261100.099214585497975 ], [ 529176.318647109321319, 7261110.012066386640072 ], [ 529173.582138305064291, 7261120.000892211683095 ], [ 529171.082237573107705, 7261130.0 ], [ 529168.819440052029677, 7261140.0 ], [ 529165.969877805095166, 7261150.0 ], [ 529162.139957251260057, 7261160.0 ], [ 529157.860042748739943, 7261170.0 ], [ 529154.029229984269477, 7261180.0 ], [ 529151.169385771499947, 7261190.0 ], [ 529148.829722017748281, 7261200.0 ], [ 529145.959595839260146, 7261210.000000000931323 ], [ 529142.052809052867815, 7261220.0 ], [ 529137.412951069651172, 7261230.0 ], [ 529132.489618766237982, 7261240.0 ], [ 529127.509489023126662, 7261250.0 ], [ 529122.576766964630224, 7261260.0 ], [ 529117.870324714574963, 7261270.0 ], [ 529113.670178714208305, 7261280.0 ], [ 529110.000892210751772, 7261290.0 ], [ 529106.3401032515103, 7261300.0 ], [ 529102.206541518098675, 7261310.000000000931323 ], [ 529097.794350692536682, 7261320.0 ], [ 529093.670178714208305, 7261330.0 ], [ 529090.075974022038281, 7261340.0 ], [ 529086.700046732323244, 7261350.0 ], [ 529083.299953267676756, 7261360.0 ], [ 529079.923133767326362, 7261370.0 ], [ 529076.319539319956675, 7261380.0 ], [ 529072.129675285425037, 7261390.0 ], [ 529067.434407211840153, 7261400.0 ], [ 529062.576766964630224, 7261410.0 ], [ 529057.946298736496828, 7261420.0 ], [ 529054.040404160739854, 7261430.0 ], [ 529051.170277982251719, 7261440.0 ], [ 529048.830614228500053, 7261450.0 ], [ 529045.970770015730523, 7261460.0 ], [ 529042.139957251260057, 7261470.000000000931323 ], [ 529037.860042748739943, 7261480.0 ], [ 529034.030122194904834, 7261490.0 ], [ 529031.180559948086739, 7261500.0 ], [ 529028.917762426892295, 7261510.0 ], [ 529026.417861694935709, 7261520.0 ], [ 529023.681352890678681, 7261530.0 ], [ 529021.541395639418624, 7261540.0 ], [ 529020.447091679205187, 7261550.0 ], [ 529020.086255987873301, 7261560.000000000931323 ], [ 529020.0, 7261570.0 ], [ 529019.914636222994886, 7261580.0 ], [ 529019.564082497381605, 7261589.999107789248228 ], [ 529018.54664476972539, 7261599.987933613359928 ], [ 529016.776912965113297, 7261609.900785414502025 ], [ 529015.210682142991573, 7261619.453693734481931 ], [ 529015.210682142991573, 7261627.913190307095647 ], [ 529016.776912965113297, 7261634.243011592887342 ] ] } },
{ "type": "Feature", "properties": { "id": 3, "reference_id": 1, "dune_id": 1, "dune_name": "Big Mommy Dune", "acquisition_date": "2020-07-20", "length_m": 122.64307561788496 }, "geometry": { "type": "LineString", "coordinates": [ [ 529021.628543837927282, 7261695.756988408043981 ], [ 529024.129336780519225, 7261702.086809693835676 ], [ 529027.968647089553997, 7261710.546306265518069 ], [ 529032.664807373774238, 7261720.099214585497975 ], [ 529037.881498890928924, 7261730.012066387571394 ], [ 529043.671070924843661, 7261740.000892210751772 ], [ 529050.0, 7261750.0 ], [ 529056.328929075156339, 7261759.999107789248228 ], [ 529062.118501109071076, 7261769.987933613359928 ], [ 529067.335192626225762, 7261779.900785414502025 ], [ 529072.031352910678834, 7261789.453693736344576 ], [ 529075.870663219480775, 7261797.913190307095647 ], [ 529078.371456162072718, 7261804.243011591956019 ] ] } },
{ "type": "Feature", "properties": { "id": 4, "reference_id": 6, "dune_id": 6, "dune_name": "The Star Dune", "acquisition_date": "2020-07-20", "length_m": 69.355252955497406 }, "geometry": { "type": "LineString", "coordinates": [ [ 533660.0, 7262184.243011591956019 ], [ 533660.0, 7262177.913190307095647 ], [ 533659.999107789248228, 7262169.453693735413253 ], [ 533659.988825823529623, 7262159.901677625253797 ], [ 533659.912851801607758, 7262150.0 ], [ 533659.552908320911229, 7262140.098322374746203 ], [ 533658.459496571216732, 7262130.546306265518069 ], [ 533656.329821285791695, 7262122.086809693835676 ], [ 533653.670178714208305, 7262115.756988408043981 ] ] } },
{ "type": "Feature", "properties": { "id": 5, "reference_id": 6, "dune_id": 6, "dune_name": "The Star Dune", "acquisition_date": "2020-07-20", "length_m": 329.03352461935543 }, "geometry": { "type": "LineString", "coordinates": [ [ 533606.329821285791695, 7262674.243011591956019 ], [ 533603.670178714208305, 7262667.913190307095647 ], [ 533601.541395639418624, 7262659.453693736344576 ], [ 533600.458265855675563, 7262649.900785414502025 ], [ 533600.174296396784484, 7262639.987933612428606 ], [ 533600.458265855675563, 7262629.999107789248228 ], [ 533601.541395639418624, 7262620.0 ], [ 533603.671070924960077, 7262610.0 ], [ 533606.340995462378487, 7262600.000000000931323 ], [ 533608.54664476972539, 7262590.0 ], [ 533610.0, 7262580.0 ], [ 533611.454247441026382, 7262570.0 ], [ 533613.670178714208305, 7262560.0 ], [ 533616.416077273664996, 7262550.0 ], [ 533618.907480461173691, 7262540.0 ], [ 533621.104585925932042, 7262530.0 ], [ 533623.670178714208305, 7262520.0 ], [ 533626.766630999161862, 7262510.0 ], [ 533630.01028196583502, 7262500.0 ], [ 533633.310235233511776, 7262490.0 ], [ 533636.690656977239996, 7262480.0 ], [ 533640.000000000116415, 7262470.0 ], [ 533643.309343022760004, 7262460.0 ], [ 533646.690656977239996, 7262450.0 ], [ 533650.0, 7262440.0 ], [ 533653.309343022760004, 7262430.0 ], [ 533656.689764766488224, 7262420.0 ], [ 533659.988825823529623, 7262410.0 ], [ 533663.222194824367762, 7262400.000892210751772 ], [ 533666.242673087399453, 7262390.012066387571394 ], [ 533668.448322394862771, 7262380.099214585497975 ], [ 533669.552016110159457, 7262370.546306264586747 ], [ 533669.912851801607758, 7262362.086809693835676 ], [ 533669.988825823646039, 7262355.756988408043981 ] ] } },
{ "type": "Feature", "properties": { "id": 6, "reference_id": 4, "dune_id": 4, "dune_name": "The Star Dune", "acquisition_date": "2020-07-20", "length_m": 649.09287680115995 }, "geometry": { "type": "LineString", "coordinates": [ [ 533624.243011592305265, 7262059.912851803004742 ], [ 533617.91319030651357, 7262059.552016111090779 ], [ 533609.453693735180423, 7262058.448322394862771 ], [ 533599.900785414385609, 7262056.242673087865114 ], [ 533589.987933612894267, 7262053.222194824367762 ], [ 533579.999107789364643, 7262049.987933613359928 ], [ 533570.0, 7262046.678590590134263 ], [ 533560.0, 7262043.222194824367762 ], [ 533550.0, 7262039.552908321842551 ], [ 533540.0, 7262035.150153549388051 ], [ 533530.0, 7262029.639164308086038 ], [ 533520.0, 7262023.670178715139627 ], [ 533510.0, 7262018.231160406023264 ], [ 533500.0, 7262013.756434702314436 ], [ 533490.0, 7262010.087148198857903 ], [ 533480.0, 7262006.700938943773508 ], [ 533470.0, 7262003.299953268840909 ], [ 533460.0, 7261999.924025978893042 ], [ 533450.0, 7261996.329821286723018 ], [ 533440.0, 7261992.205649307928979 ], [ 533430.0, 7261987.794350693002343 ], [ 533420.0, 7261983.671070924960077 ], [ 533410.0, 7261980.086255988106132 ], [ 533400.000000000116415, 7261976.776912964880466 ], [ 533390.0, 7261973.671070924960077 ], [ 533380.000000000116415, 7261971.10458592697978 ], [ 533370.0, 7261968.906588250771165 ], [ 533360.0, 7261966.405795308761299 ], [ 533350.0, 7261963.594204693101346 ], [ 533340.0, 7261961.093411749228835 ], [ 533330.0, 7261958.895414074882865 ], [ 533320.0, 7261956.329821286723018 ], [ 533310.0, 7261953.233369001187384 ], [ 533300.0, 7261949.989718034863472 ], [ 533290.0, 7261946.689764766022563 ], [ 533280.0, 7261943.310235233977437 ], [ 533270.0, 7261940.010281966067851 ], [ 533260.0, 7261936.766630999743938 ], [ 533250.0, 7261933.670178715139627 ], [ 533240.0, 7261931.103693715296686 ], [ 533230.0, 7261928.896306285634637 ], [ 533220.0, 7261926.329821286723018 ], [ 533210.0, 7261923.233369001187384 ], [ 533200.0, 7261919.989718034863472 ], [ 533190.0, 7261916.689764766022563 ], [ 533180.0, 7261913.310235233977437 ], [ 533170.0, 7261910.010281966999173 ], [ 533160.0, 7261906.766630999743938 ], [ 533150.0, 7261903.670178715139627 ], [ 533140.0, 7261901.104585926048458 ], [ 533130.0, 7261898.906588250771165 ], [ 533120.0, 7261896.405795307829976 ], [ 533110.0, 7261893.594204692170024 ], [ 533100.0, 7261891.094303959980607 ], [ 533090.0, 7261888.906588250771165 ], [ 533080.0, 7261886.416077273897827 ], [ 533070.0, 7261883.670178714208305 ], [ 533060.0, 7261881.454247441142797 ], [ 533050.000892210751772, 7261880.0 ], [ 533040.012066387105733, 7261878.546644769608974 ], [ 533030.099214585614391, 7261876.340995462611318 ], [ 533020.546306264819577, 7261873.671070925891399 ], [ 533012.08680969348643, 7261871.540503429248929 ], [ 533005.756988407694735, 7261870.447091680020094 ] ] } },
{ "type": "Feature", "properties": { "id": 7, "reference_id": 3, "dune_id": 3, "dune_name": "Big Mommy Dune", "acquisition_date": "2020-07-20", "length_m": 161.92258050230117 }, "geometry": { "type": "LineString", "coordinates": [ [ 530085.756988407694735, 7260599.999107789248228 ], [ 530092.08680969348643, 7260599.9888258241117 ], [ 530100.546306264819577, 7260599.912851802073419 ], [ 530110.099214585614391, 7260599.552908321842551 ], [ 530120.012066387222148, 7260598.458604360930622 ], [ 530130.000892210751772, 7260596.318647108972073 ], [ 530140.0, 7260593.583030516281724 ], [ 530150.0, 7260591.093411749228835 ], [ 530160.0, 7260588.905696040019393 ], [ 530170.000000000116415, 7260586.405795307829976 ], [ 530180.0, 7260583.594204692170024 ], [ 530190.0, 7260581.094303959980607 ], [ 530199.999107789248228, 7260578.906588250771165 ], [ 530209.987933612894267, 7260576.416969484649599 ], [ 530219.900785414385609, 7260573.681352891027927 ], [ 530229.453693735180423, 7260571.541395640000701 ], [ 530237.91319030651357, 7260570.447091680020094 ], [ 530244.243011592421681, 7260570.087148198857903 ] ] } },
{ "type": "Feature", "properties": { "id": 8, "reference_id": 3, "dune_id": 3, "dune_name": "Big Mommy Dune", "acquisition_date": "2020-07-20", "length_m": 971.89553742529984 }, "geometry": { "type": "LineString", "coordinates": [ [ 529158.910724874120206, 7260977.913190307095647 ], [ 529163.833858641446568, 7260974.243011591956019 ], [ 529170.858292123419233, 7260967.913190307095647 ], [ 529178.69421658734791, 7260959.453693736344576 ], [ 529185.927195916534401, 7260949.900785415433347 ], [ 529192.048114175326191, 7260939.987933613359928 ], [ 529197.41250496415887, 7260929.999107789248228 ], [ 529202.489618766237982, 7260920.0 ], [ 529207.509489023126662, 7260910.0 ], [ 529212.576766964630224, 7260900.0 ], [ 529217.871216925210319, 7260890.0 ], [ 529223.680460680043325, 7260880.0 ], [ 529230.076866232673638, 7260870.0 ], [ 529236.700938942958601, 7260860.0 ], [ 529243.311127444147132, 7260850.0 ], [ 529250.01028196583502, 7260840.0 ], [ 529256.766630999278277, 7260830.0 ], [ 529263.670178714208305, 7260820.0 ], [ 529271.103693715296686, 7260810.0 ], [ 529278.896306284703314, 7260800.0 ], [ 529286.329821285791695, 7260790.0 ], [ 529293.234261211473495, 7260780.000000000931323 ], [ 529300.000892210635357, 7260770.0 ], [ 529306.776912964996882, 7260760.0 ], [ 529313.757326912716962, 7260750.000892210751772 ], [ 529321.551677605253644, 7260740.011174176819623 ], [ 529330.447983889840543, 7260730.087148198857903 ], [ 529340.087148198392242, 7260720.447983889840543 ], [ 529350.011174176586792, 7260711.552569815889001 ], [ 529360.000892210635357, 7260703.768501089885831 ], [ 529370.0, 7260696.864953374490142 ], [ 529380.0, 7260690.459158066660166 ], [ 529390.0, 7260684.861912839114666 ], [ 529400.0, 7260680.447983888909221 ], [ 529410.0, 7260676.777805175632238 ], [ 529420.0, 7260673.321409409865737 ], [ 529430.0, 7260670.0111741758883 ], [ 529440.000000000116415, 7260666.766630999743938 ], [ 529450.0, 7260663.670178714208305 ], [ 529460.0, 7260661.103693716228008 ], [ 529470.0, 7260658.896306285634637 ], [ 529480.0, 7260656.329821285791695 ], [ 529490.0, 7260653.234261211939156 ], [ 529500.000000000116415, 7260650.000892210751772 ], [ 529510.0, 7260646.776020754128695 ], [ 529520.0, 7260643.746152736246586 ], [ 529530.0, 7260641.464529407210648 ], [ 529540.0, 7260640.000892210751772 ], [ 529550.0, 7260638.546644769608974 ], [ 529560.0, 7260636.340995462611318 ], [ 529570.0, 7260633.670178715139627 ], [ 529580.0, 7260631.529329252429307 ], [ 529590.0, 7260630.35994348116219 ], [ 529600.0, 7260629.64005651883781 ], [ 529610.0, 7260628.470670747570693 ], [ 529620.0, 7260626.330713496543467 ], [ 529630.0, 7260623.670178714208305 ], [ 529640.0, 7260621.540503429248929 ], [ 529650.0, 7260620.447091679088771 ], [ 529660.0, 7260620.086255988106132 ], [ 529670.0, 7260620.0 ], [ 529680.0, 7260619.913744012825191 ], [ 529690.0, 7260619.552908320911229 ], [ 529700.0, 7260618.459496571682394 ], [ 529710.0, 7260616.329821286723018 ], [ 529720.0, 7260613.670178715139627 ], [ 529730.0, 7260611.540503429248929 ], [ 529740.0, 7260610.447091680020094 ], [ 529750.0, 7260610.087148198857903 ], [ 529760.0, 7260610.011174176819623 ], [ 529770.0, 7260610.000892210751772 ], [ 529780.0, 7260610.0 ], [ 529790.0, 7260610.0 ], [ 529800.0, 7260610.0 ], [ 529810.0, 7260610.0 ], [ 529820.0, 7260610.0 ], [ 529830.0, 7260610.0 ], [ 529840.0, 7260610.0 ], [ 529850.0, 7260610.0 ], [ 529860.0, 7260610.0 ], [ 529870.0, 7260610.0 ], [ 529880.0, 7260610.0 ], [ 529890.0, 7260610.0 ], [ 529900.0, 7260610.0 ], [ 529910.0, 7260610.0 ], [ 529920.0, 7260610.0 ], [ 529929.999107789364643, 7260610.0 ], [ 529939.987933612894267, 7260610.0 ], [ 529949.900785414502025, 7260610.0 ], [ 529959.453693735180423, 7260610.0 ], [ 529967.91319030651357, 7260610.0 ], [ 529974.243011592305265, 7260610.0 ] ] } },
{ "type": "Feature", "properties": { "id": 9, "reference_id": 7, "dune_id": 7, "dune_name": "Inverted Y Dune", "acquisition_date": "2020-07-20", "length_m": 637.01674411229044 }, "geometry": { "type": "LineString", "coordinates": [ [ 530135.756988407694735, 7261650.0 ], [ 530142.08680969348643, 7261650.0 ], [ 530150.546306264819577, 7261650.0 ], [ 530160.099214585614391, 7261650.0 ], [ 530170.012066387222148, 7261650.0 ], [ 530180.000892210751772, 7261650.0 ], [ 530190.0, 7261650.0 ], [ 530200.0, 7261650.0 ], [ 530210.0, 7261650.0 ], [ 530220.0, 7261649.999107790179551 ], [ 530230.0, 7261649.9888258241117 ], [ 530240.0, 7261649.912851802073419 ], [ 530250.0, 7261649.552016111090779 ], [ 530260.0, 7261648.448322394862771 ], [ 530270.0, 7261646.242673087865114 ], [ 530280.0, 7261643.223087035119534 ], [ 530290.0, 7261639.999107789248228 ], [ 530300.0, 7261636.765738788992167 ], [ 530310.0, 7261633.669286504387856 ], [ 530320.0, 7261631.093411749228835 ], [ 530330.0, 7261628.820332262665033 ], [ 530340.0, 7261625.968985594809055 ], [ 530350.0, 7261622.129675285890698 ], [ 530360.0, 7261617.783176516182721 ], [ 530370.0, 7261613.658112327568233 ], [ 530380.0, 7261609.9888258241117 ], [ 530390.0, 7261606.252955053001642 ], [ 530400.0, 7261601.758557628840208 ], [ 530410.0, 7261596.241780877113342 ], [ 530420.0, 7261589.901677625253797 ], [ 530430.000000000116415, 7261583.211020648479462 ], [ 530440.0, 7261576.241780877113342 ], [ 530450.0, 7261568.448322394862771 ], [ 530460.0, 7261559.552016111090779 ], [ 530469.999107789364643, 7261549.912851801142097 ], [ 530479.988825823529623, 7261539.9888258241117 ], [ 530489.911959590855986, 7261529.999107789248228 ], [ 530499.541734144324437, 7261520.0 ], [ 530508.37234837282449, 7261510.0 ], [ 530515.881837395951152, 7261500.0 ], [ 530522.118501109071076, 7261490.0 ], [ 530527.783176516182721, 7261480.0 ], [ 530533.669286503456533, 7261470.000000000931323 ], [ 530540.075974021921866, 7261460.0 ], [ 530546.700938943075016, 7261450.0 ], [ 530553.311127444147132, 7261440.0 ], [ 530560.011174176470377, 7261430.0 ], [ 530566.777805175632238, 7261420.0 ], [ 530573.757326912600547, 7261410.0 ], [ 530581.551677605253644, 7261400.0 ], [ 530590.447983889840543, 7261390.0 ], [ 530600.086255987756886, 7261380.000892210751772 ], [ 530609.999107789364643, 7261370.012066386640072 ], [ 530619.901677625137381, 7261360.099214585497975 ], [ 530629.453693735296838, 7261350.546306265518069 ], [ 530637.913190306629986, 7261342.086809693835676 ], [ 530644.243011592421681, 7261335.756988408043981 ] ] } },
{ "type": "Feature", "properties": { "id": 10, "reference_id": 9, "dune_id": 9, "dune_name": "Inverted Y Dune", "acquisition_date": "2020-07-20", "length_m": 760.10886583953322 }, "geometry": { "type": "LineString", "coordinates": [ [ 529660.458265855675563, 7262194.243011591956019 ], [ 529661.628543837927282, 7262187.913190307095647 ], [ 529664.128444569883868, 7262179.453693735413253 ], [ 529667.957472912967205, 7262169.900785414502025 ], [ 529672.577659175381996, 7262159.987933613359928 ], [ 529677.434407211840153, 7262149.999107789248228 ], [ 529682.130567496176809, 7262140.0 ], [ 529686.329821285791695, 7262130.0 ], [ 529690.0, 7262120.0 ], [ 529693.670178714208305, 7262110.0 ], [ 529697.869432503823191, 7262100.0 ], [ 529702.566484998911619, 7262090.0 ], [ 529707.433515001088381, 7262080.0 ], [ 529712.130567496176809, 7262070.0 ], [ 529716.329821285791695, 7262060.0 ], [ 529720.0, 7262050.0 ], [ 529723.670178714208305, 7262040.0 ], [ 529727.870324714574963, 7262030.0 ], [ 529732.576766964630224, 7262020.0 ], [ 529737.509489023126662, 7262010.0 ], [ 529742.490510976989754, 7262000.0 ], [ 529747.423233035369776, 7261990.0 ], [ 529752.128783074789681, 7261980.0 ], [ 529756.319539319956675, 7261970.0 ], [ 529759.923133767326362, 7261960.0 ], [ 529763.299061056924984, 7261950.0 ], [ 529766.689764766488224, 7261940.0 ], [ 529770.0, 7261930.0 ], [ 529773.309343022760004, 7261920.0 ], [ 529776.690656977239996, 7261910.0 ], [ 529780.000892210751772, 7261900.0 ], [ 529783.32051719923038, 7261890.0 ], [ 529786.777805175632238, 7261880.0 ], [ 529790.447983889840543, 7261870.0 ], [ 529794.861912838649005, 7261860.0 ], [ 529800.45915806631092, 7261850.0 ], [ 529806.864953374140896, 7261840.000000000931323 ], [ 529813.768501089187339, 7261830.0 ], [ 529821.552569815889001, 7261820.0 ], [ 529830.447983889840543, 7261810.0 ], [ 529840.087148198392242, 7261800.0 ], [ 529850.011174176470377, 7261790.0 ], [ 529860.000892210751772, 7261780.0 ], [ 529870.0, 7261770.0 ], [ 529880.0, 7261760.0 ], [ 529890.0, 7261750.000892210751772 ], [ 529900.0, 7261740.011174176819623 ], [ 529910.0, 7261730.087148198857903 ], [ 529920.0, 7261720.447983889840543 ], [ 529930.0, 7261711.551677605137229 ], [ 529940.0, 7261703.75821912381798 ], [ 529950.0, 7261696.788087141700089 ], [ 529960.0, 7261690.087148198857903 ], [ 529970.0, 7261683.671070925891399 ], [ 529980.0, 7261677.794350693002343 ], [ 529990.0, 7261672.206541517749429 ], [ 530000.0, 7261666.340103251859546 ], [ 530010.0, 7261660.0 ], [ 530020.0, 7261653.659004537388682 ], [ 530030.0, 7261647.782284306362271 ], [ 530039.999107789364643, 7261642.118501110002398 ], [ 530049.987933612894267, 7261635.882729606702924 ], [ 530059.900785414502025, 7261628.384414760395885 ], [ 530069.453693735180423, 7261619.640948729589581 ], [ 530077.91319030651357, 7261610.458265855908394 ], [ 530084.243011592421681, 7261602.075635517016053 ], [ 530087.913190306629986, 7261595.756096197292209 ] ] } },
{ "type": "Feature", "properties": { "id": 11, "reference_id": 2, "dune_id": 2, "dune_name": "Big Mommy Dune", "acquisition_date": "2020-07-20", "length_m": 296.88620015069586 }, "geometry": { "type": "LineString", "coordinates": [ [ 528754.243011592305265, 7260848.448322394862771 ], [ 528747.91319030651357, 7260846.241780877113342 ], [ 528739.453693735180423, 7260843.211912859231234 ], [ 528729.900785414502025, 7260839.911959590390325 ], [ 528719.987933612894267, 7260836.318647108972073 ], [ 528709.999107789248228, 7260832.129675285890698 ], [ 528700.0, 7260827.433515001088381 ], [ 528690.0, 7260822.565592788159847 ], [ 528680.0, 7260817.859150538221002 ], [ 528670.0, 7260813.593312481418252 ], [ 528660.0, 7260809.629774553701282 ], [ 528650.0, 7260805.159543303772807 ], [ 528640.0, 7260799.62888234294951 ], [ 528630.0, 7260793.583030516281724 ], [ 528620.0, 7260787.783176517114043 ], [ 528610.0, 7260782.20475709810853 ], [ 528600.0, 7260776.329821286723018 ], [ 528590.0, 7260769.924025977961719 ], [ 528580.0, 7260763.299061057157815 ], [ 528570.0, 7260756.689764766953886 ], [ 528560.0, 7260750.0 ], [ 528550.0, 7260743.309343023225665 ], [ 528540.000892210751772, 7260736.690656977705657 ], [ 528530.012066387105733, 7260730.000892210751772 ], [ 528520.099214585614391, 7260723.321409409865737 ], [ 528510.546306264819577, 7260716.788979351520538 ], [ 528502.08680969348643, 7260710.535132088698447 ], [ 528495.756988407694735, 7260705.309004518203437 ] ] } },
{ "type": "Feature", "properties": { "id": 12, "reference_id": 2, "dune_id": 2, "dune_name": "Big Mommy Dune", "acquisition_date": "2020-07-20", "length_m": 384.04821519866579 }, "geometry": { "type": "LineString", "coordinates": [ [ 528785.756988407694735, 7260861.551677605137229 ], [ 528792.08680969348643, 7260863.757326913066208 ], [ 528800.546306264819577, 7260866.777805175632238 ], [ 528810.099214585614391, 7260870.011174176819623 ], [ 528820.012066387222148, 7260873.310235233977437 ], [ 528830.000892210751772, 7260876.689764766953886 ], [ 528840.0, 7260879.989718034863472 ], [ 528850.0, 7260883.233369002118707 ], [ 528860.0, 7260886.329821286723018 ], [ 528870.0, 7260888.896306284703314 ], [ 528880.0, 7260891.103693716228008 ], [ 528890.0, 7260893.670178714208305 ], [ 528900.0, 7260896.765738788992167 ], [ 528910.0, 7260900.0 ], [ 528920.0, 7260903.234261211939156 ], [ 528930.0, 7260906.329821286723018 ], [ 528940.0, 7260908.895414074882865 ], [ 528950.0, 7260911.093411749228835 ], [ 528960.0, 7260913.594204692170024 ], [ 528970.0, 7260916.405795307829976 ], [ 528980.0, 7260918.906588250771165 ], [ 528990.0, 7260921.104585926048458 ], [ 529000.0, 7260923.671070925891399 ], [ 529010.0, 7260926.776912964880466 ], [ 529020.0, 7260930.086255988106132 ], [ 529030.0, 7260933.671070924960077 ], [ 529040.0, 7260937.794350693002343 ], [ 529050.0, 7260942.205649306997657 ], [ 529060.0, 7260946.329821285791695 ], [ 529070.0, 7260949.924025978893042 ], [ 529080.0, 7260953.299061058089137 ], [ 529090.0, 7260956.689764766953886 ], [ 529099.999553894624114, 7260960.0 ], [ 529109.993520701071247, 7260963.309343023225665 ], [ 529119.944359513698146, 7260966.689764766022563 ], [ 529129.677239574841224, 7260969.9888258241117 ], [ 529138.683442020905204, 7260973.222194824367762 ], [ 529146.078100949409418, 7260976.242673087865114 ], [ 529151.078100949409418, 7260978.448322394862771 ] ] } },
{ "type": "Feature", "properties": { "id": 13, "reference_id": 8, "dune_id": 8, "dune_name": "Inverted Y Dune", "acquisition_date": "2020-07-20", "length_m": 487.15883812037583 }, "geometry": { "type": "LineString", "coordinates": [ [ 530100.0, 7261564.243011593818665 ], [ 530100.0, 7261557.913190307095647 ], [ 530100.0, 7261549.453693735413253 ], [ 530100.000892210751772, 7261539.900785414502025 ], [ 530100.011174176470377, 7261529.987933613359928 ], [ 530100.087148198508658, 7261519.999107789248228 ], [ 530100.447091679205187, 7261510.0 ], [ 530101.540503428783268, 7261500.0 ], [ 530103.670178714208305, 7261490.0 ], [ 530106.330713496543467, 7261480.0 ], [ 530108.470670747803524, 7261470.000000000931323 ], [ 530109.640056519303471, 7261460.0 ], [ 530110.360835691448301, 7261450.0 ], [ 530111.540503428666852, 7261440.0 ], [ 530113.75643470196519, 7261430.0 ], [ 530116.777805175748654, 7261420.0 ], [ 530120.011174176470377, 7261410.0 ], [ 530123.310235233511776, 7261400.0 ], [ 530126.690656977239996, 7261390.0 ], [ 530130.0, 7261380.0 ], [ 530133.309343022760004, 7261370.0 ], [ 530136.690656977239996, 7261360.0 ], [ 530140.000892210751772, 7261350.0 ], [ 530143.321409409982152, 7261340.0 ], [ 530146.78897935221903, 7261330.0 ], [ 530150.535132088349201, 7261320.0 ], [ 530155.309004517970607, 7261310.000000000931323 ], [ 530161.999661495094188, 7261300.0 ], [ 530170.535132088349201, 7261290.000892210751772 ], [ 530180.098322374862619, 7261280.0111741758883 ], [ 530190.012066387105733, 7261270.088040409609675 ], [ 530200.000892210751772, 7261260.458265855908394 ], [ 530210.0, 7261251.628543837927282 ], [ 530220.0, 7261244.128444569185376 ], [ 530230.0, 7261237.958365123718977 ], [ 530240.0, 7261232.588833352550864 ], [ 530250.0, 7261227.522447621449828 ], [ 530260.0, 7261222.588833352550864 ], [ 530270.0, 7261217.958365123718977 ], [ 530280.0, 7261214.128444571048021 ], [ 530290.0, 7261211.628543838858604 ], [ 530299.999107789364643, 7261210.458265855908394 ], [ 530309.987933612894267, 7261210.088040409609675 ], [ 530319.900785414502025, 7261210.011174176819623 ], [ 530329.453693735180423, 7261210.000892211683095 ], [ 530337.91319030651357, 7261210.000000000931323 ], [ 530344.243011592305265, 7261210.000000000931323 ] ] } },
{ "type": "Feature", "properties": { "id": 14, "reference_id": 8, "dune_id": 8, "dune_name": "Inverted Y Dune", "acquisition_date": "2020-07-20", "length_m": 171.97890050717874 }, "geometry": { "type": "LineString", "coordinates": [ [ 530395.756988407694735, 7261210.000000000931323 ], [ 530402.08680969348643, 7261210.000000000931323 ], [ 530410.546306264819577, 7261210.000000000931323 ], [ 530420.099214585614391, 7261210.000000000931323 ], [ 530430.012066387222148, 7261210.000000000931323 ], [ 530440.000892210751772, 7261210.000000000931323 ], [ 530450.0, 7261209.999107790179551 ], [ 530460.0, 7261209.987933613359928 ], [ 530470.0, 7261209.901677625253797 ], [ 530480.0, 7261209.464867912232876 ], [ 530490.0, 7261208.00033850595355 ], [ 530500.0, 7261204.690103271976113 ], [ 530509.999107789248228, 7261199.454585945233703 ], [ 530519.987933612894267, 7261193.135938837192953 ], [ 530529.900785414385609, 7261186.329821286723018 ], [ 530539.453693735296838, 7261178.993736449629068 ], [ 530547.91319030651357, 7261171.638825803995132 ], [ 530554.243011592305265, 7261165.6698402101174 ] ] } }
]
}
