{
"type": "FeatureCollection",
"name": "crests_2017_05_2017-05-20",
"crs": { "type": "name", "properties": { "name": "urn:ogc:def:crs:EPSG::32733" } },
"features": [
{ "type": "Feature", "properties": { "id": 0, "reference_id": 1, "dune_id": 1, "dune_name": "Big Mommy Dune", "acquisition_date": "2017-05-20", "length_m": 796.96278909037324 }, "geometry": { "type": "LineString", "coordinates": [ [ 529020.0, 7261555.756988408043981 ], [ 529020.0, 7261562.086809693835676 ], [ 529020.0, 7261570.546306264586747 ], [ 529020.0, 7261580.099214585497975 ], [ 529020.0, 7261590.012066387571394 ], [ 529020.0, 7261600.000892210751772 ], [ 529020.0, 7261610.0 ], [ 529020.0, 7261620.0 ], [ 529020.000892210751772, 7261630.0 ], [ 529020.011174176470377, 7261640.0 ], [ 529020.087148198508658, 7261650.0 ], [ 529020.447983889840543, 7261660.0 ], [ 529021.551677605137229, 7261670.0 ], [ 529023.758219123352319, 7261680.0 ], [ 529026.788087141467258, 7261690.0 ], [ 529030.088040409144014, 7261700.0 ], [ 529033.681352890795097, 7261710.0 ], [ 529037.871216925210319, 7261720.0 ], [ 529042.577659175381996, 7261730.000000000931323 ], [ 529047.521555410232395, 7261740.0 ], [ 529052.5879411411006, 7261750.0 ], [ 529057.947190947132185, 7261760.0 ], [ 529064.040404160739854, 7261770.0 ], [ 529071.169385771499947, 7261780.0 ], [ 529078.81854784139432, 7261790.0 ], [ 529085.871555430232547, 7261800.0 ], [ 529091.594543197192252, 7261810.0 ], [ 529095.78440723172389, 7261820.0 ], [ 529098.3593897750834, 7261830.0 ], [ 529099.529667757218704, 7261840.000000000931323 ], [ 529099.823919181828387, 7261850.0 ], [ 529099.529667757218704, 7261860.0 ], [ 529098.360281985718757, 7261870.0 ], [ 529095.79468919755891, 7261880.0 ], [ 529091.670517219230533, 7261890.0 ], [ 529086.231498910929076, 7261900.0 ], [ 529079.911959590855986, 7261910.0 ], [ 529073.298168846289627, 7261920.0 ], [ 529066.68976476660464, 7261930.0 ], [ 529060.0, 7261940.0 ], [ 529053.310235233511776, 7261950.0 ], [ 529046.701831153710373, 7261960.0 ], [ 529040.087148198392242, 7261970.0 ], [ 529033.757326912600547, 7261980.0 ], [ 529028.242334582377225, 7261990.0 ], [ 529023.757326912600547, 7262000.0 ], [ 529020.087148198508658, 7262010.0 ], [ 529016.700938943075016, 7262020.0 ], [ 529013.299953267676756, 7262030.0 ], [ 529009.924025978078134, 7262040.0 ], [ 529006.32982128590811, 7262050.0 ], [ 529002.204757096827962, 7262060.0 ], [ 528997.783176516182721, 7262070.0 ], [ 528993.583030515816063, 7262080.0 ], [ 528989.627990132081322, 7262090.0 ], [ 528985.148369127186015, 7262100.0 ], [ 528979.541734144324437, 7262110.0 ], [ 528973.135046625975519, 7262120.0 ], [ 528966.231498910929076, 7262130.0 ], [ 528958.447430184110999, 7262140.0 ], [ 528949.552016110159457, 7262150.0 ], [ 528939.912851801607758, 7262159.999107789248228 ], [ 528929.988825823529623, 7262169.9888258241117 ], [ 528919.999107789364643, 7262179.912851802073419 ], [ 528910.0, 7262189.552016111090779 ], [ 528900.0, 7262198.447430184110999 ], [ 528890.0, 7262206.231498911045492 ], [ 528880.000892210751772, 7262213.135046626441181 ], [ 528870.012066387105733, 7262219.540841933339834 ], [ 528860.099214585614391, 7262225.137194951064885 ], [ 528850.546306264819577, 7262229.540841933339834 ], [ 528842.086809693370014, 7262233.135046625509858 ], [ 528835.756988407694735, 7262236.231498911045492 ] ] } },
{ "type": "Feature", "properties": { "id": 1, "reference_id": 1, "dune_id": 1, "dune_name": "Big Mommy Dune", "acquisition_date": "2017-05-20", "length_m": 553.50427509041867 }, "geometry": { "type": "LineString", "coordinates": [ [ 529171.540503428783268, 7260998.921899050474167 ], [ 529173.670178714208305, 7261003.921899050474167 ], [ 529176.329821285791695, 7261011.316557979211211 ], [ 529178.459496571333148, 7261020.322760425508022 ], [ 529179.552908320794813, 7261030.055640487000346 ], [ 529179.912851801607758, 7261040.006479299627244 ], [ 529179.988825823529623, 7261050.000446105375886 ], [ 529179.999107789364643, 7261060.0 ], [ 529179.999107789364643, 7261070.0 ], [ 529179.988825823529623, 7261080.0 ], [ 529179.912851801607758, 7261090.0 ], [ 529179.552016110159457, 7261100.0 ], [ 529178.448322394862771, 7261110.0 ], [ 529176.242673087399453, 7261120.000000000931323 ], [ 529173.222194824367762, 7261130.0 ], [ 529169.988825823529623, 7261140.0 ], [ 529166.689764766488224, 7261150.0 ], [ 529163.309343022760004, 7261160.0 ], [ 529160.0, 7261170.0 ], [ 529156.68976476660464, 7261180.0 ], [ 529153.299061057041399, 7261190.0 ], [ 529149.924025978078134, 7261200.0 ], [ 529146.329821285791695, 7261210.000000000931323 ], [ 529142.205649307463318, 7261220.0 ], [ 529137.79345848178491, 7261230.0 ], [ 529133.659896748373285, 7261240.0 ], [ 529129.999107789364643, 7261250.0 ], [ 529126.329821285791695, 7261260.0 ], [ 529122.129675285541452, 7261270.0 ], [ 529117.423233035369776, 7261280.0 ], [ 529112.490510976873338, 7261290.0 ], [ 529107.509489023126662, 7261300.0 ], [ 529102.576766964630224, 7261310.000000000931323 ], [ 529097.871216925210319, 7261320.0 ], [ 529093.680460680043325, 7261330.0 ], [ 529090.076866232673638, 7261340.0 ], [ 529086.700046732323244, 7261350.0 ], [ 529083.299953267676756, 7261360.0 ], [ 529079.924025977961719, 7261370.0 ], [ 529076.329821285791695, 7261380.0 ], [ 529072.205649307463318, 7261390.0 ], [ 529067.794350692536682, 7261400.0 ], [ 529063.670178714208305, 7261410.0 ], [ 529060.075974022038281, 7261420.0 ], [ 529056.700938943075016, 7261430.0 ], [ 529053.310235233511776, 7261440.0 ], [ 529050.0, 7261450.0 ], [ 529046.690656977239996, 7261460.0 ], [ 529043.31023523339536, 7261470.000000000931323 ], [ 529040.011174176470377, 7261479.999107789248228 ], [ 529036.777805175632238, 7261489.987933613359928 ], [ 529033.757326912600547, 7261499.900785414502025 ], [ 529031.551677605253644, 7261509.453693735413253 ], [ 529030.447983889840543, 7261517.913190307095647 ], [ 529030.087148198508658, 7261524.243011592887342 ] ] } },
{ "type": "Feature", "properties": { "id": 2, "reference_id": 8, "dune_id": 8, "dune_name": "Inverted Y Dune", "acquisition_date": "2017-05-20", "length_m": 426.42381566063511 }, "geometry": { "type": "LineString", "coordinates": [ [ 530264.243011592421681, 7261221.639718014746904 ], [ 530257.913190306629986, 7261224.216484978795052 ], [ 530249.453693735180423, 7261228.416630979627371 ], [ 530239.900785414502025, 7261234.216484978795052 ], [ 530229.987933612777852, 7261241.639718014746904 ], [ 530219.999107789248228, 7261250.459158066660166 ], [ 530210.0, 7261260.088040409609675 ], [ 530200.000892210751772, 7261270.011174176819623 ], [ 530190.012066387105733, 7261280.000892210751772 ], [ 530180.098322374862619, 7261290.0 ], [ 530170.535132088349201, 7261300.0 ], [ 530161.999661495094188, 7261310.000000000931323 ], [ 530155.309896728489548, 7261320.0 ], [ 530150.545414054067805, 7261330.0 ], [ 530146.864953374140896, 7261340.0 ], [ 530143.682245101314038, 7261350.0 ], [ 530141.10547813680023, 7261360.0 ], [ 530138.906588250538334, 7261370.0 ], [ 530136.405795307829976, 7261380.0 ], [ 530133.594204692170024, 7261390.0 ], [ 530131.094303960213438, 7261400.0 ], [ 530128.906588250538334, 7261410.0 ], [ 530126.416077273664996, 7261420.0 ], [ 530123.670178714208305, 7261430.0 ], [ 530121.454247441026382, 7261440.0 ], [ 530120.0, 7261450.0 ], [ 530118.54664476972539, 7261460.0 ], [ 530116.340995462262072, 7261470.000000000931323 ], [ 530113.671070924960077, 7261480.0 ], [ 530111.540503428666852, 7261490.0 ], [ 530110.44619946856983, 7261500.0 ], [ 530110.075974022038281, 7261510.0 ], [ 530109.924025978078134, 7261520.0 ], [ 530109.553800531546585, 7261530.0 ], [ 530108.459496571333148, 7261539.999553894624114 ], [ 530106.329821285791695, 7261549.993520701304078 ], [ 530103.670178714208305, 7261559.944359513930976 ], [ 530101.540503428783268, 7261569.6772395754233 ], [ 530100.447091679205187, 7261578.683442020788789 ], [ 530100.087148198508658, 7261586.078100949525833 ], [ 530100.011174176470377, 7261591.078100949525833 ] ] } },
{ "type": "Feature", "properties": { "id": 3, "reference_id": 8, "dune_id": 8, "dune_name": "Inverted Y Dune", "acquisition_date": "2017-05-20", "length_m": 69.544496895609797 }, "geometry": { "type": "LineString", "coordinates": [ [ 530295.756988407694735, 7261210.000000000931323 ], [ 530302.08680969348643, 7261209.999107790179551 ], [ 530310.546306264819577, 7261209.9888258241117 ], [ 530320.098322374979034, 7261209.912851802073419 ], [ 530330.0, 7261209.552908320911229 ], [ 530339.901677625137381, 7261208.459496571682394 ], [ 530349.453693735180423, 7261206.329821285791695 ], [ 530357.91319030651357, 7261203.670178713276982 ], [ 530364.243011592305265, 7261201.540503428317606 ] ] } },
{ "type": "Feature", "properties": { "id": 4, "reference_id": 8, "dune_id": 8, "dune_name": "Inverted Y Dune", "acquisition_date": "2017-05-20", "length_m": 58.486023184726946 }, "geometry": { "type": "LineString", "coordinates": [ [ 530454.243011592421681, 7261210.000000000931323 ], [ 530447.913190306629986, 7261210.000000000931323 ], [ 530439.454585945932195, 7261210.000000000931323 ], [ 530429.912851801607758, 7261210.000000000931323 ], [ 530420.087148198508658, 7261210.000000000931323 ], [ 530410.545414054067805, 7261210.000000000931323 ], [ 530402.08680969348643, 7261210.000000000931323 ], [ 530395.756988407694735, 7261210.000000000931323 ] ] } },
{ "type": "Feature", "properties": { "id": 5, "reference_id": 8, "dune_id": 8, "dune_name": "Inverted Y Dune", "acquisition_date": "2017-05-20", "length_m": 58.578493066226351 }, "geometry": { "type": "LineString", "coordinates": [ [ 530505.756988407694735, 7261208.00033850595355 ], [ 530512.085917482851073, 7261204.690995481796563 ], [ 530520.534239877597429, 7261199.465760122984648 ], [ 530530.0, 7261193.223087035119534 ], [ 530539.465760122402571, 7261186.776912964880466 ], [ 530547.914082517265342, 7261180.534239877015352 ], [ 530554.243011592305265, 7261175.309004518203437 ] ] } },
{ "type": "Feature", "properties": { "id": 6, "reference_id": 9, "dune_id": 9, "dune_name": "Inverted Y Dune", "acquisition_date": "2017-05-20", "length_m": 742.19304079689562 }, "geometry": { "type": "LineString", "coordinates": [ [ 530097.91319030651357, 7261598.834750852547586 ], [ 530094.243011592421681, 7261603.473915160633624 ], [ 530087.913190306629986, 7261609.764880374073982 ], [ 530079.453693735180423, 7261616.565433513373137 ], [ 530069.900785414502025, 7261623.277835311368108 ], [ 530059.987933612894267, 7261629.995305122807622 ], [ 530049.999107789364643, 7261636.689318661578 ], [ 530040.0, 7261643.299061058089137 ], [ 530030.0, 7261649.924025977961719 ], [ 530020.0, 7261656.329821285791695 ], [ 530010.0, 7261662.205649307928979 ], [ 530000.0, 7261667.794350693002343 ], [ 529990.0, 7261673.670178714208305 ], [ 529980.0, 7261680.075974022038281 ], [ 529970.0, 7261686.700938943773508 ], [ 529960.0, 7261693.311127444729209 ], [ 529950.0, 7261700.011174177750945 ], [ 529940.0, 7261706.777805175632238 ], [ 529930.0, 7261713.757326913066208 ], [ 529920.0, 7261721.551677605137229 ], [ 529910.0, 7261730.447983890771866 ], [ 529900.0, 7261740.087148198857903 ], [ 529890.0, 7261750.011174176819623 ], [ 529880.0, 7261760.000892210751772 ], [ 529870.000892210751772, 7261770.0 ], [ 529860.011174176470377, 7261780.0 ], [ 529850.087148198392242, 7261790.0 ], [ 529840.447091679205187, 7261800.0 ], [ 529831.541395639418624, 7261810.0 ], [ 529823.682245101314038, 7261820.0 ], [ 529816.428143660770729, 7261830.0 ], [ 529808.994628659682348, 7261840.000000000931323 ], [ 529801.552569815889001, 7261850.0 ], [ 529795.222748530097306, 7261860.0 ], [ 529790.534239877597429, 7261870.0 ], [ 529786.864061163389124, 7261880.0 ], [ 529783.682245101314038, 7261890.0 ], [ 529781.104585926048458, 7261900.0 ], [ 529778.896306284703314, 7261910.0 ], [ 529776.328929075039923, 7261920.0 ], [ 529773.223087035119534, 7261930.0 ], [ 529769.912851801607758, 7261940.0 ], [ 529766.318647109437734, 7261950.0 ], [ 529762.128783074906096, 7261960.0 ], [ 529757.423233035253361, 7261970.0 ], [ 529752.490510976873338, 7261980.0 ], [ 529747.509489023126662, 7261990.0 ], [ 529742.576766964630224, 7262000.0 ], [ 529737.871216925210319, 7262010.0 ], [ 529733.68046067992691, 7262020.0 ], [ 529730.076866232673638, 7262030.0 ], [ 529726.700046732323244, 7262040.0 ], [ 529723.299953267676756, 7262050.0 ], [ 529719.923133767442778, 7262060.0 ], [ 529716.31953932007309, 7262070.0 ], [ 529712.128783074789681, 7262080.0 ], [ 529707.423233035369776, 7262090.0 ], [ 529702.490510976873338, 7262100.0 ], [ 529697.509489023126662, 7262110.0 ], [ 529692.576766964630224, 7262120.0 ], [ 529687.871216925210319, 7262129.999107789248228 ], [ 529683.681352890678681, 7262139.987933613359928 ], [ 529680.088040409144014, 7262149.900785414502025 ], [ 529676.788087141467258, 7262159.453693735413253 ], [ 529673.758219123352319, 7262167.913190307095647 ], [ 529671.551677605253644, 7262174.243011591956019 ] ] } },
{ "type": "Feature", "properties": { "id": 7, "reference_id": 3, "dune_id": 3, "dune_name": "Big Mommy Dune", "acquisition_date": "2017-05-20", "length_m": 362.48951381144889 }, "geometry": { "type": "LineString", "coordinates": [ [ 529374.243011592305265, 7260695.756988408043981 ], [ 529367.91319030651357, 7260702.086809693835676 ], [ 529359.453693735180423, 7260710.546306265518069 ], [ 529349.900785414502025, 7260720.099214585497975 ], [ 529339.988825823529623, 7260730.012066388502717 ], [ 529330.01028196583502, 7260740.000892210751772 ], [ 529320.087148198508658, 7260750.0 ], [ 529310.447983889956959, 7260760.0 ], [ 529301.551677605253644, 7260770.0 ], [ 529293.758219123352319, 7260780.000000000931323 ], [ 529286.788087141467258, 7260790.0 ], [ 529280.087148198392242, 7260800.0 ], [ 529273.671070924960077, 7260810.0 ], [ 529267.794350692536682, 7260820.0 ], [ 529262.205649307463318, 7260830.0 ], [ 529256.32982128590811, 7260840.0 ], [ 529249.924025978078134, 7260850.0 ], [ 529243.299953267676756, 7260860.0 ], [ 529236.700046732323244, 7260870.0 ], [ 529230.075974021921866, 7260880.0 ], [ 529223.670178714208305, 7260890.0 ], [ 529217.794350692536682, 7260900.0 ], [ 529212.205649307463318, 7260910.0 ], [ 529206.329821285791695, 7260920.0 ], [ 529199.924918188713491, 7260930.0 ], [ 529193.311127444147132, 7260939.999553894624114 ], [ 529186.788087141467258, 7260949.993520701304078 ], [ 529180.535132088349201, 7260959.944359514862299 ], [ 529175.309004517854191, 7260969.6772395754233 ], [ 529171.999661495094188, 7260978.683442020788789 ], [ 529170.535132088349201, 7260986.078100949525833 ], [ 529170.098322374979034, 7260991.078100949525833 ] ] } },
{ "type": "Feature", "properties": { "id": 8, "reference_id": 3, "dune_id": 3, "dune_name": "Big Mommy Dune", "acquisition_date": "2017-05-20", "length_m": 215.0215565901816 }, "geometry": { "type": "LineString", "coordinates": [ [ 529405.756988407694735, 7260679.552016109228134 ], [ 529412.08680969348643, 7260678.448322394862771 ], [ 529420.546306264819577, 7260676.242673087865114 ], [ 529430.099214585614391, 7260673.222194824367762 ], [ 529440.012066387222148, 7260669.9888258241117 ], [ 529450.000892210751772, 7260666.689764766953886 ], [ 529460.0, 7260663.310235233977437 ], [ 529470.0, 7260660.010281966067851 ], [ 529480.0, 7260656.766630999743938 ], [ 529490.0, 7260653.670178714208305 ], [ 529500.000000000116415, 7260651.10458592697978 ], [ 529510.0, 7260648.907480461522937 ], [ 529520.0, 7260646.416077273897827 ], [ 529530.0, 7260643.670178715139627 ], [ 529540.0, 7260641.454247441142797 ], [ 529550.0, 7260640.0 ], [ 529560.0, 7260638.546644769608974 ], [ 529569.999107789248228, 7260636.340995462611318 ], [ 529579.987933612894267, 7260633.671070925891399 ], [ 529589.900785414502025, 7260631.540503429248929 ], [ 529599.453693735180423, 7260630.447091680020094 ], [ 529607.91319030651357, 7260630.087148198857903 ], [ 529614.243011592421681, 7260630.011174176819623 ] ] } },
{ "type": "Feature", "properties": { "id": 9, "reference_id": 3, "dune_id": 3, "dune_name": "Big Mommy Dune", "acquisition_date": "2017-05-20", "length_m": 399.41494234965887 }, "geometry": { "type": "LineString", "coordinates": [ [ 529645.756988407694735, 7260620.0 ], [ 529652.08680969348643, 7260620.0 ], [ 529660.546306264819577, 7260619.999107790179551 ], [ 529670.099214585614391, 7260619.9888258241117 ], [ 529680.012066387222148, 7260619.912851802073419 ], [ 529690.000892210751772, 7260619.552908320911229 ], [ 529700.0, 7260618.459496571682394 ], [ 529710.0, 7260616.329821286723018 ], [ 529720.0, 7260613.670178715139627 ], [ 529730.0, 7260611.540503429248929 ], [ 529740.0, 7260610.447091680020094 ], [ 529750.0, 7260610.087148198857903 ], [ 529760.0, 7260610.011174176819623 ], [ 529770.0, 7260610.000892210751772 ], [ 529780.0, 7260610.0 ], [ 529790.0, 7260610.0 ], [ 529800.0, 7260610.0 ], [ 529810.0, 7260610.0 ], [ 529820.0, 7260610.0 ], [ 529830.0, 7260610.0 ], [ 529840.0, 7260610.0 ], [ 529850.0, 7260610.0 ], [ 529860.0, 7260610.0 ], [ 529870.0, 7260610.0 ], [ 529880.0, 7260610.0 ], [ 529890.0, 7260610.0 ], [ 529900.0, 7260610.0 ], [ 529910.0, 7260610.0 ], [ 529920.0, 7260610.0 ], [ 529930.0, 7260610.0 ], [ 529940.0, 7260610.0 ], [ 529950.0, 7260610.0 ], [ 529960.0, 7260610.0 ], [ 529970.0, 7260610.0 ], [ 529980.0, 7260610.0 ], [ 529990.0, 7260610.0 ], [ 529999.999107789364643, 7260610.0 ], [ 530009.987933612894267, 7260610.0 ], [ 530019.900785414502025, 7260610.0 ], [ 530029.453693735180423, 7260610.0 ], [ 530037.91319030651357, 7260610.0 ], [ 530044.243011592305265, 7260610.0 ] ] } },
{ "type": "Feature", "properties": { "id": 10, "reference_id": 3, "dune_id": 3, "dune_name": "Big Mommy Dune", "acquisition_date": "2017-05-20", "length_m": 151.92790624723531 }, "geometry": { "type": "LineString", "coordinates": [ [ 530244.243011592421681, 7260570.087148198857903 ], [ 530237.91319030651357, 7260570.447091680020094 ], [ 530229.453693735180423, 7260571.541395640000701 ], [ 530219.900785414385609, 7260573.681352891027927 ], [ 530209.987933612894267, 7260576.416969484649599 ], [ 530199.999107789248228, 7260578.906588250771165 ], [ 530190.0, 7260581.094303959980607 ], [ 530180.0, 7260583.594204692170024 ], [ 530170.000000000116415, 7260586.405795307829976 ], [ 530160.0, 7260588.905696040019393 ], [ 530150.0, 7260591.093411749228835 ], [ 530140.000892210751772, 7260593.583030516281724 ], [ 530130.012066387222148, 7260596.318647108972073 ], [ 530120.099214585614391, 7260598.458604360930622 ], [ 530110.546306264819577, 7260599.552908321842551 ], [ 530102.08680969348643, 7260599.912851802073419 ], [ 530095.756988407694735, 7260599.9888258241117 ] ] } },
{ "type": "Feature", "properties": { "id": 11, "reference_id": 4, "dune_id": 4, "dune_name": "The Star Dune", "acquisition_date": "2017-05-20", "length_m": 413.9790532924107 }, "geometry": { "type": "LineString", "coordinates": [ [ 533005.756988407694735, 7261870.087148198857903 ], [ 533012.08680969348643, 7261870.447091680020094 ], [ 533020.546306264819577, 7261871.540503429248929 ], [ 533030.099214585614391, 7261873.671070925891399 ], [ 533040.012066387105733, 7261876.340995462611318 ], [ 533050.000892210751772, 7261878.546644769608974 ], [ 533060.0, 7261880.0 ], [ 533070.0, 7261881.454247441142797 ], [ 533080.0, 7261883.670178714208305 ], [ 533090.0, 7261886.416077273897827 ], [ 533100.0, 7261888.907480461522937 ], [ 533110.0, 7261891.10458592697978 ], [ 533120.0, 7261893.670178715139627 ], [ 533130.0, 7261896.766630999743938 ], [ 533140.0, 7261900.010281965136528 ], [ 533150.0, 7261903.310235233977437 ], [ 533160.0, 7261906.690656977705657 ], [ 533170.0, 7261910.0 ], [ 533180.0, 7261913.309343023225665 ], [ 533190.0, 7261916.689764766022563 ], [ 533200.0, 7261919.989718034863472 ], [ 533210.0, 7261923.233369001187384 ], [ 533220.0, 7261926.329821286723018 ], [ 533230.0, 7261928.896306285634637 ], [ 533240.0, 7261931.103693715296686 ], [ 533250.0, 7261933.670178715139627 ], [ 533260.0, 7261936.766630999743938 ], [ 533270.0, 7261940.010281966067851 ], [ 533280.0, 7261943.310235233977437 ], [ 533290.0, 7261946.689764766022563 ], [ 533300.0, 7261949.989718034863472 ], [ 533310.0, 7261953.233369001187384 ], [ 533320.0, 7261956.329821286723018 ], [ 533330.0, 7261958.896306285634637 ], [ 533340.0, 7261961.103693716228008 ], [ 533350.0, 7261963.670178714208305 ], [ 533359.999107789364643, 7261966.765738788992167 ], [ 533369.987933612894267, 7261969.999107789248228 ], [ 533379.900785414385609, 7261973.223087035119534 ], [ 533389.453693735296838, 7261976.242673087865114 ], [ 533397.913190306629986, 7261978.448322394862771 ], [ 533404.243011592421681, 7261979.552016111090779 ] ] } },
{ "type": "Feature", "properties": { "id": 12, "reference_id": 4, "dune_id": 4, "dune_name": "The Star Dune", "acquisition_date": "2017-05-20", "length_m": 150.13146801339389 }, "geometry": { "type": "LineString", "coordinates": [ [ 533574.243011592421681, 7262048.447430184110999 ], [ 533567.91319030651357, 7262046.231498911976814 ], [ 533559.453693735296838, 7262043.135046625509858 ], [ 533549.900785414502025, 7262039.541734144091606 ], [ 533539.987933612894267, 7262035.149261338636279 ], [ 533529.999107789248228, 7262029.639164308086038 ], [ 533520.0, 7262023.670178715139627 ], [ 533510.0, 7262018.231160406023264 ], [ 533500.0, 7262013.756434702314436 ], [ 533490.0, 7262010.087148198857903 ], [ 533480.000892210751772, 7262006.70183115452528 ], [ 533470.012066387105733, 7262003.311127444729209 ], [ 533460.099214585614391, 7262000.011174176819623 ], [ 533450.546306264703162, 7261996.777805175632238 ], [ 533442.086809693370014, 7261993.757326913997531 ], [ 533435.756988407694735, 7261991.551677605137229 ] ] } },
{ "type": "Feature", "properties": { "id": 13, "reference_id": 5, "dune_id": 5, "dune_name": "The Star Dune", "acquisition_date": "2017-05-20", "length_m": 1138.250228108385 }, "geometry": { "type": "LineString", "coordinates": [ [ 534334.429374376311898, 7261305.756988408043981 ], [ 534328.906588250538334, 7261312.086809693835676 ], [ 534323.08100685745012, 7261320.546306264586747 ], [ 534319.327952536288649, 7261330.099214585497975 ], [ 534318.404564592172392, 7261340.012066386640072 ], [ 534319.004910625400953, 7261350.000892210751772 ], [ 534319.652122906409204, 7261360.0 ], [ 534319.925810399348848, 7261370.0 ], [ 534320.000892210751772, 7261380.0 ], [ 534320.086255987756886, 7261390.0 ], [ 534320.447091679205187, 7261400.0 ], [ 534321.540503428666852, 7261410.0 ], [ 534323.670178714208305, 7261420.0 ], [ 534326.329821285791695, 7261430.0 ], [ 534328.459496571333148, 7261440.0 ], [ 534329.552908320794813, 7261450.0 ], [ 534329.912851801607758, 7261460.0 ], [ 534329.988825823529623, 7261470.000000000931323 ], [ 534329.999107789364643, 7261480.0 ], [ 534330.0, 7261490.0 ], [ 534329.999107789364643, 7261500.0 ], [ 534329.987933612894267, 7261510.0 ], [ 534329.900785414385609, 7261520.0 ], [ 534329.453693735296838, 7261530.0 ], [ 534327.91319030651357, 7261540.0 ], [ 534324.243011592421681, 7261550.0 ], [ 534317.91319030651357, 7261559.999107790179551 ], [ 534309.453693735296838, 7261569.9888258241117 ], [ 534299.900785414502025, 7261579.912851802073419 ], [ 534289.987933612894267, 7261589.552016110159457 ], [ 534279.999107789248228, 7261598.448322394862771 ], [ 534270.0, 7261606.242673087865114 ], [ 534260.0, 7261613.222194824367762 ], [ 534250.0, 7261619.9888258241117 ], [ 534240.0, 7261626.688872555270791 ], [ 534230.0, 7261633.299061057157815 ], [ 534220.0, 7261639.92313376814127 ], [ 534210.0, 7261646.318647109903395 ], [ 534200.0, 7261652.117608899250627 ], [ 534190.0, 7261657.335192626342177 ], [ 534180.0, 7261662.032245121896267 ], [ 534170.0, 7261665.881837395951152 ], [ 534160.0, 7261668.458604360930622 ], [ 534150.0, 7261669.9888258241117 ], [ 534140.0, 7261671.452463019639254 ], [ 534130.0, 7261673.659004537388682 ], [ 534120.0, 7261676.328929075039923 ], [ 534110.0, 7261678.460388781502843 ], [ 534100.0, 7261679.564082497730851 ], [ 534090.0, 7261680.0 ], [ 534080.0, 7261680.435917503200471 ], [ 534070.0, 7261681.539611218497157 ], [ 534060.0, 7261683.670178715139627 ], [ 534050.0, 7261686.33071349747479 ], [ 534040.0, 7261688.470670748502016 ], [ 534030.0, 7261689.64005651883781 ], [ 534020.0, 7261690.35994348116219 ], [ 534010.0, 7261691.530221464112401 ], [ 534000.0, 7261693.680460680276155 ], [ 533990.0, 7261696.416969484649599 ], [ 533980.0, 7261698.907480461522937 ], [ 533970.0, 7261701.10458592697978 ], [ 533960.0, 7261703.671070924960077 ], [ 533950.0, 7261706.776912964880466 ], [ 533940.0, 7261710.086255988106132 ], [ 533930.0, 7261713.671070924960077 ], [ 533920.0, 7261717.794350693002343 ], [ 533910.0, 7261722.206541517749429 ], [ 533900.0, 7261726.340103251859546 ], [ 533890.0, 7261730.000892211683095 ], [ 533880.0, 7261733.670178715139627 ], [ 533870.0, 7261737.870324715040624 ], [ 533860.0, 7261742.577659175731242 ], [ 533850.0, 7261747.521555410698056 ], [ 533840.0, 7261752.588833351619542 ], [ 533830.0, 7261757.958365123718977 ], [ 533820.0, 7261764.128444569185376 ], [ 533810.000892210635357, 7261771.628543837927282 ], [ 533800.011174176470377, 7261780.458265855908394 ], [ 533790.088040409144014, 7261790.088040409609675 ], [ 533780.45915806631092, 7261800.011174176819623 ], [ 533771.638825803645886, 7261810.000892210751772 ], [ 533764.205310802557506, 7261820.0 ], [ 533758.329482780885883, 7261830.0 ], [ 533753.768501089187339, 7261840.000000000931323 ], [ 533750.088040409144014, 7261850.0 ], [ 533746.700938942958601, 7261860.0 ], [ 533743.299953267676756, 7261870.0 ], [ 533739.923133767442778, 7261880.0 ], [ 533736.31953932007309, 7261890.0 ], [ 533732.128783074906096, 7261900.0 ], [ 533727.423233035253361, 7261910.0 ], [ 533722.489618766237982, 7261920.0 ], [ 533717.499207057291642, 7261930.0 ], [ 533712.499900731956586, 7261940.0 ], [ 533707.499207057408057, 7261950.0 ], [ 533702.489618766237982, 7261960.0 ], [ 533697.423233035369776, 7261970.0 ], [ 533692.129675285541452, 7261980.0 ], [ 533686.330267391167581, 7261989.999553894624114 ], [ 533680.005587088293396, 7261999.993520701304078 ], [ 533673.714645024156198, 7262009.944359513930976 ], [ 533668.105044730589725, 7262019.677239574491978 ], [ 533663.435059088165872, 7262028.683442020788789 ], [ 533659.803736446541734, 7262036.078100949525833 ], [ 533657.294247423415072, 7262041.078100949525833 ] ] } },
{ "type": "Feature", "properties": { "id": 14, "reference_id": 6, "dune_id": 6, "dune_name": "The Star Dune", "acquisition_date": "2017-05-20", "length_m": 814.09284707080496 }, "geometry": { "type": "LineString", "coordinates": [ [ 533653.164910642895848, 7262048.921899050474167 ], [ 533651.835089357104152, 7262053.921899050474167 ], [ 533650.770251714391634, 7262061.316557979211211 ], [ 533650.223545839660801, 7262070.322760425508022 ], [ 533650.043574099196121, 7262080.055640487000346 ], [ 533650.006479298928753, 7262090.006479298695922 ], [ 533650.011620281846263, 7262100.000446105375886 ], [ 533650.087148198508658, 7262110.0 ], [ 533650.447091679205187, 7262120.0 ], [ 533651.540503428783268, 7262130.0 ], [ 533653.670178714208305, 7262140.0 ], [ 533656.329821285791695, 7262150.0 ], [ 533658.459496571216732, 7262160.0 ], [ 533659.552908320911229, 7262170.0 ], [ 533659.912851801607758, 7262180.0 ], [ 533659.98971803416498, 7262190.0 ], [ 533660.01028196583502, 7262200.0 ], [ 533660.087148198392242, 7262210.0 ], [ 533660.447091679088771, 7262220.0 ], [ 533661.540503428783268, 7262230.0 ], [ 533663.670178714208305, 7262240.0 ], [ 533666.330713496543467, 7262250.0 ], [ 533668.470670747803524, 7262260.0 ], [ 533669.640056519303471, 7262270.0 ], [ 533670.359943480696529, 7262280.0 ], [ 533671.529329252196476, 7262290.0 ], [ 533673.668394292821176, 7262300.0 ], [ 533676.318647109437734, 7262310.0 ], [ 533678.37234837282449, 7262320.0 ], [ 533679.105816641706042, 7262330.0 ], [ 533678.37234837282449, 7262340.000000000931323 ], [ 533676.317754898685962, 7262350.0 ], [ 533673.658112327102572, 7262360.0 ], [ 533671.453355230391026, 7262370.0 ], [ 533669.999107789364643, 7262380.0 ], [ 533668.535470593255013, 7262390.0 ], [ 533666.253847263869829, 7262400.0 ], [ 533663.223979245638475, 7262410.0 ], [ 533659.999107789248228, 7262420.0 ], [ 533656.765738788526505, 7262430.0 ], [ 533653.670178714208305, 7262440.0 ], [ 533651.103693715413101, 7262450.0 ], [ 533648.896306284703314, 7262460.0 ], [ 533646.329821285791695, 7262470.0 ], [ 533643.234261211473495, 7262480.0 ], [ 533640.000000000116415, 7262490.0 ], [ 533636.765738788526505, 7262500.0 ], [ 533633.670178714208305, 7262510.0 ], [ 533631.104585926048458, 7262520.0 ], [ 533628.906588250421919, 7262530.0 ], [ 533626.405795307713561, 7262540.0 ], [ 533623.594204692170024, 7262550.0 ], [ 533621.094303960213438, 7262560.0 ], [ 533618.906588250421919, 7262570.0 ], [ 533616.416077273664996, 7262580.0 ], [ 533613.670178714208305, 7262590.0 ], [ 533611.454247441026382, 7262600.000000000931323 ], [ 533610.0, 7262610.0 ], [ 533608.54664476972539, 7262620.0 ], [ 533606.340995462378487, 7262630.0 ], [ 533603.671070924960077, 7262640.0 ], [ 533601.540503428783268, 7262650.0 ], [ 533600.447091679205187, 7262660.0 ], [ 533600.086255987756886, 7262670.0 ], [ 533600.0, 7262680.0 ], [ 533599.913744012243114, 7262690.0 ], [ 533599.552908320794813, 7262700.0 ], [ 533598.459496571216732, 7262710.0 ], [ 533596.328929075039923, 7262720.0 ], [ 533593.659004537737928, 7262730.0 ], [ 533591.45335523027461, 7262740.0 ], [ 533589.999107789248228, 7262750.0 ], [ 533588.535470593255013, 7262760.0 ], [ 533586.252955053234473, 7262770.0 ], [ 533583.212805069284514, 7262780.0 ], [ 533579.912851801607758, 7262790.0 ], [ 533576.32982128590811, 7262799.999107789248228 ], [ 533572.216823483933695, 7262809.987933613359928 ], [ 533567.881498891045339, 7262819.900785414502025 ], [ 533564.118162604048848, 7262829.453693736344576 ], [ 533561.62765162717551, 7262837.913190307095647 ], [ 533560.458265855675563, 7262844.243011592887342 ] ] } },
{ "type": "Feature", "properties": { "id": 15, "reference_id": 7, "dune_id": 7, "dune_name": "Inverted Y Dune", "acquisition_date": "2017-05-20", "length_m": 590.33049870396553 }, "geometry": { "type": "LineString", "coordinates": [ [ 530195.756988407694735, 7261650.0 ], [ 530202.086809693370014, 7261650.0 ], [ 530210.546306264819577, 7261649.999107790179551 ], [ 530220.099214585614391, 7261649.9888258241117 ], [ 530230.012066387105733, 7261649.912851802073419 ], [ 530240.000892210751772, 7261649.552908321842551 ], [ 530250.0, 7261648.459496572613716 ], [ 530260.0, 7261646.328929075971246 ], [ 530270.0, 7261643.659004538320005 ], [ 530280.0, 7261641.452463019639254 ], [ 530290.0, 7261639.9888258241117 ], [ 530300.0, 7261638.459496570751071 ], [ 530310.0, 7261635.893011572770774 ], [ 530320.0, 7261632.119393319822848 ], [ 530330.0, 7261627.783176516182721 ], [ 530340.0, 7261623.669286503456533 ], [ 530350.0, 7261620.075081812217832 ], [ 530360.0, 7261616.689764766953886 ], [ 530370.0, 7261613.223087035119534 ], [ 530380.0, 7261609.552908320911229 ], [ 530390.0, 7261605.149261338636279 ], [ 530400.0, 7261599.627990132197738 ], [ 530410.0, 7261593.582138305529952 ], [ 530420.0, 7261587.772002339363098 ], [ 530430.000000000116415, 7261582.117608899250627 ], [ 530440.0, 7261575.881837395951152 ], [ 530450.0, 7261568.372348373755813 ], [ 530460.0, 7261559.541734145022929 ], [ 530469.999107789364643, 7261549.911959590390325 ], [ 530479.988825823529623, 7261539.9888258241117 ], [ 530489.912851801607758, 7261529.999107789248228 ], [ 530499.552016110159457, 7261520.0 ], [ 530508.448322394862771, 7261510.0 ], [ 530516.242673087399453, 7261500.0 ], [ 530523.222194824367762, 7261490.0 ], [ 530529.988825823529623, 7261480.0 ], [ 530536.689764766488224, 7261470.000000000931323 ], [ 530543.309343022760004, 7261460.0 ], [ 530550.0, 7261450.0 ], [ 530556.690656977239996, 7261440.0 ], [ 530563.310235233511776, 7261430.0 ], [ 530570.011174176470377, 7261420.0 ], [ 530576.777805175632238, 7261410.0 ], [ 530583.757326912600547, 7261400.0 ], [ 530591.551677605137229, 7261390.0 ], [ 530600.447983889840543, 7261380.0 ], [ 530610.086255987756886, 7261370.000892210751772 ], [ 530619.999107789364643, 7261360.012066386640072 ], [ 530629.901677625137381, 7261350.099214585497975 ], [ 530639.453693735296838, 7261340.546306265518069 ], [ 530647.913190306629986, 7261332.086809693835676 ], [ 530654.243011592305265, 7261325.756988408043981 ] ] } },
{ "type": "Feature", "properties": { "id": 16, "reference_id": 2, "dune_id": 2, "dune_name": "Big Mommy Dune", "acquisition_date": "2017-05-20", "length_m": 737.31497104506309 }, "geometry": { "type": "LineString", "coordinates": [ [ 529104.243011592421681, 7260959.552016111090779 ], [ 529097.913190306629986, 7260958.448322394862771 ], [ 529089.453693735180423, 7260956.241780877113342 ], [ 529079.900785414385609, 7260953.211912859231234 ], [ 529069.987933612894267, 7260949.912851802073419 ], [ 529059.999107789364643, 7260946.328929075039923 ], [ 529050.0, 7260942.205649306997657 ], [ 529040.0, 7260937.794350693002343 ], [ 529030.0, 7260933.671070924960077 ], [ 529020.0, 7260930.086255988106132 ], [ 529010.0, 7260926.776912964880466 ], [ 529000.0, 7260923.671070925891399 ], [ 528990.0, 7260921.104585926048458 ], [ 528980.0, 7260918.906588250771165 ], [ 528970.0, 7260916.405795307829976 ], [ 528960.0, 7260913.594204692170024 ], [ 528950.0, 7260911.094303959980607 ], [ 528940.0, 7260908.905696040019393 ], [ 528930.0, 7260906.405795308761299 ], [ 528920.0, 7260903.594204693101346 ], [ 528910.0, 7260901.093411750160158 ], [ 528900.0, 7260898.895414073951542 ], [ 528890.0, 7260896.329821285791695 ], [ 528880.0, 7260893.233369001187384 ], [ 528870.0, 7260889.989718034863472 ], [ 528860.0, 7260886.689764766022563 ], [ 528850.0, 7260883.309343023225665 ], [ 528840.0, 7260880.0 ], [ 528830.0, 7260876.689764766953886 ], [ 528820.0, 7260873.299061057157815 ], [ 528810.0, 7260869.924025978893042 ], [ 528800.0, 7260866.329821286723018 ], [ 528790.0, 7260862.205649307928979 ], [ 528780.0, 7260857.794350693002343 ], [ 528770.0, 7260853.670178714208305 ], [ 528760.0, 7260850.075974022038281 ], [ 528750.0, 7260846.700046733021736 ], [ 528740.0, 7260843.299953267909586 ], [ 528730.0, 7260839.92313376814127 ], [ 528720.0, 7260836.319539319723845 ], [ 528710.0, 7260832.128783075138927 ], [ 528700.0, 7260827.423233035951853 ], [ 528690.0, 7260822.489618766121566 ], [ 528680.0, 7260817.499207057058811 ], [ 528670.0, 7260812.499900732189417 ], [ 528660.0, 7260807.500099267810583 ], [ 528650.0, 7260802.499900732189417 ], [ 528640.0, 7260797.499207057990134 ], [ 528630.0, 7260792.489618767052889 ], [ 528620.0, 7260787.423233035951853 ], [ 528610.0, 7260782.128783075138927 ], [ 528600.0, 7260776.319539319723845 ], [ 528590.0, 7260769.923133767209947 ], [ 528580.0, 7260763.299061057157815 ], [ 528570.0, 7260756.688872556202114 ], [ 528560.0, 7260749.989718034863472 ], [ 528550.0, 7260743.233369001187384 ], [ 528540.0, 7260736.329821286723018 ], [ 528530.0, 7260728.896306285634637 ], [ 528520.0, 7260721.103693716228008 ], [ 528510.0, 7260713.670178715139627 ], [ 528500.0, 7260706.766630999743938 ], [ 528490.0, 7260700.010281966067851 ], [ 528480.000892210751772, 7260693.311127444729209 ], [ 528470.012066387105733, 7260686.70183115452528 ], [ 528460.099214585614391, 7260680.088040409609675 ], [ 528450.546306264819577, 7260673.768501089885831 ], [ 528442.08680969348643, 7260668.329482780769467 ], [ 528435.756988407694735, 7260664.205310802906752 ] ] } }
]
}
