{
"type": "FeatureCollection",
"name": "crests_2019_01_2019-01-17",
"crs": { "type": "name", "properties": { "name": "urn:ogc:def:crs:EPSG::32733" } },
"features": [
{ "type": "Feature", "properties": { "id": 0, "reference_id": 1, "dune_id": 1, "dune_name": "Big Mommy Dune", "acquisition_date": "2019-01-17", "length_m": 451.85673971515541 }, "geometry": { "type": "LineString", "coordinates": [ [ 529094.116378182778135, 7261805.756988408043981 ], [ 529097.859150538104586, 7261812.086809693835676 ], [ 529102.042527087032795, 7261820.546306265518069 ], [ 529105.434745716745965, 7261830.099214585497975 ], [ 529106.820670767687261, 7261840.012066387571394 ], [ 529105.783515021088533, 7261850.000892210751772 ], [ 529103.122980238753371, 7261860.0 ], [ 529099.890503448667005, 7261870.0 ], [ 529096.24088866612874, 7261880.0 ], [ 529091.758557628374547, 7261890.0 ], [ 529086.252955053234473, 7261900.0 ], [ 529079.988825823529623, 7261910.0 ], [ 529073.659004537737928, 7261920.0 ], [ 529067.793458481901325, 7261930.0 ], [ 529062.205649307463318, 7261940.0 ], [ 529056.329821285791695, 7261950.0 ], [ 529049.924025978078134, 7261960.0 ], [ 529043.299953267676756, 7261970.0 ], [ 529036.700938943075016, 7261980.0 ], [ 529030.088040409144014, 7261990.0 ], [ 529023.767608878435567, 7262000.0 ], [ 529018.318308604415506, 7262010.0 ], [ 529014.118162604048848, 7262020.0 ], [ 529011.190841913805343, 7262030.0 ], [ 529008.906588250421919, 7262040.0 ], [ 529006.31953932007309, 7262050.0 ], [ 529003.146220802445896, 7262060.0 ], [ 528999.542626355076209, 7262070.0 ], [ 528995.148369127186015, 7262080.0 ], [ 528989.628882342833094, 7262090.0 ], [ 528983.593312481534667, 7262100.0 ], [ 528977.859150538104586, 7262110.0 ], [ 528972.564700577524491, 7262120.0 ], [ 528967.42234082473442, 7262129.999107789248228 ], [ 528962.042527087032795, 7262139.9888258241117 ], [ 528955.871555430116132, 7262149.912851801142097 ], [ 528948.37234837282449, 7262159.552016110159457 ], [ 528939.553800531546585, 7262168.447430185042322 ], [ 528930.011174176470377, 7262176.230606701225042 ], [ 528920.535132088349201, 7262183.123872449621558 ], [ 528912.085917482851073, 7262189.453693735413253 ], [ 528905.756988407694735, 7262194.690103271976113 ] ] } },
{ "type": "Feature", "properties": { "id": 1, "reference_id": 1, "dune_id": 1, "dune_name": "Big Mommy Dune", "acquisition_date": "2019-01-17", "length_m": 788.97930889299846 }, "geometry": { "type": "LineString", "coordinates": [ [ 529180.0, 7261035.756988408043981 ], [ 529180.0, 7261042.086809693835676 ], [ 529180.0, 7261050.546306265518069 ], [ 529179.999107789364643, 7261060.099214585497975 ], [ 529179.988825823529623, 7261070.012066387571394 ], [ 529179.912851801607758, 7261080.000892210751772 ], [ 529179.552016110159457, 7261090.0 ], [ 529178.448322394862771, 7261100.0 ], [ 529176.242673087399453, 7261110.0 ], [ 529173.222194824367762, 7261120.000000000931323 ], [ 529169.988825823529623, 7261130.0 ], [ 529166.689764766488224, 7261140.0 ], [ 529163.310235233511776, 7261150.0 ], [ 529160.01028196583502, 7261160.0 ], [ 529156.766630999278277, 7261170.0 ], [ 529153.669286503572948, 7261180.0 ], [ 529151.093411749578081, 7261190.0 ], [ 529148.819440052029677, 7261200.0 ], [ 529145.958703628624789, 7261210.000000000931323 ], [ 529142.053701263619587, 7261220.0 ], [ 529137.423233035369776, 7261230.0 ], [ 529132.565592788159847, 7261240.0 ], [ 529127.870324714574963, 7261250.0 ], [ 529123.680460680043325, 7261260.0 ], [ 529120.076866232673638, 7261270.0 ], [ 529116.700046732323244, 7261280.0 ], [ 529113.299953267676756, 7261290.0 ], [ 529109.923133767326362, 7261300.0 ], [ 529106.319539319956675, 7261310.000000000931323 ], [ 529102.129675285541452, 7261320.0 ], [ 529097.433515001204796, 7261330.0 ], [ 529092.566484998911619, 7261340.0 ], [ 529087.869432503823191, 7261350.0 ], [ 529083.670178714208305, 7261360.0 ], [ 529080.000892210751772, 7261370.0 ], [ 529076.340103251626715, 7261380.0 ], [ 529072.20654151821509, 7261390.0 ], [ 529067.793458481901325, 7261400.0 ], [ 529063.659896748373285, 7261410.0 ], [ 529060.0, 7261420.0 ], [ 529056.340103251626715, 7261430.0 ], [ 529052.206541518098675, 7261440.0 ], [ 529047.794350692536682, 7261450.0 ], [ 529043.671070924843661, 7261460.0 ], [ 529040.086255987756886, 7261470.000000000931323 ], [ 529036.776912964996882, 7261480.0 ], [ 529033.671070924960077, 7261490.0 ], [ 529031.104585926048458, 7261500.0 ], [ 529028.907480461173691, 7261510.0 ], [ 529026.416077273548581, 7261520.0 ], [ 529023.670178714208305, 7261530.0 ], [ 529021.454247440909967, 7261540.0 ], [ 529020.0, 7261550.0 ], [ 529018.54664476972539, 7261560.000000000931323 ], [ 529016.340995462378487, 7261570.0 ], [ 529013.671070924960077, 7261580.0 ], [ 529011.540503428783268, 7261590.0 ], [ 529010.447091679205187, 7261600.0 ], [ 529010.088040409144014, 7261610.0 ], [ 529010.022348352940753, 7261620.0 ], [ 529010.088040409144014, 7261630.0 ], [ 529010.447091679205187, 7261640.0 ], [ 529011.541395639418624, 7261650.0 ], [ 529013.681352890795097, 7261660.0 ], [ 529016.417861694935709, 7261670.0 ], [ 529018.918654637644067, 7261680.0 ], [ 529021.1917341244407, 7261690.0 ], [ 529024.118162604048848, 7261700.0 ], [ 529028.317416393663734, 7261710.0 ], [ 529033.757326912600547, 7261720.0 ], [ 529040.012066387105733, 7261729.999107790179551 ], [ 529046.340995462262072, 7261739.987933613359928 ], [ 529052.205649307463318, 7261749.900785414502025 ], [ 529057.782284305430949, 7261759.453693735413253 ], [ 529063.571856339345686, 7261767.913190307095647 ], [ 529069.54084193368908, 7261774.243011592887342 ], [ 529074.701277447980829, 7261777.913190307095647 ] ] } },
{ "type": "Feature", "properties": { "id": 2, "reference_id": 8, "dune_id": 8, "dune_name": "Inverted Y Dune", "acquisition_date": "2019-01-17", "length_m": 429.91909007812541 }, "geometry": { "type": "LineString", "coordinates": [ [ 530264.243011592421681, 7261221.638825803995132 ], [ 530257.913190306629986, 7261224.205310802906752 ], [ 530249.453693735180423, 7261228.329482780769467 ], [ 530239.900785414502025, 7261233.76939329970628 ], [ 530229.987933612777852, 7261240.099214585497975 ], [ 530220.0, 7261246.788979351520538 ], [ 530210.011174176470377, 7261253.75821912381798 ], [ 530200.087148198392242, 7261261.551677605137229 ], [ 530190.447983889840543, 7261270.447983890771866 ], [ 530181.552569815889001, 7261280.087148198857903 ], [ 530173.768501089187339, 7261290.0111741758883 ], [ 530166.864953374140896, 7261300.000892210751772 ], [ 530160.458265855675563, 7261310.000000000931323 ], [ 530154.851630872813985, 7261320.0 ], [ 530150.372009867918678, 7261330.0 ], [ 530146.416969484300353, 7261340.0 ], [ 530142.216823483933695, 7261350.0 ], [ 530137.795242903288454, 7261360.0 ], [ 530133.671070924960077, 7261370.0 ], [ 530130.086255987756886, 7261380.0 ], [ 530126.776912964996882, 7261390.0 ], [ 530123.671070924960077, 7261400.0 ], [ 530121.104585926048458, 7261410.0 ], [ 530118.907480461173691, 7261420.0 ], [ 530116.416969484300353, 7261430.0 ], [ 530113.680460680043325, 7261440.0 ], [ 530111.530221462948248, 7261450.0 ], [ 530110.359943480812944, 7261460.0 ], [ 530109.640056519303471, 7261470.000000000931323 ], [ 530108.470670747803524, 7261480.0 ], [ 530106.330713496543467, 7261490.0 ], [ 530103.670178714208305, 7261500.0 ], [ 530101.540503428783268, 7261510.0 ], [ 530100.447091679205187, 7261520.0 ], [ 530100.087148198508658, 7261530.0 ], [ 530100.010728071210906, 7261539.999553894624114 ], [ 530099.995305122458376, 7261549.993520701304078 ], [ 530099.956425900803879, 7261559.944359513930976 ], [ 530099.776454160455614, 7261569.6772395754233 ], [ 530099.229748285608366, 7261578.683442020788789 ], [ 530098.164910642895848, 7261586.078100949525833 ], [ 530096.835089357104152, 7261591.078100949525833 ] ] } },
{ "type": "Feature", "properties": { "id": 3, "reference_id": 8, "dune_id": 8, "dune_name": "Inverted Y Dune", "acquisition_date": "2019-01-17", "length_m": 56.125001558264223 }, "geometry": { "type": "LineString", "coordinates": [ [ 530505.756988407694735, 7261207.925256693735719 ], [ 530512.085917482851073, 7261204.342226178385317 ], [ 530520.534239877597429, 7261198.459496570751071 ], [ 530530.0, 7261191.540503429248929 ], [ 530539.465760122402571, 7261185.657773822546005 ], [ 530547.914082517265342, 7261182.074743306264281 ], [ 530554.243011592305265, 7261180.545414054766297 ] ] } },
{ "type": "Feature", "properties": { "id": 4, "reference_id": 9, "dune_id": 9, "dune_name": "Inverted Y Dune", "acquisition_date": "2019-01-17", "length_m": 759.65040160836315 }, "geometry": { "type": "LineString", "coordinates": [ [ 530091.078100949525833, 7261598.921006839722395 ], [ 530086.078100949409418, 7261603.910724874585867 ], [ 530078.683442020905204, 7261611.228517569601536 ], [ 530069.677239574841224, 7261619.864494569599628 ], [ 530059.944359513698146, 7261628.427988858893514 ], [ 530049.993520701071247, 7261635.888316694647074 ], [ 530039.999553894624114, 7261642.118947215378284 ], [ 530030.0, 7261647.782284306362271 ], [ 530020.0, 7261653.659004537388682 ], [ 530010.0, 7261660.0 ], [ 530000.0, 7261666.340103251859546 ], [ 529990.0, 7261672.206541517749429 ], [ 529980.0, 7261677.794350693002343 ], [ 529970.0, 7261683.671070925891399 ], [ 529960.0, 7261690.087148198857903 ], [ 529950.0, 7261696.788087141700089 ], [ 529940.0, 7261703.75821912381798 ], [ 529930.0, 7261711.551677605137229 ], [ 529920.0, 7261720.447983889840543 ], [ 529910.0, 7261730.087148198857903 ], [ 529900.0, 7261740.011174176819623 ], [ 529890.0, 7261750.000892210751772 ], [ 529880.0, 7261760.0 ], [ 529870.0, 7261770.0 ], [ 529860.000892210751772, 7261780.0 ], [ 529850.011174176470377, 7261790.0 ], [ 529840.087148198392242, 7261800.0 ], [ 529830.447983889840543, 7261810.0 ], [ 529821.551677605137229, 7261820.0 ], [ 529813.758219123352319, 7261830.0 ], [ 529806.78897935221903, 7261840.000000000931323 ], [ 529800.099214585614391, 7261850.0 ], [ 529793.768501089070924, 7261860.0 ], [ 529788.318308604415506, 7261870.0 ], [ 529784.118162604048848, 7261880.0 ], [ 529781.190841913805343, 7261890.0 ], [ 529778.907480461173691, 7261900.0 ], [ 529776.330713496543467, 7261910.0 ], [ 529773.233369000838138, 7261920.0 ], [ 529769.989718034281395, 7261930.0 ], [ 529766.688872555969283, 7261940.0 ], [ 529763.299061056924984, 7261950.0 ], [ 529759.923133767326362, 7261960.0 ], [ 529756.319539319956675, 7261970.0 ], [ 529752.128783074789681, 7261980.0 ], [ 529747.423233035369776, 7261990.0 ], [ 529742.490510976989754, 7262000.0 ], [ 529737.509489023126662, 7262010.0 ], [ 529732.576766964630224, 7262020.0 ], [ 529727.870324714574963, 7262030.0 ], [ 529723.670178714208305, 7262040.0 ], [ 529720.000892210751772, 7262050.0 ], [ 529716.340103251626715, 7262060.0 ], [ 529712.20654151821509, 7262070.0 ], [ 529707.793458481901325, 7262080.0 ], [ 529703.659896748373285, 7262090.0 ], [ 529699.999107789248228, 7262100.0 ], [ 529696.329821285791695, 7262110.0 ], [ 529692.130567496176809, 7262120.0 ], [ 529687.433515001204796, 7262130.0 ], [ 529682.566484998911619, 7262140.0 ], [ 529677.870324714574963, 7262149.999107789248228 ], [ 529673.681352890678681, 7262159.987933613359928 ], [ 529670.088040409144014, 7262169.900785414502025 ], [ 529666.788087141467258, 7262179.453693735413253 ], [ 529663.758219123352319, 7262187.913190307095647 ], [ 529661.551677605137229, 7262194.243011591956019 ] ] } },
{ "type": "Feature", "properties": { "id": 5, "reference_id": 3, "dune_id": 3, "dune_name": "Big Mommy Dune", "acquisition_date": "2019-01-17", "length_m": 58.486023184610531 }, "geometry": { "type": "LineString", "coordinates": [ [ 529795.756988407694735, 7260610.0 ], [ 529802.08680969348643, 7260610.0 ], [ 529810.545414054184221, 7260610.0 ], [ 529820.087148198392242, 7260610.0 ], [ 529829.912851801607758, 7260610.0 ], [ 529839.454585945932195, 7260610.0 ], [ 529847.91319030651357, 7260610.0 ], [ 529854.243011592305265, 7260610.0 ] ] } },
{ "type": "Feature", "properties": { "id": 6, "reference_id": 3, "dune_id": 3, "dune_name": "Big Mommy Dune", "acquisition_date": "2019-01-17", "length_m": 413.14556291333099 }, "geometry": { "type": "LineString", "coordinates": [ [ 529170.088040409144014, 7260991.078100949525833 ], [ 529170.45915806631092, 7260986.078100949525833 ], [ 529171.638825803645886, 7260978.683442020788789 ], [ 529174.20531080244109, 7260969.6772395754233 ], [ 529178.328590570134111, 7260959.944359514862299 ], [ 529183.758219123352319, 7260949.993520701304078 ], [ 529190.012066387222148, 7260939.999553894624114 ], [ 529196.340995462262072, 7260930.0 ], [ 529202.206541518098675, 7260920.0 ], [ 529207.794350692536682, 7260910.0 ], [ 529213.670178714208305, 7260900.0 ], [ 529220.075974022038281, 7260890.0 ], [ 529226.700938943075016, 7260880.0 ], [ 529233.31023523339536, 7260870.0 ], [ 529240.0, 7260860.0 ], [ 529246.690656977239996, 7260850.0 ], [ 529253.309343022876419, 7260840.0 ], [ 529260.0, 7260830.0 ], [ 529266.690656977239996, 7260820.0 ], [ 529273.310235233511776, 7260810.0 ], [ 529280.011174176470377, 7260800.0 ], [ 529286.777805175632238, 7260790.0 ], [ 529293.757326912600547, 7260780.000000000931323 ], [ 529301.551677605253644, 7260770.0 ], [ 529310.447983889956959, 7260760.0 ], [ 529320.087148198508658, 7260750.0 ], [ 529330.011174176470377, 7260740.0 ], [ 529340.000892210751772, 7260730.000892210751772 ], [ 529350.0, 7260720.0111741758883 ], [ 529360.0, 7260710.087148198857903 ], [ 529369.999107789248228, 7260700.447983890771866 ], [ 529379.987933612894267, 7260691.552569815889001 ], [ 529389.900785414502025, 7260683.769393300637603 ], [ 529399.453693735180423, 7260676.876127550378442 ], [ 529407.91319030651357, 7260670.546306265518069 ], [ 529414.243011592305265, 7260665.309896728955209 ] ] } },
{ "type": "Feature", "properties": { "id": 7, "reference_id": 3, "dune_id": 3, "dune_name": "Big Mommy Dune", "acquisition_date": "2019-01-17", "length_m": 142.61105615121807 }, "geometry": { "type": "LineString", "coordinates": [ [ 530244.243011592421681, 7260567.957472912967205 ], [ 530237.91319030651357, 7260567.787449108436704 ], [ 530229.453693735180423, 7260569.411720355041325 ], [ 530219.900785414385609, 7260572.587941141799092 ], [ 530209.987933612894267, 7260576.057026003487408 ], [ 530199.999107789248228, 7260578.830614229664207 ], [ 530190.0, 7260581.084021994844079 ], [ 530180.0, 7260583.593312481418252 ], [ 530170.000000000116415, 7260586.405795307829976 ], [ 530160.0, 7260588.905696040019393 ], [ 530150.000892210751772, 7260591.093411749228835 ], [ 530140.012066387222148, 7260593.583030516281724 ], [ 530130.099214585614391, 7260596.318647108972073 ], [ 530120.546306264819577, 7260598.458604360930622 ], [ 530112.08680969348643, 7260599.552908321842551 ], [ 530105.756988407694735, 7260599.912851802073419 ] ] } },
{ "type": "Feature", "properties": { "id": 8, "reference_id": 4, "dune_id": 4, "dune_name": "The Star Dune", "acquisition_date": "2019-01-17", "length_m": 124.48791744460819 }, "geometry": { "type": "LineString", "coordinates": [ [ 533124.243011592305265, 7261899.552908321842551 ], [ 533117.913190306629986, 7261898.459496571682394 ], [ 533109.453693735180423, 7261896.328929075971246 ], [ 533099.900785414502025, 7261893.659004537388682 ], [ 533089.987933612894267, 7261891.453355230391026 ], [ 533079.999107789364643, 7261890.0 ], [ 533070.0, 7261888.545752558857203 ], [ 533060.0, 7261886.328929075039923 ], [ 533050.000892210751772, 7261883.572748550213873 ], [ 533040.012066387105733, 7261881.006263552233577 ], [ 533030.099214585614391, 7261878.459496571682394 ], [ 533020.546306264819577, 7261874.876466056331992 ], [ 533012.08680969348643, 7261870.011174177750945 ], [ 533005.756988407694735, 7261865.211574354209006 ] ] } },
{ "type": "Feature", "properties": { "id": 9, "reference_id": 4, "dune_id": 4, "dune_name": "The Star Dune", "acquisition_date": "2019-01-17", "length_m": 103.23575295887493 }, "geometry": { "type": "LineString", "coordinates": [ [ 533155.756988407694735, 7261910.000892210751772 ], [ 533162.08680969348643, 7261910.012066387571394 ], [ 533170.546306264819577, 7261910.098322374746203 ], [ 533180.099214585730806, 7261910.534239877946675 ], [ 533190.012066387105733, 7261911.9875951083377 ], [ 533200.000892210751772, 7261915.211574353277683 ], [ 533209.999107789364643, 7261920.011174176819623 ], [ 533219.987933612894267, 7261924.876466056331992 ], [ 533229.900785414502025, 7261928.459496571682394 ], [ 533239.453693735296838, 7261931.006263551302254 ], [ 533247.91319030651357, 7261933.571856340393424 ], [ 533254.243011592305265, 7261936.317754898220301 ] ] } },
{ "type": "Feature", "properties": { "id": 10, "reference_id": 2, "dune_id": 2, "dune_name": "Big Mommy Dune", "acquisition_date": "2019-01-17", "length_m": 108.92365103192662 }, "geometry": { "type": "LineString", "coordinates": [ [ 528854.243011592421681, 7260889.540841934271157 ], [ 528847.913190306629986, 7260888.36117419693619 ], [ 528839.453693735180423, 7260885.79558140784502 ], [ 528829.900785414502025, 7260881.681691396050155 ], [ 528819.987933612894267, 7260876.318647108972073 ], [ 528809.999107789364643, 7260870.359051270410419 ], [ 528800.000892210751772, 7260864.839564485475421 ], [ 528790.012066387105733, 7260860.37111765705049 ], [ 528780.099214585614391, 7260856.417861695401371 ], [ 528770.546306264819577, 7260852.227997660636902 ], [ 528762.08680969348643, 7260847.882391101680696 ], [ 528755.756988407694735, 7260844.118162604048848 ] ] } },
{ "type": "Feature", "properties": { "id": 11, "reference_id": 2, "dune_id": 2, "dune_name": "Big Mommy Dune", "acquisition_date": "2019-01-17", "length_m": 59.470384648121232 }, "geometry": { "type": "LineString", "coordinates": [ [ 528885.756988407694735, 7260900.087148198857903 ], [ 528892.08680969348643, 7260900.447091679088771 ], [ 528900.545414054067805, 7260901.540503429248929 ], [ 528910.087148198392242, 7260903.670178715139627 ], [ 528919.912851801607758, 7260906.329821286723018 ], [ 528929.454585945932195, 7260908.459496572613716 ], [ 528937.913190306629986, 7260909.552908321842551 ], [ 528944.243011592305265, 7260909.912851802073419 ] ] } },
{ "type": "Feature", "properties": { "id": 12, "reference_id": 2, "dune_id": 2, "dune_name": "Big Mommy Dune", "acquisition_date": "2019-01-17", "length_m": 193.28379667616673 }, "geometry": { "type": "LineString", "coordinates": [ [ 528594.243011592421681, 7260774.690995482727885 ], [ 528587.91319030651357, 7260769.464867912232876 ], [ 528579.453693735180423, 7260763.211020648479462 ], [ 528569.900785414385609, 7260756.678590590134263 ], [ 528559.987933612894267, 7260749.999107789248228 ], [ 528549.999107789364643, 7260743.309343023225665 ], [ 528540.0, 7260736.689764766953886 ], [ 528530.0, 7260729.989718034863472 ], [ 528520.0, 7260723.233369001187384 ], [ 528510.0, 7260716.329821286723018 ], [ 528500.0, 7260708.896306284703314 ], [ 528490.0, 7260701.103693716228008 ], [ 528480.000892210751772, 7260693.671070925891399 ], [ 528470.012066387105733, 7260686.777805175632238 ], [ 528460.099214585614391, 7260680.098322374746203 ], [ 528450.546306264819577, 7260673.76939329970628 ], [ 528442.08680969348643, 7260668.329482780769467 ], [ 528435.756988407694735, 7260664.205310802906752 ] ] } },
{ "type": "Feature", "properties": { "id": 13, "reference_id": 5, "dune_id": 5, "dune_name": "The Star Dune", "acquisition_date": "2019-01-17", "length_m": 409.01986382316267 }, "geometry": { "type": "LineString", "coordinates": [ [ 533894.243011592305265, 7261731.627651628106833 ], [ 533887.91319030651357, 7261734.118162604048848 ], [ 533879.453693735296838, 7261737.882391102612019 ], [ 533869.900785414502025, 7261742.227997660636902 ], [ 533859.987933612894267, 7261746.417861696332693 ], [ 533849.999107789248228, 7261750.372009867802262 ], [ 533840.0, 7261754.851630872115493 ], [ 533830.0, 7261760.458265855908394 ], [ 533820.0, 7261766.864953374490142 ], [ 533810.0, 7261773.768501089885831 ], [ 533800.000892210751772, 7261781.552569815889001 ], [ 533790.012066387105733, 7261790.447983890771866 ], [ 533780.098322374979034, 7261800.087148198857903 ], [ 533770.535132088349201, 7261810.011174177750945 ], [ 533761.999661495094188, 7261820.000892210751772 ], [ 533755.309004517854191, 7261830.0 ], [ 533750.535132088349201, 7261840.000000000931323 ], [ 533746.788087141467258, 7261850.0 ], [ 533743.311127444147132, 7261860.0 ], [ 533739.924025978078134, 7261870.0 ], [ 533736.31953932007309, 7261880.0 ], [ 533732.128783074906096, 7261890.0 ], [ 533727.423233035253361, 7261900.0 ], [ 533722.489618766237982, 7261910.0 ], [ 533717.49831484653987, 7261920.0 ], [ 533712.489618766237982, 7261930.0 ], [ 533707.423233035369776, 7261940.0 ], [ 533702.129675285541452, 7261950.0 ], [ 533696.32982128590811, 7261960.0 ], [ 533690.0, 7261970.0 ], [ 533683.670178714208305, 7261980.0 ], [ 533677.870324714574963, 7261989.999553894624114 ], [ 533672.577659175381996, 7261999.993520701304078 ], [ 533667.521555410232395, 7262009.944359513930976 ], [ 533662.588833351852372, 7262019.677239574491978 ], [ 533657.958365123718977, 7262028.683442020788789 ], [ 533654.128444569883868, 7262036.078100949525833 ], [ 533651.628543837927282, 7262041.078100949525833 ] ] } },
{ "type": "Feature", "properties": { "id": 14, "reference_id": 5, "dune_id": 5, "dune_name": "The Star Dune", "acquisition_date": "2019-01-17", "length_m": 626.12548741686123 }, "geometry": { "type": "LineString", "coordinates": [ [ 534334.342226177919656, 7261305.756988408043981 ], [ 534328.459496571333148, 7261312.086809693835676 ], [ 534321.540503428666852, 7261320.546306264586747 ], [ 534315.657773822080344, 7261330.099214585497975 ], [ 534312.074743306264281, 7261340.012066386640072 ], [ 534310.546306264703162, 7261350.000892210751772 ], [ 534310.110388762084767, 7261360.0 ], [ 534310.099214585614391, 7261370.0 ], [ 534310.447983889840543, 7261380.0 ], [ 534311.540503428666852, 7261390.0 ], [ 534313.670178714208305, 7261400.0 ], [ 534316.329821285791695, 7261410.0 ], [ 534318.459496571216732, 7261420.0 ], [ 534319.552908320794813, 7261430.0 ], [ 534319.913744012243114, 7261440.0 ], [ 534320.0, 7261450.0 ], [ 534320.086255987756886, 7261460.0 ], [ 534320.447091679205187, 7261470.000000000931323 ], [ 534321.539611218031496, 7261480.0 ], [ 534323.659004537737928, 7261490.0 ], [ 534326.242673087399453, 7261500.0 ], [ 534328.011512681492604, 7261510.0 ], [ 534328.000338505022228, 7261520.0 ], [ 534326.143458501785062, 7261530.0 ], [ 534323.112698273034766, 7261540.0 ], [ 534319.452801524545066, 7261550.0 ], [ 534314.690103271510452, 7261559.999107790179551 ], [ 534308.000338505022228, 7261569.9888258241117 ], [ 534299.464867911767215, 7261579.912851802073419 ], [ 534289.901677625020966, 7261589.552016110159457 ], [ 534279.987933612894267, 7261598.448322394862771 ], [ 534269.999107789248228, 7261606.242673087865114 ], [ 534260.0, 7261613.223087035119534 ], [ 534250.0, 7261619.999107789248228 ], [ 534240.0, 7261626.765738788992167 ], [ 534230.0, 7261633.669286504387856 ], [ 534220.0, 7261641.092519538477063 ], [ 534210.0, 7261648.808265876024961 ], [ 534200.0, 7261655.870663220062852 ], [ 534190.0, 7261661.595435407944024 ], [ 534180.0, 7261665.79558140784502 ], [ 534170.0, 7261668.447430184110999 ], [ 534160.0, 7261669.987933613359928 ], [ 534150.0, 7261671.452463019639254 ], [ 534140.0, 7261673.659896748140454 ], [ 534130.0, 7261676.340103251859546 ], [ 534120.0, 7261678.546644769608974 ], [ 534110.0, 7261680.0 ], [ 534100.0, 7261681.453355230391026 ], [ 534090.0, 7261683.659004537388682 ], [ 534080.0, 7261686.328929075971246 ], [ 534070.0, 7261688.460388783365488 ], [ 534060.0, 7261689.564082497730851 ], [ 534050.0, 7261690.0 ], [ 534040.000892210751772, 7261690.435917503200471 ], [ 534030.012066387105733, 7261691.539611218497157 ], [ 534020.099214585614391, 7261693.670178714208305 ], [ 534010.546306264819577, 7261696.329821285791695 ], [ 534002.08680969348643, 7261698.459496570751071 ], [ 533995.756988407694735, 7261699.552908321842551 ] ] } },
{ "type": "Feature", "properties": { "id": 15, "reference_id": 6, "dune_id": 6, "dune_name": "The Star Dune", "acquisition_date": "2019-01-17", "length_m": 468.891022727988 }, "geometry": { "type": "LineString", "coordinates": [ [ 533590.000892210751772, 7262744.243011592887342 ], [ 533590.011174176470377, 7262737.913190307095647 ], [ 533590.087148198392242, 7262729.453693736344576 ], [ 533590.447091679205187, 7262719.900785414502025 ], [ 533591.540503428783268, 7262709.987933613359928 ], [ 533593.670178714208305, 7262699.999107790179551 ], [ 533596.329821285791695, 7262690.0 ], [ 533598.459496571216732, 7262680.0 ], [ 533599.552908320794813, 7262670.0 ], [ 533599.913744012243114, 7262660.0 ], [ 533600.0, 7262650.0 ], [ 533600.086255987756886, 7262640.0 ], [ 533600.447091679205187, 7262630.0 ], [ 533601.541395639418624, 7262620.0 ], [ 533603.681352890678681, 7262610.0 ], [ 533606.416969484183937, 7262600.000000000931323 ], [ 533608.906588250421919, 7262590.0 ], [ 533611.094303960213438, 7262580.0 ], [ 533613.594204692170024, 7262570.0 ], [ 533616.405795307829976, 7262560.0 ], [ 533618.906588250421919, 7262550.0 ], [ 533621.104585925932042, 7262540.0 ], [ 533623.670178714208305, 7262530.0 ], [ 533626.766630999161862, 7262520.0 ], [ 533630.01028196583502, 7262510.0 ], [ 533633.310235233511776, 7262500.0 ], [ 533636.68976476660464, 7262490.0 ], [ 533639.989718034281395, 7262480.0 ], [ 533643.233369000838138, 7262470.0 ], [ 533646.329821285791695, 7262460.0 ], [ 533648.896306284703314, 7262450.0 ], [ 533651.103693715413101, 7262440.0 ], [ 533653.670178714208305, 7262430.0 ], [ 533656.765738788526505, 7262420.0 ], [ 533659.999107789248228, 7262410.0 ], [ 533663.223087035119534, 7262400.0 ], [ 533666.242673087399453, 7262390.0 ], [ 533668.448322394862771, 7262380.0 ], [ 533669.552016110159457, 7262370.0 ], [ 533669.912851801607758, 7262360.0 ], [ 533669.988825823646039, 7262350.0 ], [ 533669.999107789364643, 7262340.000000000931323 ], [ 533670.0, 7262330.000892210751772 ], [ 533670.0, 7262320.012066386640072 ], [ 533670.0, 7262310.099214585497975 ], [ 533670.0, 7262300.546306265518069 ], [ 533670.0, 7262292.086809692904353 ], [ 533670.0, 7262285.756988408043981 ] ] } },
{ "type": "Feature", "properties": { "id": 16, "reference_id": 6, "dune_id": 6, "dune_name": "The Star Dune", "acquisition_date": "2019-01-17", "length_m": 206.25017362495035 }, "geometry": { "type": "LineString", "coordinates": [ [ 533650.0, 7262048.921899050474167 ], [ 533650.0, 7262053.921899050474167 ], [ 533650.0, 7262061.316557979211211 ], [ 533650.0, 7262070.322760425508022 ], [ 533650.0, 7262080.055640487000346 ], [ 533650.0, 7262090.006479298695922 ], [ 533650.0, 7262100.000446105375886 ], [ 533650.0, 7262110.0 ], [ 533650.0, 7262120.0 ], [ 533650.0, 7262130.0 ], [ 533650.000892210751772, 7262140.0 ], [ 533650.011174176470377, 7262150.0 ], [ 533650.087148198508658, 7262160.0 ], [ 533650.447091679205187, 7262170.0 ], [ 533651.540503428783268, 7262180.0 ], [ 533653.670178714208305, 7262190.0 ], [ 533656.329821285791695, 7262200.0 ], [ 533658.459496571216732, 7262209.999107789248228 ], [ 533659.552908320911229, 7262219.987933613359928 ], [ 533659.912851801607758, 7262229.900785414502025 ], [ 533659.988825823529623, 7262239.453693734481931 ], [ 533659.999107789248228, 7262247.913190307095647 ], [ 533660.0, 7262254.243011592887342 ] ] } },
{ "type": "Feature", "properties": { "id": 17, "reference_id": 7, "dune_id": 7, "dune_name": "Inverted Y Dune", "acquisition_date": "2019-01-17", "length_m": 541.30764753950177 }, "geometry": { "type": "LineString", "coordinates": [ [ 530245.756988407694735, 7261649.9888258241117 ], [ 530252.08680969348643, 7261649.912851802073419 ], [ 530260.546306264819577, 7261649.552016111090779 ], [ 530270.099214585614391, 7261648.448322394862771 ], [ 530280.012066387222148, 7261646.242673087865114 ], [ 530290.000892210635357, 7261643.222194824367762 ], [ 530300.0, 7261639.9888258241117 ], [ 530310.0, 7261636.688872556202114 ], [ 530320.0, 7261633.299061057157815 ], [ 530330.0, 7261629.924025978893042 ], [ 530340.0, 7261626.329821285791695 ], [ 530350.0, 7261622.204757097177207 ], [ 530360.0, 7261617.783176516182721 ], [ 530370.0, 7261613.583030516281724 ], [ 530380.0, 7261609.62888234294951 ], [ 530390.0, 7261605.159543303772807 ], [ 530400.0, 7261599.62888234294951 ], [ 530410.0, 7261593.582138305529952 ], [ 530420.0, 7261587.772002339363098 ], [ 530430.000000000116415, 7261582.117608899250627 ], [ 530440.0, 7261575.881837395951152 ], [ 530450.0, 7261568.372348373755813 ], [ 530460.0, 7261559.541734145022929 ], [ 530469.999107789364643, 7261549.911959590390325 ], [ 530479.988825823529623, 7261539.9888258241117 ], [ 530489.911959590855986, 7261529.999107789248228 ], [ 530499.541734144324437, 7261520.0 ], [ 530508.37234837282449, 7261510.0 ], [ 530515.881837395951152, 7261500.0 ], [ 530522.118501109071076, 7261490.0 ], [ 530527.783176516182721, 7261480.0 ], [ 530533.669286503456533, 7261470.000000000931323 ], [ 530540.075974021921866, 7261460.0 ], [ 530546.700938943075016, 7261450.0 ], [ 530553.311127444147132, 7261440.0 ], [ 530560.011174176470377, 7261430.0 ], [ 530566.777805175632238, 7261420.0 ], [ 530573.757326912600547, 7261410.0 ], [ 530581.551677605253644, 7261400.0 ], [ 530590.447983889840543, 7261390.0 ], [ 530600.087148198392242, 7261380.0 ], [ 530610.01028196583502, 7261370.000892210751772 ], [ 530619.988825823646039, 7261360.012066386640072 ], [ 530629.900785414502025, 7261350.099214585497975 ], [ 530639.453693735296838, 7261340.546306265518069 ], [ 530647.913190306629986, 7261332.086809693835676 ], [ 530654.243011592305265, 7261325.756988408043981 ] ] } }
]
}
