{
"type": "FeatureCollection",
"name": "crests_2018_06_2018-06-16",
"crs": { "type": "name", "properties": { "name": "urn:ogc:def:crs:EPSG::32733" } },
"features": [
{ "type": "Feature", "properties": { "id": 0, "reference_id": 4, "dune_id": 4, "dune_name": "The Star Dune", "acquisition_date": "2018-06-16", "length_m": 194.76340516770782 }, "geometry": { "type": "LineString", "coordinates": [ [ 533005.756988407694735, 7261871.540503429248929 ], [ 533012.08680969348643, 7261873.671070925891399 ], [ 533020.546306264819577, 7261876.340995462611318 ], [ 533030.099214585614391, 7261878.546644769608974 ], [ 533040.012066387105733, 7261880.0 ], [ 533050.000892210751772, 7261881.454247441142797 ], [ 533060.0, 7261883.670178714208305 ], [ 533070.0, 7261886.416077273897827 ], [ 533080.0, 7261888.906588250771165 ], [ 533090.0, 7261891.094303959980607 ], [ 533100.0, 7261893.594204692170024 ], [ 533110.0, 7261896.405795307829976 ], [ 533120.0, 7261898.906588250771165 ], [ 533130.0, 7261901.104585926048458 ], [ 533140.0, 7261903.670178715139627 ], [ 533149.999107789364643, 7261906.765738788992167 ], [ 533159.987933612894267, 7261909.999107789248228 ], [ 533169.900785414502025, 7261913.223087035119534 ], [ 533179.453693735180423, 7261916.242673087865114 ], [ 533187.91319030651357, 7261918.448322394862771 ], [ 533194.243011592305265, 7261919.552016110159457 ] ] } },
{ "type": "Feature", "properties": { "id": 1, "reference_id": 4, "dune_id": 4, "dune_name": "The Star Dune", "acquisition_date": "2018-06-16", "length_m": 420.97308618497726 }, "geometry": { "type": "LineString", "coordinates": [ [ 533624.243011592305265, 7262059.912851803004742 ], [ 533617.91319030651357, 7262059.552016111090779 ], [ 533609.453693735180423, 7262058.448322394862771 ], [ 533599.900785414385609, 7262056.242673087865114 ], [ 533589.987933612894267, 7262053.222194824367762 ], [ 533579.999107789364643, 7262049.9888258241117 ], [ 533570.0, 7262046.688872556202114 ], [ 533560.0, 7262043.298168846406043 ], [ 533550.0, 7262039.912851801142097 ], [ 533540.0, 7262036.243565298616886 ], [ 533530.0, 7262031.768839593976736 ], [ 533520.0, 7262026.329821286723018 ], [ 533510.0, 7262020.360835691913962 ], [ 533500.0, 7262014.849846452474594 ], [ 533490.0, 7262010.447091679088771 ], [ 533480.0, 7262006.776912964880466 ], [ 533470.0, 7262003.310235233977437 ], [ 533460.0, 7261999.924918189644814 ], [ 533450.0, 7261996.33071349747479 ], [ 533440.0, 7261992.21593127399683 ], [ 533430.0, 7261987.870324715040624 ], [ 533420.0, 7261984.031014405190945 ], [ 533410.0, 7261981.179667737334967 ], [ 533400.000000000116415, 7261978.906588250771165 ], [ 533390.0, 7261976.330713496543467 ], [ 533380.000000000116415, 7261973.234261211939156 ], [ 533370.0, 7261970.0 ], [ 533360.0, 7261966.765738788992167 ], [ 533350.0, 7261963.670178714208305 ], [ 533340.0, 7261961.103693716228008 ], [ 533330.0, 7261958.896306285634637 ], [ 533320.0, 7261956.329821286723018 ], [ 533310.0, 7261953.233369001187384 ], [ 533300.0, 7261949.989718034863472 ], [ 533290.0, 7261946.689764766022563 ], [ 533280.0, 7261943.310235233977437 ], [ 533270.000892210751772, 7261940.011174176819623 ], [ 533260.012066387222148, 7261936.777805175632238 ], [ 533250.099214585614391, 7261933.757326912134886 ], [ 533240.546306264819577, 7261931.551677605137229 ], [ 533232.086809693602845, 7261930.447983889840543 ], [ 533225.756988407694735, 7261930.087148198857903 ] ] } },
{ "type": "Feature", "properties": { "id": 2, "reference_id": 3, "dune_id": 3, "dune_name": "Big Mommy Dune", "acquisition_date": "2018-06-16", "length_m": 359.06023449396395 }, "geometry": { "type": "LineString", "coordinates": [ [ 529374.243011592305265, 7260695.756988408043981 ], [ 529367.91319030651357, 7260702.086809693835676 ], [ 529359.453693735180423, 7260710.546306265518069 ], [ 529349.900785414502025, 7260720.099214585497975 ], [ 529339.988825823529623, 7260730.012066388502717 ], [ 529330.01028196583502, 7260740.000892210751772 ], [ 529320.087148198508658, 7260750.0 ], [ 529310.447983889956959, 7260760.0 ], [ 529301.551677605253644, 7260770.0 ], [ 529293.758219123352319, 7260780.000000000931323 ], [ 529286.788087141467258, 7260790.0 ], [ 529280.087148198392242, 7260800.0 ], [ 529273.671070924960077, 7260810.0 ], [ 529267.794350692536682, 7260820.0 ], [ 529262.205649307463318, 7260830.0 ], [ 529256.32982128590811, 7260840.0 ], [ 529249.924025978078134, 7260850.0 ], [ 529243.299953267676756, 7260860.0 ], [ 529236.700046732323244, 7260870.0 ], [ 529230.075974021921866, 7260880.0 ], [ 529223.670178714208305, 7260890.0 ], [ 529217.794350692536682, 7260900.0 ], [ 529212.206541518098675, 7260910.0 ], [ 529206.340995462262072, 7260920.0 ], [ 529200.012066387105733, 7260930.0 ], [ 529193.758219123352319, 7260939.999553894624114 ], [ 529188.328590570250526, 7260949.993520701304078 ], [ 529184.205310802557506, 7260959.944359514862299 ], [ 529181.638825803645886, 7260969.6772395754233 ], [ 529180.45915806631092, 7260978.683442020788789 ], [ 529180.088040409144014, 7260986.078100949525833 ], [ 529180.011174176470377, 7260991.078100949525833 ] ] } },
{ "type": "Feature", "properties": { "id": 3, "reference_id": 3, "dune_id": 3, "dune_name": "Big Mommy Dune", "acquisition_date": "2018-06-16", "length_m": 214.99929676925939 }, "geometry": { "type": "LineString", "coordinates": [ [ 529405.756988407694735, 7260679.552016109228134 ], [ 529412.08680969348643, 7260678.448322394862771 ], [ 529420.546306264819577, 7260676.242673087865114 ], [ 529430.099214585614391, 7260673.223087035119534 ], [ 529440.012066387222148, 7260669.999107789248228 ], [ 529450.000892210751772, 7260666.765738788992167 ], [ 529460.0, 7260663.670178714208305 ], [ 529470.0, 7260661.103693716228008 ], [ 529480.0, 7260658.896306285634637 ], [ 529490.0, 7260656.329821285791695 ], [ 529500.000000000116415, 7260653.234261211939156 ], [ 529510.0, 7260650.000892210751772 ], [ 529520.0, 7260646.776020754128695 ], [ 529530.0, 7260643.746152736246586 ], [ 529540.0, 7260641.464529407210648 ], [ 529550.0, 7260640.000892210751772 ], [ 529560.0, 7260638.546644769608974 ], [ 529569.999107789248228, 7260636.340995462611318 ], [ 529579.987933612894267, 7260633.671070925891399 ], [ 529589.900785414502025, 7260631.540503429248929 ], [ 529599.453693735180423, 7260630.447091680020094 ], [ 529607.91319030651357, 7260630.087148198857903 ], [ 529614.243011592421681, 7260630.011174176819623 ] ] } },
{ "type": "Feature", "properties": { "id": 4, "reference_id": 3, "dune_id": 3, "dune_name": "Big Mommy Dune", "acquisition_date": "2018-06-16", "length_m": 58.486023184610531 }, "geometry": { "type": "LineString", "coordinates": [ [ 529704.243011592305265, 7260620.0 ], [ 529697.91319030651357, 7260620.0 ], [ 529689.454585945932195, 7260620.0 ], [ 529679.912851801607758, 7260620.0 ], [ 529670.087148198508658, 7260620.0 ], [ 529660.545414054067805, 7260620.0 ], [ 529652.08680969348643, 7260620.0 ], [ 529645.756988407694735, 7260620.0 ] ] } },
{ "type": "Feature", "properties": { "id": 5, "reference_id": 3, "dune_id": 3, "dune_name": "Big Mommy Dune", "acquisition_date": "2018-06-16", "length_m": 308.48602318461053 }, "geometry": { "type": "LineString", "coordinates": [ [ 529735.756988407694735, 7260610.0 ], [ 529742.08680969348643, 7260610.0 ], [ 529750.546306264819577, 7260610.0 ], [ 529760.099214585614391, 7260610.0 ], [ 529770.012066387222148, 7260610.0 ], [ 529780.000892210751772, 7260610.0 ], [ 529790.0, 7260610.0 ], [ 529800.0, 7260610.0 ], [ 529810.0, 7260610.0 ], [ 529820.0, 7260610.0 ], [ 529830.0, 7260610.0 ], [ 529840.0, 7260610.0 ], [ 529850.0, 7260610.0 ], [ 529860.0, 7260610.0 ], [ 529870.0, 7260610.0 ], [ 529880.0, 7260610.0 ], [ 529890.0, 7260610.0 ], [ 529900.0, 7260610.0 ], [ 529910.0, 7260610.0 ], [ 529920.0, 7260610.0 ], [ 529930.0, 7260610.0 ], [ 529940.0, 7260610.0 ], [ 529950.0, 7260610.0 ], [ 529960.0, 7260610.0 ], [ 529970.0, 7260610.0 ], [ 529980.0, 7260610.0 ], [ 529990.0, 7260610.0 ], [ 529999.999107789364643, 7260610.0 ], [ 530009.987933612894267, 7260610.0 ], [ 530019.900785414502025, 7260610.0 ], [ 530029.453693735180423, 7260610.0 ], [ 530037.91319030651357, 7260610.0 ], [ 530044.243011592305265, 7260610.0 ] ] } },
{ "type": "Feature", "properties": { "id": 6, "reference_id": 3, "dune_id": 3, "dune_name": "Big Mommy Dune", "acquisition_date": "2018-06-16", "length_m": 79.443761977511144 }, "geometry": { "type": "LineString", "coordinates": [ [ 530085.756988407694735, 7260599.999107789248228 ], [ 530092.08680969348643, 7260599.9888258241117 ], [ 530100.546306264819577, 7260599.912851802073419 ], [ 530110.099214585614391, 7260599.552908321842551 ], [ 530120.011174176470377, 7260598.459496571682394 ], [ 530129.988825823529623, 7260596.329821285791695 ], [ 530139.900785414502025, 7260593.670178714208305 ], [ 530149.453693735296838, 7260591.540503429248929 ], [ 530157.91319030651357, 7260590.447091680020094 ], [ 530164.243011592305265, 7260590.087148198857903 ] ] } },
{ "type": "Feature", "properties": { "id": 7, "reference_id": 7, "dune_id": 7, "dune_name": "Inverted Y Dune", "acquisition_date": "2018-06-16", "length_m": 594.93021453426627 }, "geometry": { "type": "LineString", "coordinates": [ [ 530614.254185768775642, 7261365.756988408043981 ], [ 530608.000338505022228, 7261372.086809692904353 ], [ 530599.901677625137381, 7261380.546306265518069 ], [ 530591.452463019639254, 7261390.099214585497975 ], [ 530583.745260525494814, 7261400.012066387571394 ], [ 530576.776912964996882, 7261410.000892210751772 ], [ 530570.011174176470377, 7261420.0 ], [ 530563.310235233511776, 7261430.0 ], [ 530556.690656977239996, 7261440.0 ], [ 530550.0, 7261450.0 ], [ 530543.309343022760004, 7261460.0 ], [ 530536.689764766488224, 7261470.000000000931323 ], [ 530529.988825823529623, 7261480.0 ], [ 530523.222194824367762, 7261490.0 ], [ 530516.242673087399453, 7261500.0 ], [ 530508.448322394862771, 7261510.0 ], [ 530499.552016110159457, 7261520.0 ], [ 530489.912851801607758, 7261530.0 ], [ 530479.988825823529623, 7261539.999107789248228 ], [ 530469.999107789364643, 7261549.9888258241117 ], [ 530460.0, 7261559.911959591321647 ], [ 530450.0, 7261569.541734145022929 ], [ 530440.0, 7261578.371456162072718 ], [ 530430.000000000116415, 7261585.871555430814624 ], [ 530420.0, 7261592.041634876281023 ], [ 530410.0, 7261597.411166648380458 ], [ 530400.0, 7261602.478444590233266 ], [ 530390.0, 7261607.422340825200081 ], [ 530380.0, 7261612.128783075138927 ], [ 530370.0, 7261616.319539319723845 ], [ 530360.0, 7261619.92313376814127 ], [ 530350.0, 7261623.299061057157815 ], [ 530340.0, 7261626.688872555270791 ], [ 530330.0, 7261629.989718034863472 ], [ 530320.0, 7261633.233369001187384 ], [ 530310.0, 7261636.329821285791695 ], [ 530300.0, 7261638.895414074882865 ], [ 530290.0, 7261641.092519538477063 ], [ 530280.0, 7261643.583030516281724 ], [ 530270.0, 7261646.318647109903395 ], [ 530260.0, 7261648.458604361861944 ], [ 530250.0, 7261649.552908321842551 ], [ 530240.0, 7261649.912851802073419 ], [ 530230.0, 7261649.9888258241117 ], [ 530220.0, 7261649.999107790179551 ], [ 530210.0, 7261650.0 ], [ 530200.0, 7261650.0 ], [ 530190.0, 7261650.0 ], [ 530180.000892210751772, 7261650.0 ], [ 530170.012066387222148, 7261650.0 ], [ 530160.099214585614391, 7261650.0 ], [ 530150.546306264819577, 7261650.0 ], [ 530142.08680969348643, 7261650.0 ], [ 530135.756988407694735, 7261650.0 ] ] } },
{ "type": "Feature", "properties": { "id": 8, "reference_id": 8, "dune_id": 8, "dune_name": "Inverted Y Dune", "acquisition_date": "2018-06-16", "length_m": 427.67635807768767 }, "geometry": { "type": "LineString", "coordinates": [ [ 530264.243011592421681, 7261221.639718014746904 ], [ 530257.913190306629986, 7261224.216484978795052 ], [ 530249.453693735180423, 7261228.416630979627371 ], [ 530239.900785414502025, 7261234.216484978795052 ], [ 530229.987933612777852, 7261241.639718014746904 ], [ 530219.999107789248228, 7261250.459158066660166 ], [ 530210.0, 7261260.088040409609675 ], [ 530200.000892210751772, 7261270.011174176819623 ], [ 530190.012066387105733, 7261280.000892210751772 ], [ 530180.098322374862619, 7261290.0 ], [ 530170.535132088349201, 7261300.0 ], [ 530161.999661495094188, 7261310.000000000931323 ], [ 530155.309004517970607, 7261320.0 ], [ 530150.535132088349201, 7261330.0 ], [ 530146.78897935221903, 7261340.0 ], [ 530143.321409409982152, 7261350.0 ], [ 530140.000892210751772, 7261360.0 ], [ 530136.690656977239996, 7261370.0 ], [ 530133.310235233511776, 7261380.0 ], [ 530130.01028196583502, 7261390.0 ], [ 530126.766630999278277, 7261400.0 ], [ 530123.670178714208305, 7261410.0 ], [ 530121.104585926048458, 7261420.0 ], [ 530118.907480461173691, 7261430.0 ], [ 530116.416969484300353, 7261440.0 ], [ 530113.680460680043325, 7261450.0 ], [ 530111.530221462948248, 7261460.0 ], [ 530110.359943480812944, 7261470.000000000931323 ], [ 530109.640056519303471, 7261480.0 ], [ 530108.470670747803524, 7261490.0 ], [ 530106.330713496543467, 7261500.0 ], [ 530103.670178714208305, 7261510.0 ], [ 530101.540503428783268, 7261520.0 ], [ 530100.447091679205187, 7261530.0 ], [ 530100.086702093132772, 7261539.999553894624114 ], [ 530100.005587088293396, 7261549.993520701304078 ], [ 530099.957318111439236, 7261559.944359513930976 ], [ 530099.776454160455614, 7261569.6772395754233 ], [ 530099.229748285608366, 7261578.683442020788789 ], [ 530098.164910642895848, 7261586.078100949525833 ], [ 530096.835089357104152, 7261591.078100949525833 ] ] } },
{ "type": "Feature", "properties": { "id": 9, "reference_id": 9, "dune_id": 9, "dune_name": "Inverted Y Dune", "acquisition_date": "2018-06-16", "length_m": 181.54010435974308 }, "geometry": { "type": "LineString", "coordinates": [ [ 529671.551677605253644, 7262174.243011591956019 ], [ 529673.758219123352319, 7262167.913190307095647 ], [ 529676.788087141467258, 7262159.453693735413253 ], [ 529680.088040409144014, 7262149.900785414502025 ], [ 529683.681352890678681, 7262139.987933613359928 ], [ 529687.871216925210319, 7262129.999107789248228 ], [ 529692.576766964630224, 7262120.0 ], [ 529697.509489023126662, 7262110.0 ], [ 529702.490510976873338, 7262100.0 ], [ 529707.423233035369776, 7262090.0 ], [ 529712.128783074789681, 7262080.0 ], [ 529716.31953932007309, 7262070.0 ], [ 529719.923133767442778, 7262060.0 ], [ 529723.299061057041399, 7262050.000892210751772 ], [ 529726.688872555852868, 7262040.012066386640072 ], [ 529729.988825823529623, 7262030.099214585497975 ], [ 529733.222194824367762, 7262020.546306265518069 ], [ 529736.242673087399453, 7262012.086809693835676 ], [ 529738.448322394862771, 7262005.756988408043981 ] ] } },
{ "type": "Feature", "properties": { "id": 10, "reference_id": 9, "dune_id": 9, "dune_name": "Inverted Y Dune", "acquisition_date": "2018-06-16", "length_m": 507.66356680555498 }, "geometry": { "type": "LineString", "coordinates": [ [ 530091.078100949525833, 7261598.921006839722395 ], [ 530086.078100949409418, 7261603.910724874585867 ], [ 530078.683442020905204, 7261611.229409780353308 ], [ 530069.677239574841224, 7261619.874776534736156 ], [ 530059.944359513698146, 7261628.503962881863117 ], [ 530049.993520701071247, 7261636.248260175809264 ], [ 530039.999553894624114, 7261643.21235896460712 ], [ 530030.0, 7261649.912851802073419 ], [ 530020.0, 7261656.328929075039923 ], [ 530010.0, 7261662.205649307928979 ], [ 530000.0, 7261667.794350693002343 ], [ 529990.0, 7261673.670178714208305 ], [ 529980.0, 7261680.075974022038281 ], [ 529970.0, 7261686.700938943773508 ], [ 529960.0, 7261693.311127444729209 ], [ 529950.0, 7261700.011174177750945 ], [ 529940.0, 7261706.777805175632238 ], [ 529930.0, 7261713.757326913066208 ], [ 529920.0, 7261721.551677605137229 ], [ 529910.0, 7261730.447983890771866 ], [ 529900.0, 7261740.087148198857903 ], [ 529890.0, 7261750.011174176819623 ], [ 529880.0, 7261760.000892210751772 ], [ 529870.000892210751772, 7261770.0 ], [ 529860.011174176470377, 7261780.0 ], [ 529850.087148198392242, 7261790.0 ], [ 529840.447091679205187, 7261800.0 ], [ 529831.541395639418624, 7261810.0 ], [ 529823.682245101314038, 7261820.0 ], [ 529816.429035871406086, 7261830.0 ], [ 529809.004910625400953, 7261840.000000000931323 ], [ 529801.628543837927282, 7261850.0 ], [ 529795.582692010793835, 7261860.0 ], [ 529791.62765162717551, 7261870.0 ], [ 529788.993736448930576, 7261880.0 ], [ 529786.341887673013844, 7261890.0 ], [ 529783.23426121158991, 7261900.0 ], [ 529779.98971803416498, 7261910.0 ], [ 529776.689764766488224, 7261919.999107790179551 ], [ 529773.310235233511776, 7261929.987933613359928 ], [ 529770.011174176470377, 7261939.900785414502025 ], [ 529766.777805175632238, 7261949.453693736344576 ], [ 529763.757326912600547, 7261957.913190307095647 ], [ 529761.551677605137229, 7261964.243011592887342 ] ] } },
{ "type": "Feature", "properties": { "id": 11, "reference_id": 1, "dune_id": 1, "dune_name": "Big Mommy Dune", "acquisition_date": "2018-06-16", "length_m": 483.49343846905555 }, "geometry": { "type": "LineString", "coordinates": [ [ 529106.318647109321319, 7261855.756988408043981 ], [ 529103.582138305064291, 7261862.086809693835676 ], [ 529101.081345362355933, 7261870.546306265518069 ], [ 529098.8082658755593, 7261880.099214585497975 ], [ 529095.881837395951152, 7261890.012066386640072 ], [ 529091.681691395700909, 7261900.000892210751772 ], [ 529086.232391121564433, 7261910.0 ], [ 529079.911959590855986, 7261920.0 ], [ 529073.298168846289627, 7261930.0 ], [ 529066.68976476660464, 7261940.0 ], [ 529060.0, 7261950.0 ], [ 529053.310235233511776, 7261960.0 ], [ 529046.701831153710373, 7261970.0 ], [ 529040.087148198392242, 7261980.0 ], [ 529033.757326912600547, 7261990.0 ], [ 529028.242334582377225, 7262000.0 ], [ 529023.757326912600547, 7262010.0 ], [ 529020.087148198508658, 7262020.0 ], [ 529016.700938943075016, 7262030.0 ], [ 529013.299953267676756, 7262040.0 ], [ 529009.923133767326362, 7262050.0 ], [ 529006.31953932007309, 7262060.0 ], [ 529002.128783074789681, 7262070.0 ], [ 528997.423233035369776, 7262080.0 ], [ 528992.489618766237982, 7262090.0 ], [ 528987.498314846656285, 7262100.0 ], [ 528982.488726555602625, 7262110.0 ], [ 528977.4120588588994, 7262120.0 ], [ 528972.041634876397438, 7262130.0 ], [ 528965.871555430116132, 7262139.999107789248228 ], [ 528958.371456162189133, 7262149.9888258241117 ], [ 528949.541734144324437, 7262159.912851801142097 ], [ 528939.911959590972401, 7262169.552016111090779 ], [ 528929.988825823529623, 7262178.448322394862771 ], [ 528919.999107789364643, 7262186.242673087865114 ], [ 528910.0, 7262193.222194824367762 ], [ 528900.0, 7262199.9888258241117 ], [ 528890.0, 7262206.688872556202114 ], [ 528880.000892210751772, 7262213.298168846406043 ], [ 528870.012066387105733, 7262219.911959591321647 ], [ 528860.099214585614391, 7262226.231498911045492 ], [ 528850.546306264819577, 7262231.670517219230533 ], [ 528842.086809693370014, 7262235.794689197093248 ], [ 528835.756988407694735, 7262238.361174196004868 ] ] } },
{ "type": "Feature", "properties": { "id": 12, "reference_id": 1, "dune_id": 1, "dune_name": "Big Mommy Dune", "acquisition_date": "2018-06-16", "length_m": 252.16994377688235 }, "geometry": { "type": "LineString", "coordinates": [ [ 529020.0, 7261565.756988408043981 ], [ 529020.0, 7261572.086809693835676 ], [ 529020.0, 7261580.546306265518069 ], [ 529020.0, 7261590.099214585497975 ], [ 529020.0, 7261600.012066387571394 ], [ 529020.000892210751772, 7261610.000892210751772 ], [ 529020.011174176470377, 7261620.0 ], [ 529020.087148198508658, 7261630.0 ], [ 529020.447091679205187, 7261640.0 ], [ 529021.540503428783268, 7261650.0 ], [ 529023.671070924960077, 7261660.0 ], [ 529026.340995462378487, 7261670.0 ], [ 529028.547536980360746, 7261680.0 ], [ 529030.012066387222148, 7261690.0 ], [ 529031.552569815889001, 7261700.0 ], [ 529034.204418591805734, 7261710.0 ], [ 529038.404564592055976, 7261720.0 ], [ 529044.128444569767453, 7261730.000000000931323 ], [ 529051.180559947970323, 7261740.0 ], [ 529058.819440052029677, 7261750.0 ], [ 529065.871555430232547, 7261759.999107789248228 ], [ 529071.594543197192252, 7261769.987933613359928 ], [ 529075.78440723172389, 7261779.900785414502025 ], [ 529078.360281985718757, 7261789.453693736344576 ], [ 529079.54084193368908, 7261797.913190307095647 ], [ 529079.911959590855986, 7261804.243011591956019 ] ] } },
{ "type": "Feature", "properties": { "id": 13, "reference_id": 1, "dune_id": 1, "dune_name": "Big Mommy Dune", "acquisition_date": "2018-06-16", "length_m": 551.95160320555806 }, "geometry": { "type": "LineString", "coordinates": [ [ 529180.0, 7260998.921899050474167 ], [ 529180.0, 7261003.921899050474167 ], [ 529180.0, 7261011.316557979211211 ], [ 529180.0, 7261020.322760425508022 ], [ 529180.0, 7261030.055640487000346 ], [ 529180.0, 7261040.006479299627244 ], [ 529180.0, 7261050.000446105375886 ], [ 529180.0, 7261060.0 ], [ 529179.999107789364643, 7261070.0 ], [ 529179.988825823529623, 7261080.0 ], [ 529179.912851801607758, 7261090.0 ], [ 529179.552016110159457, 7261100.0 ], [ 529178.448322394862771, 7261110.0 ], [ 529176.242673087399453, 7261120.000000000931323 ], [ 529173.222194824367762, 7261130.0 ], [ 529169.988825823529623, 7261140.0 ], [ 529166.689764766488224, 7261150.0 ], [ 529163.309343022760004, 7261160.0 ], [ 529160.0, 7261170.0 ], [ 529156.690656977239996, 7261180.0 ], [ 529153.309343022760004, 7261190.0 ], [ 529149.999107789364643, 7261200.0 ], [ 529146.67948280076962, 7261210.000000000931323 ], [ 529143.223087035119534, 7261220.0 ], [ 529139.563190286629833, 7261230.0 ], [ 529135.226127570495009, 7261240.0 ], [ 529130.0, 7261250.0 ], [ 529124.773872429504991, 7261260.0 ], [ 529120.436809713370167, 7261270.0 ], [ 529116.776020754361525, 7261280.0 ], [ 529113.310235233511776, 7261290.0 ], [ 529109.924918188713491, 7261300.0 ], [ 529106.329821285791695, 7261310.000000000931323 ], [ 529102.205649307463318, 7261320.0 ], [ 529097.793458481901325, 7261330.0 ], [ 529093.6598967484897, 7261340.0 ], [ 529089.999107789248228, 7261350.0 ], [ 529086.329821285791695, 7261360.0 ], [ 529082.130567496176809, 7261370.0 ], [ 529077.434407211840153, 7261380.0 ], [ 529072.576766964630224, 7261390.0 ], [ 529067.946298736496828, 7261400.0 ], [ 529064.041296371375211, 7261410.0 ], [ 529061.180559947970323, 7261420.0 ], [ 529058.906588250538334, 7261430.0 ], [ 529056.330713496543467, 7261440.0 ], [ 529053.233369000838138, 7261450.0 ], [ 529049.98971803416498, 7261460.0 ], [ 529046.689764766488224, 7261470.000000000931323 ], [ 529043.31023523339536, 7261479.999107789248228 ], [ 529040.011174176470377, 7261489.987933613359928 ], [ 529036.777805175632238, 7261499.900785414502025 ], [ 529033.757326912600547, 7261509.453693735413253 ], [ 529031.551677605253644, 7261517.913190307095647 ], [ 529030.447983889840543, 7261524.243011592887342 ] ] } },
{ "type": "Feature", "properties": { "id": 14, "reference_id": 5, "dune_id": 5, "dune_name": "The Star Dune", "acquisition_date": "2018-06-16", "length_m": 872.75950336257813 }, "geometry": { "type": "LineString", "coordinates": [ [ 533657.294247423415072, 7262041.078100949525833 ], [ 533659.803736446541734, 7262036.078100949525833 ], [ 533663.435059088165872, 7262028.683442020788789 ], [ 533668.105044730589725, 7262019.677239574491978 ], [ 533673.714645024156198, 7262009.944359513930976 ], [ 533680.005587088293396, 7261999.993520701304078 ], [ 533686.330267391167581, 7261989.999553894624114 ], [ 533692.129675285541452, 7261980.0 ], [ 533697.423233035369776, 7261970.0 ], [ 533702.489618766237982, 7261960.0 ], [ 533707.499207057408057, 7261950.0 ], [ 533712.499900731956586, 7261940.0 ], [ 533717.499207057291642, 7261930.0 ], [ 533722.489618766237982, 7261920.0 ], [ 533727.423233035253361, 7261910.0 ], [ 533732.128783074906096, 7261900.0 ], [ 533736.31953932007309, 7261890.0 ], [ 533739.923133767442778, 7261880.0 ], [ 533743.299953267676756, 7261870.0 ], [ 533746.700938942958601, 7261860.0 ], [ 533750.088040409144014, 7261850.0 ], [ 533753.768501089187339, 7261840.000000000931323 ], [ 533758.329482780885883, 7261830.0 ], [ 533764.205310802557506, 7261820.0 ], [ 533771.638825803645886, 7261810.000892210751772 ], [ 533780.45915806631092, 7261800.011174176819623 ], [ 533790.088040409144014, 7261790.088040409609675 ], [ 533800.011174176470377, 7261780.459158066660166 ], [ 533810.000892210635357, 7261771.638825803995132 ], [ 533820.0, 7261764.205310802906752 ], [ 533830.0, 7261758.328590570017695 ], [ 533840.0, 7261753.758219122886658 ], [ 533850.0, 7261750.011174176819623 ], [ 533860.0, 7261746.33071349747479 ], [ 533870.0, 7261742.129675285890698 ], [ 533880.0, 7261737.423233035951853 ], [ 533890.0, 7261732.490510977804661 ], [ 533900.0, 7261727.510381233878434 ], [ 533910.0, 7261722.58704893104732 ], [ 533920.0, 7261717.947190947830677 ], [ 533930.0, 7261714.041296371258795 ], [ 533940.0, 7261711.181452158838511 ], [ 533950.0, 7261708.917762426659465 ], [ 533960.0, 7261706.416969484649599 ], [ 533970.0, 7261703.670178714208305 ], [ 533980.0, 7261701.454247441142797 ], [ 533990.0, 7261700.0 ], [ 534000.0, 7261698.546644769608974 ], [ 534010.0, 7261696.340995462611318 ], [ 534020.0, 7261693.670178714208305 ], [ 534030.0, 7261691.529329253360629 ], [ 534040.0, 7261690.35994348116219 ], [ 534050.0, 7261689.64005651883781 ], [ 534060.0, 7261688.470670748502016 ], [ 534070.0, 7261686.33071349747479 ], [ 534080.0, 7261683.670178715139627 ], [ 534090.0, 7261681.539611218497157 ], [ 534100.0, 7261680.435917503200471 ], [ 534110.0, 7261680.0 ], [ 534120.0, 7261679.564082497730851 ], [ 534130.0, 7261678.459496570751071 ], [ 534140.0, 7261676.318647108972073 ], [ 534150.0, 7261673.582138305529952 ], [ 534160.0, 7261671.081345362588763 ], [ 534170.0, 7261668.808265876024961 ], [ 534180.0, 7261665.881837395951152 ], [ 534190.0, 7261661.682583605870605 ], [ 534200.0, 7261656.242673087865114 ], [ 534210.0, 7261649.987933613359928 ], [ 534220.0, 7261643.659004538320005 ], [ 534230.0, 7261637.793458482250571 ], [ 534240.0, 7261632.205649307928979 ], [ 534250.0, 7261626.328929075039923 ], [ 534259.999107789248228, 7261619.912851801142097 ], [ 534269.988825823529623, 7261613.211912859231234 ], [ 534279.911959590855986, 7261606.242673087865114 ], [ 534289.54084193368908, 7261598.460388782434165 ], [ 534298.360281985718757, 7261589.651230695657432 ], [ 534305.783515021088533, 7261580.459158066660166 ], [ 534311.583369020721875, 7261572.075635517947376 ], [ 534315.783515021088533, 7261565.756096197292209 ] ] } },
{ "type": "Feature", "properties": { "id": 15, "reference_id": 5, "dune_id": 5, "dune_name": "The Star Dune", "acquisition_date": "2018-06-16", "length_m": 237.53685535195086 }, "geometry": { "type": "LineString", "coordinates": [ [ 534334.342226177919656, 7261305.756988408043981 ], [ 534328.459496571333148, 7261312.086809693835676 ], [ 534321.540503428666852, 7261320.546306264586747 ], [ 534315.657773822080344, 7261330.099214585497975 ], [ 534312.075635517016053, 7261340.012066386640072 ], [ 534310.556588230538182, 7261350.000892210751772 ], [ 534310.186362784006633, 7261360.0 ], [ 534310.45915806631092, 7261370.0 ], [ 534311.541395639418624, 7261380.0 ], [ 534313.670178714208305, 7261390.0 ], [ 534316.329821285791695, 7261400.0 ], [ 534318.459496571216732, 7261410.0 ], [ 534319.553800531546585, 7261420.0 ], [ 534319.924025978078134, 7261430.0 ], [ 534320.075974021921866, 7261440.0 ], [ 534320.446199468453415, 7261450.0 ], [ 534321.540503428666852, 7261460.0 ], [ 534323.670178714208305, 7261470.000000000931323 ], [ 534326.329821285791695, 7261480.0 ], [ 534328.459496571333148, 7261489.999107789248228 ], [ 534329.552908320794813, 7261499.987933613359928 ], [ 534329.912851801607758, 7261509.900785414502025 ], [ 534329.988825823529623, 7261519.453693736344576 ], [ 534329.999107789364643, 7261527.913190307095647 ], [ 534330.0, 7261534.243011591956019 ] ] } },
{ "type": "Feature", "properties": { "id": 16, "reference_id": 6, "dune_id": 6, "dune_name": "The Star Dune", "acquisition_date": "2018-06-16", "length_m": 896.69889664320203 }, "geometry": { "type": "LineString", "coordinates": [ [ 533550.000892210751772, 7262924.243011591956019 ], [ 533550.011174176470377, 7262917.913190307095647 ], [ 533550.087148198392242, 7262909.453693736344576 ], [ 533550.447091679205187, 7262899.900785414502025 ], [ 533551.540503428783268, 7262889.987933613359928 ], [ 533553.671070924960077, 7262879.999107789248228 ], [ 533556.340995462378487, 7262870.000000000931323 ], [ 533558.547536980360746, 7262860.0 ], [ 533560.011174176470377, 7262850.0 ], [ 533561.541395639418624, 7262840.0 ], [ 533564.117270393413492, 7262830.0 ], [ 533567.956580702331848, 7262820.0 ], [ 533572.577659175381996, 7262810.0 ], [ 533577.434407211840153, 7262800.0 ], [ 533582.129675285541452, 7262790.0 ], [ 533586.318647109437734, 7262780.0 ], [ 533589.911959590855986, 7262770.0 ], [ 533593.211912858532742, 7262760.0 ], [ 533596.241780876647681, 7262750.0 ], [ 533598.448322394862771, 7262740.0 ], [ 533599.552016110159457, 7262730.0 ], [ 533599.912851801607758, 7262720.0 ], [ 533599.988825823529623, 7262710.0 ], [ 533599.999107789248228, 7262700.0 ], [ 533600.000892210635357, 7262690.0 ], [ 533600.011174176470377, 7262680.0 ], [ 533600.087148198392242, 7262670.0 ], [ 533600.447091679205187, 7262660.0 ], [ 533601.540503428783268, 7262650.0 ], [ 533603.670178714208305, 7262640.0 ], [ 533606.330713496543467, 7262630.0 ], [ 533608.470670747803524, 7262620.0 ], [ 533609.640056519303471, 7262610.0 ], [ 533610.359943480696529, 7262600.000000000931323 ], [ 533611.530221462948248, 7262590.0 ], [ 533613.680460680043325, 7262580.0 ], [ 533616.416969484183937, 7262570.0 ], [ 533618.907480461173691, 7262560.0 ], [ 533621.104585925932042, 7262550.0 ], [ 533623.670178714208305, 7262540.0 ], [ 533626.766630999161862, 7262530.0 ], [ 533630.01028196583502, 7262520.0 ], [ 533633.310235233511776, 7262510.0 ], [ 533636.68976476660464, 7262500.0 ], [ 533639.989718034281395, 7262490.0 ], [ 533643.233369000838138, 7262480.0 ], [ 533646.329821285791695, 7262470.0 ], [ 533648.896306284703314, 7262460.0 ], [ 533651.103693715413101, 7262450.0 ], [ 533653.670178714208305, 7262440.0 ], [ 533656.765738788526505, 7262430.0 ], [ 533659.999107789248228, 7262420.0 ], [ 533663.223979245638475, 7262410.0 ], [ 533666.253847263869829, 7262400.0 ], [ 533668.535470593255013, 7262390.0 ], [ 533669.999107789364643, 7262380.0 ], [ 533671.453355230391026, 7262370.0 ], [ 533673.658112327102572, 7262360.0 ], [ 533676.317754898685962, 7262350.0 ], [ 533678.37234837282449, 7262340.000000000931323 ], [ 533679.105816641706042, 7262330.0 ], [ 533678.37234837282449, 7262320.0 ], [ 533676.317754898685962, 7262310.0 ], [ 533673.658112327102572, 7262300.0 ], [ 533671.453355230391026, 7262290.0 ], [ 533670.0, 7262280.0 ], [ 533668.546644769841805, 7262270.0 ], [ 533666.340995462378487, 7262260.0 ], [ 533663.671070924960077, 7262250.0 ], [ 533661.540503428783268, 7262240.0 ], [ 533660.447091679088771, 7262230.0 ], [ 533660.087148198392242, 7262220.0 ], [ 533660.01028196583502, 7262210.0 ], [ 533659.98971803416498, 7262200.0 ], [ 533659.912851801607758, 7262190.0 ], [ 533659.552908320911229, 7262180.0 ], [ 533658.459496571216732, 7262170.0 ], [ 533656.329821285791695, 7262160.0 ], [ 533653.670178714208305, 7262150.0 ], [ 533651.540503428783268, 7262140.0 ], [ 533650.447091679205187, 7262130.0 ], [ 533650.087148198508658, 7262120.0 ], [ 533650.011174176470377, 7262110.0 ], [ 533650.001338316127658, 7262100.000446105375886 ], [ 533650.005587088293396, 7262090.006479298695922 ], [ 533650.043574099196121, 7262080.055640487000346 ], [ 533650.223545839660801, 7262070.322760425508022 ], [ 533650.770251714391634, 7262061.316557979211211 ], [ 533651.835089357104152, 7262053.921899050474167 ], [ 533653.164910642895848, 7262048.921899050474167 ] ] } },
{ "type": "Feature", "properties": { "id": 17, "reference_id": 2, "dune_id": 2, "dune_name": "Big Mommy Dune", "acquisition_date": "2018-06-16", "length_m": 772.19553273947872 }, "geometry": { "type": "LineString", "coordinates": [ [ 528425.756988407694735, 7260655.309004518203437 ], [ 528432.08680969348643, 7260660.535132088698447 ], [ 528440.546306264819577, 7260666.788979352451861 ], [ 528450.099214585614391, 7260673.322301620617509 ], [ 528460.012066387105733, 7260680.0111741758883 ], [ 528470.000892210751772, 7260686.766630999743938 ], [ 528480.0, 7260693.670178715139627 ], [ 528490.0, 7260701.103693716228008 ], [ 528500.0, 7260708.896306284703314 ], [ 528510.0, 7260716.329821286723018 ], [ 528520.0, 7260723.233369001187384 ], [ 528530.0, 7260729.989718034863472 ], [ 528540.0, 7260736.689764766953886 ], [ 528550.0, 7260743.309343023225665 ], [ 528560.0, 7260750.0 ], [ 528570.0, 7260756.689764766953886 ], [ 528580.0, 7260763.299061057157815 ], [ 528590.0, 7260769.923133767209947 ], [ 528600.0, 7260776.319539319723845 ], [ 528610.0, 7260782.128783075138927 ], [ 528620.0, 7260787.423233035951853 ], [ 528630.0, 7260792.489618767052889 ], [ 528640.0, 7260797.499207057990134 ], [ 528650.0, 7260802.499900732189417 ], [ 528660.0, 7260807.499207057058811 ], [ 528670.0, 7260812.489618767052889 ], [ 528680.0, 7260817.423233035951853 ], [ 528690.0, 7260822.129675285890698 ], [ 528700.0, 7260826.329821285791695 ], [ 528710.0, 7260829.999107789248228 ], [ 528720.0, 7260833.659896748140454 ], [ 528730.0, 7260837.793458482250571 ], [ 528740.0, 7260842.206541518680751 ], [ 528750.0, 7260846.340103251859546 ], [ 528760.0, 7260850.0 ], [ 528770.0, 7260853.659896748140454 ], [ 528780.0, 7260857.793458482250571 ], [ 528790.0, 7260862.205649307928979 ], [ 528800.0, 7260866.329821286723018 ], [ 528810.0, 7260869.924025978893042 ], [ 528820.0, 7260873.299061057157815 ], [ 528830.0, 7260876.688872556202114 ], [ 528840.0, 7260879.989718034863472 ], [ 528850.0, 7260883.233369002118707 ], [ 528860.0, 7260886.329821286723018 ], [ 528870.0, 7260888.896306284703314 ], [ 528880.0, 7260891.103693716228008 ], [ 528890.0, 7260893.670178714208305 ], [ 528900.0, 7260896.765738788992167 ], [ 528910.0, 7260900.0 ], [ 528920.0, 7260903.234261211939156 ], [ 528930.0, 7260906.329821286723018 ], [ 528940.0, 7260908.895414074882865 ], [ 528950.0, 7260911.093411749228835 ], [ 528960.0, 7260913.594204692170024 ], [ 528970.0, 7260916.405795307829976 ], [ 528980.0, 7260918.906588250771165 ], [ 528990.0, 7260921.104585926048458 ], [ 529000.0, 7260923.671070925891399 ], [ 529010.0, 7260926.776912964880466 ], [ 529020.0, 7260930.086255988106132 ], [ 529030.0, 7260933.671070924960077 ], [ 529040.0, 7260937.794350693002343 ], [ 529050.0, 7260942.205649306997657 ], [ 529060.0, 7260946.329821285791695 ], [ 529070.0, 7260949.924025978893042 ], [ 529079.999107789248228, 7260953.299061058089137 ], [ 529089.987933612894267, 7260956.688872556202114 ], [ 529099.900785414502025, 7260959.9888258241117 ], [ 529109.453693735296838, 7260963.222194824367762 ], [ 529117.91319030651357, 7260966.242673087865114 ], [ 529124.243011592421681, 7260968.448322394862771 ] ] } }
]
}
