{
"type": "FeatureCollection",
"name": "crests_2021_04_2021-04-14",
"crs": { "type": "name", "properties": { "name": "urn:ogc:def:crs:EPSG::32733" } },
"features": [
{ "type": "Feature", "properties": { "id": 0, "reference_id": 5, "dune_id": 5, "dune_name": "The Star Dune", "acquisition_date": "2021-04-14", "length_m": 892.44949618883913 }, "geometry": { "type": "LineString", "coordinates": [ [ 534325.783515021088533, 7261555.756096197292209 ], [ 534321.583369020721875, 7261562.075635517016053 ], [ 534315.783515021088533, 7261570.459158066660166 ], [ 534308.360281985718757, 7261579.651230695657432 ], [ 534299.54084193368908, 7261588.460388782434165 ], [ 534289.911959590855986, 7261596.243565298616886 ], [ 534279.988825823529623, 7261603.222194825299084 ], [ 534269.999107789248228, 7261609.9888258241117 ], [ 534260.0, 7261616.689764766953886 ], [ 534250.0, 7261623.309343023225665 ], [ 534240.0, 7261630.0 ], [ 534230.0, 7261636.689764766953886 ], [ 534220.0, 7261643.298168847337365 ], [ 534210.0, 7261649.911959591321647 ], [ 534200.0, 7261656.231498911976814 ], [ 534190.0, 7261661.670517219230533 ], [ 534180.0, 7261665.794689197093248 ], [ 534170.0, 7261668.362066407687962 ], [ 534160.0, 7261669.552016110159457 ], [ 534150.0, 7261669.999107789248228 ], [ 534140.0, 7261670.435917503200471 ], [ 534130.0, 7261671.539611218497157 ], [ 534120.0, 7261673.670178714208305 ], [ 534110.0, 7261676.330713496543467 ], [ 534100.0, 7261678.470670748502016 ], [ 534090.0, 7261679.640056519769132 ], [ 534080.0, 7261680.35994348116219 ], [ 534070.0, 7261681.529329252429307 ], [ 534060.0, 7261683.670178715139627 ], [ 534050.0, 7261686.340995462611318 ], [ 534040.0, 7261688.546644769608974 ], [ 534030.0, 7261690.0 ], [ 534020.0, 7261691.453355230391026 ], [ 534010.0, 7261693.659896749071777 ], [ 534000.0, 7261696.340103251859546 ], [ 533990.0, 7261698.546644769608974 ], [ 533980.0, 7261700.000892210751772 ], [ 533970.0, 7261701.464529407210648 ], [ 533960.0, 7261703.747044946998358 ], [ 533950.0, 7261706.787194930948317 ], [ 533940.0, 7261710.087148198857903 ], [ 533930.0, 7261713.671070924960077 ], [ 533920.0, 7261717.794350693002343 ], [ 533910.0, 7261722.206541517749429 ], [ 533900.0, 7261726.340103251859546 ], [ 533890.0, 7261730.000892211683095 ], [ 533880.0, 7261733.670178715139627 ], [ 533870.0, 7261737.870324715040624 ], [ 533860.0, 7261742.57676696497947 ], [ 533850.0, 7261747.510381234809756 ], [ 533840.0, 7261752.501685153692961 ], [ 533830.0, 7261757.511273443698883 ], [ 533820.000892210635357, 7261762.587941141799092 ], [ 533810.011174176470377, 7261767.958365123718977 ], [ 533800.087148198392242, 7261774.128444570116699 ], [ 533790.447983889840543, 7261781.628543838858604 ], [ 533781.552569815889001, 7261790.458265855908394 ], [ 533773.76939329970628, 7261800.088040409609675 ], [ 533766.875235339859501, 7261810.011174177750945 ], [ 533760.535132088349201, 7261820.000892210751772 ], [ 533755.222748530097306, 7261830.0 ], [ 533751.551677605253644, 7261840.000000000931323 ], [ 533748.983454483095556, 7261850.0 ], [ 533746.340103251626715, 7261860.0 ], [ 533743.22397924575489, 7261870.0 ], [ 533739.912851801607758, 7261880.0 ], [ 533736.318647109437734, 7261890.0 ], [ 533732.128783074906096, 7261900.0 ], [ 533727.423233035253361, 7261910.0 ], [ 533722.489618766237982, 7261920.0 ], [ 533717.49831484653987, 7261930.0 ], [ 533712.489618766237982, 7261940.0 ], [ 533707.423233035369776, 7261950.0 ], [ 533702.128783074789681, 7261960.0 ], [ 533696.31953932007309, 7261970.0 ], [ 533689.923133767326362, 7261980.0 ], [ 533683.299953267676756, 7261989.999553894624114 ], [ 533676.700938943075016, 7261999.993520701304078 ], [ 533670.088040409144014, 7262009.944359513930976 ], [ 533663.768501089187339, 7262019.677239574491978 ], [ 533658.329482780769467, 7262028.683442020788789 ], [ 533654.20531080244109, 7262036.078100949525833 ], [ 533651.638825803645886, 7262041.078100949525833 ] ] } },
{ "type": "Feature", "properties": { "id": 1, "reference_id": 5, "dune_id": 5, "dune_name": "The Star Dune", "acquisition_date": "2021-04-14", "length_m": 202.92896037296251 }, "geometry": { "type": "LineString", "coordinates": [ [ 534330.0, 7261504.243011591956019 ], [ 534330.0, 7261497.913190306164324 ], [ 534330.0, 7261489.453693735413253 ], [ 534330.0, 7261479.900785415433347 ], [ 534330.0, 7261469.987933613359928 ], [ 534329.999107789364643, 7261459.999107789248228 ], [ 534329.988825823529623, 7261450.0 ], [ 534329.912851801607758, 7261440.0 ], [ 534329.552908320794813, 7261430.0 ], [ 534328.459496571333148, 7261420.0 ], [ 534326.329821285791695, 7261410.0 ], [ 534323.670178714208305, 7261400.0 ], [ 534321.540503428666852, 7261390.0 ], [ 534320.447091679205187, 7261380.0 ], [ 534320.088040409144014, 7261370.0 ], [ 534320.023240563692525, 7261360.0 ], [ 534320.099214585614391, 7261350.000892210751772 ], [ 534320.534239877597429, 7261340.012066386640072 ], [ 534321.987595107872039, 7261330.099214585497975 ], [ 534325.210682142991573, 7261320.546306264586747 ], [ 534330.0, 7261312.086809693835676 ], [ 534334.789317857124843, 7261305.756988408043981 ] ] } },
{ "type": "Feature", "properties": { "id": 2, "reference_id": 4, "dune_id": 4, "dune_name": "The Star Dune", "acquisition_date": "2021-04-14", "length_m": 607.83395317895747 }, "geometry": { "type": "LineString", "coordinates": [ [ 533584.243011592305265, 7262048.371456163004041 ], [ 533577.91319030651357, 7262045.871555430814624 ], [ 533569.453693735180423, 7262042.041634876281023 ], [ 533559.900785414385609, 7262037.41205885913223 ], [ 533549.987933612894267, 7262032.488726556301117 ], [ 533539.999107789364643, 7262027.499207057058811 ], [ 533530.0, 7262022.500792942941189 ], [ 533520.0, 7262017.510381234809756 ], [ 533510.0, 7262012.576766964048147 ], [ 533500.0, 7262007.871216924861073 ], [ 533490.0, 7262003.680460680276155 ], [ 533480.0, 7262000.076866233721375 ], [ 533470.0, 7261996.700938943773508 ], [ 533460.0, 7261993.310235233977437 ], [ 533450.0, 7261990.0 ], [ 533440.0, 7261986.690656976774335 ], [ 533430.0, 7261983.309343023225665 ], [ 533420.0, 7261980.0 ], [ 533410.0, 7261976.690656977705657 ], [ 533400.000000000116415, 7261973.310235233977437 ], [ 533390.0, 7261970.010281966067851 ], [ 533380.000000000116415, 7261966.766630999743938 ], [ 533370.0, 7261963.670178714208305 ], [ 533360.0, 7261961.103693716228008 ], [ 533350.0, 7261958.896306285634637 ], [ 533340.0, 7261956.329821286723018 ], [ 533330.0, 7261953.233369001187384 ], [ 533320.0, 7261949.989718034863472 ], [ 533310.0, 7261946.689764766022563 ], [ 533300.0, 7261943.310235233977437 ], [ 533290.0, 7261940.010281966067851 ], [ 533280.0, 7261936.766630999743938 ], [ 533270.0, 7261933.670178715139627 ], [ 533260.0, 7261931.104585926048458 ], [ 533250.0, 7261928.906588250771165 ], [ 533240.0, 7261926.405795307829976 ], [ 533230.0, 7261923.594204692170024 ], [ 533220.0, 7261921.093411749228835 ], [ 533210.0, 7261918.895414073951542 ], [ 533200.0, 7261916.329821286723018 ], [ 533190.0, 7261913.233369002118707 ], [ 533180.0, 7261909.989718034863472 ], [ 533170.0, 7261906.689764766953886 ], [ 533160.0, 7261903.310235233977437 ], [ 533150.0, 7261900.0111741758883 ], [ 533140.0, 7261896.776912964880466 ], [ 533130.0, 7261893.746152736246586 ], [ 533120.0, 7261891.464529407210648 ], [ 533110.0, 7261890.000892210751772 ], [ 533100.0, 7261888.545752558857203 ], [ 533090.0, 7261886.329821285791695 ], [ 533080.0, 7261883.583922726102173 ], [ 533070.0, 7261881.093411749228835 ], [ 533060.0, 7261878.906588250771165 ], [ 533050.000892210751772, 7261876.416969484649599 ], [ 533040.012066387105733, 7261873.681352891027927 ], [ 533030.099214585614391, 7261871.541395640000701 ], [ 533020.546306264819577, 7261870.447091680020094 ], [ 533012.08680969348643, 7261870.087148198857903 ], [ 533005.756988407694735, 7261870.011174177750945 ] ] } },
{ "type": "Feature", "properties": { "id": 3, "reference_id": 1, "dune_id": 1, "dune_name": "Big Mommy Dune", "acquisition_date": "2021-04-14", "length_m": 119.54433656054269 }, "geometry": { "type": "LineString", "coordinates": [ [ 529028.459496571333148, 7261684.243011591956019 ], [ 529026.329821285791695, 7261677.913190307095647 ], [ 529023.670178714208305, 7261669.453693735413253 ], [ 529021.540503428783268, 7261659.900785414502025 ], [ 529020.447091679205187, 7261649.987933613359928 ], [ 529020.087148198508658, 7261639.999107789248228 ], [ 529020.011174176470377, 7261630.0 ], [ 529020.000892210751772, 7261620.0 ], [ 529020.0, 7261610.000892210751772 ], [ 529020.0, 7261600.012066387571394 ], [ 529020.0, 7261590.099214585497975 ], [ 529020.0, 7261580.546306265518069 ], [ 529020.0, 7261572.086809693835676 ], [ 529020.0, 7261565.756988408043981 ] ] } },
{ "type": "Feature", "properties": { "id": 4, "reference_id": 1, "dune_id": 1, "dune_name": "Big Mommy Dune", "acquisition_date": "2021-04-14", "length_m": 495.66789888482379 }, "geometry": { "type": "LineString", "coordinates": [ [ 529180.0, 7261055.756988408043981 ], [ 529180.0, 7261062.086809693835676 ], [ 529180.0, 7261070.546306264586747 ], [ 529179.999107789364643, 7261080.099214585497975 ], [ 529179.988825823529623, 7261090.012066388502717 ], [ 529179.912851801607758, 7261100.000892210751772 ], [ 529179.552016110159457, 7261110.0 ], [ 529178.448322394862771, 7261120.000000000931323 ], [ 529176.241780876647681, 7261130.0 ], [ 529173.211912858532742, 7261140.0 ], [ 529169.912851801607758, 7261150.0 ], [ 529166.328929075156339, 7261160.0 ], [ 529162.205649307463318, 7261170.0 ], [ 529157.794350692536682, 7261180.0 ], [ 529153.670178714208305, 7261190.0 ], [ 529150.075974022038281, 7261200.0 ], [ 529146.700046732323244, 7261210.000000000931323 ], [ 529143.299953267676756, 7261220.0 ], [ 529139.923133767326362, 7261230.0 ], [ 529136.319539319956675, 7261240.0 ], [ 529132.129675285425037, 7261250.0 ], [ 529127.433515001204796, 7261260.0 ], [ 529122.566484998911619, 7261270.0 ], [ 529117.869432503939606, 7261280.0 ], [ 529113.670178714208305, 7261290.0 ], [ 529110.000892210751772, 7261300.0 ], [ 529106.3401032515103, 7261310.000000000931323 ], [ 529102.206541518098675, 7261320.0 ], [ 529097.794350692536682, 7261330.0 ], [ 529093.670178714208305, 7261340.0 ], [ 529090.075974022038281, 7261350.0 ], [ 529086.700046732323244, 7261360.0 ], [ 529083.299953267676756, 7261370.0 ], [ 529079.923133767326362, 7261380.0 ], [ 529076.319539319956675, 7261390.0 ], [ 529072.129675285425037, 7261400.0 ], [ 529067.434407211840153, 7261410.0 ], [ 529062.576766964630224, 7261420.0 ], [ 529057.946298736496828, 7261430.0 ], [ 529054.041296371375211, 7261440.0 ], [ 529051.180559947970323, 7261450.0 ], [ 529048.906588250421919, 7261460.0 ], [ 529046.330713496427052, 7261470.000000000931323 ], [ 529043.234261211473495, 7261479.999107789248228 ], [ 529040.000892210751772, 7261489.987933613359928 ], [ 529036.776912964996882, 7261499.900785414502025 ], [ 529033.757326912600547, 7261509.453693735413253 ], [ 529031.551677605253644, 7261517.913190307095647 ], [ 529030.447983889840543, 7261524.243011592887342 ] ] } },
{ "type": "Feature", "properties": { "id": 5, "reference_id": 1, "dune_id": 1, "dune_name": "Big Mommy Dune", "acquisition_date": "2021-04-14", "length_m": 540.58275554067927 }, "geometry": { "type": "LineString", "coordinates": [ [ 528865.756988407694735, 7262224.690995482727885 ], [ 528872.08680969348643, 7262219.464867912232876 ], [ 528880.546306264819577, 7262213.211020648479462 ], [ 528890.099214585614391, 7262206.677698379382491 ], [ 528900.012066387105733, 7262199.987933613359928 ], [ 528910.0, 7262193.222194824367762 ], [ 528919.988825823529623, 7262186.242673087865114 ], [ 528929.912851801607758, 7262178.448322394862771 ], [ 528939.552016110159457, 7262169.552016111090779 ], [ 528948.448322394862771, 7262159.912851801142097 ], [ 528956.241780876647681, 7262149.9888258241117 ], [ 528963.211020647897385, 7262139.999107789248228 ], [ 528969.901677625253797, 7262130.0 ], [ 528976.241780876647681, 7262120.0 ], [ 528981.758557628258131, 7262110.0 ], [ 528986.252955053118058, 7262100.0 ], [ 528989.988825823529623, 7262090.0 ], [ 528993.659004537737928, 7262080.0 ], [ 528997.793458481901325, 7262070.0 ], [ 529002.205649307463318, 7262060.0 ], [ 529006.32982128590811, 7262050.0 ], [ 529009.924918188713491, 7262040.0 ], [ 529013.310235233511776, 7262030.0 ], [ 529016.776912965113297, 7262020.0 ], [ 529020.447983889840543, 7262010.0 ], [ 529024.861020627897233, 7262000.0 ], [ 529030.447983889840543, 7261990.0 ], [ 529036.777805175632238, 7261980.0 ], [ 529043.32051719923038, 7261970.0 ], [ 529050.000892210635357, 7261960.0 ], [ 529056.690656977239996, 7261950.0 ], [ 529063.309343022760004, 7261940.0 ], [ 529070.0, 7261930.0 ], [ 529076.689764766488224, 7261920.0 ], [ 529083.298168846289627, 7261910.0 ], [ 529089.911959590855986, 7261900.0 ], [ 529096.231498910929076, 7261890.0 ], [ 529101.669625008478761, 7261880.0 ], [ 529105.782622810336761, 7261870.0 ], [ 529108.262851821491495, 7261860.0 ], [ 529109.005709845456295, 7261850.0 ], [ 529107.912298095878214, 7261840.000000000931323 ], [ 529104.678929095040075, 7261830.000892210751772 ], [ 529099.453693735413253, 7261820.012066387571394 ], [ 529093.135938836610876, 7261810.099214585497975 ], [ 529086.329821285791695, 7261800.546306265518069 ], [ 529078.993736448930576, 7261792.086809692904353 ], [ 529071.638825803645886, 7261785.756988408043981 ], [ 529065.669840209186077, 7261782.086809693835676 ] ] } },
{ "type": "Feature", "properties": { "id": 6, "reference_id": 3, "dune_id": 3, "dune_name": "Big Mommy Dune", "acquisition_date": "2021-04-14", "length_m": 130.68166463786042 }, "geometry": { "type": "LineString", "coordinates": [ [ 530204.243011592305265, 7260580.087148198857903 ], [ 530197.91319030651357, 7260580.447091679088771 ], [ 530189.453693735180423, 7260581.541395640000701 ], [ 530179.900785414385609, 7260583.681352891027927 ], [ 530169.987933612894267, 7260586.416969484649599 ], [ 530159.999107789364643, 7260588.906588250771165 ], [ 530150.0, 7260591.093411749228835 ], [ 530140.0, 7260593.583030516281724 ], [ 530130.0, 7260596.318647108972073 ], [ 530120.000892210751772, 7260598.458604360930622 ], [ 530110.012066387222148, 7260599.552908321842551 ], [ 530100.099214585614391, 7260599.912851802073419 ], [ 530090.546306264819577, 7260599.9888258241117 ], [ 530082.08680969348643, 7260599.999107789248228 ], [ 530075.756988407694735, 7260600.0 ] ] } },
{ "type": "Feature", "properties": { "id": 7, "reference_id": 3, "dune_id": 3, "dune_name": "Big Mommy Dune", "acquisition_date": "2021-04-14", "length_m": 332.15740570013531 }, "geometry": { "type": "LineString", "coordinates": [ [ 529374.243011592305265, 7260695.756988408043981 ], [ 529367.91319030651357, 7260702.086809693835676 ], [ 529359.453693735180423, 7260710.546306265518069 ], [ 529349.901677625253797, 7260720.099214585497975 ], [ 529339.999107789364643, 7260730.012066388502717 ], [ 529330.086255987756886, 7260740.000892210751772 ], [ 529320.447983889956959, 7260750.0 ], [ 529311.551677605253644, 7260760.0 ], [ 529303.757326912600547, 7260770.0 ], [ 529296.777805175632238, 7260780.000000000931323 ], [ 529290.011174176470377, 7260790.0 ], [ 529283.310235233511776, 7260800.0 ], [ 529276.690656977239996, 7260810.0 ], [ 529270.0, 7260820.0 ], [ 529263.309343022760004, 7260830.0 ], [ 529256.690656977356412, 7260840.0 ], [ 529250.0, 7260850.0 ], [ 529243.310235233511776, 7260860.0 ], [ 529236.700938942958601, 7260870.0 ], [ 529230.075974021921866, 7260880.0 ], [ 529223.670178714208305, 7260890.0 ], [ 529217.794350692536682, 7260900.0 ], [ 529212.206541518098675, 7260910.0 ], [ 529206.340995462262072, 7260919.999107789248228 ], [ 529200.012066387105733, 7260929.987933613359928 ], [ 529193.758219123352319, 7260939.900785414502025 ], [ 529188.328590570250526, 7260949.453693735413253 ], [ 529184.205310802557506, 7260957.913190307095647 ], [ 529181.638825803645886, 7260964.243011592887342 ] ] } },
{ "type": "Feature", "properties": { "id": 8, "reference_id": 3, "dune_id": 3, "dune_name": "Big Mommy Dune", "acquisition_date": "2021-04-14", "length_m": 215.0215565901816 }, "geometry": { "type": "LineString", "coordinates": [ [ 529405.756988407694735, 7260679.552016109228134 ], [ 529412.08680969348643, 7260678.448322394862771 ], [ 529420.546306264819577, 7260676.242673087865114 ], [ 529430.099214585614391, 7260673.222194824367762 ], [ 529440.012066387222148, 7260669.9888258241117 ], [ 529450.000892210751772, 7260666.689764766953886 ], [ 529460.0, 7260663.310235233977437 ], [ 529470.0, 7260660.010281966067851 ], [ 529480.0, 7260656.766630999743938 ], [ 529490.0, 7260653.670178714208305 ], [ 529500.000000000116415, 7260651.10458592697978 ], [ 529510.0, 7260648.907480461522937 ], [ 529520.0, 7260646.416077273897827 ], [ 529530.0, 7260643.670178715139627 ], [ 529540.0, 7260641.454247441142797 ], [ 529550.0, 7260640.0 ], [ 529560.0, 7260638.546644769608974 ], [ 529569.999107789248228, 7260636.340995462611318 ], [ 529579.987933612894267, 7260633.671070925891399 ], [ 529589.900785414502025, 7260631.540503429248929 ], [ 529599.453693735180423, 7260630.447091680020094 ], [ 529607.91319030651357, 7260630.087148198857903 ], [ 529614.243011592421681, 7260630.011174176819623 ] ] } },
{ "type": "Feature", "properties": { "id": 9, "reference_id": 3, "dune_id": 3, "dune_name": "Big Mommy Dune", "acquisition_date": "2021-04-14", "length_m": 321.00678523063976 }, "geometry": { "type": "LineString", "coordinates": [ [ 529645.756988407694735, 7260620.0 ], [ 529652.08680969348643, 7260620.0 ], [ 529660.546306264819577, 7260619.999107790179551 ], [ 529670.099214585614391, 7260619.9888258241117 ], [ 529680.012066387222148, 7260619.912851802073419 ], [ 529690.000892210751772, 7260619.552908320911229 ], [ 529700.0, 7260618.459496571682394 ], [ 529710.0, 7260616.329821286723018 ], [ 529720.0, 7260613.670178715139627 ], [ 529730.0, 7260611.540503429248929 ], [ 529740.0, 7260610.447091680020094 ], [ 529750.0, 7260610.087148198857903 ], [ 529760.0, 7260610.011174176819623 ], [ 529770.0, 7260610.000892210751772 ], [ 529780.0, 7260610.0 ], [ 529790.0, 7260610.0 ], [ 529800.0, 7260610.0 ], [ 529810.0, 7260609.999107789248228 ], [ 529820.0, 7260609.9888258241117 ], [ 529830.0, 7260609.912851802073419 ], [ 529840.0, 7260609.553800531663001 ], [ 529850.0, 7260608.470670748502016 ], [ 529860.0, 7260606.416077274829149 ], [ 529870.0, 7260604.106988428160548 ], [ 529880.0, 7260603.005032835528255 ], [ 529890.0, 7260603.757326912134886 ], [ 529900.0, 7260605.323557735420763 ], [ 529910.0, 7260606.340103251859546 ], [ 529919.999107789364643, 7260606.882983783259988 ], [ 529929.987933612894267, 7260607.69602831825614 ], [ 529939.900785414502025, 7260608.448322395794094 ], [ 529949.453693735180423, 7260608.098660879768431 ], [ 529957.913190306629986, 7260606.253847263753414 ], [ 529964.243011592421681, 7260603.659896748140454 ] ] } },
{ "type": "Feature", "properties": { "id": 10, "reference_id": 8, "dune_id": 8, "dune_name": "Inverted Y Dune", "acquisition_date": "2021-04-14", "length_m": 425.50716751918571 }, "geometry": { "type": "LineString", "coordinates": [ [ 530264.243011592421681, 7261221.639718014746904 ], [ 530257.913190306629986, 7261224.216484978795052 ], [ 530249.453693735180423, 7261228.416630979627371 ], [ 530239.900785414502025, 7261234.216484978795052 ], [ 530229.987933612777852, 7261241.639718014746904 ], [ 530219.999107789248228, 7261250.459158066660166 ], [ 530210.000892210751772, 7261260.088040409609675 ], [ 530200.011174176586792, 7261270.011174176819623 ], [ 530190.088040409144014, 7261280.000892210751772 ], [ 530180.45915806631092, 7261290.0 ], [ 530171.638825803645886, 7261300.0 ], [ 530164.20531080244109, 7261310.000000000931323 ], [ 530158.329482780885883, 7261320.0 ], [ 530153.768501089187339, 7261330.0 ], [ 530150.088040409144014, 7261340.0 ], [ 530146.701831153710373, 7261350.0 ], [ 530143.311127444263548, 7261360.0 ], [ 530140.01028196583502, 7261370.0 ], [ 530136.766630999278277, 7261380.0 ], [ 530133.670178714208305, 7261390.0 ], [ 530131.104585926048458, 7261400.0 ], [ 530128.907480461173691, 7261410.0 ], [ 530126.416077273664996, 7261420.0 ], [ 530123.670178714208305, 7261430.0 ], [ 530121.454247441026382, 7261440.0 ], [ 530120.0, 7261450.0 ], [ 530118.54664476972539, 7261460.0 ], [ 530116.340995462262072, 7261470.000000000931323 ], [ 530113.671070924960077, 7261480.0 ], [ 530111.540503428666852, 7261490.0 ], [ 530110.447091679205187, 7261500.0 ], [ 530110.087148198392242, 7261510.0 ], [ 530110.01028196583502, 7261520.0 ], [ 530109.989718034281395, 7261530.0 ], [ 530109.912851801607758, 7261539.999553894624114 ], [ 530109.552908320911229, 7261549.993520701304078 ], [ 530108.459496571333148, 7261559.944359513930976 ], [ 530106.329821285791695, 7261569.6772395754233 ], [ 530103.670178714208305, 7261578.683442020788789 ], [ 530101.540503428783268, 7261586.078100949525833 ], [ 530100.447091679205187, 7261591.078100949525833 ] ] } },
{ "type": "Feature", "properties": { "id": 11, "reference_id": 8, "dune_id": 8, "dune_name": "Inverted Y Dune", "acquisition_date": "2021-04-14", "length_m": 168.12563819908004 }, "geometry": { "type": "LineString", "coordinates": [ [ 530554.243011592305265, 7261175.309004518203437 ], [ 530547.91319030651357, 7261180.534239877015352 ], [ 530539.453693735296838, 7261186.776912964880466 ], [ 530529.900785414385609, 7261193.223087035119534 ], [ 530519.987933612894267, 7261199.465760122984648 ], [ 530509.999107789248228, 7261204.690995481796563 ], [ 530500.0, 7261208.00033850595355 ], [ 530490.0, 7261209.464867912232876 ], [ 530480.0, 7261209.901677625253797 ], [ 530470.0, 7261209.987933613359928 ], [ 530460.0, 7261209.999107790179551 ], [ 530450.0, 7261210.000000000931323 ], [ 530440.000892210751772, 7261210.000000000931323 ], [ 530430.012066387222148, 7261210.000000000931323 ], [ 530420.099214585614391, 7261210.000000000931323 ], [ 530410.546306264819577, 7261210.000000000931323 ], [ 530402.08680969348643, 7261210.000000000931323 ], [ 530395.756988407694735, 7261210.000000000931323 ] ] } },
{ "type": "Feature", "properties": { "id": 12, "reference_id": 9, "dune_id": 9, "dune_name": "Inverted Y Dune", "acquisition_date": "2021-04-14", "length_m": 763.6683093173034 }, "geometry": { "type": "LineString", "coordinates": [ [ 530097.91319030651357, 7261598.834750852547586 ], [ 530094.243011592421681, 7261603.473915160633624 ], [ 530087.913190306629986, 7261609.764880374073982 ], [ 530079.453693735180423, 7261616.565433513373137 ], [ 530069.900785414502025, 7261623.277835311368108 ], [ 530059.987933612894267, 7261629.995305122807622 ], [ 530049.999107789364643, 7261636.689318661578 ], [ 530040.0, 7261643.299061058089137 ], [ 530030.0, 7261649.924025977961719 ], [ 530020.0, 7261656.329821285791695 ], [ 530010.0, 7261662.205649307928979 ], [ 530000.0, 7261667.794350693002343 ], [ 529990.0, 7261673.670178714208305 ], [ 529980.0, 7261680.075974022038281 ], [ 529970.0, 7261686.700938943773508 ], [ 529960.0, 7261693.311127444729209 ], [ 529950.0, 7261700.011174177750945 ], [ 529940.0, 7261706.777805175632238 ], [ 529930.0, 7261713.757326913066208 ], [ 529920.0, 7261721.551677605137229 ], [ 529910.0, 7261730.447983890771866 ], [ 529900.0, 7261740.087148198857903 ], [ 529890.0, 7261750.011174176819623 ], [ 529880.0, 7261760.000892210751772 ], [ 529870.000892210751772, 7261770.0 ], [ 529860.011174176470377, 7261780.0 ], [ 529850.087148198392242, 7261790.0 ], [ 529840.447983889840543, 7261800.0 ], [ 529831.551677605137229, 7261810.0 ], [ 529823.758219123352319, 7261820.0 ], [ 529816.78897935221903, 7261830.0 ], [ 529810.098322374979034, 7261840.000000000931323 ], [ 529803.758219123352319, 7261850.0 ], [ 529798.242334582377225, 7261860.0 ], [ 529793.757326912600547, 7261870.0 ], [ 529790.087148198392242, 7261880.0 ], [ 529786.701831153710373, 7261890.0 ], [ 529783.310235233511776, 7261900.0 ], [ 529780.0, 7261910.0 ], [ 529776.689764766488224, 7261920.0 ], [ 529773.299061056924984, 7261930.0 ], [ 529769.924025978078134, 7261940.0 ], [ 529766.329821285791695, 7261950.0 ], [ 529762.204757096711546, 7261960.0 ], [ 529757.783176516182721, 7261970.0 ], [ 529753.583922726451419, 7261980.0 ], [ 529749.639164308668114, 7261990.0 ], [ 529745.236409536330029, 7262000.0 ], [ 529740.000892210751772, 7262010.0 ], [ 529734.773872429504991, 7262020.0 ], [ 529730.436809713370167, 7262030.0 ], [ 529726.776020754361525, 7262040.0 ], [ 529723.310235233511776, 7262050.0 ], [ 529719.924025978078134, 7262060.0 ], [ 529716.31953932007309, 7262070.0 ], [ 529712.128783074789681, 7262080.0 ], [ 529707.423233035369776, 7262090.0 ], [ 529702.489618766237982, 7262100.0 ], [ 529697.499207057291642, 7262110.0 ], [ 529692.500792942708358, 7262120.0 ], [ 529687.510381233762018, 7262130.0 ], [ 529682.576766964630224, 7262140.0 ], [ 529677.871216925210319, 7262149.999107789248228 ], [ 529673.681352890678681, 7262159.987933613359928 ], [ 529670.088040409144014, 7262169.900785414502025 ], [ 529666.788087141467258, 7262179.453693735413253 ], [ 529663.758219123352319, 7262187.913190307095647 ], [ 529661.551677605137229, 7262194.243011591956019 ] ] } },
{ "type": "Feature", "properties": { "id": 13, "reference_id": 7, "dune_id": 7, "dune_name": "Inverted Y Dune", "acquisition_date": "2021-04-14", "length_m": 544.92525589046465 }, "geometry": { "type": "LineString", "coordinates": [ [ 530135.756988407694735, 7261648.546644769608974 ], [ 530142.08680969348643, 7261646.776912964880466 ], [ 530150.546306264819577, 7261645.210682142525911 ], [ 530160.099214585614391, 7261645.210682142525911 ], [ 530170.012066387222148, 7261646.776912964880466 ], [ 530180.000892210751772, 7261648.546644769608974 ], [ 530190.0, 7261649.564082497730851 ], [ 530200.0, 7261649.913744012825191 ], [ 530210.0, 7261649.987933613359928 ], [ 530220.0, 7261649.987933613359928 ], [ 530230.0, 7261649.912851802073419 ], [ 530240.0, 7261649.552908321842551 ], [ 530250.0, 7261648.459496572613716 ], [ 530260.0, 7261646.328929075971246 ], [ 530270.0, 7261643.659004538320005 ], [ 530280.0, 7261641.452463019639254 ], [ 530290.0, 7261639.9888258241117 ], [ 530300.0, 7261638.459496570751071 ], [ 530310.0, 7261635.893011572770774 ], [ 530320.0, 7261632.119393319822848 ], [ 530330.0, 7261627.783176516182721 ], [ 530340.0, 7261623.669286503456533 ], [ 530350.0, 7261620.075974022969604 ], [ 530360.0, 7261616.700046733021736 ], [ 530370.0, 7261613.299061058089137 ], [ 530380.0, 7261609.912851801142097 ], [ 530390.0, 7261606.242673087865114 ], [ 530400.0, 7261601.757665418088436 ], [ 530410.0, 7261596.241780877113342 ], [ 530420.0, 7261589.901677625253797 ], [ 530430.000000000116415, 7261583.211020648479462 ], [ 530440.0, 7261576.241780877113342 ], [ 530450.0, 7261568.448322394862771 ], [ 530460.0, 7261559.552016111090779 ], [ 530469.999107789364643, 7261549.912851801142097 ], [ 530479.988825823529623, 7261539.9888258241117 ], [ 530489.911959590855986, 7261529.999107789248228 ], [ 530499.541734144324437, 7261520.0 ], [ 530508.37234837282449, 7261510.0 ], [ 530515.881837395951152, 7261500.0 ], [ 530522.118501109071076, 7261490.0 ], [ 530527.783176516182721, 7261480.0 ], [ 530533.670178714208305, 7261470.000000000931323 ], [ 530540.087148198392242, 7261460.0 ], [ 530546.787194930831902, 7261450.000892210751772 ], [ 530553.746152736130171, 7261440.012066387571394 ], [ 530561.452463019639254, 7261430.099214585497975 ], [ 530569.901677625137381, 7261420.546306264586747 ], [ 530578.000338505022228, 7261412.086809693835676 ], [ 530584.254185768775642, 7261405.756988408043981 ] ] } },
{ "type": "Feature", "properties": { "id": 14, "reference_id": 2, "dune_id": 2, "dune_name": "Big Mommy Dune", "acquisition_date": "2021-04-14", "length_m": 715.49277760001632 }, "geometry": { "type": "LineString", "coordinates": [ [ 529151.078100949409418, 7260978.372348373755813 ], [ 529146.078100949409418, 7260975.881837395951152 ], [ 529138.683442020905204, 7260972.118501109071076 ], [ 529129.677239574841224, 7260967.782284305430949 ], [ 529119.944359513698146, 7260963.659004537388682 ], [ 529109.993520701071247, 7260959.999107790179551 ], [ 529099.999553894624114, 7260956.329821286723018 ], [ 529090.0, 7260952.13056749664247 ], [ 529080.0, 7260947.434407211840153 ], [ 529070.0, 7260942.576766964048147 ], [ 529060.0, 7260937.946298737078905 ], [ 529050.0, 7260934.041296371258795 ], [ 529040.0, 7260931.181452158838511 ], [ 529030.0, 7260928.916870215907693 ], [ 529020.0, 7260926.406687518581748 ], [ 529010.0, 7260923.594204692170024 ], [ 529000.0, 7260921.093411749228835 ], [ 528990.0, 7260918.895414074882865 ], [ 528980.0, 7260916.329821285791695 ], [ 528970.0, 7260913.234261211939156 ], [ 528960.0, 7260910.000892210751772 ], [ 528950.0, 7260906.776020755060017 ], [ 528940.0, 7260903.746152737177908 ], [ 528930.0, 7260901.464529407210648 ], [ 528920.0, 7260900.0 ], [ 528910.0, 7260898.535470593720675 ], [ 528900.0, 7260896.253847263753414 ], [ 528890.0, 7260893.223087035119534 ], [ 528880.0, 7260889.9888258241117 ], [ 528870.0, 7260886.689764766022563 ], [ 528860.0, 7260883.309343023225665 ], [ 528850.0, 7260880.0 ], [ 528840.0, 7260876.690656977705657 ], [ 528830.0, 7260873.309343023225665 ], [ 528820.0, 7260870.0 ], [ 528810.0, 7260866.690656977705657 ], [ 528800.0, 7260863.309343023225665 ], [ 528790.0, 7260860.0 ], [ 528780.0, 7260856.689764766953886 ], [ 528770.0, 7260853.299061057157815 ], [ 528760.0, 7260849.92313376814127 ], [ 528750.0, 7260846.319539319723845 ], [ 528740.0, 7260842.128783075138927 ], [ 528730.0, 7260837.423233035951853 ], [ 528720.0, 7260832.489618767052889 ], [ 528710.0, 7260827.499207057058811 ], [ 528700.0, 7260822.499900732189417 ], [ 528690.0, 7260817.500099267810583 ], [ 528680.0, 7260812.499900732189417 ], [ 528670.0, 7260807.500099267810583 ], [ 528660.0, 7260802.499900732189417 ], [ 528650.0, 7260797.500099267810583 ], [ 528640.0, 7260792.499900732189417 ], [ 528630.0, 7260787.500099267810583 ], [ 528620.0, 7260782.499900732189417 ], [ 528610.0, 7260777.499207058921456 ], [ 528600.0, 7260772.489618767052889 ], [ 528590.0, 7260767.423233035951853 ], [ 528580.0, 7260762.128783075138927 ], [ 528570.0, 7260756.318647108972073 ], [ 528560.0, 7260749.912851801142097 ], [ 528550.0, 7260743.223087035119534 ], [ 528540.000892210751772, 7260736.329821286723018 ], [ 528530.012066387105733, 7260728.907480461522937 ], [ 528520.099214585614391, 7260721.191734124906361 ], [ 528510.546306264819577, 7260714.129336779937148 ], [ 528502.08680969348643, 7260708.405456803739071 ], [ 528495.756988407694735, 7260704.21559276804328 ] ] } },
{ "type": "Feature", "properties": { "id": 15, "reference_id": 6, "dune_id": 6, "dune_name": "The Star Dune", "acquisition_date": "2021-04-14", "length_m": 759.15946324468837 }, "geometry": { "type": "LineString", "coordinates": [ [ 533560.535132088232785, 7262844.243011592887342 ], [ 533561.998769284342416, 7262837.913190307095647 ], [ 533565.297830341383815, 7262829.453693736344576 ], [ 533570.447983889840543, 7262819.900785414502025 ], [ 533576.340995462378487, 7262809.987933613359928 ], [ 533581.769731804728508, 7262799.999107789248228 ], [ 533586.242673087399453, 7262790.0 ], [ 533589.901677625137381, 7262780.0 ], [ 533593.211020647897385, 7262770.0 ], [ 533596.241780876647681, 7262760.0 ], [ 533598.448322394862771, 7262750.0 ], [ 533599.552908320794813, 7262740.0 ], [ 533599.924025978078134, 7262730.0 ], [ 533600.075974022038281, 7262720.0 ], [ 533600.44619946856983, 7262710.0 ], [ 533601.540503428783268, 7262700.0 ], [ 533603.670178714208305, 7262690.0 ], [ 533606.329821285791695, 7262680.0 ], [ 533608.459496571333148, 7262670.0 ], [ 533609.552908320911229, 7262660.0 ], [ 533609.913744012243114, 7262650.0 ], [ 533610.0, 7262640.0 ], [ 533610.086255987756886, 7262630.0 ], [ 533610.447091679205187, 7262620.0 ], [ 533611.541395639418624, 7262610.0 ], [ 533613.681352890795097, 7262600.000000000931323 ], [ 533616.416969484183937, 7262590.0 ], [ 533618.906588250421919, 7262580.0 ], [ 533621.094303960213438, 7262570.0 ], [ 533623.594204692170024, 7262560.0 ], [ 533626.405795307713561, 7262550.0 ], [ 533628.905696039786562, 7262540.0 ], [ 533631.094303960213438, 7262530.0 ], [ 533633.594204692286439, 7262520.0 ], [ 533636.405795307829976, 7262510.0 ], [ 533638.906588250538334, 7262500.0 ], [ 533641.104585926048458, 7262490.0 ], [ 533643.670178714208305, 7262480.0 ], [ 533646.765738788526505, 7262470.0 ], [ 533650.0, 7262460.0 ], [ 533653.234261211473495, 7262450.0 ], [ 533656.329821285791695, 7262440.0 ], [ 533658.895414073951542, 7262430.0 ], [ 533661.093411749578081, 7262420.0 ], [ 533663.594204692286439, 7262410.0 ], [ 533666.405795307829976, 7262400.0 ], [ 533668.905696039786562, 7262390.0 ], [ 533671.093411749578081, 7262380.0 ], [ 533673.583030515816063, 7262370.0 ], [ 533676.318647109437734, 7262360.0 ], [ 533678.458604360697791, 7262350.0 ], [ 533679.552016110159457, 7262340.000000000931323 ], [ 533679.901677625137381, 7262330.0 ], [ 533679.901677625137381, 7262320.0 ], [ 533679.552016110159457, 7262310.0 ], [ 533678.459496571333148, 7262300.0 ], [ 533676.328929075156339, 7262290.0 ], [ 533673.659004537737928, 7262280.0 ], [ 533671.453355230391026, 7262270.0 ], [ 533670.0, 7262260.0 ], [ 533668.546644769841805, 7262250.0 ], [ 533666.340995462378487, 7262240.0 ], [ 533663.671070924960077, 7262230.0 ], [ 533661.540503428783268, 7262220.0 ], [ 533660.447091679088771, 7262210.0 ], [ 533660.087148198392242, 7262200.0 ], [ 533660.011174176470377, 7262190.0 ], [ 533660.000892210751772, 7262180.0 ], [ 533659.999107789248228, 7262170.0 ], [ 533659.988825823529623, 7262160.0 ], [ 533659.912851801607758, 7262150.000892210751772 ], [ 533659.552908320911229, 7262140.012066386640072 ], [ 533658.459496571216732, 7262130.099214586429298 ], [ 533656.329821285791695, 7262120.546306264586747 ], [ 533653.670178714208305, 7262112.086809692904353 ], [ 533651.540503428783268, 7262105.756988408043981 ] ] } }
]
}
