{
"type": "FeatureCollection",
"name": "crests_2022_11_2022-11-22",
"crs": { "type": "name", "properties": { "name": "urn:ogc:def:crs:EPSG::32733" } },
"features": [
{ "type": "Feature", "properties": { "id": 0, "reference_id": 3, "dune_id": 3, "dune_name": "Big Mommy Dune", "acquisition_date": "2022-11-22", "length_m": 878.62092143554173 }, "geometry": { "type": "LineString", "coordinates": [ [ 529180.011174176470377, 7260984.243011591956019 ], [ 529180.088040409144014, 7260977.913190307095647 ], [ 529180.45915806631092, 7260969.453693735413253 ], [ 529181.638825803645886, 7260959.900785414502025 ], [ 529184.205310802557506, 7260949.987933613359928 ], [ 529188.328590570250526, 7260939.999107789248228 ], [ 529193.758219123352319, 7260930.0 ], [ 529200.012066387105733, 7260920.0 ], [ 529206.340995462262072, 7260910.0 ], [ 529212.206541518098675, 7260900.0 ], [ 529217.794350692536682, 7260890.0 ], [ 529223.670178714208305, 7260880.0 ], [ 529230.075974021921866, 7260870.0 ], [ 529236.700938942958601, 7260860.0 ], [ 529243.310235233511776, 7260850.0 ], [ 529250.0, 7260840.0 ], [ 529256.690656977356412, 7260830.0 ], [ 529263.309343022760004, 7260820.0 ], [ 529270.0, 7260810.0 ], [ 529276.690656977239996, 7260800.0 ], [ 529283.310235233511776, 7260790.0 ], [ 529290.011174176470377, 7260780.000000000931323 ], [ 529296.777805175632238, 7260770.0 ], [ 529303.757326912600547, 7260760.0 ], [ 529311.551677605253644, 7260750.000892210751772 ], [ 529320.447983889956959, 7260740.011174176819623 ], [ 529330.087148198392242, 7260730.087148198857903 ], [ 529340.011174176470377, 7260720.447983889840543 ], [ 529350.000892210751772, 7260711.552569815889001 ], [ 529360.0, 7260703.769393300637603 ], [ 529370.0, 7260696.87523533962667 ], [ 529380.0, 7260690.535132088698447 ], [ 529390.0, 7260685.222748530097306 ], [ 529400.0, 7260681.551677605137229 ], [ 529410.0, 7260678.983454482629895 ], [ 529420.0, 7260676.340995462611318 ], [ 529430.0, 7260673.234261211007833 ], [ 529440.000000000116415, 7260669.989718034863472 ], [ 529450.0, 7260666.689764766953886 ], [ 529460.0, 7260663.310235233977437 ], [ 529470.0, 7260660.010281966067851 ], [ 529480.0, 7260656.766630999743938 ], [ 529490.0, 7260653.670178714208305 ], [ 529500.000000000116415, 7260651.103693716228008 ], [ 529510.0, 7260648.896306285634637 ], [ 529520.0, 7260646.329821286723018 ], [ 529530.0, 7260643.234261212870479 ], [ 529540.0, 7260640.000892210751772 ], [ 529550.0, 7260636.776912964880466 ], [ 529560.0, 7260633.757326912134886 ], [ 529570.0, 7260631.55078539531678 ], [ 529580.0, 7260630.436809713020921 ], [ 529590.0, 7260630.0 ], [ 529600.0, 7260629.564082497730851 ], [ 529610.0, 7260628.460388781502843 ], [ 529620.0, 7260626.329821285791695 ], [ 529630.0, 7260623.670178714208305 ], [ 529640.0, 7260621.540503429248929 ], [ 529650.0, 7260620.447091679088771 ], [ 529660.0, 7260620.086255988106132 ], [ 529670.0, 7260620.0 ], [ 529680.0, 7260619.913744012825191 ], [ 529690.0, 7260619.552908320911229 ], [ 529700.0, 7260618.459496571682394 ], [ 529710.0, 7260616.329821286723018 ], [ 529720.0, 7260613.670178715139627 ], [ 529730.0, 7260611.540503429248929 ], [ 529740.0, 7260610.447091680020094 ], [ 529750.0, 7260610.087148198857903 ], [ 529760.0, 7260610.011174176819623 ], [ 529770.0, 7260610.000892210751772 ], [ 529780.0, 7260610.0 ], [ 529790.0, 7260610.0 ], [ 529800.0, 7260610.0 ], [ 529810.0, 7260610.0 ], [ 529820.0, 7260610.0 ], [ 529830.0, 7260610.0 ], [ 529839.999107789248228, 7260610.0 ], [ 529849.987933612777852, 7260610.0 ], [ 529859.900785414385609, 7260610.0 ], [ 529869.453693735296838, 7260610.0 ], [ 529877.91319030651357, 7260610.0 ], [ 529884.243011592421681, 7260610.0 ] ] } },
{ "type": "Feature", "properties": { "id": 1, "reference_id": 3, "dune_id": 3, "dune_name": "Big Mommy Dune", "acquisition_date": "2022-11-22", "length_m": 201.24125586435281 }, "geometry": { "type": "LineString", "coordinates": [ [ 530154.243011592421681, 7260590.000892210751772 ], [ 530147.913190306629986, 7260590.0111741758883 ], [ 530139.453693735296838, 7260590.087148198857903 ], [ 530129.900785414385609, 7260590.447091680020094 ], [ 530119.987933612894267, 7260591.540503429248929 ], [ 530109.999107789364643, 7260593.671070924028754 ], [ 530100.0, 7260596.340995462611318 ], [ 530090.0, 7260598.546644769608974 ], [ 530080.0, 7260600.0 ], [ 530070.0, 7260601.452463020570576 ], [ 530060.0, 7260603.648722572252154 ], [ 530050.0, 7260606.252955053001642 ], [ 530040.0, 7260608.099553090520203 ], [ 530030.0, 7260608.459496571682394 ], [ 530020.0, 7260607.783176517114043 ], [ 530010.0, 7260607.328291041776538 ], [ 530000.000892210751772, 7260607.85825832746923 ], [ 529990.012066387222148, 7260608.819440052844584 ], [ 529980.099214585614391, 7260609.192964840680361 ], [ 529970.546306264703162, 7260608.383522549644113 ], [ 529962.086809693602845, 7260606.31953932158649 ], [ 529955.756988407694735, 7260603.669286504387856 ] ] } },
{ "type": "Feature", "properties": { "id": 2, "reference_id": 7, "dune_id": 7, "dune_name": "Inverted Y Dune", "acquisition_date": "2022-11-22", "length_m": 617.15515332600228 }, "geometry": { "type": "LineString", "coordinates": [ [ 530125.756988407694735, 7261641.540503429248929 ], [ 530132.08680969348643, 7261643.670178715139627 ], [ 530140.546306264819577, 7261646.329821286723018 ], [ 530150.099214585614391, 7261648.459496572613716 ], [ 530160.012066387222148, 7261649.552908321842551 ], [ 530170.000892210751772, 7261649.912851802073419 ], [ 530180.0, 7261649.9888258241117 ], [ 530190.0, 7261649.999107790179551 ], [ 530200.0, 7261650.0 ], [ 530210.0, 7261649.999107790179551 ], [ 530220.0, 7261649.9888258241117 ], [ 530230.0, 7261649.912851802073419 ], [ 530240.0, 7261649.552016111090779 ], [ 530250.0, 7261648.448322394862771 ], [ 530260.0, 7261646.242673087865114 ], [ 530270.0, 7261643.222194824367762 ], [ 530280.0, 7261639.9888258241117 ], [ 530290.0, 7261636.689764766953886 ], [ 530300.0, 7261633.309343023225665 ], [ 530310.0, 7261630.0 ], [ 530320.0, 7261626.690656976774335 ], [ 530330.0, 7261623.309343023225665 ], [ 530340.0, 7261620.0 ], [ 530350.0, 7261616.689764766953886 ], [ 530360.0, 7261613.299061058089137 ], [ 530370.0, 7261609.92313376814127 ], [ 530380.0, 7261606.318647109903395 ], [ 530390.0, 7261602.118501110002398 ], [ 530400.0, 7261597.346366802230477 ], [ 530410.0, 7261592.118501108139753 ], [ 530420.0, 7261586.317754898220301 ], [ 530430.000000000116415, 7261579.911959591321647 ], [ 530439.999107789248228, 7261573.211912859231234 ], [ 530449.988825823529623, 7261566.241780877113342 ], [ 530459.912851801607758, 7261558.448322394862771 ], [ 530469.552908320794813, 7261549.552016110159457 ], [ 530478.458604360581376, 7261539.912851801142097 ], [ 530486.318647109321319, 7261529.9888258241117 ], [ 530493.583030515816063, 7261519.999107789248228 ], [ 530501.092519538942724, 7261510.0 ], [ 530508.895414073951542, 7261500.0 ], [ 530516.329821285791695, 7261490.0 ], [ 530523.234261211473495, 7261480.0 ], [ 530530.0, 7261470.000000000931323 ], [ 530536.765738788526505, 7261460.0 ], [ 530543.670178714208305, 7261450.0 ], [ 530551.104585926048458, 7261440.0 ], [ 530558.907480461057276, 7261430.0 ], [ 530566.416969484183937, 7261420.0 ], [ 530573.681352890678681, 7261410.0 ], [ 530581.540503428783268, 7261400.000892210751772 ], [ 530590.435025291983038, 7261390.012066387571394 ], [ 530599.987933612894267, 7261380.099214585497975 ], [ 530609.464867911767215, 7261370.546306265518069 ], [ 530617.914082517148927, 7261362.086809693835676 ], [ 530624.243011592305265, 7261355.756988408043981 ] ] } },
{ "type": "Feature", "properties": { "id": 3, "reference_id": 2, "dune_id": 2, "dune_name": "Big Mommy Dune", "acquisition_date": "2022-11-22", "length_m": 247.84241074802586 }, "geometry": { "type": "LineString", "coordinates": [ [ 528754.243011592305265, 7260848.448322394862771 ], [ 528747.91319030651357, 7260846.241780877113342 ], [ 528739.453693735180423, 7260843.211912859231234 ], [ 528729.900785414502025, 7260839.912851801142097 ], [ 528719.987933612894267, 7260836.328929075971246 ], [ 528709.999107789248228, 7260832.205649306997657 ], [ 528700.0, 7260827.793458482250571 ], [ 528690.0, 7260823.659896749071777 ], [ 528680.0, 7260819.999107789248228 ], [ 528670.0, 7260816.328929075971246 ], [ 528660.0, 7260812.11939332075417 ], [ 528650.0, 7260807.346366802230477 ], [ 528640.0, 7260802.118501110002398 ], [ 528630.0, 7260796.318647108972073 ], [ 528620.0, 7260789.923133767209947 ], [ 528610.0, 7260783.299061057157815 ], [ 528600.0, 7260776.689764767885208 ], [ 528590.0, 7260770.0 ], [ 528580.000892210751772, 7260763.310235233977437 ], [ 528570.012066387222148, 7260756.701831153593957 ], [ 528560.099214585614391, 7260750.088040409609675 ], [ 528550.546306264703162, 7260743.768501089885831 ], [ 528542.08680969348643, 7260738.329482780769467 ], [ 528535.756988407694735, 7260734.205310802906752 ] ] } },
{ "type": "Feature", "properties": { "id": 4, "reference_id": 2, "dune_id": 2, "dune_name": "Big Mommy Dune", "acquisition_date": "2022-11-22", "length_m": 206.7282126246017 }, "geometry": { "type": "LineString", "coordinates": [ [ 529004.243011592421681, 7260926.318647108972073 ], [ 528997.913190306629986, 7260923.583030516281724 ], [ 528989.453693735296838, 7260921.092519539408386 ], [ 528979.900785414502025, 7260918.895414074882865 ], [ 528969.987933612894267, 7260916.329821285791695 ], [ 528959.999107789364643, 7260913.234261211939156 ], [ 528950.0, 7260910.000892210751772 ], [ 528940.0, 7260906.776020755060017 ], [ 528930.0, 7260903.746152737177908 ], [ 528920.0, 7260901.464529407210648 ], [ 528910.0, 7260900.000892210751772 ], [ 528900.0, 7260898.545752558857203 ], [ 528890.0, 7260896.329821285791695 ], [ 528880.0, 7260893.583030516281724 ], [ 528870.0, 7260891.082237573340535 ], [ 528860.0, 7260888.819440051913261 ], [ 528850.000892210751772, 7260885.969877805560827 ], [ 528840.012066387105733, 7260882.140849461778998 ], [ 528830.099214585614391, 7260877.871216925792396 ], [ 528820.546306264819577, 7260874.117270393297076 ], [ 528812.08680969348643, 7260871.627651628106833 ], [ 528805.756988407694735, 7260870.458265855908394 ] ] } },
{ "type": "Feature", "properties": { "id": 5, "reference_id": 2, "dune_id": 2, "dune_name": "Big Mommy Dune", "acquisition_date": "2022-11-22", "length_m": 99.172731025455178 }, "geometry": { "type": "LineString", "coordinates": [ [ 529035.75698840781115, 7260924.20441859215498 ], [ 529042.08680969348643, 7260928.318308603949845 ], [ 529050.546306264819577, 7260933.681352891027927 ], [ 529060.099214585614391, 7260939.640948729589581 ], [ 529070.012066387222148, 7260945.160435514524579 ], [ 529080.0, 7260949.62888234294951 ], [ 529089.987933612894267, 7260953.582138305529952 ], [ 529099.900785414502025, 7260957.772002340294421 ], [ 529109.453693735296838, 7260962.117608899250627 ], [ 529117.91319030651357, 7260965.881837395951152 ], [ 529124.243011592421681, 7260968.37234837282449 ] ] } },
{ "type": "Feature", "properties": { "id": 6, "reference_id": 4, "dune_id": 4, "dune_name": "The Star Dune", "acquisition_date": "2022-11-22", "length_m": 81.131770640559537 }, "geometry": { "type": "LineString", "coordinates": [ [ 533005.756988407694735, 7261870.447983890771866 ], [ 533012.08680969348643, 7261871.551677605137229 ], [ 533020.546306264819577, 7261873.757326913066208 ], [ 533030.099214585614391, 7261876.776912964880466 ], [ 533040.011174176470377, 7261880.0 ], [ 533049.988825823646039, 7261883.223087035119534 ], [ 533059.900785414502025, 7261886.242673087865114 ], [ 533069.453693735296838, 7261888.448322394862771 ], [ 533077.91319030651357, 7261889.552016110159457 ], [ 533084.243011592421681, 7261889.912851801142097 ] ] } },
{ "type": "Feature", "properties": { "id": 7, "reference_id": 4, "dune_id": 4, "dune_name": "The Star Dune", "acquisition_date": "2022-11-22", "length_m": 61.271635569105669 }, "geometry": { "type": "LineString", "coordinates": [ [ 533324.243011592305265, 7261958.448322394862771 ], [ 533317.91319030651357, 7261956.242673087865114 ], [ 533309.454585945932195, 7261953.223087035119534 ], [ 533299.912851801607758, 7261950.0 ], [ 533290.087148198392242, 7261946.776912964880466 ], [ 533280.545414054067805, 7261943.757326912134886 ], [ 533272.08680969348643, 7261941.551677605137229 ], [ 533265.756988407694735, 7261940.447983889840543 ] ] } },
{ "type": "Feature", "properties": { "id": 8, "reference_id": 4, "dune_id": 4, "dune_name": "The Star Dune", "acquisition_date": "2022-11-22", "length_m": 105.48591616026674 }, "geometry": { "type": "LineString", "coordinates": [ [ 533435.756988407694735, 7261991.541395640000701 ], [ 533442.086809693370014, 7261993.681352891027927 ], [ 533450.546306264703162, 7261996.417861696332693 ], [ 533460.099214585614391, 7261998.917762427590787 ], [ 533470.012066387105733, 7262001.181452158838511 ], [ 533480.000892210751772, 7262004.041296372190118 ], [ 533489.999107789364643, 7262007.946298737078905 ], [ 533499.987933612777852, 7262012.575874753296375 ], [ 533509.900785414385609, 7262017.423233035951853 ], [ 533519.453693735296838, 7262022.042527087032795 ], [ 533527.913190306629986, 7262025.871555430814624 ], [ 533534.243011592421681, 7262028.371456162072718 ] ] } },
{ "type": "Feature", "properties": { "id": 9, "reference_id": 5, "dune_id": 5, "dune_name": "The Star Dune", "acquisition_date": "2022-11-22", "length_m": 675.17365165840158 }, "geometry": { "type": "LineString", "coordinates": [ [ 534144.243011592305265, 7261670.000892210751772 ], [ 534137.91319030651357, 7261670.011174176819623 ], [ 534129.453693735296838, 7261670.087148198857903 ], [ 534119.900785414502025, 7261670.447091679088771 ], [ 534109.987933612894267, 7261671.540503429248929 ], [ 534099.999107789248228, 7261673.670178714208305 ], [ 534090.0, 7261676.329821285791695 ], [ 534080.0, 7261678.459496570751071 ], [ 534070.0, 7261679.553800531663001 ], [ 534060.0, 7261679.924025977961719 ], [ 534050.0, 7261680.075974022038281 ], [ 534040.0, 7261680.446199468336999 ], [ 534030.0, 7261681.541395640000701 ], [ 534020.0, 7261683.681352891027927 ], [ 534010.0, 7261686.416969483718276 ], [ 534000.0, 7261688.906588250771165 ], [ 533990.0, 7261691.094303959980607 ], [ 533980.0, 7261693.594204692170024 ], [ 533970.0, 7261696.406687518581748 ], [ 533960.0, 7261698.916870215907693 ], [ 533950.0, 7261701.180559948086739 ], [ 533940.0, 7261704.031014405190945 ], [ 533930.0, 7261707.871216925792396 ], [ 533920.0, 7261712.22710544988513 ], [ 533910.0, 7261716.417861695401371 ], [ 533900.0, 7261720.37111765705049 ], [ 533890.0, 7261724.839564485475421 ], [ 533880.0, 7261730.35994348116219 ], [ 533870.0, 7261736.33071349747479 ], [ 533860.0, 7261741.780013770796359 ], [ 533850.0, 7261746.33071349747479 ], [ 533840.0, 7261750.360835691913962 ], [ 533830.0, 7261754.850738661363721 ], [ 533820.0, 7261760.458265855908394 ], [ 533810.0, 7261766.864953374490142 ], [ 533800.000892210751772, 7261773.768501089885831 ], [ 533790.012066387105733, 7261781.552569815889001 ], [ 533780.098322374979034, 7261790.447983890771866 ], [ 533770.535132088349201, 7261800.087148198857903 ], [ 533761.999661495094188, 7261810.011174177750945 ], [ 533755.309004517854191, 7261820.000892210751772 ], [ 533750.535132088349201, 7261830.0 ], [ 533746.788979352102615, 7261840.000000000931323 ], [ 533743.321409409865737, 7261850.0 ], [ 533740.000892210751772, 7261860.0 ], [ 533736.689764766488224, 7261870.0 ], [ 533733.299061057041399, 7261880.0 ], [ 533729.923133767326362, 7261890.0 ], [ 533726.319539319956675, 7261900.0 ], [ 533722.128783074906096, 7261910.0 ], [ 533717.42234082473442, 7261920.0 ], [ 533712.479336800519377, 7261930.0 ], [ 533707.42234082473442, 7261940.0 ], [ 533702.129675285541452, 7261950.0 ], [ 533696.32982128590811, 7261960.0 ], [ 533689.999107789364643, 7261970.0 ], [ 533683.659896748373285, 7261980.0 ], [ 533677.794350692536682, 7261989.999553894624114 ], [ 533672.217715694569051, 7261999.993520701304078 ], [ 533666.428143660770729, 7262009.944359513930976 ], [ 533660.45915806631092, 7262019.677239574491978 ], [ 533655.298722552019171, 7262028.683442020788789 ], [ 533651.998769284458831, 7262036.078100949525833 ], [ 533650.535132088349201, 7262041.078100949525833 ] ] } },
{ "type": "Feature", "properties": { "id": 10, "reference_id": 5, "dune_id": 5, "dune_name": "The Star Dune", "acquisition_date": "2022-11-22", "length_m": 143.42062292799577 }, "geometry": { "type": "LineString", "coordinates": [ [ 534195.756988407694735, 7261645.870663220062852 ], [ 534202.08680969348643, 7261642.031352911144495 ], [ 534210.546306264819577, 7261637.335192626342177 ], [ 534220.099214585614391, 7261632.117608898319304 ], [ 534230.012066387222148, 7261626.318647108972073 ], [ 534240.000892210751772, 7261619.92313376814127 ], [ 534250.0, 7261613.299061058089137 ], [ 534260.0, 7261606.688872556202114 ], [ 534269.999107789248228, 7261599.989718034863472 ], [ 534279.987933612894267, 7261593.234261211007833 ], [ 534289.900785414502025, 7261586.34188767336309 ], [ 534299.453693735296838, 7261578.99462866038084 ], [ 534307.91319030651357, 7261571.638825803995132 ], [ 534314.243011592305265, 7261565.669840209186077 ] ] } },
{ "type": "Feature", "properties": { "id": 11, "reference_id": 5, "dune_id": 5, "dune_name": "The Star Dune", "acquisition_date": "2022-11-22", "length_m": 95.687187792080934 }, "geometry": { "type": "LineString", "coordinates": [ [ 534334.342226177919656, 7261305.756988408043981 ], [ 534328.459496571333148, 7261312.086809693835676 ], [ 534321.540503428666852, 7261320.546306264586747 ], [ 534315.657773822080344, 7261330.099214585497975 ], [ 534312.074743306264281, 7261340.012066386640072 ], [ 534310.545414054067805, 7261350.0 ], [ 534310.099214585614391, 7261359.987933613359928 ], [ 534310.012066387222148, 7261369.900785414502025 ], [ 534310.000892210751772, 7261379.453693735413253 ], [ 534310.0, 7261387.913190307095647 ], [ 534310.0, 7261394.243011592887342 ] ] } },
{ "type": "Feature", "properties": { "id": 12, "reference_id": 1, "dune_id": 1, "dune_name": "Big Mommy Dune", "acquisition_date": "2022-11-22", "length_m": 576.28596259445499 }, "geometry": { "type": "LineString", "coordinates": [ [ 529159.552016110159457, 7261155.756988408043981 ], [ 529158.448322394862771, 7261162.086809693835676 ], [ 529156.241780876764096, 7261170.546306265518069 ], [ 529153.211912858532742, 7261180.099214585497975 ], [ 529149.912851801607758, 7261190.012066386640072 ], [ 529146.328929075156339, 7261200.000892210751772 ], [ 529142.204757096711546, 7261210.000000000931323 ], [ 529137.783176516182721, 7261220.0 ], [ 529133.583922726567835, 7261230.0 ], [ 529129.639164308551699, 7261240.0 ], [ 529125.236409536330029, 7261250.0 ], [ 529120.000892210751772, 7261260.0 ], [ 529114.773872429504991, 7261270.0 ], [ 529110.436809713370167, 7261280.0 ], [ 529106.77602075424511, 7261290.0 ], [ 529103.31023523339536, 7261300.0 ], [ 529099.924918188713491, 7261310.000000000931323 ], [ 529096.329821285791695, 7261320.0 ], [ 529092.205649307463318, 7261330.0 ], [ 529087.793458481901325, 7261340.0 ], [ 529083.659896748373285, 7261350.0 ], [ 529080.0, 7261360.0 ], [ 529076.340103251626715, 7261370.0 ], [ 529072.20654151821509, 7261380.0 ], [ 529067.793458481901325, 7261390.0 ], [ 529063.659896748373285, 7261400.0 ], [ 529060.0, 7261410.0 ], [ 529056.340103251626715, 7261420.0 ], [ 529052.206541518098675, 7261430.0 ], [ 529047.794350692536682, 7261440.0 ], [ 529043.671070924843661, 7261450.0 ], [ 529040.086255987756886, 7261460.0 ], [ 529036.776912964996882, 7261470.000000000931323 ], [ 529033.671070924960077, 7261480.0 ], [ 529031.104585926048458, 7261490.0 ], [ 529028.906588250538334, 7261500.0 ], [ 529026.405795307829976, 7261510.0 ], [ 529023.594204692170024, 7261520.0 ], [ 529021.094303960213438, 7261530.0 ], [ 529018.906588250538334, 7261540.0 ], [ 529016.416969484183937, 7261550.0 ], [ 529013.681352890795097, 7261560.000000000931323 ], [ 529011.541395639418624, 7261570.0 ], [ 529010.447091679205187, 7261580.0 ], [ 529010.087148198508658, 7261590.0 ], [ 529010.011174176470377, 7261600.0 ], [ 529010.001784421387129, 7261610.0 ], [ 529010.011174176470377, 7261620.0 ], [ 529010.087148198508658, 7261630.0 ], [ 529010.447091679205187, 7261640.0 ], [ 529011.540503428783268, 7261650.0 ], [ 529013.670178714208305, 7261659.999107789248228 ], [ 529016.329821285791695, 7261669.987933613359928 ], [ 529018.459496571333148, 7261679.900785414502025 ], [ 529019.552908320911229, 7261689.453693735413253 ], [ 529019.912851801607758, 7261697.913190307095647 ], [ 529019.988825823529623, 7261704.243011592887342 ] ] } },
{ "type": "Feature", "properties": { "id": 13, "reference_id": 1, "dune_id": 1, "dune_name": "Big Mommy Dune", "acquisition_date": "2022-11-22", "length_m": 280.93208317395937 }, "geometry": { "type": "LineString", "coordinates": [ [ 529067.924364482983947, 7261935.756988408043981 ], [ 529064.330159790697508, 7261942.086809693835676 ], [ 529058.360281985718757, 7261950.546306265518069 ], [ 529050.995089374715462, 7261960.099214585497975 ], [ 529043.583030515699647, 7261970.012066387571394 ], [ 529036.416077273548581, 7261980.000892210751772 ], [ 529028.993736448930576, 7261990.0 ], [ 529021.552569815889001, 7262000.0 ], [ 529015.222748530097306, 7262010.0 ], [ 529010.534239877597429, 7262020.0 ], [ 529006.864061163505539, 7262030.0 ], [ 529003.681352890678681, 7262040.0 ], [ 529001.094303960213438, 7262050.0 ], [ 528998.819440052029677, 7262060.0 ], [ 528995.957811417989433, 7262070.0 ], [ 528992.042527087032795, 7262080.0 ], [ 528987.336084836977534, 7262090.0 ], [ 528982.117608898319304, 7262100.0 ], [ 528976.317754898685962, 7262110.0 ], [ 528969.911959590855986, 7262120.0 ], [ 528963.212805069284514, 7262129.999107789248228 ], [ 528956.253847263869829, 7262139.987933613359928 ], [ 528948.547536980360746, 7262149.900785414502025 ], [ 528940.098322374979034, 7262159.453693735413253 ], [ 528931.999661495094188, 7262167.913190307095647 ], [ 528925.745814231224358, 7262174.243011591956019 ] ] } },
{ "type": "Feature", "properties": { "id": 14, "reference_id": 8, "dune_id": 8, "dune_name": "Inverted Y Dune", "acquisition_date": "2022-11-22", "length_m": 68.486023185774684 }, "geometry": { "type": "LineString", "coordinates": [ [ 530100.0, 7261564.243011593818665 ], [ 530100.0, 7261557.913190307095647 ], [ 530100.0, 7261549.453693735413253 ], [ 530100.0, 7261539.901677625253797 ], [ 530100.0, 7261530.0 ], [ 530100.0, 7261520.098322374746203 ], [ 530100.0, 7261510.546306264586747 ], [ 530100.0, 7261502.086809692904353 ], [ 530100.0, 7261495.756988408043981 ] ] } },
{ "type": "Feature", "properties": { "id": 15, "reference_id": 8, "dune_id": 8, "dune_name": "Inverted Y Dune", "acquisition_date": "2022-11-22", "length_m": 59.506191708733894 }, "geometry": { "type": "LineString", "coordinates": [ [ 530110.011174176470377, 7261454.243011592887342 ], [ 530110.087148198392242, 7261447.913190307095647 ], [ 530110.447091679205187, 7261439.454585946165025 ], [ 530111.540503428666852, 7261429.912851801142097 ], [ 530113.670178714208305, 7261420.087148198857903 ], [ 530116.329821285791695, 7261410.545414054766297 ], [ 530118.459496571333148, 7261402.086809693835676 ], [ 530119.552908320794813, 7261395.756988408043981 ] ] } },
{ "type": "Feature", "properties": { "id": 16, "reference_id": 8, "dune_id": 8, "dune_name": "Inverted Y Dune", "acquisition_date": "2022-11-22", "length_m": 284.85609604164449 }, "geometry": { "type": "LineString", "coordinates": [ [ 530130.458265855675563, 7261364.243011591956019 ], [ 530131.628543837927282, 7261357.913190307095647 ], [ 530134.12933678063564, 7261349.453693735413253 ], [ 530137.969539300072938, 7261339.900785414502025 ], [ 530142.675981550244614, 7261329.987933613359928 ], [ 530147.969539300072938, 7261319.999107789248228 ], [ 530154.12933678063564, 7261310.000000000931323 ], [ 530161.628543837927282, 7261300.0 ], [ 530170.458265855675563, 7261290.000892210751772 ], [ 530180.088040409144014, 7261280.0111741758883 ], [ 530190.011174176470377, 7261270.088040409609675 ], [ 530200.000892210751772, 7261260.458265855908394 ], [ 530210.0, 7261251.628543837927282 ], [ 530220.0, 7261244.128444569185376 ], [ 530230.0, 7261237.958365123718977 ], [ 530240.0, 7261232.588833352550864 ], [ 530250.0, 7261227.522447621449828 ], [ 530260.0, 7261222.588833352550864 ], [ 530270.0, 7261217.958365123718977 ], [ 530280.0, 7261214.128444571048021 ], [ 530290.0, 7261211.628543838858604 ], [ 530299.999107789364643, 7261210.458265855908394 ], [ 530309.987933612894267, 7261210.088040409609675 ], [ 530319.900785414502025, 7261210.011174176819623 ], [ 530329.453693735180423, 7261210.000892211683095 ], [ 530337.91319030651357, 7261210.000000000931323 ], [ 530344.243011592305265, 7261210.000000000931323 ] ] } },
{ "type": "Feature", "properties": { "id": 17, "reference_id": 8, "dune_id": 8, "dune_name": "Inverted Y Dune", "acquisition_date": "2022-11-22", "length_m": 129.49967551778201 }, "geometry": { "type": "LineString", "coordinates": [ [ 530375.756988407694735, 7261200.447091678157449 ], [ 530382.08680969348643, 7261201.540503428317606 ], [ 530390.546306264819577, 7261203.670178713276982 ], [ 530400.099214585614391, 7261206.329821285791695 ], [ 530410.012066387105733, 7261208.459496571682394 ], [ 530420.000892210751772, 7261209.552908320911229 ], [ 530430.000000000116415, 7261209.912851802073419 ], [ 530440.0, 7261209.9888258241117 ], [ 530450.0, 7261209.999107790179551 ], [ 530459.999107789364643, 7261210.000000000931323 ], [ 530469.987933612894267, 7261210.000000000931323 ], [ 530479.900785414385609, 7261210.000000000931323 ], [ 530489.453693735296838, 7261210.000000000931323 ], [ 530497.91319030651357, 7261210.000000000931323 ], [ 530504.243011592421681, 7261210.000000000931323 ] ] } },
{ "type": "Feature", "properties": { "id": 18, "reference_id": 9, "dune_id": 9, "dune_name": "Inverted Y Dune", "acquisition_date": "2022-11-22", "length_m": 834.87578817484837 }, "geometry": { "type": "LineString", "coordinates": [ [ 529640.447091679205187, 7262264.243011591956019 ], [ 529641.540503428783268, 7262257.913190307095647 ], [ 529643.671070924960077, 7262249.453693735413253 ], [ 529646.340995462378487, 7262239.900785414502025 ], [ 529648.547536980360746, 7262229.987933613359928 ], [ 529650.011174176470377, 7262219.999107789248228 ], [ 529651.540503428783268, 7262210.0 ], [ 529654.106988427694887, 7262200.0 ], [ 529657.880606680409983, 7262190.0 ], [ 529662.217715694569051, 7262180.0 ], [ 529666.340995462262072, 7262170.0 ], [ 529670.0, 7262160.0 ], [ 529673.6598967484897, 7262150.0 ], [ 529677.793458481901325, 7262140.0 ], [ 529682.20654151821509, 7262130.0 ], [ 529686.340103251626715, 7262120.0 ], [ 529690.000892210751772, 7262110.0 ], [ 529693.670178714208305, 7262100.0 ], [ 529697.869432503823191, 7262090.0 ], [ 529702.566484998911619, 7262080.0 ], [ 529707.433515001088381, 7262070.0 ], [ 529712.130567496176809, 7262060.0 ], [ 529716.329821285791695, 7262050.0 ], [ 529720.0, 7262040.0 ], [ 529723.670178714208305, 7262030.0 ], [ 529727.869432503939606, 7262020.0 ], [ 529732.566484998911619, 7262010.0 ], [ 529737.433515001088381, 7262000.0 ], [ 529742.129675285541452, 7261990.0 ], [ 529746.31953932007309, 7261980.0 ], [ 529749.923133767326362, 7261970.0 ], [ 529753.299953267676756, 7261960.0 ], [ 529756.700046732323244, 7261950.0 ], [ 529760.075974022038281, 7261940.0 ], [ 529763.669286503456533, 7261930.0 ], [ 529767.784068726701662, 7261920.0 ], [ 529772.130567496176809, 7261910.0 ], [ 529775.980159770930186, 7261900.0 ], [ 529778.907480461173691, 7261890.0 ], [ 529781.541395639418624, 7261880.0 ], [ 529785.220964108710177, 7261870.0 ], [ 529790.523957911878824, 7261860.0 ], [ 529796.788087141467258, 7261850.0 ], [ 529803.322301620617509, 7261840.000000000931323 ], [ 529810.012066387222148, 7261830.0 ], [ 529816.777805175748654, 7261820.0 ], [ 529823.757326912600547, 7261810.0 ], [ 529831.551677605137229, 7261800.0 ], [ 529840.447983889840543, 7261790.0 ], [ 529850.087148198392242, 7261780.000892210751772 ], [ 529860.011174176470377, 7261770.0111741758883 ], [ 529870.000892210751772, 7261760.087148198857903 ], [ 529880.0, 7261750.447091680020094 ], [ 529890.0, 7261741.541395640000701 ], [ 529900.0, 7261733.681352891027927 ], [ 529910.0, 7261726.416969484649599 ], [ 529920.0, 7261718.906588250771165 ], [ 529930.0, 7261711.094303959980607 ], [ 529940.0, 7261703.594204692170024 ], [ 529950.0, 7261696.405795307829976 ], [ 529960.0, 7261688.906588250771165 ], [ 529970.0, 7261681.104585926048458 ], [ 529980.0, 7261673.670178714208305 ], [ 529990.0, 7261666.766630999743938 ], [ 530000.0, 7261660.010281966067851 ], [ 530010.0, 7261653.311127444729209 ], [ 530020.0, 7261646.700938943773508 ], [ 530030.0, 7261640.075974022038281 ], [ 530039.999107789364643, 7261633.669286504387856 ], [ 530049.987933612894267, 7261627.784068726934493 ], [ 530059.900785414502025, 7261622.13056749664247 ], [ 530069.453693735180423, 7261615.981051981449127 ], [ 530077.91319030651357, 7261608.918654637411237 ], [ 530084.243011592421681, 7261601.628543838858604 ], [ 530087.913190306629986, 7261595.668947998434305 ] ] } },
{ "type": "Feature", "properties": { "id": 19, "reference_id": 6, "dune_id": 6, "dune_name": "The Star Dune", "acquisition_date": "2022-11-22", "length_m": 145.32111254148185 }, "geometry": { "type": "LineString", "coordinates": [ [ 533650.0, 7262048.921899050474167 ], [ 533650.0, 7262053.921899050474167 ], [ 533650.0, 7262061.316557979211211 ], [ 533650.0, 7262070.322760425508022 ], [ 533650.0, 7262080.055640487000346 ], [ 533650.0, 7262090.006479298695922 ], [ 533650.0, 7262100.000446105375886 ], [ 533650.0, 7262110.0 ], [ 533650.0, 7262120.0 ], [ 533650.0, 7262130.0 ], [ 533650.0, 7262140.0 ], [ 533650.0, 7262149.999107789248228 ], [ 533650.0, 7262159.987933613359928 ], [ 533650.0, 7262169.900785414502025 ], [ 533650.0, 7262179.453693735413253 ], [ 533650.0, 7262187.913190307095647 ], [ 533650.0, 7262194.243011591956019 ] ] } }
]
}
