{
"type": "FeatureCollection",
"name": "crests_2018_09_2018-09-07",
"crs": { "type": "name", "properties": { "name": "urn:ogc:def:crs:EPSG::32733" } },
"features": [
{ "type": "Feature", "properties": { "id": 0, "reference_id": 1, "dune_id": 1, "dune_name": "Big Mommy Dune", "acquisition_date": "2018-09-07", "length_m": 479.78033865045319 }, "geometry": { "type": "LineString", "coordinates": [ [ 529106.317754898685962, 7261855.756988408043981 ], [ 529103.571856339345686, 7261862.086809693835676 ], [ 529101.005371340434067, 7261870.546306265518069 ], [ 529098.447430184110999, 7261880.099214585497975 ], [ 529094.77725147001911, 7261890.012066386640072 ], [ 529089.465760122518986, 7261900.000892210751772 ], [ 529083.135938836610876, 7261910.0 ], [ 529076.317754898685962, 7261920.0 ], [ 529068.895414073951542, 7261930.0 ], [ 529061.103693715296686, 7261940.0 ], [ 529053.671070924960077, 7261950.0 ], [ 529046.776912964880466, 7261960.0 ], [ 529040.087148198392242, 7261970.0 ], [ 529033.682245101314038, 7261980.0 ], [ 529027.881498891045339, 7261990.0 ], [ 529022.653633197303861, 7262000.0 ], [ 529017.881498890928924, 7262010.0 ], [ 529013.681352890795097, 7262020.0 ], [ 529010.076866232673638, 7262030.0 ], [ 529006.700046732323244, 7262040.0 ], [ 529003.299953267676756, 7262050.0 ], [ 528999.923133767442778, 7262060.0 ], [ 528996.31953932007309, 7262070.0 ], [ 528992.128783074789681, 7262080.0 ], [ 528987.42234082473442, 7262090.0 ], [ 528982.478444589767605, 7262100.0 ], [ 528977.411166648264043, 7262110.0 ], [ 528972.041634876397438, 7262120.0 ], [ 528965.871555430116132, 7262130.0 ], [ 528958.371456162189133, 7262140.0 ], [ 528949.541734144324437, 7262150.0 ], [ 528939.911959590972401, 7262159.999107789248228 ], [ 528929.988825823529623, 7262169.9888258241117 ], [ 528919.999107789364643, 7262179.911959591321647 ], [ 528910.0, 7262189.541734144091606 ], [ 528900.0, 7262198.371456162072718 ], [ 528890.0, 7262205.871555430814624 ], [ 528880.000892210751772, 7262212.041634877212346 ], [ 528870.012066387105733, 7262217.411166648380458 ], [ 528860.099214585614391, 7262222.477552378550172 ], [ 528850.546306264819577, 7262227.411166648380458 ], [ 528842.086809693370014, 7262232.041634876281023 ], [ 528835.756988407694735, 7262235.871555430814624 ] ] } },
{ "type": "Feature", "properties": { "id": 1, "reference_id": 1, "dune_id": 1, "dune_name": "Big Mommy Dune", "acquisition_date": "2018-09-07", "length_m": 618.51083688065114 }, "geometry": { "type": "LineString", "coordinates": [ [ 529179.999107789364643, 7261075.756988408043981 ], [ 529179.988825823529623, 7261082.086809693835676 ], [ 529179.912851801607758, 7261090.546306265518069 ], [ 529179.552016110159457, 7261100.099214585497975 ], [ 529178.448322394862771, 7261110.012066386640072 ], [ 529176.242673087399453, 7261120.000892211683095 ], [ 529173.222194824367762, 7261130.0 ], [ 529169.988825823529623, 7261140.0 ], [ 529166.689764766488224, 7261150.0 ], [ 529163.309343022760004, 7261160.0 ], [ 529160.0, 7261170.0 ], [ 529156.68976476660464, 7261180.0 ], [ 529153.299061057041399, 7261190.0 ], [ 529149.923133767442778, 7261200.0 ], [ 529146.319539319956675, 7261210.000000000931323 ], [ 529142.129675285425037, 7261220.0 ], [ 529137.433515001088381, 7261230.0 ], [ 529132.566484998911619, 7261240.0 ], [ 529127.869432503939606, 7261250.0 ], [ 529123.670178714208305, 7261260.0 ], [ 529120.000000000116415, 7261270.0 ], [ 529116.329821285791695, 7261280.0 ], [ 529112.129675285541452, 7261290.0 ], [ 529107.423233035369776, 7261300.0 ], [ 529102.490510976873338, 7261310.000000000931323 ], [ 529097.509489023126662, 7261320.0 ], [ 529092.576766964746639, 7261330.0 ], [ 529087.871216925210319, 7261340.0 ], [ 529083.680460680043325, 7261350.0 ], [ 529080.076866232557222, 7261360.0 ], [ 529076.700938943075016, 7261370.0 ], [ 529073.310235233511776, 7261380.0 ], [ 529069.999107789364643, 7261390.0 ], [ 529066.67948280076962, 7261400.0 ], [ 529063.223087035003118, 7261410.0 ], [ 529059.564082497381605, 7261420.0 ], [ 529055.236409536213614, 7261430.0 ], [ 529050.075974021921866, 7261440.0 ], [ 529045.134708120953292, 7261450.0 ], [ 529041.541395639418624, 7261460.0 ], [ 529038.992844238178805, 7261470.000000000931323 ], [ 529036.416969484183937, 7261480.0 ], [ 529033.595096902921796, 7261490.0 ], [ 529031.094303960213438, 7261500.0 ], [ 529028.906588250538334, 7261510.0 ], [ 529026.416969484183937, 7261520.0 ], [ 529023.681352890678681, 7261530.0 ], [ 529021.541395639418624, 7261540.0 ], [ 529020.447091679205187, 7261550.0 ], [ 529020.087148198508658, 7261560.000000000931323 ], [ 529020.011174176470377, 7261570.0 ], [ 529020.000892210751772, 7261580.0 ], [ 529020.0, 7261590.0 ], [ 529020.0, 7261600.0 ], [ 529020.000892210751772, 7261610.0 ], [ 529020.011174176470377, 7261619.999107789248228 ], [ 529020.087148198508658, 7261629.987933613359928 ], [ 529020.447091679205187, 7261639.900785414502025 ], [ 529021.540503428783268, 7261649.453693735413253 ], [ 529023.670178714208305, 7261657.913190307095647 ], [ 529026.329821285791695, 7261664.243011592887342 ] ] } },
{ "type": "Feature", "properties": { "id": 2, "reference_id": 1, "dune_id": 1, "dune_name": "Big Mommy Dune", "acquisition_date": "2018-09-07", "length_m": 79.782165115917593 }, "geometry": { "type": "LineString", "coordinates": [ [ 529045.298722552019171, 7261735.756988408043981 ], [ 529050.458265855675563, 7261742.086809693835676 ], [ 529056.417861694935709, 7261750.546306265518069 ], [ 529062.140849461895414, 7261760.098322375677526 ], [ 529067.423233035369776, 7261770.0 ], [ 529072.478444589767605, 7261779.901677625253797 ], [ 529077.411166648147628, 7261789.453693736344576 ], [ 529082.041634876281023, 7261797.913190307095647 ], [ 529085.871555430232547, 7261804.243011591956019 ] ] } },
{ "type": "Feature", "properties": { "id": 3, "reference_id": 2, "dune_id": 2, "dune_name": "Big Mommy Dune", "acquisition_date": "2018-09-07", "length_m": 800.15405380329719 }, "geometry": { "type": "LineString", "coordinates": [ [ 529151.078100949409418, 7260975.283411752432585 ], [ 529146.078100949409418, 7260974.406691519543529 ], [ 529138.683442020905204, 7260972.441661143675447 ], [ 529129.677239574841224, 7260969.6884137513116 ], [ 529119.944359513698146, 7260966.275073010474443 ], [ 529109.993520701071247, 7260962.123195987194777 ], [ 529099.999553894624114, 7260957.422786930575967 ], [ 529090.0, 7260952.490510977804661 ], [ 529080.0, 7260947.510381233878434 ], [ 529070.0, 7260942.58704893104732 ], [ 529060.0, 7260937.947190947830677 ], [ 529050.0, 7260934.041296371258795 ], [ 529040.0, 7260931.181452158838511 ], [ 529030.0, 7260928.916870215907693 ], [ 529020.0, 7260926.406687518581748 ], [ 529010.0, 7260923.594204692170024 ], [ 529000.0, 7260921.093411749228835 ], [ 528990.0, 7260918.895414074882865 ], [ 528980.0, 7260916.329821285791695 ], [ 528970.0, 7260913.234261211939156 ], [ 528960.0, 7260910.0 ], [ 528950.0, 7260906.765738788992167 ], [ 528940.0, 7260903.670178715139627 ], [ 528930.0, 7260901.104585926048458 ], [ 528920.0, 7260898.906588250771165 ], [ 528910.0, 7260896.405795307829976 ], [ 528900.0, 7260893.594204692170024 ], [ 528890.0, 7260891.093411749228835 ], [ 528880.0, 7260888.895414073951542 ], [ 528870.0, 7260886.329821286723018 ], [ 528860.0, 7260883.233369002118707 ], [ 528850.0, 7260879.989718034863472 ], [ 528840.0, 7260876.689764766953886 ], [ 528830.0, 7260873.309343023225665 ], [ 528820.0, 7260870.0 ], [ 528810.0, 7260866.690656977705657 ], [ 528800.0, 7260863.309343023225665 ], [ 528790.0, 7260860.0 ], [ 528780.0, 7260856.689764766953886 ], [ 528770.0, 7260853.299061057157815 ], [ 528760.0, 7260849.92313376814127 ], [ 528750.0, 7260846.319539319723845 ], [ 528740.0, 7260842.129675285890698 ], [ 528730.0, 7260837.433515001088381 ], [ 528720.0, 7260832.566484998911619 ], [ 528710.0, 7260827.869432504288852 ], [ 528700.0, 7260823.670178714208305 ], [ 528690.0, 7260820.0 ], [ 528680.0, 7260816.328929075971246 ], [ 528670.0, 7260812.11939332075417 ], [ 528660.0, 7260807.346366802230477 ], [ 528650.0, 7260802.119393319822848 ], [ 528640.0, 7260796.328929075971246 ], [ 528630.0, 7260790.0 ], [ 528620.0, 7260783.670178715139627 ], [ 528610.0, 7260777.869432505220175 ], [ 528600.0, 7260772.566484998911619 ], [ 528590.0, 7260767.433515001088381 ], [ 528580.0, 7260762.129675284959376 ], [ 528570.0, 7260756.319539319723845 ], [ 528560.0, 7260749.923133767209947 ], [ 528550.0, 7260743.299061057157815 ], [ 528540.0, 7260736.688872556202114 ], [ 528530.0, 7260729.989718034863472 ], [ 528520.0, 7260723.233369001187384 ], [ 528510.0, 7260716.329821286723018 ], [ 528500.0, 7260708.896306284703314 ], [ 528490.0, 7260701.103693716228008 ], [ 528480.0, 7260693.670178715139627 ], [ 528470.000892210751772, 7260686.766630999743938 ], [ 528460.012066387105733, 7260680.0111741758883 ], [ 528450.099214585614391, 7260673.322301620617509 ], [ 528440.546306264819577, 7260666.788979352451861 ], [ 528432.08680969348643, 7260660.535132088698447 ], [ 528425.756988407694735, 7260655.309004518203437 ] ] } },
{ "type": "Feature", "properties": { "id": 4, "reference_id": 4, "dune_id": 4, "dune_name": "The Star Dune", "acquisition_date": "2018-09-07", "length_m": 649.19295581403128 }, "geometry": { "type": "LineString", "coordinates": [ [ 533624.243011592305265, 7262059.552016111090779 ], [ 533617.91319030651357, 7262058.448322394862771 ], [ 533609.453693735180423, 7262056.242673087865114 ], [ 533599.900785414385609, 7262053.222194824367762 ], [ 533589.987933612894267, 7262049.9888258241117 ], [ 533579.999107789364643, 7262046.688872556202114 ], [ 533570.0, 7262043.298168846406043 ], [ 533560.0, 7262039.912851801142097 ], [ 533550.0, 7262036.243565298616886 ], [ 533540.0, 7262031.768839593976736 ], [ 533530.0, 7262026.329821286723018 ], [ 533520.0, 7262020.35994348116219 ], [ 533510.0, 7262014.839564485475421 ], [ 533500.0, 7262010.37111765705049 ], [ 533490.0, 7262006.417861695401371 ], [ 533480.0, 7262002.22710544988513 ], [ 533470.0, 7261997.871216925792396 ], [ 533460.0, 7261994.031014405190945 ], [ 533450.0, 7261991.179667737334967 ], [ 533440.0, 7261988.906588250771165 ], [ 533430.0, 7261986.330713496543467 ], [ 533420.0, 7261983.233369000256062 ], [ 533410.0, 7261979.989718034863472 ], [ 533400.000000000116415, 7261976.689764766953886 ], [ 533390.0, 7261973.309343023225665 ], [ 533380.000000000116415, 7261970.0 ], [ 533370.0, 7261966.690656977705657 ], [ 533360.0, 7261963.310235233977437 ], [ 533350.0, 7261960.010281966999173 ], [ 533340.0, 7261956.766630999743938 ], [ 533330.0, 7261953.670178715139627 ], [ 533320.0, 7261951.104585926048458 ], [ 533310.0, 7261948.906588250771165 ], [ 533300.0, 7261946.405795307829976 ], [ 533290.0, 7261943.593312481418252 ], [ 533280.0, 7261941.083129784092307 ], [ 533270.0, 7261938.819440051913261 ], [ 533260.0, 7261935.969877805560827 ], [ 533250.0, 7261932.139957251027226 ], [ 533240.0, 7261927.860042748972774 ], [ 533230.0, 7261924.030122195370495 ], [ 533220.0, 7261921.180559948086739 ], [ 533210.0, 7261918.916870216839015 ], [ 533200.0, 7261916.406687518581748 ], [ 533190.0, 7261913.594204692170024 ], [ 533180.0, 7261911.093411750160158 ], [ 533170.0, 7261908.895414074882865 ], [ 533160.0, 7261906.329821286723018 ], [ 533150.0, 7261903.234261211939156 ], [ 533140.0, 7261900.0 ], [ 533130.0, 7261896.765738788992167 ], [ 533120.0, 7261893.670178715139627 ], [ 533110.0, 7261891.10458592697978 ], [ 533100.0, 7261888.907480461522937 ], [ 533090.0, 7261886.416077273897827 ], [ 533080.0, 7261883.670178714208305 ], [ 533070.0, 7261881.454247441142797 ], [ 533060.0, 7261880.0 ], [ 533050.000892210751772, 7261878.546644769608974 ], [ 533040.012066387105733, 7261876.340995462611318 ], [ 533030.099214585614391, 7261873.671070925891399 ], [ 533020.546306264819577, 7261871.540503429248929 ], [ 533012.08680969348643, 7261870.447091680020094 ], [ 533005.756988407694735, 7261870.087148198857903 ] ] } },
{ "type": "Feature", "properties": { "id": 5, "reference_id": 5, "dune_id": 5, "dune_name": "The Star Dune", "acquisition_date": "2018-09-07", "length_m": 915.87703928472502 }, "geometry": { "type": "LineString", "coordinates": [ [ 534326.317754898685962, 7261525.756988408043981 ], [ 534323.570964128593914, 7261532.086809693835676 ], [ 534320.99419716396369, 7261540.546306265518069 ], [ 534318.360281985718757, 7261550.098322374746203 ], [ 534314.330159790813923, 7261560.000892210751772 ], [ 534307.924364482983947, 7261569.913744012825191 ], [ 534299.454585945932195, 7261579.552016110159457 ], [ 534289.900785414502025, 7261588.448322394862771 ], [ 534279.987933612894267, 7261596.242673087865114 ], [ 534269.999107789248228, 7261603.222194825299084 ], [ 534260.0, 7261609.9888258241117 ], [ 534250.0, 7261616.689764766953886 ], [ 534240.0, 7261623.309343023225665 ], [ 534230.0, 7261630.0 ], [ 534220.0, 7261636.689764766953886 ], [ 534210.0, 7261643.298168847337365 ], [ 534200.0, 7261649.911959591321647 ], [ 534190.0, 7261656.231498911976814 ], [ 534180.0, 7261661.670517219230533 ], [ 534170.0, 7261665.79558140784502 ], [ 534160.0, 7261668.37234837282449 ], [ 534150.0, 7261669.627990132197738 ], [ 534140.0, 7261670.359051270410419 ], [ 534130.0, 7261671.529329252429307 ], [ 534120.0, 7261673.669286503456533 ], [ 534110.0, 7261676.329821285791695 ], [ 534100.0, 7261678.460388781502843 ], [ 534090.0, 7261679.564082497730851 ], [ 534080.0, 7261680.0 ], [ 534070.0, 7261680.435917503200471 ], [ 534060.0, 7261681.539611218497157 ], [ 534050.0, 7261683.670178715139627 ], [ 534040.0, 7261686.33071349747479 ], [ 534030.0, 7261688.470670748502016 ], [ 534020.0, 7261689.64005651883781 ], [ 534010.0, 7261690.35994348116219 ], [ 534000.0, 7261691.530221464112401 ], [ 533990.0, 7261693.680460680276155 ], [ 533980.0, 7261696.416969484649599 ], [ 533970.0, 7261698.907480461522937 ], [ 533960.0, 7261701.10458592697978 ], [ 533950.0, 7261703.671070924960077 ], [ 533940.0, 7261706.776912964880466 ], [ 533930.0, 7261710.086255988106132 ], [ 533920.0, 7261713.671070924960077 ], [ 533910.0, 7261717.794350693002343 ], [ 533900.0, 7261722.206541517749429 ], [ 533890.0, 7261726.340995462611318 ], [ 533880.0, 7261730.011174176819623 ], [ 533870.0, 7261733.747044946998358 ], [ 533860.0, 7261738.240550161339343 ], [ 533850.0, 7261743.747044946998358 ], [ 533840.0, 7261750.011174176819623 ], [ 533830.0, 7261756.34188767336309 ], [ 533820.0, 7261762.217715695500374 ], [ 533810.000892210635357, 7261767.881498890928924 ], [ 533800.012066387105733, 7261774.118162604048848 ], [ 533790.098322374979034, 7261781.627651628106833 ], [ 533780.535132088232785, 7261790.458265855908394 ], [ 533771.998769284342416, 7261800.088040409609675 ], [ 533765.298722552019171, 7261810.011174177750945 ], [ 533760.45915806631092, 7261820.000892210751772 ], [ 533756.429035871406086, 7261830.0 ], [ 533752.227997660404071, 7261840.000000000931323 ], [ 533747.870324714574963, 7261850.0 ], [ 533744.019840229186229, 7261860.0 ], [ 533741.092519538942724, 7261870.0 ], [ 533738.459496571333148, 7261880.0 ], [ 533734.789317857241258, 7261890.0 ], [ 533729.552908320794813, 7261900.0 ], [ 533723.583030515816063, 7261910.0 ], [ 533717.859150537988171, 7261920.0 ], [ 533712.575874753994867, 7261930.0 ], [ 533707.509489023126662, 7261940.0 ], [ 533702.490510976989754, 7261950.0 ], [ 533697.423233035369776, 7261960.0 ], [ 533692.129675285541452, 7261970.0 ], [ 533686.329821285791695, 7261980.0 ], [ 533680.0, 7261989.999553894624114 ], [ 533673.671070924960077, 7261999.993520701304078 ], [ 533667.881498891045339, 7262009.944359513930976 ], [ 533662.664807373774238, 7262019.677239574491978 ], [ 533657.968647089437582, 7262028.683442020788789 ], [ 533654.129336780519225, 7262036.078100949525833 ], [ 533651.628543837927282, 7262041.078100949525833 ] ] } },
{ "type": "Feature", "properties": { "id": 6, "reference_id": 5, "dune_id": 5, "dune_name": "The Star Dune", "acquisition_date": "2018-09-07", "length_m": 194.98811735370475 }, "geometry": { "type": "LineString", "coordinates": [ [ 534334.788425646489486, 7261305.756988408043981 ], [ 534329.988825823529623, 7261312.086809693835676 ], [ 534325.124426155234687, 7261320.546306264586747 ], [ 534321.551677605137229, 7261330.099214585497975 ], [ 534319.080884647322819, 7261340.012066386640072 ], [ 534316.875235339859501, 7261350.000892210751772 ], [ 534315.222748530097306, 7261360.0 ], [ 534315.211574353626929, 7261370.0 ], [ 534316.776912964996882, 7261380.0 ], [ 534318.547536980360746, 7261390.0 ], [ 534319.575256673735566, 7261400.0 ], [ 534320.000892210751772, 7261410.0 ], [ 534320.43591750273481, 7261420.0 ], [ 534321.539611218031496, 7261430.0 ], [ 534323.671070924843661, 7261440.0 ], [ 534326.340995462262072, 7261449.999107789248228 ], [ 534328.54664476972539, 7261459.987933613359928 ], [ 534330.0, 7261469.900785414502025 ], [ 534331.45335523027461, 7261479.453693735413253 ], [ 534333.659004537737928, 7261487.913190307095647 ], [ 534336.328929075039923, 7261494.243011591956019 ] ] } },
{ "type": "Feature", "properties": { "id": 7, "reference_id": 3, "dune_id": 3, "dune_name": "Big Mommy Dune", "acquisition_date": "2018-09-07", "length_m": 1242.7892383007015 }, "geometry": { "type": "LineString", "coordinates": [ [ 530244.243011592421681, 7260570.011174176819623 ], [ 530237.91319030651357, 7260570.087148198857903 ], [ 530229.453693735180423, 7260570.447091680020094 ], [ 530219.900785414385609, 7260571.541395640000701 ], [ 530209.987933612894267, 7260573.681352891027927 ], [ 530199.999107789248228, 7260576.416969484649599 ], [ 530190.0, 7260578.906588250771165 ], [ 530180.0, 7260581.094303959980607 ], [ 530170.000000000116415, 7260583.594204692170024 ], [ 530160.0, 7260586.405795307829976 ], [ 530150.0, 7260588.905696040019393 ], [ 530140.0, 7260591.093411749228835 ], [ 530130.0, 7260593.583030516281724 ], [ 530120.0, 7260596.318647108972073 ], [ 530110.0, 7260598.459496571682394 ], [ 530100.0, 7260599.564082497730851 ], [ 530090.0, 7260600.0 ], [ 530080.0, 7260600.435917503200471 ], [ 530070.0, 7260601.539611218497157 ], [ 530060.0, 7260603.670178715139627 ], [ 530050.0, 7260606.329821286723018 ], [ 530040.0, 7260608.459496571682394 ], [ 530030.0, 7260609.552908320911229 ], [ 530020.0, 7260609.912851802073419 ], [ 530010.0, 7260609.9888258241117 ], [ 530000.0, 7260609.999107789248228 ], [ 529990.0, 7260610.0 ], [ 529980.0, 7260610.0 ], [ 529970.0, 7260610.0 ], [ 529960.0, 7260610.0 ], [ 529950.0, 7260610.0 ], [ 529940.0, 7260610.0 ], [ 529930.0, 7260610.0 ], [ 529920.0, 7260610.0 ], [ 529910.0, 7260610.0 ], [ 529900.0, 7260610.0 ], [ 529890.0, 7260610.0 ], [ 529880.0, 7260609.999107789248228 ], [ 529870.0, 7260609.9888258241117 ], [ 529860.0, 7260609.912851802073419 ], [ 529850.0, 7260609.553800531663001 ], [ 529840.0, 7260608.470670748502016 ], [ 529830.0, 7260606.416969485580921 ], [ 529820.0, 7260604.117270393297076 ], [ 529810.0, 7260603.081006857566535 ], [ 529800.0, 7260604.117270393297076 ], [ 529790.0, 7260606.416969485580921 ], [ 529780.0, 7260608.470670748502016 ], [ 529770.0, 7260609.553800531663001 ], [ 529760.0, 7260609.913744012825191 ], [ 529750.0, 7260610.0 ], [ 529740.0, 7260610.086255988106132 ], [ 529730.0, 7260610.447091680020094 ], [ 529720.0, 7260611.540503429248929 ], [ 529710.0, 7260613.670178715139627 ], [ 529700.0, 7260616.329821286723018 ], [ 529690.0, 7260618.459496571682394 ], [ 529680.0, 7260619.553800531663001 ], [ 529670.0, 7260619.924025977961719 ], [ 529660.0, 7260620.075974022038281 ], [ 529650.0, 7260620.446199468336999 ], [ 529640.0, 7260621.540503429248929 ], [ 529630.0, 7260623.670178714208305 ], [ 529620.0, 7260626.330713496543467 ], [ 529610.0, 7260628.470670747570693 ], [ 529600.0, 7260629.64005651883781 ], [ 529590.0, 7260630.35994348116219 ], [ 529580.0, 7260631.529329252429307 ], [ 529570.0, 7260633.670178715139627 ], [ 529560.0, 7260636.340995462611318 ], [ 529550.0, 7260638.546644769608974 ], [ 529540.0, 7260640.000892210751772 ], [ 529530.0, 7260641.464529407210648 ], [ 529520.0, 7260643.746152736246586 ], [ 529510.0, 7260646.776020754128695 ], [ 529500.000000000116415, 7260650.000892210751772 ], [ 529490.0, 7260653.234261211939156 ], [ 529480.0, 7260656.329821285791695 ], [ 529470.0, 7260658.896306285634637 ], [ 529460.0, 7260661.103693716228008 ], [ 529450.0, 7260663.670178714208305 ], [ 529440.000000000116415, 7260666.766630999743938 ], [ 529430.0, 7260670.0111741758883 ], [ 529420.0, 7260673.321409409865737 ], [ 529410.0, 7260676.777805175632238 ], [ 529400.0, 7260680.447983888909221 ], [ 529390.0, 7260684.861912839114666 ], [ 529380.0, 7260690.459158066660166 ], [ 529370.0, 7260696.864953374490142 ], [ 529360.0, 7260703.768501089885831 ], [ 529350.000892210751772, 7260711.552569815889001 ], [ 529340.011174176470377, 7260720.447983889840543 ], [ 529330.088040409144014, 7260730.087148198857903 ], [ 529320.458265855675563, 7260740.011174176819623 ], [ 529311.62765162717551, 7260750.000892210751772 ], [ 529304.118162604048848, 7260760.0 ], [ 529297.881498890928924, 7260770.0 ], [ 529292.216823483933695, 7260780.000000000931323 ], [ 529286.330713496543467, 7260790.0 ], [ 529279.924025978078134, 7260800.0 ], [ 529273.299953267676756, 7260810.0 ], [ 529266.700046732323244, 7260820.0 ], [ 529260.075974022038281, 7260830.0 ], [ 529253.670178714208305, 7260840.0 ], [ 529247.794350692653097, 7260850.0 ], [ 529242.205649307463318, 7260860.0 ], [ 529236.329821285791695, 7260870.0 ], [ 529229.924025977961719, 7260880.0 ], [ 529223.299953267676756, 7260890.0 ], [ 529216.700046732323244, 7260900.0 ], [ 529210.076866232557222, 7260910.0 ], [ 529203.681352890562266, 7260920.0 ], [ 529197.882391101680696, 7260930.0 ], [ 529192.664807373774238, 7260939.999107789248228 ], [ 529187.968647089437582, 7260949.987933613359928 ], [ 529184.129336780519225, 7260959.900785414502025 ], [ 529181.628543837927282, 7260969.453693735413253 ], [ 529180.458265855675563, 7260977.913190307095647 ], [ 529180.088040409144014, 7260984.243011591956019 ] ] } },
{ "type": "Feature", "properties": { "id": 8, "reference_id": 9, "dune_id": 9, "dune_name": "Inverted Y Dune", "acquisition_date": "2018-09-07", "length_m": 737.64913647910487 }, "geometry": { "type": "LineString", "coordinates": [ [ 529670.447983889840543, 7262174.243011591956019 ], [ 529671.551677605253644, 7262167.913190307095647 ], [ 529673.758219123352319, 7262159.453693735413253 ], [ 529676.788087141467258, 7262149.900785414502025 ], [ 529680.088040409144014, 7262139.987933613359928 ], [ 529683.681352890678681, 7262129.999107789248228 ], [ 529687.871216925210319, 7262120.0 ], [ 529692.576766964630224, 7262110.0 ], [ 529697.509489023126662, 7262100.0 ], [ 529702.490510976873338, 7262090.0 ], [ 529707.423233035369776, 7262080.0 ], [ 529712.129675285425037, 7262070.0 ], [ 529716.329821285791695, 7262060.0 ], [ 529720.0, 7262050.0 ], [ 529723.670178714208305, 7262040.0 ], [ 529727.870324714574963, 7262030.0 ], [ 529732.576766964630224, 7262020.0 ], [ 529737.509489023126662, 7262010.0 ], [ 529742.490510976989754, 7262000.0 ], [ 529747.423233035369776, 7261990.0 ], [ 529752.128783074789681, 7261980.0 ], [ 529756.318647109321319, 7261970.0 ], [ 529759.912851801607758, 7261960.0 ], [ 529763.223087035119534, 7261950.0 ], [ 529766.328929075156339, 7261940.0 ], [ 529768.896306284703314, 7261930.0 ], [ 529771.103693715296686, 7261920.0 ], [ 529773.671070924960077, 7261910.0 ], [ 529776.777805175632238, 7261900.0 ], [ 529780.097430164227262, 7261890.0 ], [ 529783.758219123352319, 7261880.0 ], [ 529788.24233458249364, 7261870.0 ], [ 529793.758219123352319, 7261860.0 ], [ 529800.098322374862619, 7261850.0 ], [ 529806.78897935221903, 7261840.000000000931323 ], [ 529813.758219123352319, 7261830.0 ], [ 529821.551677605137229, 7261820.0 ], [ 529830.447983889840543, 7261810.0 ], [ 529840.087148198392242, 7261800.0 ], [ 529850.011174176470377, 7261790.0 ], [ 529860.000892210751772, 7261780.0 ], [ 529870.0, 7261770.0 ], [ 529880.0, 7261760.000892210751772 ], [ 529890.0, 7261750.011174176819623 ], [ 529900.0, 7261740.087148198857903 ], [ 529910.0, 7261730.447091680020094 ], [ 529920.0, 7261721.541395640000701 ], [ 529930.0, 7261713.681352891027927 ], [ 529940.0, 7261706.416969484649599 ], [ 529950.0, 7261698.907480461522937 ], [ 529960.0, 7261691.10458592697978 ], [ 529970.0, 7261683.671070925891399 ], [ 529980.0, 7261676.776912964880466 ], [ 529990.0, 7261670.086255988106132 ], [ 530000.0, 7261663.671070925891399 ], [ 530010.0, 7261657.794350693002343 ], [ 530020.0, 7261652.205649306997657 ], [ 530030.0, 7261646.328929075971246 ], [ 530039.999553894624114, 7261639.913297906517982 ], [ 530049.993520701071247, 7261633.218392157927155 ], [ 530059.944359513698146, 7261626.297421364113688 ], [ 530069.677239574841224, 7261618.771082820370793 ], [ 530078.683442020905204, 7261610.868574090301991 ], [ 530086.078100949409418, 7261603.834750852547586 ], [ 530091.078100949525833, 7261598.910724874585867 ] ] } },
{ "type": "Feature", "properties": { "id": 9, "reference_id": 8, "dune_id": 8, "dune_name": "Inverted Y Dune", "acquisition_date": "2018-09-07", "length_m": 735.47679812482545 }, "geometry": { "type": "LineString", "coordinates": [ [ 530096.835089357104152, 7261591.078100949525833 ], [ 530098.165802853647619, 7261586.078100949525833 ], [ 530099.240922462078743, 7261578.683442020788789 ], [ 530099.863602358847857, 7261569.6772395754233 ], [ 530100.403517580009066, 7261559.944359513930976 ], [ 530101.534916340489872, 7261549.993520701304078 ], [ 530103.669732608832419, 7261539.999553894624114 ], [ 530106.329821285791695, 7261530.0 ], [ 530108.459496571333148, 7261520.0 ], [ 530109.553800531546585, 7261510.0 ], [ 530109.924025978078134, 7261500.0 ], [ 530110.075974022038281, 7261490.0 ], [ 530110.44619946856983, 7261480.0 ], [ 530111.540503428666852, 7261470.000000000931323 ], [ 530113.671070924960077, 7261460.0 ], [ 530116.340995462262072, 7261450.0 ], [ 530118.54664476972539, 7261440.0 ], [ 530120.0, 7261430.0 ], [ 530121.454247441026382, 7261420.0 ], [ 530123.670178714208305, 7261410.0 ], [ 530126.416077273664996, 7261400.0 ], [ 530128.907480461173691, 7261390.0 ], [ 530131.104585926048458, 7261380.0 ], [ 530133.671070924960077, 7261370.0 ], [ 530136.777805175632238, 7261360.0 ], [ 530140.097430164227262, 7261350.0 ], [ 530143.758219123352319, 7261340.0 ], [ 530148.242334582377225, 7261330.0 ], [ 530153.758219123352319, 7261320.0 ], [ 530160.098322374979034, 7261310.000000000931323 ], [ 530166.788979352102615, 7261300.0 ], [ 530173.758219123352319, 7261290.000892210751772 ], [ 530181.551677605253644, 7261280.0111741758883 ], [ 530190.447983889840543, 7261270.088040409609675 ], [ 530200.087148198392242, 7261260.458265855908394 ], [ 530210.011174176470377, 7261251.628543837927282 ], [ 530220.000892210635357, 7261244.128444569185376 ], [ 530230.0, 7261237.958365123718977 ], [ 530240.0, 7261232.588833352550864 ], [ 530250.0, 7261227.522447621449828 ], [ 530260.0, 7261222.588833352550864 ], [ 530270.0, 7261217.957472912967205 ], [ 530280.0, 7261214.117270393297076 ], [ 530290.0, 7261211.541395640000701 ], [ 530300.0, 7261210.011174176819623 ], [ 530310.0, 7261208.547536980360746 ], [ 530320.0, 7261206.340995462611318 ], [ 530330.0, 7261203.671963134780526 ], [ 530340.0, 7261201.551677605137229 ], [ 530350.0, 7261200.534239877015352 ], [ 530360.0, 7261200.534239877015352 ], [ 530370.0, 7261201.551677605137229 ], [ 530380.0, 7261203.671070924028754 ], [ 530390.0, 7261206.329821285791695 ], [ 530400.0, 7261208.459496571682394 ], [ 530410.0, 7261209.552908320911229 ], [ 530420.0, 7261209.912851802073419 ], [ 530430.000000000116415, 7261209.9888258241117 ], [ 530440.0, 7261209.999107790179551 ], [ 530450.0, 7261210.000000000931323 ], [ 530460.0, 7261209.999107790179551 ], [ 530470.0, 7261209.987933613359928 ], [ 530480.0, 7261209.900785414502025 ], [ 530490.0, 7261209.453693735413253 ], [ 530500.0, 7261207.914082517847419 ], [ 530509.999107789248228, 7261204.255077979527414 ], [ 530519.987933612894267, 7261198.012404892593622 ], [ 530529.900785414385609, 7261190.0 ], [ 530539.453693735296838, 7261181.987595107406378 ], [ 530547.91319030651357, 7261175.744922020472586 ], [ 530554.243011592305265, 7261172.085917483083904 ] ] } },
{ "type": "Feature", "properties": { "id": 10, "reference_id": 7, "dune_id": 7, "dune_name": "Inverted Y Dune", "acquisition_date": "2018-09-07", "length_m": 611.86397050285507 }, "geometry": { "type": "LineString", "coordinates": [ [ 530145.75698840781115, 7261640.447091680020094 ], [ 530152.08680969348643, 7261641.540503429248929 ], [ 530160.546306264819577, 7261643.670178715139627 ], [ 530170.099214585614391, 7261646.329821286723018 ], [ 530180.012066387222148, 7261648.459496572613716 ], [ 530190.000892210751772, 7261649.552908321842551 ], [ 530200.0, 7261649.912851802073419 ], [ 530210.0, 7261649.987933613359928 ], [ 530220.0, 7261649.987933613359928 ], [ 530230.0, 7261649.912851802073419 ], [ 530240.0, 7261649.552908321842551 ], [ 530250.0, 7261648.458604361861944 ], [ 530260.0, 7261646.318647109903395 ], [ 530270.0, 7261643.582138305529952 ], [ 530280.0, 7261641.082237573340535 ], [ 530290.0, 7261638.819440051913261 ], [ 530300.0, 7261635.968985594809055 ], [ 530310.0, 7261632.129675285890698 ], [ 530320.0, 7261627.784068726934493 ], [ 530330.0, 7261623.669286503456533 ], [ 530340.0, 7261620.075974022969604 ], [ 530350.0, 7261616.700046733021736 ], [ 530360.0, 7261613.299953267909586 ], [ 530370.0, 7261609.92313376814127 ], [ 530380.0, 7261606.318647109903395 ], [ 530390.0, 7261602.118501110002398 ], [ 530400.0, 7261597.346366802230477 ], [ 530410.0, 7261592.118501108139753 ], [ 530420.0, 7261586.317754898220301 ], [ 530430.000000000116415, 7261579.911959591321647 ], [ 530440.0, 7261573.211912859231234 ], [ 530450.0, 7261566.241780877113342 ], [ 530459.999107789364643, 7261558.448322394862771 ], [ 530469.988825823529623, 7261549.552016110159457 ], [ 530479.912851801607758, 7261539.912851801142097 ], [ 530489.552016110159457, 7261529.9888258241117 ], [ 530498.448322394862771, 7261519.999107789248228 ], [ 530506.242673087399453, 7261510.0 ], [ 530513.222194824367762, 7261500.0 ], [ 530519.988825823529623, 7261490.0 ], [ 530526.689764766488224, 7261480.0 ], [ 530533.309343022760004, 7261470.000000000931323 ], [ 530540.0, 7261460.0 ], [ 530546.690656977239996, 7261450.0 ], [ 530553.310235233511776, 7261440.0 ], [ 530560.011174176470377, 7261430.0 ], [ 530566.777805175632238, 7261420.0 ], [ 530573.757326912600547, 7261410.0 ], [ 530581.551677605253644, 7261400.0 ], [ 530590.447091679205187, 7261390.000892210751772 ], [ 530600.075081811286509, 7261380.012066387571394 ], [ 530609.911959590855986, 7261370.099214585497975 ], [ 530619.454585945932195, 7261360.546306265518069 ], [ 530627.913190306629986, 7261352.086809692904353 ], [ 530634.243011592421681, 7261345.756988408043981 ] ] } },
{ "type": "Feature", "properties": { "id": 11, "reference_id": 6, "dune_id": 6, "dune_name": "The Star Dune", "acquisition_date": "2018-09-07", "length_m": 750.02356142313738 }, "geometry": { "type": "LineString", "coordinates": [ [ 533650.0, 7262048.921899050474167 ], [ 533650.0, 7262053.921899050474167 ], [ 533650.0, 7262061.316557979211211 ], [ 533650.000892210751772, 7262070.322760425508022 ], [ 533650.011174176470377, 7262080.055640487000346 ], [ 533650.087148198508658, 7262090.006479298695922 ], [ 533650.44619946856983, 7262100.000446105375886 ], [ 533651.529329252312891, 7262110.0 ], [ 533653.583030515816063, 7262120.0 ], [ 533655.882729606702924, 7262130.0 ], [ 533656.918993142666295, 7262140.0 ], [ 533655.88362181733828, 7262150.0 ], [ 533653.594204692286439, 7262160.0 ], [ 533651.616477450705133, 7262170.0 ], [ 533650.893291147658601, 7262180.0 ], [ 533651.62765162717551, 7262190.0 ], [ 533653.682245101314038, 7262200.0 ], [ 533656.341887672897428, 7262210.0 ], [ 533658.546644769841805, 7262220.0 ], [ 533660.0, 7262230.0 ], [ 533661.453355230391026, 7262240.0 ], [ 533663.659004537737928, 7262250.0 ], [ 533666.328929075156339, 7262260.0 ], [ 533668.460388781968504, 7262270.0 ], [ 533669.56408249726519, 7262280.0 ], [ 533669.999107789364643, 7262290.0 ], [ 533670.424743326264434, 7262300.0 ], [ 533671.452463019639254, 7262310.0 ], [ 533673.223087035119534, 7262320.0 ], [ 533674.789317857124843, 7262330.0 ], [ 533674.788425646489486, 7262340.000000000931323 ], [ 533673.211912858532742, 7262350.0 ], [ 533671.366207031882368, 7262360.0 ], [ 533669.988825823646039, 7262370.0 ], [ 533668.544860348338261, 7262380.0 ], [ 533666.329821285791695, 7262390.0 ], [ 533663.583922726451419, 7262400.0 ], [ 533661.092519538942724, 7262410.0 ], [ 533658.895414073951542, 7262420.0 ], [ 533656.329821285791695, 7262430.0 ], [ 533653.234261211473495, 7262440.0 ], [ 533650.0, 7262450.0 ], [ 533646.765738788526505, 7262460.0 ], [ 533643.670178714208305, 7262470.0 ], [ 533641.103693715413101, 7262480.0 ], [ 533638.896306284703314, 7262490.0 ], [ 533636.329821285791695, 7262500.0 ], [ 533633.234261211473495, 7262510.0 ], [ 533630.0, 7262520.0 ], [ 533626.765738788526505, 7262530.0 ], [ 533623.670178714208305, 7262540.0 ], [ 533621.104585925932042, 7262550.0 ], [ 533618.907480461173691, 7262560.0 ], [ 533616.416077273664996, 7262570.0 ], [ 533613.670178714208305, 7262580.0 ], [ 533611.454247441026382, 7262590.0 ], [ 533610.0, 7262600.000000000931323 ], [ 533608.54664476972539, 7262610.0 ], [ 533606.340995462378487, 7262620.0 ], [ 533603.671070924960077, 7262630.0 ], [ 533601.540503428783268, 7262640.0 ], [ 533600.44619946856983, 7262650.0 ], [ 533600.075974022038281, 7262660.0 ], [ 533599.924025978078134, 7262670.0 ], [ 533599.553800531546585, 7262680.0 ], [ 533598.459496571216732, 7262690.0 ], [ 533596.329821285791695, 7262700.0 ], [ 533593.669286503456533, 7262710.0 ], [ 533591.529329252196476, 7262720.0 ], [ 533590.359943480696529, 7262730.0 ], [ 533589.640056519303471, 7262739.999107789248228 ], [ 533588.470670747803524, 7262749.987933613359928 ], [ 533586.330713496543467, 7262759.900785414502025 ], [ 533583.670178714208305, 7262769.453693735413253 ], [ 533581.540503428783268, 7262777.913190307095647 ], [ 533580.447091679205187, 7262784.243011591956019 ] ] } }
]
}
