{
"type": "FeatureCollection",
"name": "crests_2023_12_2023-12-10",
"crs": { "type": "name", "properties": { "name": "urn:ogc:def:crs:EPSG::32733" } },
"features": [
{ "type": "Feature", "properties": { "id": 0, "reference_id": 3, "dune_id": 3, "dune_name": "Big Mommy Dune", "acquisition_date": "2023-12-10", "length_m": 886.52895682024439 }, "geometry": { "type": "LineString", "coordinates": [ [ 529914.243011592305265, 7260600.011174176819623 ], [ 529907.91319030651357, 7260600.087148198857903 ], [ 529899.453693735296838, 7260600.446199469268322 ], [ 529889.900785414385609, 7260601.529329252429307 ], [ 529879.987933612894267, 7260603.583030516281724 ], [ 529869.999107789364643, 7260605.882729606702924 ], [ 529860.0, 7260606.918993143364787 ], [ 529850.0, 7260605.883621817454696 ], [ 529840.0, 7260603.594204692170024 ], [ 529830.0, 7260601.61647745128721 ], [ 529820.0, 7260600.893291147425771 ], [ 529810.0, 7260601.62765162717551 ], [ 529800.0, 7260603.681352891027927 ], [ 529790.0, 7260606.33071349747479 ], [ 529780.0, 7260608.459496571682394 ], [ 529770.0, 7260609.553800531663001 ], [ 529760.0, 7260609.924025978893042 ], [ 529750.0, 7260610.075974022969604 ], [ 529740.0, 7260610.446199469268322 ], [ 529730.0, 7260611.540503429248929 ], [ 529720.0, 7260613.670178715139627 ], [ 529710.0, 7260616.329821286723018 ], [ 529700.0, 7260618.459496571682394 ], [ 529690.0, 7260619.552908320911229 ], [ 529680.0, 7260619.913744012825191 ], [ 529670.0, 7260620.0 ], [ 529660.0, 7260620.086255988106132 ], [ 529650.0, 7260620.447091679088771 ], [ 529640.0, 7260621.540503429248929 ], [ 529630.0, 7260623.670178714208305 ], [ 529620.0, 7260626.330713496543467 ], [ 529610.0, 7260628.470670747570693 ], [ 529600.0, 7260629.64005651883781 ], [ 529590.0, 7260630.35994348116219 ], [ 529580.0, 7260631.530221463181078 ], [ 529570.0, 7260633.680460680276155 ], [ 529560.0, 7260636.416969483718276 ], [ 529550.0, 7260638.906588250771165 ], [ 529540.0, 7260641.094303959980607 ], [ 529530.0, 7260643.594204693101346 ], [ 529520.0, 7260646.405795307829976 ], [ 529510.0, 7260648.905696040019393 ], [ 529500.000000000116415, 7260651.094303959980607 ], [ 529490.0, 7260653.594204692170024 ], [ 529480.0, 7260656.406687518581748 ], [ 529470.0, 7260658.916870215907693 ], [ 529460.0, 7260661.180559948086739 ], [ 529450.0, 7260664.030122195370495 ], [ 529440.000000000116415, 7260667.860042748972774 ], [ 529430.0, 7260672.140849461778998 ], [ 529420.0, 7260675.981944192200899 ], [ 529410.0, 7260678.918654637411237 ], [ 529400.0, 7260681.628543836995959 ], [ 529390.0, 7260685.668947998434305 ], [ 529380.0, 7260692.075635517016053 ], [ 529370.0, 7260700.545414054766297 ], [ 529360.0, 7260710.099214585497975 ], [ 529350.000892210751772, 7260720.012066386640072 ], [ 529340.011174176470377, 7260730.000892210751772 ], [ 529330.087148198392242, 7260740.0 ], [ 529320.447983889956959, 7260750.0 ], [ 529311.551677605253644, 7260760.0 ], [ 529303.757326912600547, 7260770.0 ], [ 529296.777805175632238, 7260780.000000000931323 ], [ 529290.011174176470377, 7260790.0 ], [ 529283.311127444263548, 7260800.0 ], [ 529276.700938943075016, 7260810.0 ], [ 529270.075974022038281, 7260820.0 ], [ 529263.670178714208305, 7260830.0 ], [ 529257.794350692653097, 7260840.0 ], [ 529252.205649307463318, 7260850.0 ], [ 529246.32982128590811, 7260860.0 ], [ 529239.924025977961719, 7260870.0 ], [ 529233.299953267676756, 7260880.0 ], [ 529226.700046732323244, 7260890.0 ], [ 529220.075974022038281, 7260900.0 ], [ 529213.670178714208305, 7260910.0 ], [ 529207.795242903288454, 7260919.999107789248228 ], [ 529202.217715694569051, 7260929.987933613359928 ], [ 529196.428143660654314, 7260939.900785414502025 ], [ 529190.45915806631092, 7260949.453693735413253 ], [ 529185.298722552019171, 7260957.913190307095647 ], [ 529181.998769284342416, 7260964.243011592887342 ] ] } },
{ "type": "Feature", "properties": { "id": 1, "reference_id": 3, "dune_id": 3, "dune_name": "Big Mommy Dune", "acquisition_date": "2023-12-10", "length_m": 263.22929672085712 }, "geometry": { "type": "LineString", "coordinates": [ [ 530204.243011592305265, 7260579.640948729589581 ], [ 530197.91319030651357, 7260578.917762426659465 ], [ 530189.453693735180423, 7260577.957472912967205 ], [ 530179.900785414385609, 7260577.787449107505381 ], [ 530169.987933612894267, 7260579.411720354110003 ], [ 530159.999107789364643, 7260582.587941141799092 ], [ 530150.0, 7260586.057026004418731 ], [ 530140.0, 7260588.830614228732884 ], [ 530130.0, 7260591.083129784092307 ], [ 530120.0, 7260593.582138305529952 ], [ 530110.0, 7260596.319539319723845 ], [ 530100.0, 7260598.469778537750244 ], [ 530090.0, 7260599.640056519769132 ], [ 530080.0, 7260600.35994348116219 ], [ 530070.0, 7260601.528437042608857 ], [ 530060.0, 7260603.658112328499556 ], [ 530050.0, 7260606.242673087865114 ], [ 530040.0, 7260608.013297103345394 ], [ 530030.0, 7260608.023579068481922 ], [ 530020.0, 7260606.329821286723018 ], [ 530010.0, 7260604.106096217408776 ], [ 530000.0, 7260603.080114646814764 ], [ 529990.000892210751772, 7260604.117270393297076 ], [ 529980.012066387105733, 7260606.416969485580921 ], [ 529970.099214585614391, 7260608.470670748502016 ], [ 529960.546306264819577, 7260609.553800531663001 ], [ 529952.08680969348643, 7260609.912851802073419 ], [ 529945.756988407578319, 7260609.9888258241117 ] ] } },
{ "type": "Feature", "properties": { "id": 2, "reference_id": 1, "dune_id": 1, "dune_name": "Big Mommy Dune", "acquisition_date": "2023-12-10", "length_m": 700.41768444004379 }, "geometry": { "type": "LineString", "coordinates": [ [ 529020.0, 7261555.756988408043981 ], [ 529020.0, 7261562.086809693835676 ], [ 529020.0, 7261570.546306264586747 ], [ 529020.0, 7261580.099214585497975 ], [ 529020.0, 7261590.012066387571394 ], [ 529020.0, 7261600.000892210751772 ], [ 529020.0, 7261610.0 ], [ 529020.000892210751772, 7261620.0 ], [ 529020.011174176470377, 7261630.0 ], [ 529020.087148198508658, 7261640.0 ], [ 529020.447983889840543, 7261650.0 ], [ 529021.551677605137229, 7261660.0 ], [ 529023.757326912600547, 7261670.0 ], [ 529026.777805175632238, 7261680.0 ], [ 529030.012066387222148, 7261690.0 ], [ 529033.321409409982152, 7261700.0 ], [ 529036.777805175632238, 7261710.0 ], [ 529040.447983889840543, 7261720.0 ], [ 529044.861020627897233, 7261730.000000000931323 ], [ 529050.447983889956959, 7261740.0 ], [ 529056.776912964996882, 7261750.0 ], [ 529063.309343022760004, 7261760.0 ], [ 529069.913744012243114, 7261770.0 ], [ 529076.242673087399453, 7261780.0 ], [ 529081.757665417622775, 7261790.0 ], [ 529086.242673087399453, 7261800.0 ], [ 529089.911959590855986, 7261810.0 ], [ 529093.286994669819251, 7261820.0 ], [ 529096.600832146825269, 7261830.0 ], [ 529099.530559967970476, 7261840.000000000931323 ], [ 529101.593650986556895, 7261850.0 ], [ 529102.114228517515585, 7261860.0 ], [ 529100.489957271260209, 7261870.0 ], [ 529096.9631827584235, 7261880.0 ], [ 529092.391296391375363, 7261890.0 ], [ 529087.411166648147628, 7261900.0 ], [ 529082.127890864154324, 7261910.0 ], [ 529076.318647109321319, 7261920.0 ], [ 529069.912851801607758, 7261930.0 ], [ 529063.223087035003118, 7261940.0 ], [ 529056.329821285791695, 7261950.0 ], [ 529048.906588250421919, 7261960.0 ], [ 529041.180559947970323, 7261970.0 ], [ 529034.042188582126983, 7261980.0 ], [ 529027.957472912967205, 7261990.0 ], [ 529022.663915163138881, 7262000.0 ], [ 529017.882391101680696, 7262010.0 ], [ 529013.681352890795097, 7262020.0 ], [ 529010.076866232673638, 7262030.0 ], [ 529006.700046732323244, 7262040.0 ], [ 529003.299953267676756, 7262050.0 ], [ 528999.923133767442778, 7262060.0 ], [ 528996.31953932007309, 7262070.0 ], [ 528992.128783074789681, 7262080.0 ], [ 528987.42234082473442, 7262090.0 ], [ 528982.478444589767605, 7262100.0 ], [ 528977.411166648264043, 7262110.0 ], [ 528972.041634876397438, 7262120.0 ], [ 528965.871555430116132, 7262130.0 ], [ 528958.37234837282449, 7262139.999107789248228 ], [ 528949.553800531546585, 7262149.987933613359928 ], [ 528940.011174176470377, 7262159.900785414502025 ], [ 528930.535132088349201, 7262169.453693735413253 ], [ 528922.085917482851073, 7262177.913190307095647 ], [ 528915.756988407694735, 7262184.243011591956019 ] ] } },
{ "type": "Feature", "properties": { "id": 3, "reference_id": 1, "dune_id": 1, "dune_name": "Big Mommy Dune", "acquisition_date": "2023-12-10", "length_m": 554.55673224684756 }, "geometry": { "type": "LineString", "coordinates": [ [ 529180.000892210751772, 7260998.921899050474167 ], [ 529180.011174176470377, 7261003.921899050474167 ], [ 529180.087148198392242, 7261011.316557979211211 ], [ 529180.447091679205187, 7261020.322760425508022 ], [ 529181.539611218031496, 7261030.055640487000346 ], [ 529183.659004537737928, 7261040.006479299627244 ], [ 529186.242673087399453, 7261050.000446105375886 ], [ 529188.012404892127961, 7261060.0 ], [ 529188.012404892127961, 7261070.0 ], [ 529186.241780876764096, 7261080.0 ], [ 529183.647830361267552, 7261090.0 ], [ 529181.452463019639254, 7261100.0 ], [ 529179.999107789364643, 7261110.0 ], [ 529178.535470593255013, 7261120.000000000931323 ], [ 529176.252955053118058, 7261130.0 ], [ 529173.212805069284514, 7261140.0 ], [ 529169.912851801607758, 7261150.0 ], [ 529166.328929075156339, 7261160.0 ], [ 529162.205649307463318, 7261170.0 ], [ 529157.794350692536682, 7261180.0 ], [ 529153.670178714208305, 7261190.0 ], [ 529150.075974022038281, 7261200.0 ], [ 529146.700046732323244, 7261210.000000000931323 ], [ 529143.299953267676756, 7261220.0 ], [ 529139.923133767326362, 7261230.0 ], [ 529136.319539319956675, 7261240.0 ], [ 529132.129675285425037, 7261250.0 ], [ 529127.433515001204796, 7261260.0 ], [ 529122.566484998911619, 7261270.0 ], [ 529117.869432503939606, 7261280.0 ], [ 529113.670178714208305, 7261290.0 ], [ 529110.0, 7261300.0 ], [ 529106.329821285791695, 7261310.000000000931323 ], [ 529102.130567496176809, 7261320.0 ], [ 529097.433515001204796, 7261330.0 ], [ 529092.566484998911619, 7261340.0 ], [ 529087.870324714574963, 7261350.0 ], [ 529083.680460680043325, 7261360.0 ], [ 529080.076866232557222, 7261370.0 ], [ 529076.700046732323244, 7261380.0 ], [ 529073.299953267676756, 7261390.0 ], [ 529069.924025978078134, 7261400.0 ], [ 529066.329821285791695, 7261410.0 ], [ 529062.205649307463318, 7261420.0 ], [ 529057.794350692536682, 7261430.0 ], [ 529053.670178714208305, 7261440.0 ], [ 529050.075974021921866, 7261450.0 ], [ 529046.700938942958601, 7261460.0 ], [ 529043.311127444147132, 7261470.000000000931323 ], [ 529040.011174176470377, 7261479.999107789248228 ], [ 529036.777805175632238, 7261489.987933613359928 ], [ 529033.757326912600547, 7261499.900785414502025 ], [ 529031.551677605253644, 7261509.453693735413253 ], [ 529030.447983889840543, 7261517.913190307095647 ], [ 529030.087148198508658, 7261524.243011592887342 ] ] } },
{ "type": "Feature", "properties": { "id": 4, "reference_id": 2, "dune_id": 2, "dune_name": "Big Mommy Dune", "acquisition_date": "2023-12-10", "length_m": 128.41062843589694 }, "geometry": { "type": "LineString", "coordinates": [ [ 529035.75698840781115, 7260925.657773822546005 ], [ 529042.08680969348643, 7260931.540503429248929 ], [ 529050.546306264819577, 7260938.460388781502843 ], [ 529060.099214585614391, 7260944.354292565025389 ], [ 529070.012066387222148, 7260948.023579069413245 ], [ 529080.000892210751772, 7260949.9888258241117 ], [ 529090.0, 7260951.889272733591497 ], [ 529099.999553894624114, 7260955.209789933636785 ], [ 529109.993520701071247, 7260960.086255988106132 ], [ 529119.944359513698146, 7260965.23640953656286 ], [ 529129.677239574841224, 7260969.552908320911229 ], [ 529138.683442020905204, 7260973.13593883626163 ], [ 529146.078100949409418, 7260976.231498911976814 ], [ 529151.078100949409418, 7260978.447430184110999 ] ] } },
{ "type": "Feature", "properties": { "id": 5, "reference_id": 2, "dune_id": 2, "dune_name": "Big Mommy Dune", "acquisition_date": "2023-12-10", "length_m": 350.92764041108927 }, "geometry": { "type": "LineString", "coordinates": [ [ 528734.243011592305265, 7260836.242673087865114 ], [ 528727.913190306629986, 7260833.222194824367762 ], [ 528719.453693735180423, 7260829.987933613359928 ], [ 528709.900785414385609, 7260826.678590590134263 ], [ 528699.987933612894267, 7260823.222194824367762 ], [ 528689.999107789364643, 7260819.552908321842551 ], [ 528680.0, 7260815.149261338636279 ], [ 528670.0, 7260809.62888234294951 ], [ 528660.0, 7260803.593312481418252 ], [ 528650.0, 7260797.860042748972774 ], [ 528640.0, 7260792.57587475515902 ], [ 528630.0, 7260787.510381234809756 ], [ 528620.0, 7260782.500792942941189 ], [ 528610.0, 7260777.499207058921456 ], [ 528600.0, 7260772.488726556301117 ], [ 528590.0, 7260767.41295106895268 ], [ 528580.0, 7260762.052809053100646 ], [ 528570.0, 7260755.958703628741205 ], [ 528560.0, 7260748.819440051913261 ], [ 528550.0, 7260741.093411749228835 ], [ 528540.0, 7260733.669286504387856 ], [ 528530.0, 7260726.765738788992167 ], [ 528520.0, 7260720.0 ], [ 528510.0, 7260713.234261211007833 ], [ 528500.0, 7260706.329821286723018 ], [ 528490.0, 7260698.895414073951542 ], [ 528480.000892210751772, 7260691.093411750160158 ], [ 528470.012066387105733, 7260683.595096902921796 ], [ 528460.099214585614391, 7260676.417861694470048 ], [ 528450.546306264819577, 7260669.004910625517368 ], [ 528442.08680969348643, 7260661.639718014746904 ], [ 528435.756988407694735, 7260655.669840209186077 ] ] } },
{ "type": "Feature", "properties": { "id": 6, "reference_id": 4, "dune_id": 4, "dune_name": "The Star Dune", "acquisition_date": "2023-12-10", "length_m": 175.16487341760785 }, "geometry": { "type": "LineString", "coordinates": [ [ 533174.243011592421681, 7261909.912851802073419 ], [ 533167.913190306629986, 7261909.552016111090779 ], [ 533159.453693735180423, 7261908.448322394862771 ], [ 533149.900785414502025, 7261906.242673087865114 ], [ 533139.987933612894267, 7261903.223087035119534 ], [ 533129.999107789364643, 7261899.999107789248228 ], [ 533120.0, 7261896.765738788992167 ], [ 533110.0, 7261893.670178715139627 ], [ 533100.0, 7261891.10458592697978 ], [ 533090.0, 7261888.906588250771165 ], [ 533080.0, 7261886.405795307829976 ], [ 533070.0, 7261883.594204692170024 ], [ 533060.0, 7261881.093411749228835 ], [ 533050.000892210751772, 7261878.895414073951542 ], [ 533040.012066387105733, 7261876.329821286723018 ], [ 533030.099214585614391, 7261873.234261211939156 ], [ 533020.546306264819577, 7261870.000892210751772 ], [ 533012.08680969348643, 7261866.776912964880466 ], [ 533005.756988407694735, 7261863.757326913066208 ] ] } },
{ "type": "Feature", "properties": { "id": 7, "reference_id": 4, "dune_id": 4, "dune_name": "The Star Dune", "acquisition_date": "2023-12-10", "length_m": 92.150231016492455 }, "geometry": { "type": "LineString", "coordinates": [ [ 533354.243011592421681, 7261958.37234837282449 ], [ 533347.91319030651357, 7261955.882729606702924 ], [ 533339.453693735296838, 7261952.128783075138927 ], [ 533329.900785414385609, 7261947.860042748972774 ], [ 533319.987933612894267, 7261944.041296370327473 ], [ 533310.0, 7261941.267708146013319 ], [ 533300.012066387105733, 7261939.364854105748236 ], [ 533290.099214585497975, 7261937.958365123718977 ], [ 533280.546306264703162, 7261937.351531605236232 ], [ 533272.08680969348643, 7261937.871216924861073 ], [ 533265.756988407694735, 7261938.906588250771165 ] ] } },
{ "type": "Feature", "properties": { "id": 8, "reference_id": 5, "dune_id": 5, "dune_name": "The Star Dune", "acquisition_date": "2023-12-10", "length_m": 1144.699331384526 }, "geometry": { "type": "LineString", "coordinates": [ [ 534334.713343835202977, 7261305.756988408043981 ], [ 534329.640056519303471, 7261312.086809693835676 ], [ 534324.117270393413492, 7261320.546306264586747 ], [ 534319.857919822447002, 7261330.099214585497975 ], [ 534317.874597306014039, 7261340.012066386640072 ], [ 534317.968647089437582, 7261350.000892210751772 ], [ 534318.918654637644067, 7261360.0 ], [ 534319.641840940690599, 7261370.0 ], [ 534319.935200154548511, 7261380.0 ], [ 534320.076866232673638, 7261390.0 ], [ 534320.446199468453415, 7261400.0 ], [ 534321.540503428666852, 7261410.0 ], [ 534323.670178714208305, 7261420.0 ], [ 534326.329821285791695, 7261430.0 ], [ 534328.459496571333148, 7261440.0 ], [ 534329.552908320794813, 7261450.0 ], [ 534329.912851801607758, 7261460.0 ], [ 534329.988825823529623, 7261470.000000000931323 ], [ 534329.999107789364643, 7261480.0 ], [ 534330.0, 7261490.0 ], [ 534329.999107789364643, 7261500.0 ], [ 534329.987933612894267, 7261510.0 ], [ 534329.900785414385609, 7261520.0 ], [ 534329.453693735296838, 7261530.0 ], [ 534327.91319030651357, 7261540.0 ], [ 534324.243011592421681, 7261550.0 ], [ 534317.91319030651357, 7261560.000000000931323 ], [ 534309.453693735296838, 7261569.999107789248228 ], [ 534299.900785414502025, 7261579.9888258241117 ], [ 534289.987933612894267, 7261589.912851802073419 ], [ 534279.999107789248228, 7261599.552016111090779 ], [ 534270.0, 7261608.448322394862771 ], [ 534260.0, 7261616.241780877113342 ], [ 534250.0, 7261623.211912859231234 ], [ 534240.0, 7261629.911959590390325 ], [ 534230.0, 7261636.318647109903395 ], [ 534220.0, 7261642.128783075138927 ], [ 534210.0, 7261647.422340825200081 ], [ 534200.0, 7261652.478444591164589 ], [ 534190.0, 7261657.411166648380458 ], [ 534180.0, 7261662.042527087032795 ], [ 534170.0, 7261665.882729606702924 ], [ 534160.0, 7261668.458604360930622 ], [ 534150.0, 7261669.9888258241117 ], [ 534140.0, 7261671.452463019639254 ], [ 534130.0, 7261673.659004537388682 ], [ 534120.0, 7261676.328929075039923 ], [ 534110.0, 7261678.459496570751071 ], [ 534100.0, 7261679.553800531663001 ], [ 534090.0, 7261679.924025977961719 ], [ 534080.0, 7261680.075974022038281 ], [ 534070.0, 7261680.446199468336999 ], [ 534060.0, 7261681.540503429248929 ], [ 534050.0, 7261683.671070925891399 ], [ 534040.0, 7261686.340995462611318 ], [ 534030.0, 7261688.546644769608974 ], [ 534020.0, 7261690.0 ], [ 534010.0, 7261691.453355230391026 ], [ 534000.0, 7261693.659896749071777 ], [ 533990.0, 7261696.340103251859546 ], [ 533980.0, 7261698.546644769608974 ], [ 533970.0, 7261700.000892210751772 ], [ 533960.0, 7261701.464529407210648 ], [ 533950.0, 7261703.747044946998358 ], [ 533940.0, 7261706.787194930948317 ], [ 533930.0, 7261710.088040409609675 ], [ 533920.0, 7261713.681352891027927 ], [ 533910.0, 7261717.870324714109302 ], [ 533900.0, 7261722.566484998911619 ], [ 533890.0, 7261727.434407211840153 ], [ 533880.0, 7261732.140849461778998 ], [ 533870.0, 7261736.406687518581748 ], [ 533860.0, 7261740.370225446298718 ], [ 533850.0, 7261744.840456696227193 ], [ 533840.0, 7261750.37111765705049 ], [ 533830.0, 7261756.417861694470048 ], [ 533820.000892210635357, 7261762.227997660636902 ], [ 533810.011174176470377, 7261767.882391101680696 ], [ 533800.088040409144014, 7261774.118162604048848 ], [ 533790.458265855675563, 7261781.627651628106833 ], [ 533781.628543837927282, 7261790.458265855908394 ], [ 533774.129336780519225, 7261800.088040409609675 ], [ 533767.969539300072938, 7261810.011174177750945 ], [ 533762.675089339609258, 7261820.000892210751772 ], [ 533757.958365123602562, 7261830.0 ], [ 533754.041296371491626, 7261840.000000000931323 ], [ 533751.170277982251719, 7261850.0 ], [ 533748.829722017748281, 7261860.0 ], [ 533745.959595839260146, 7261870.0 ], [ 533742.052809052867815, 7261880.0 ], [ 533737.412951069651172, 7261890.0 ], [ 533732.488726555602625, 7261900.0 ], [ 533727.499207057291642, 7261910.0 ], [ 533722.499900731956586, 7261920.0 ], [ 533717.500099268043414, 7261930.0 ], [ 533712.499900731956586, 7261940.0 ], [ 533707.499207057408057, 7261950.0 ], [ 533702.489618766237982, 7261960.0 ], [ 533697.423233035369776, 7261970.0 ], [ 533692.128783074789681, 7261980.0 ], [ 533686.31953932007309, 7261989.999553894624114 ], [ 533679.924025978078134, 7261999.993520701304078 ], [ 533673.311127444263548, 7262009.944359513930976 ], [ 533666.788087141467258, 7262019.677239574491978 ], [ 533660.535132088232785, 7262028.683442020788789 ], [ 533655.309004517737776, 7262036.078100949525833 ], [ 533651.999661495094188, 7262041.078100949525833 ] ] } },
{ "type": "Feature", "properties": { "id": 9, "reference_id": 6, "dune_id": 6, "dune_name": "The Star Dune", "acquisition_date": "2023-12-10", "length_m": 814.07387869063245 }, "geometry": { "type": "LineString", "coordinates": [ [ 533650.011174176470377, 7262048.921899050474167 ], [ 533650.087148198508658, 7262053.921899050474167 ], [ 533650.447091679205187, 7262061.316557979211211 ], [ 533651.540503428783268, 7262070.322760425508022 ], [ 533653.670178714208305, 7262080.055640487000346 ], [ 533656.329821285791695, 7262090.006479298695922 ], [ 533658.459496571216732, 7262100.000446105375886 ], [ 533659.552908320911229, 7262110.0 ], [ 533659.912851801607758, 7262120.0 ], [ 533659.988825823529623, 7262130.0 ], [ 533659.999107789248228, 7262140.0 ], [ 533660.0, 7262150.0 ], [ 533660.0, 7262160.0 ], [ 533660.000892210751772, 7262170.0 ], [ 533660.011174176470377, 7262180.0 ], [ 533660.087148198392242, 7262190.0 ], [ 533660.447091679088771, 7262200.0 ], [ 533661.540503428783268, 7262210.0 ], [ 533663.670178714208305, 7262220.0 ], [ 533666.330713496543467, 7262230.0 ], [ 533668.470670747803524, 7262240.0 ], [ 533669.640056519303471, 7262250.0 ], [ 533670.359943480696529, 7262260.0 ], [ 533671.529329252196476, 7262270.0 ], [ 533673.669286503456533, 7262280.0 ], [ 533676.329821285791695, 7262290.0 ], [ 533678.459496571333148, 7262300.0 ], [ 533679.552016110159457, 7262310.0 ], [ 533679.901677625137381, 7262320.0 ], [ 533679.901677625137381, 7262330.0 ], [ 533679.552016110159457, 7262340.000000000931323 ], [ 533678.458604360697791, 7262350.0 ], [ 533676.318647109437734, 7262360.0 ], [ 533673.583030515816063, 7262370.0 ], [ 533671.093411749578081, 7262380.0 ], [ 533668.905696039786562, 7262390.0 ], [ 533666.405795307829976, 7262400.0 ], [ 533663.594204692286439, 7262410.0 ], [ 533661.093411749578081, 7262420.0 ], [ 533658.895414073951542, 7262430.0 ], [ 533656.329821285791695, 7262440.0 ], [ 533653.233369000838138, 7262450.0 ], [ 533649.989718034281395, 7262460.0 ], [ 533646.689764766488224, 7262470.0 ], [ 533643.310235233511776, 7262480.0 ], [ 533640.01028196583502, 7262490.0 ], [ 533636.766630999278277, 7262500.0 ], [ 533633.670178714208305, 7262510.0 ], [ 533631.104585926048458, 7262520.0 ], [ 533628.906588250421919, 7262530.0 ], [ 533626.405795307713561, 7262540.0 ], [ 533623.594204692170024, 7262550.0 ], [ 533621.094303960213438, 7262560.0 ], [ 533618.906588250421919, 7262570.0 ], [ 533616.416969484183937, 7262580.0 ], [ 533613.681352890795097, 7262590.0 ], [ 533611.540503428783268, 7262600.000000000931323 ], [ 533610.43591750273481, 7262610.0 ], [ 533610.0, 7262620.0 ], [ 533609.56408249726519, 7262630.0 ], [ 533608.460388781968504, 7262640.0 ], [ 533606.329821285791695, 7262650.0 ], [ 533603.670178714208305, 7262660.0 ], [ 533601.539611218031496, 7262670.0 ], [ 533600.43591750273481, 7262680.0 ], [ 533600.0, 7262690.0 ], [ 533599.56408249726519, 7262700.0 ], [ 533598.460388781968504, 7262710.0 ], [ 533596.328929075039923, 7262720.0 ], [ 533593.659004537737928, 7262730.0 ], [ 533591.45335523027461, 7262740.0 ], [ 533589.999107789248228, 7262750.0 ], [ 533588.535470593255013, 7262760.0 ], [ 533586.252955053234473, 7262770.0 ], [ 533583.212805069284514, 7262780.0 ], [ 533579.912851801607758, 7262790.0 ], [ 533576.32982128590811, 7262799.999107789248228 ], [ 533572.216823483933695, 7262809.987933613359928 ], [ 533567.881498891045339, 7262819.900785414502025 ], [ 533564.118162604048848, 7262829.453693736344576 ], [ 533561.62765162717551, 7262837.913190307095647 ], [ 533560.458265855675563, 7262844.243011592887342 ] ] } },
{ "type": "Feature", "properties": { "id": 10, "reference_id": 8, "dune_id": 8, "dune_name": "Inverted Y Dune", "acquisition_date": "2023-12-10", "length_m": 509.54458106096598 }, "geometry": { "type": "LineString", "coordinates": [ [ 530100.087148198508658, 7261591.078100949525833 ], [ 530100.447091679205187, 7261586.078100949525833 ], [ 530101.540503428783268, 7261578.683442020788789 ], [ 530103.670178714208305, 7261569.6772395754233 ], [ 530106.329821285791695, 7261559.944359513930976 ], [ 530108.459496571333148, 7261549.993520701304078 ], [ 530109.552908320911229, 7261539.999553894624114 ], [ 530109.913744012243114, 7261530.0 ], [ 530110.0, 7261520.0 ], [ 530110.086255987756886, 7261510.0 ], [ 530110.447091679205187, 7261500.0 ], [ 530111.540503428666852, 7261490.0 ], [ 530113.670178714208305, 7261480.0 ], [ 530116.330713496543467, 7261470.000000000931323 ], [ 530118.470670747803524, 7261460.0 ], [ 530119.640056519303471, 7261450.0 ], [ 530120.360835691448301, 7261440.0 ], [ 530121.540503428783268, 7261430.0 ], [ 530123.75643470196519, 7261420.0 ], [ 530126.776912964996882, 7261410.0 ], [ 530130.000892210751772, 7261400.0 ], [ 530133.234261211473495, 7261390.0 ], [ 530136.330713496543467, 7261380.0 ], [ 530138.906588250538334, 7261370.0 ], [ 530141.180559948086739, 7261360.0 ], [ 530144.042188582126983, 7261350.0 ], [ 530147.957472912967205, 7261340.0 ], [ 530152.663915163138881, 7261330.0 ], [ 530157.882391101680696, 7261320.0 ], [ 530163.682245101314038, 7261310.000000000931323 ], [ 530170.088040409144014, 7261300.000892210751772 ], [ 530176.788087141467258, 7261290.0111741758883 ], [ 530183.758219123352319, 7261280.087148198857903 ], [ 530191.551677605137229, 7261270.447983890771866 ], [ 530200.447983889840543, 7261261.551677605137229 ], [ 530210.087148198392242, 7261253.75821912381798 ], [ 530220.011174176470377, 7261246.788087140768766 ], [ 530230.000892210635357, 7261240.088040409609675 ], [ 530240.0, 7261233.682245101779699 ], [ 530250.0, 7261227.882391102612019 ], [ 530260.0, 7261222.664807373657823 ], [ 530270.0, 7261217.968647089786828 ], [ 530280.0, 7261214.129336781799793 ], [ 530290.0, 7261211.628543838858604 ], [ 530299.999107789364643, 7261210.458265855908394 ], [ 530309.987933612894267, 7261210.088040409609675 ], [ 530319.900785414502025, 7261210.011174176819623 ], [ 530329.453693735180423, 7261210.000892211683095 ], [ 530337.91319030651357, 7261210.000000000931323 ], [ 530344.243011592305265, 7261210.000000000931323 ] ] } },
{ "type": "Feature", "properties": { "id": 11, "reference_id": 8, "dune_id": 8, "dune_name": "Inverted Y Dune", "acquisition_date": "2023-12-10", "length_m": 129.49967551778195 }, "geometry": { "type": "LineString", "coordinates": [ [ 530395.756988407694735, 7261210.000000000931323 ], [ 530402.08680969348643, 7261210.000000000931323 ], [ 530410.546306264819577, 7261210.000000000931323 ], [ 530420.099214585614391, 7261210.000000000931323 ], [ 530430.012066387222148, 7261210.000000000931323 ], [ 530440.000892210751772, 7261210.000000000931323 ], [ 530450.0, 7261209.999107790179551 ], [ 530460.0, 7261209.9888258241117 ], [ 530470.0, 7261209.912851802073419 ], [ 530479.999107789364643, 7261209.552908320911229 ], [ 530489.987933612894267, 7261208.459496571682394 ], [ 530499.900785414502025, 7261206.329821285791695 ], [ 530509.453693735296838, 7261203.670178713276982 ], [ 530517.91319030651357, 7261201.540503428317606 ], [ 530524.243011592421681, 7261200.447091678157449 ] ] } },
{ "type": "Feature", "properties": { "id": 12, "reference_id": 7, "dune_id": 7, "dune_name": "Inverted Y Dune", "acquisition_date": "2023-12-10", "length_m": 578.56705047300147 }, "geometry": { "type": "LineString", "coordinates": [ [ 530654.243011592305265, 7261325.756988408043981 ], [ 530647.913190306629986, 7261332.086809693835676 ], [ 530639.453693735296838, 7261340.546306265518069 ], [ 530629.900785414502025, 7261350.099214585497975 ], [ 530619.988825823646039, 7261360.012066386640072 ], [ 530610.01028196583502, 7261370.000892210751772 ], [ 530600.087148198392242, 7261380.0 ], [ 530590.447983889840543, 7261390.0 ], [ 530581.551677605253644, 7261400.0 ], [ 530573.757326912600547, 7261410.0 ], [ 530566.777805175632238, 7261420.0 ], [ 530560.011174176470377, 7261430.0 ], [ 530553.310235233511776, 7261440.0 ], [ 530546.690656977239996, 7261450.0 ], [ 530540.0, 7261460.0 ], [ 530533.309343022760004, 7261470.000000000931323 ], [ 530526.689764766488224, 7261480.0 ], [ 530519.988825823529623, 7261490.0 ], [ 530513.222194824367762, 7261500.0 ], [ 530506.242673087399453, 7261510.0 ], [ 530498.448322394862771, 7261519.999107789248228 ], [ 530489.552016110159457, 7261529.9888258241117 ], [ 530479.912851801607758, 7261539.912851801142097 ], [ 530469.988825823529623, 7261549.552016110159457 ], [ 530459.999107789364643, 7261558.448322394862771 ], [ 530450.0, 7261566.241780877113342 ], [ 530440.0, 7261573.211912859231234 ], [ 530430.000000000116415, 7261579.911959591321647 ], [ 530420.0, 7261586.317754898220301 ], [ 530410.0, 7261592.118501108139753 ], [ 530400.0, 7261597.346366802230477 ], [ 530390.0, 7261602.11939332075417 ], [ 530380.0, 7261606.328929075039923 ], [ 530370.0, 7261609.999107789248228 ], [ 530360.0, 7261613.659004538320005 ], [ 530350.0, 7261617.783176516182721 ], [ 530340.0, 7261622.129675285890698 ], [ 530330.0, 7261625.968985594809055 ], [ 530320.0, 7261628.819440051913261 ], [ 530310.0, 7261631.082237573340535 ], [ 530300.0, 7261633.583030516281724 ], [ 530290.0, 7261636.329821285791695 ], [ 530280.0, 7261638.545752558857203 ], [ 530270.0, 7261640.0 ], [ 530260.0, 7261641.453355230391026 ], [ 530250.000892210635357, 7261643.659004538320005 ], [ 530240.012066387222148, 7261646.328929075971246 ], [ 530230.099214585614391, 7261648.459496572613716 ], [ 530220.546306264819577, 7261649.552908321842551 ], [ 530212.08680969348643, 7261649.912851802073419 ], [ 530205.756988407694735, 7261649.9888258241117 ] ] } },
{ "type": "Feature", "properties": { "id": 13, "reference_id": 9, "dune_id": 9, "dune_name": "Inverted Y Dune", "acquisition_date": "2023-12-10", "length_m": 807.90018521130276 }, "geometry": { "type": "LineString", "coordinates": [ [ 529650.088040409144014, 7262234.243011592887342 ], [ 529650.458265855675563, 7262227.913190307095647 ], [ 529651.62765162717551, 7262219.453693735413253 ], [ 529654.118162604048848, 7262209.900785414502025 ], [ 529657.881498891045339, 7262199.987933613359928 ], [ 529662.216823483933695, 7262189.999107789248228 ], [ 529666.330713496543467, 7262180.0 ], [ 529669.924025978078134, 7262170.0 ], [ 529673.299953267676756, 7262160.0 ], [ 529676.700046732323244, 7262150.0 ], [ 529680.076866232673638, 7262140.0 ], [ 529683.680460680043325, 7262130.0 ], [ 529687.870324714458548, 7262120.0 ], [ 529692.566484998911619, 7262110.0 ], [ 529697.433515001088381, 7262100.0 ], [ 529702.130567496176809, 7262090.0 ], [ 529706.329821285791695, 7262080.0 ], [ 529710.0, 7262070.0 ], [ 529713.670178714208305, 7262060.0 ], [ 529717.870324714574963, 7262050.0 ], [ 529722.576766964630224, 7262040.0 ], [ 529727.510381233762018, 7262030.0 ], [ 529732.500792942708358, 7262020.0 ], [ 529737.499207057291642, 7262010.0 ], [ 529742.489618766237982, 7262000.0 ], [ 529747.423233035369776, 7261990.0 ], [ 529752.128783074789681, 7261980.0 ], [ 529756.319539319956675, 7261970.0 ], [ 529759.923133767326362, 7261960.0 ], [ 529763.299061056924984, 7261950.0 ], [ 529766.689764766488224, 7261940.0 ], [ 529770.0, 7261930.0 ], [ 529773.309343022760004, 7261920.0 ], [ 529776.690656977239996, 7261910.0 ], [ 529780.000892210751772, 7261900.0 ], [ 529783.32051719923038, 7261890.0 ], [ 529786.777805175632238, 7261880.0 ], [ 529790.447983889840543, 7261870.0 ], [ 529794.861020628013648, 7261860.0 ], [ 529800.447983889840543, 7261850.0 ], [ 529806.777805175632238, 7261840.000000000931323 ], [ 529813.321409409982152, 7261830.0 ], [ 529820.012066387105733, 7261820.0 ], [ 529826.777805175632238, 7261810.0 ], [ 529833.757326912600547, 7261800.0 ], [ 529841.551677605137229, 7261790.0 ], [ 529850.447983889840543, 7261780.000892210751772 ], [ 529860.087148198392242, 7261770.0111741758883 ], [ 529870.011174176470377, 7261760.087148198857903 ], [ 529880.000892210751772, 7261750.447983889840543 ], [ 529890.0, 7261741.551677606068552 ], [ 529900.0, 7261733.757326913066208 ], [ 529910.0, 7261726.776912964880466 ], [ 529920.0, 7261720.000892210751772 ], [ 529930.0, 7261713.234261211939156 ], [ 529940.0, 7261706.330713496543467 ], [ 529950.0, 7261698.906588250771165 ], [ 529960.0, 7261691.179667737334967 ], [ 529970.0, 7261684.031014405190945 ], [ 529980.0, 7261677.870324714109302 ], [ 529990.0, 7261672.21593127399683 ], [ 530000.0, 7261666.33071349747479 ], [ 530010.0, 7261659.924025978893042 ], [ 530020.0, 7261653.299061057157815 ], [ 530030.0, 7261646.689764767885208 ], [ 530040.0, 7261640.0 ], [ 530049.999107789364643, 7261633.309789128601551 ], [ 530059.987933612894267, 7261626.696244065649807 ], [ 530069.900785414502025, 7261620.044466311112046 ], [ 530079.453693735180423, 7261613.544955249875784 ], [ 530087.913190306629986, 7261607.559231067076325 ], [ 530094.243011592421681, 7261602.370221445336938 ], [ 530097.91319030651357, 7261598.473915161564946 ] ] } }
]
}
