{
"type": "FeatureCollection",
"name": "crests_2022_08_2022-08-17",
"crs": { "type": "name", "properties": { "name": "urn:ogc:def:crs:EPSG::32733" } },
"features": [
{ "type": "Feature", "properties": { "id": 0, "reference_id": 1, "dune_id": 1, "dune_name": "Big Mommy Dune", "acquisition_date": "2022-08-17", "length_m": 569.52394284324146 }, "geometry": { "type": "LineString", "coordinates": [ [ 528835.756988407694735, 7262228.371456163004041 ], [ 528842.086809693370014, 7262225.871555430814624 ], [ 528850.546306264819577, 7262222.041634876281023 ], [ 528860.099214585614391, 7262217.411166648380458 ], [ 528870.012066387105733, 7262212.477552379481494 ], [ 528880.000892210751772, 7262207.411166647449136 ], [ 528890.0, 7262202.041634876281023 ], [ 528900.0, 7262195.871555430814624 ], [ 528910.0, 7262188.371456162072718 ], [ 528919.999107789364643, 7262179.541734144091606 ], [ 528929.988825823529623, 7262169.911959591321647 ], [ 528939.911959590972401, 7262159.9888258241117 ], [ 528949.541734144324437, 7262149.999107789248228 ], [ 528958.371456162189133, 7262140.0 ], [ 528965.871555430116132, 7262130.0 ], [ 528972.041634876397438, 7262120.0 ], [ 528977.411166648264043, 7262110.0 ], [ 528982.478444589767605, 7262100.0 ], [ 528987.42234082473442, 7262090.0 ], [ 528992.128783074789681, 7262080.0 ], [ 528996.31953932007309, 7262070.0 ], [ 528999.923133767442778, 7262060.0 ], [ 529003.299953267676756, 7262050.0 ], [ 529006.700046732323244, 7262040.0 ], [ 529010.076866232673638, 7262030.0 ], [ 529013.681352890795097, 7262020.0 ], [ 529017.881498890928924, 7262010.0 ], [ 529022.653633197303861, 7262000.0 ], [ 529027.881498891045339, 7261990.0 ], [ 529033.681352890795097, 7261980.0 ], [ 529040.076866232673638, 7261970.0 ], [ 529046.700938942958601, 7261960.0 ], [ 529053.310235233511776, 7261950.0 ], [ 529060.0, 7261940.0 ], [ 529066.68976476660464, 7261930.0 ], [ 529073.298168846289627, 7261920.0 ], [ 529079.911959590855986, 7261910.0 ], [ 529086.231498910929076, 7261900.0 ], [ 529091.670517219230533, 7261890.0 ], [ 529095.79468919755891, 7261880.0 ], [ 529098.361174196470529, 7261870.0 ], [ 529099.539949723053724, 7261860.0 ], [ 529099.899893203750253, 7261850.0 ], [ 529099.890503448667005, 7261840.000000000931323 ], [ 529099.463975701015443, 7261830.0 ], [ 529098.001230715774, 7261820.0 ], [ 529094.702169658616185, 7261810.000892210751772 ], [ 529089.552908320911229, 7261800.012066386640072 ], [ 529083.670178714208305, 7261790.099214585497975 ], [ 529078.317416393663734, 7261780.546306265518069 ], [ 529074.204418591805734, 7261772.086809692904353 ], [ 529071.638825803645886, 7261765.756988408043981 ] ] } },
{ "type": "Feature", "properties": { "id": 1, "reference_id": 1, "dune_id": 1, "dune_name": "Big Mommy Dune", "acquisition_date": "2022-08-17", "length_m": 696.2778961060252 }, "geometry": { "type": "LineString", "coordinates": [ [ 529044.702169658616185, 7261724.243011591956019 ], [ 529039.552908320911229, 7261717.913190307095647 ], [ 529033.669286503572948, 7261709.453693734481931 ], [ 529028.306242217309773, 7261699.900785414502025 ], [ 529024.117270393297076, 7261689.987933613359928 ], [ 529021.1917341244407, 7261679.999107789248228 ], [ 529018.918654637644067, 7261670.0 ], [ 529016.417861694935709, 7261660.0 ], [ 529013.681352890795097, 7261650.0 ], [ 529011.542287850053981, 7261640.0 ], [ 529010.458265855675563, 7261630.0 ], [ 529010.1742963969009, 7261620.0 ], [ 529010.458265855675563, 7261610.0 ], [ 529011.541395639418624, 7261600.0 ], [ 529013.670178714208305, 7261590.0 ], [ 529016.329821285791695, 7261580.0 ], [ 529018.460388781968504, 7261570.0 ], [ 529019.564082497381605, 7261560.000000000931323 ], [ 529020.0, 7261550.0 ], [ 529020.436809713486582, 7261540.0 ], [ 529021.550785394501872, 7261530.0 ], [ 529023.757326912600547, 7261520.0 ], [ 529026.777805175632238, 7261510.0 ], [ 529030.011174176586792, 7261500.0 ], [ 529033.310235233511776, 7261490.0 ], [ 529036.690656977239996, 7261480.0 ], [ 529040.0, 7261470.000000000931323 ], [ 529043.31023523339536, 7261460.0 ], [ 529046.700938942958601, 7261450.0 ], [ 529050.075974021921866, 7261440.0 ], [ 529053.670178714208305, 7261430.0 ], [ 529057.794350692536682, 7261420.0 ], [ 529062.205649307463318, 7261410.0 ], [ 529066.329821285791695, 7261400.0 ], [ 529069.924025978078134, 7261390.0 ], [ 529073.299061056924984, 7261380.0 ], [ 529076.689764766488224, 7261370.0 ], [ 529080.0, 7261360.0 ], [ 529083.310235233511776, 7261350.0 ], [ 529086.700938943075016, 7261340.0 ], [ 529090.076866232673638, 7261330.0 ], [ 529093.680460680043325, 7261320.0 ], [ 529097.871216925210319, 7261310.000000000931323 ], [ 529102.576766964630224, 7261300.0 ], [ 529107.510381233762018, 7261290.0 ], [ 529112.500792942708358, 7261280.0 ], [ 529117.499207057291642, 7261270.0 ], [ 529122.489618766237982, 7261260.0 ], [ 529127.423233035369776, 7261250.0 ], [ 529132.128783074906096, 7261240.0 ], [ 529136.319539319956675, 7261230.0 ], [ 529139.923133767326362, 7261220.0 ], [ 529143.299953267676756, 7261210.000000000931323 ], [ 529146.700046732323244, 7261200.0 ], [ 529150.075974022038281, 7261190.0 ], [ 529153.670178714208305, 7261180.0 ], [ 529157.794350692536682, 7261170.0 ], [ 529162.205649307463318, 7261160.0 ], [ 529166.328929075156339, 7261150.0 ], [ 529169.912851801607758, 7261140.0 ], [ 529173.211912858532742, 7261130.0 ], [ 529176.241780876647681, 7261120.000000000931323 ], [ 529178.448322394862771, 7261110.000892210751772 ], [ 529179.552016110159457, 7261100.012066387571394 ], [ 529179.912851801607758, 7261090.099214585497975 ], [ 529179.988825823529623, 7261080.546306265518069 ], [ 529179.999107789364643, 7261072.086809693835676 ], [ 529180.0, 7261065.756988408043981 ] ] } },
{ "type": "Feature", "properties": { "id": 2, "reference_id": 7, "dune_id": 7, "dune_name": "Inverted Y Dune", "acquisition_date": "2022-08-17", "length_m": 569.16357318200016 }, "geometry": { "type": "LineString", "coordinates": [ [ 530155.75698840781115, 7261640.0 ], [ 530162.08680969348643, 7261640.0 ], [ 530170.546306264819577, 7261640.0 ], [ 530180.099214585614391, 7261640.0 ], [ 530190.012066387105733, 7261640.0 ], [ 530200.000892210751772, 7261640.0 ], [ 530210.0, 7261640.0 ], [ 530220.0, 7261640.0 ], [ 530230.0, 7261640.0 ], [ 530240.0, 7261639.999107789248228 ], [ 530250.0, 7261639.9888258241117 ], [ 530260.0, 7261639.912851801142097 ], [ 530270.0, 7261639.552016111090779 ], [ 530280.0, 7261638.448322394862771 ], [ 530290.0, 7261636.242673087865114 ], [ 530300.0, 7261633.222194824367762 ], [ 530310.0, 7261629.9888258241117 ], [ 530320.0, 7261626.689764766022563 ], [ 530330.0, 7261623.309343023225665 ], [ 530340.0, 7261620.0 ], [ 530350.0, 7261616.689764766953886 ], [ 530360.0, 7261613.298168847337365 ], [ 530370.0, 7261609.912851801142097 ], [ 530380.0, 7261606.242673087865114 ], [ 530390.0, 7261601.757665418088436 ], [ 530400.0, 7261596.241780877113342 ], [ 530410.0, 7261589.901677625253797 ], [ 530420.0, 7261583.211020648479462 ], [ 530430.000000000116415, 7261576.241780877113342 ], [ 530440.0, 7261568.448322394862771 ], [ 530450.0, 7261559.552016111090779 ], [ 530460.0, 7261549.912851801142097 ], [ 530470.0, 7261539.9888258241117 ], [ 530479.999107789364643, 7261529.999107789248228 ], [ 530489.988825823529623, 7261520.0 ], [ 530499.911959590855986, 7261510.0 ], [ 530509.541734144324437, 7261500.0 ], [ 530518.37234837282449, 7261490.0 ], [ 530525.881837395951152, 7261480.0 ], [ 530532.118501109071076, 7261470.000000000931323 ], [ 530537.783176516066305, 7261460.0 ], [ 530543.670178714208305, 7261450.0 ], [ 530550.087148198508658, 7261440.0 ], [ 530556.788087141467258, 7261430.0 ], [ 530563.758219123352319, 7261420.0 ], [ 530571.550785394501872, 7261410.000892210751772 ], [ 530580.43591750273481, 7261400.012066387571394 ], [ 530589.987933612777852, 7261390.099214585497975 ], [ 530599.464867911767215, 7261380.546306265518069 ], [ 530607.914082517265342, 7261372.086809692904353 ], [ 530614.243011592421681, 7261365.756988408043981 ] ] } },
{ "type": "Feature", "properties": { "id": 3, "reference_id": 3, "dune_id": 3, "dune_name": "Big Mommy Dune", "acquisition_date": "2022-08-17", "length_m": 903.45958015327381 }, "geometry": { "type": "LineString", "coordinates": [ [ 529904.243011592421681, 7260608.459496571682394 ], [ 529897.91319030651357, 7260606.329821286723018 ], [ 529889.453693735180423, 7260603.670178715139627 ], [ 529879.900785414385609, 7260601.540503429248929 ], [ 529869.987933612894267, 7260600.447091680020094 ], [ 529859.999107789364643, 7260600.087148198857903 ], [ 529850.0, 7260600.011174176819623 ], [ 529840.0, 7260600.000892210751772 ], [ 529830.0, 7260600.0 ], [ 529820.0, 7260600.0 ], [ 529810.0, 7260600.0 ], [ 529800.0, 7260600.000892210751772 ], [ 529790.0, 7260600.011174176819623 ], [ 529780.0, 7260600.087148198857903 ], [ 529770.0, 7260600.447091680020094 ], [ 529760.0, 7260601.540503429248929 ], [ 529750.0, 7260603.670178715139627 ], [ 529740.0, 7260606.329821286723018 ], [ 529730.0, 7260608.459496571682394 ], [ 529720.0, 7260609.553800531663001 ], [ 529710.0, 7260609.924025978893042 ], [ 529700.0, 7260610.075974022969604 ], [ 529690.0, 7260610.446199469268322 ], [ 529680.0, 7260611.540503429248929 ], [ 529670.0, 7260613.670178715139627 ], [ 529660.0, 7260616.329821286723018 ], [ 529650.0, 7260618.460388782434165 ], [ 529640.0, 7260619.564082497730851 ], [ 529630.0, 7260620.0 ], [ 529620.0, 7260620.435917503200471 ], [ 529610.0, 7260621.539611218497157 ], [ 529600.0, 7260623.671070924960077 ], [ 529590.0, 7260626.340995462611318 ], [ 529580.0, 7260628.546644769608974 ], [ 529570.0, 7260630.0 ], [ 529560.0, 7260631.454247441142797 ], [ 529550.0, 7260633.670178715139627 ], [ 529540.0, 7260636.416077274829149 ], [ 529530.0, 7260638.906588250771165 ], [ 529520.0, 7260641.094303959980607 ], [ 529510.0, 7260643.594204693101346 ], [ 529500.000000000116415, 7260646.405795307829976 ], [ 529490.0, 7260648.906588250771165 ], [ 529480.0, 7260651.10458592697978 ], [ 529470.0, 7260653.670178714208305 ], [ 529460.0, 7260656.766630999743938 ], [ 529450.0, 7260660.010281966067851 ], [ 529440.000000000116415, 7260663.311127444729209 ], [ 529430.0, 7260666.700938942842185 ], [ 529420.0, 7260670.07686623185873 ], [ 529410.0, 7260673.681352891027927 ], [ 529400.0, 7260677.882391101680696 ], [ 529390.0, 7260682.664807373657823 ], [ 529380.0, 7260687.968647089786828 ], [ 529370.0, 7260694.129336779937148 ], [ 529360.000892210635357, 7260701.628543838858604 ], [ 529350.011174176586792, 7260710.458265855908394 ], [ 529340.087148198392242, 7260720.088040409609675 ], [ 529330.447983889840543, 7260730.011174177750945 ], [ 529321.551677605253644, 7260740.000892210751772 ], [ 529313.757326912716962, 7260750.0 ], [ 529306.777805175748654, 7260760.0 ], [ 529300.011174176470377, 7260770.0 ], [ 529293.310235233511776, 7260780.000000000931323 ], [ 529286.690656977239996, 7260790.0 ], [ 529280.0, 7260800.0 ], [ 529273.309343022760004, 7260810.0 ], [ 529266.690656977239996, 7260820.0 ], [ 529260.0, 7260830.0 ], [ 529253.309343022876419, 7260840.0 ], [ 529246.690656977239996, 7260850.0 ], [ 529240.0, 7260860.0 ], [ 529233.31023523339536, 7260870.0 ], [ 529226.700938943075016, 7260880.0 ], [ 529220.075974022038281, 7260890.0 ], [ 529213.670178714208305, 7260900.0 ], [ 529207.794350692536682, 7260910.0 ], [ 529202.206541518098675, 7260920.0 ], [ 529196.341887672897428, 7260930.0 ], [ 529190.023240563692525, 7260939.999107789248228 ], [ 529183.845367321744561, 7260949.987933613359928 ], [ 529178.775682249339297, 7260959.900785414502025 ], [ 529175.745814231224358, 7260969.453693735413253 ], [ 529175.309004517854191, 7260977.913190307095647 ], [ 529176.788979352102615, 7260984.243011591956019 ] ] } },
{ "type": "Feature", "properties": { "id": 4, "reference_id": 3, "dune_id": 3, "dune_name": "Big Mommy Dune", "acquisition_date": "2022-08-17", "length_m": 314.10687858253107 }, "geometry": { "type": "LineString", "coordinates": [ [ 529935.756988407694735, 7260609.9888258241117 ], [ 529942.08680969348643, 7260609.913744012825191 ], [ 529950.546306264819577, 7260609.564082497730851 ], [ 529960.099214585614391, 7260608.546644770540297 ], [ 529970.012066387222148, 7260606.776912964880466 ], [ 529980.000892210751772, 7260605.210682142525911 ], [ 529990.0, 7260605.209789931774139 ], [ 530000.0, 7260606.765738788992167 ], [ 530010.0, 7260608.459496571682394 ], [ 530020.0, 7260609.116990817710757 ], [ 530030.0, 7260608.373240584507585 ], [ 530040.0, 7260606.317754900082946 ], [ 530050.0, 7260603.658112328499556 ], [ 530060.0, 7260601.453355230391026 ], [ 530070.0, 7260600.0 ], [ 530080.0, 7260598.546644769608974 ], [ 530090.0, 7260596.340103251859546 ], [ 530100.0, 7260593.659896748140454 ], [ 530110.0, 7260591.453355230391026 ], [ 530120.0, 7260590.0 ], [ 530130.0, 7260588.546644769608974 ], [ 530140.0, 7260586.340103251859546 ], [ 530150.0, 7260583.659896748140454 ], [ 530160.0, 7260581.453355230391026 ], [ 530170.000000000116415, 7260580.0 ], [ 530180.0, 7260578.546644769608974 ], [ 530190.0, 7260576.340103251859546 ], [ 530199.999107789248228, 7260573.659896749071777 ], [ 530209.987933612894267, 7260571.453355230391026 ], [ 530219.900785414385609, 7260570.0 ], [ 530229.453693735180423, 7260568.546644769608974 ], [ 530237.91319030651357, 7260566.340995462611318 ], [ 530244.243011592421681, 7260563.671070924960077 ] ] } },
{ "type": "Feature", "properties": { "id": 5, "reference_id": 5, "dune_id": 5, "dune_name": "The Star Dune", "acquisition_date": "2022-08-17", "length_m": 433.83122352614396 }, "geometry": { "type": "LineString", "coordinates": [ [ 533651.999661495094188, 7262034.243011591956019 ], [ 533655.309004517737776, 7262027.913190307095647 ], [ 533660.535132088232785, 7262019.453693735413253 ], [ 533666.788087141467258, 7262009.900785414502025 ], [ 533673.311127444263548, 7261999.987933613359928 ], [ 533679.924025978078134, 7261989.999107789248228 ], [ 533686.31953932007309, 7261980.0 ], [ 533692.128783074789681, 7261970.0 ], [ 533697.423233035369776, 7261960.0 ], [ 533702.489618766237982, 7261950.0 ], [ 533707.499207057408057, 7261940.0 ], [ 533712.499900731956586, 7261930.0 ], [ 533717.499207057291642, 7261920.0 ], [ 533722.489618766237982, 7261910.0 ], [ 533727.423233035253361, 7261900.0 ], [ 533732.128783074906096, 7261890.0 ], [ 533736.31953932007309, 7261880.0 ], [ 533739.923133767442778, 7261870.0 ], [ 533743.299953267676756, 7261860.0 ], [ 533746.700938942958601, 7261850.0 ], [ 533750.088040409144014, 7261840.000000000931323 ], [ 533753.768501089187339, 7261830.0 ], [ 533758.329482780885883, 7261820.0 ], [ 533764.205310802557506, 7261810.000892210751772 ], [ 533771.638825803645886, 7261800.011174176819623 ], [ 533780.45915806631092, 7261790.087148198857903 ], [ 533790.088040409144014, 7261780.447983889840543 ], [ 533800.011174176470377, 7261771.552569815889001 ], [ 533810.000892210635357, 7261763.768501088954508 ], [ 533820.0, 7261756.864953374490142 ], [ 533830.0, 7261750.458265855908394 ], [ 533840.0, 7261744.851630873978138 ], [ 533850.0, 7261740.37111765705049 ], [ 533860.0, 7261736.406687518581748 ], [ 533869.999107789364643, 7261732.140849461778998 ], [ 533879.987933612894267, 7261727.435299422591925 ], [ 533889.900785414502025, 7261722.577659174799919 ], [ 533899.453693735180423, 7261717.957472912967205 ], [ 533907.913190306629986, 7261714.128444570116699 ], [ 533914.243011592421681, 7261711.628543836995959 ] ] } },
{ "type": "Feature", "properties": { "id": 6, "reference_id": 5, "dune_id": 5, "dune_name": "The Star Dune", "acquisition_date": "2022-08-17", "length_m": 191.48228725215992 }, "geometry": { "type": "LineString", "coordinates": [ [ 533945.756988407694735, 7261699.552908321842551 ], [ 533952.08680969348643, 7261698.459496570751071 ], [ 533960.546306264819577, 7261696.328929075039923 ], [ 533970.099214585614391, 7261693.659004538320005 ], [ 533980.012066387105733, 7261691.453355230391026 ], [ 533990.000892210751772, 7261690.0 ], [ 534000.0, 7261688.546644769608974 ], [ 534010.0, 7261686.340995462611318 ], [ 534020.0, 7261683.671070925891399 ], [ 534030.0, 7261681.539611218497157 ], [ 534040.0, 7261680.435917503200471 ], [ 534050.0, 7261680.0 ], [ 534060.0, 7261679.564082497730851 ], [ 534070.0, 7261678.460388781502843 ], [ 534080.0, 7261676.329821285791695 ], [ 534089.999107789364643, 7261673.670178714208305 ], [ 534099.987933612894267, 7261671.540503429248929 ], [ 534109.900785414502025, 7261670.447091679088771 ], [ 534119.453693735296838, 7261670.087148198857903 ], [ 534127.91319030651357, 7261670.011174176819623 ], [ 534134.243011592305265, 7261670.000892210751772 ] ] } },
{ "type": "Feature", "properties": { "id": 7, "reference_id": 5, "dune_id": 5, "dune_name": "The Star Dune", "acquisition_date": "2022-08-17", "length_m": 433.31572023876208 }, "geometry": { "type": "LineString", "coordinates": [ [ 534175.756988407694735, 7261658.371456163004041 ], [ 534182.08680969348643, 7261655.870663220062852 ], [ 534190.546306264819577, 7261652.031352911144495 ], [ 534200.099214585614391, 7261647.335192626342177 ], [ 534210.012066387105733, 7261642.117608899250627 ], [ 534220.000892210751772, 7261636.317754899151623 ], [ 534230.0, 7261629.912851801142097 ], [ 534240.0, 7261623.223087035119534 ], [ 534250.0, 7261616.328929075971246 ], [ 534260.0, 7261608.895414074882865 ], [ 534269.999107789248228, 7261601.092519540339708 ], [ 534279.987933612894267, 7261593.583030516281724 ], [ 534289.900785414502025, 7261586.318647108972073 ], [ 534299.454585945932195, 7261578.458604360930622 ], [ 534307.924364482983947, 7261569.552908320911229 ], [ 534314.330159790813923, 7261559.912851802073419 ], [ 534318.360281985718757, 7261549.9888258241117 ], [ 534320.99419716396369, 7261539.999107789248228 ], [ 534323.570964128593914, 7261530.0 ], [ 534326.31686268793419, 7261520.0 ], [ 534328.447430184110999, 7261510.0 ], [ 534329.465760122402571, 7261500.0 ], [ 534329.465760122402571, 7261490.0 ], [ 534328.448322394862771, 7261480.0 ], [ 534326.328929075156339, 7261470.000000000931323 ], [ 534323.670178714208305, 7261460.0 ], [ 534321.540503428666852, 7261450.0 ], [ 534320.446199468453415, 7261440.0 ], [ 534320.075974021921866, 7261430.0 ], [ 534319.924025978078134, 7261420.0 ], [ 534319.553800531546585, 7261410.0 ], [ 534318.459496571216732, 7261400.0 ], [ 534316.329821285791695, 7261390.0 ], [ 534313.670178714208305, 7261380.0 ], [ 534311.541395639418624, 7261370.0 ], [ 534310.45915806631092, 7261360.0 ], [ 534310.185470573371276, 7261350.000892210751772 ], [ 534310.545414054067805, 7261340.012066386640072 ], [ 534311.988487318623811, 7261330.099214585497975 ], [ 534315.210682142991573, 7261320.546306264586747 ], [ 534320.0, 7261312.086809693835676 ], [ 534324.789317857124843, 7261305.756988408043981 ] ] } },
{ "type": "Feature", "properties": { "id": 8, "reference_id": 2, "dune_id": 2, "dune_name": "Big Mommy Dune", "acquisition_date": "2022-08-17", "length_m": 736.81514075043106 }, "geometry": { "type": "LineString", "coordinates": [ [ 529104.243011592421681, 7260955.871555430814624 ], [ 529097.913190306629986, 7260952.042527087032795 ], [ 529089.453693735180423, 7260947.422340825200081 ], [ 529079.900785414385609, 7260942.565592788159847 ], [ 529069.987933612894267, 7260937.870324714109302 ], [ 529059.999107789364643, 7260933.681352891027927 ], [ 529050.0, 7260930.087148198857903 ], [ 529040.0, 7260926.776912964880466 ], [ 529030.0, 7260923.671070925891399 ], [ 529020.0, 7260921.104585926048458 ], [ 529010.0, 7260918.906588250771165 ], [ 529000.0, 7260916.405795307829976 ], [ 528990.0, 7260913.594204692170024 ], [ 528980.0, 7260911.094303959980607 ], [ 528970.0, 7260908.906588250771165 ], [ 528960.0, 7260906.416077273897827 ], [ 528950.0, 7260903.670178715139627 ], [ 528940.0, 7260901.454247441142797 ], [ 528930.0, 7260899.999107789248228 ], [ 528920.0, 7260898.535470593720675 ], [ 528910.0, 7260896.253847263753414 ], [ 528900.0, 7260893.223087035119534 ], [ 528890.0, 7260889.9888258241117 ], [ 528880.0, 7260886.689764766022563 ], [ 528870.0, 7260883.309343023225665 ], [ 528860.0, 7260880.0 ], [ 528850.0, 7260876.690656977705657 ], [ 528840.0, 7260873.309343023225665 ], [ 528830.0, 7260870.0 ], [ 528820.0, 7260866.690656977705657 ], [ 528810.0, 7260863.309343023225665 ], [ 528800.0, 7260860.0 ], [ 528790.0, 7260856.690656977705657 ], [ 528780.0, 7260853.309343022294343 ], [ 528770.0, 7260850.0 ], [ 528760.0, 7260846.689764766022563 ], [ 528750.0, 7260843.299061057157815 ], [ 528740.0, 7260839.92313376814127 ], [ 528730.0, 7260836.319539319723845 ], [ 528720.0, 7260832.128783075138927 ], [ 528710.0, 7260827.423233035951853 ], [ 528700.0, 7260822.489618766121566 ], [ 528690.0, 7260817.499207057058811 ], [ 528680.0, 7260812.499900732189417 ], [ 528670.0, 7260807.500099267810583 ], [ 528660.0, 7260802.499900732189417 ], [ 528650.0, 7260797.499207057990134 ], [ 528640.0, 7260792.489618767052889 ], [ 528630.0, 7260787.423233035951853 ], [ 528620.0, 7260782.129675285890698 ], [ 528610.0, 7260776.329821286723018 ], [ 528600.0, 7260769.999107789248228 ], [ 528590.0, 7260763.659896748140454 ], [ 528580.0, 7260757.793458482250571 ], [ 528570.0, 7260752.205649306997657 ], [ 528560.0, 7260746.329821285791695 ], [ 528550.0, 7260739.924025978893042 ], [ 528540.0, 7260733.299061058089137 ], [ 528530.0, 7260726.689764766022563 ], [ 528520.0, 7260720.0 ], [ 528510.0, 7260713.309343023225665 ], [ 528500.0, 7260706.689764766953886 ], [ 528490.0, 7260699.989718034863472 ], [ 528480.000892210751772, 7260693.234261211007833 ], [ 528470.012066387105733, 7260686.34188767336309 ], [ 528460.099214585614391, 7260678.994628659449518 ], [ 528450.546306264819577, 7260671.638825803995132 ], [ 528442.08680969348643, 7260665.669840209186077 ], [ 528435.756988407694735, 7260662.075635517016053 ] ] } },
{ "type": "Feature", "properties": { "id": 9, "reference_id": 4, "dune_id": 4, "dune_name": "The Star Dune", "acquisition_date": "2022-08-17", "length_m": 655.01197847346214 }, "geometry": { "type": "LineString", "coordinates": [ [ 533631.078100949525833, 7262049.912851801142097 ], [ 533626.078100949409418, 7262049.552908320911229 ], [ 533618.683442020905204, 7262048.459496570751071 ], [ 533609.677239574841224, 7262046.328929075971246 ], [ 533599.94435951358173, 7262043.659004537388682 ], [ 533589.993520701071247, 7262041.452463019639254 ], [ 533579.999553894740529, 7262039.9888258241117 ], [ 533570.0, 7262038.459496571682394 ], [ 533560.0, 7262035.893011572770774 ], [ 533550.0, 7262032.118501109071076 ], [ 533540.0, 7262027.772002339363098 ], [ 533530.0, 7262023.583030516281724 ], [ 533520.0, 7262019.63916430901736 ], [ 533510.0, 7262015.236409535631537 ], [ 533500.0, 7262010.000892210751772 ], [ 533490.0, 7262004.773872429504991 ], [ 533480.0, 7262000.436809713952243 ], [ 533470.0, 7261996.776912964880466 ], [ 533460.0, 7261993.320517199113965 ], [ 533450.0, 7261990.000892210751772 ], [ 533440.0, 7261986.690656976774335 ], [ 533430.0, 7261983.309343023225665 ], [ 533420.0, 7261980.0 ], [ 533410.0, 7261976.690656977705657 ], [ 533400.000000000116415, 7261973.310235233977437 ], [ 533390.0, 7261970.010281966067851 ], [ 533380.000000000116415, 7261966.766630999743938 ], [ 533370.0, 7261963.669286503456533 ], [ 533360.0, 7261961.093411749228835 ], [ 533350.0, 7261958.820332262665033 ], [ 533340.0, 7261955.969877805560827 ], [ 533330.0, 7261952.139957251958549 ], [ 533320.0, 7261947.860042748972774 ], [ 533310.0, 7261944.030122194439173 ], [ 533300.0, 7261941.179667737334967 ], [ 533290.0, 7261938.906588250771165 ], [ 533280.0, 7261936.33071349747479 ], [ 533270.0, 7261933.234261211007833 ], [ 533260.0, 7261930.0 ], [ 533250.0, 7261926.765738788992167 ], [ 533240.0, 7261923.670178715139627 ], [ 533230.0, 7261921.103693716228008 ], [ 533220.0, 7261918.896306284703314 ], [ 533210.0, 7261916.329821286723018 ], [ 533200.0, 7261913.233369002118707 ], [ 533190.0, 7261909.989718034863472 ], [ 533180.0, 7261906.689764766953886 ], [ 533170.0, 7261903.310235233977437 ], [ 533160.0, 7261900.010281965136528 ], [ 533150.0, 7261896.766630999743938 ], [ 533140.0, 7261893.670178715139627 ], [ 533130.0, 7261891.10458592697978 ], [ 533120.0, 7261888.907480461522937 ], [ 533110.0, 7261886.416077273897827 ], [ 533100.0, 7261883.670178714208305 ], [ 533090.0, 7261881.454247441142797 ], [ 533080.0, 7261880.0 ], [ 533070.0, 7261878.545752558857203 ], [ 533060.0, 7261876.329821286723018 ], [ 533050.000892210751772, 7261873.583922727033496 ], [ 533040.012066387105733, 7261871.093411749228835 ], [ 533030.099214585614391, 7261868.906588250771165 ], [ 533020.546306264819577, 7261866.416969484649599 ], [ 533012.08680969348643, 7261863.681352891027927 ], [ 533005.756988407694735, 7261861.541395640000701 ] ] } },
{ "type": "Feature", "properties": { "id": 10, "reference_id": 6, "dune_id": 6, "dune_name": "The Star Dune", "acquisition_date": "2022-08-17", "length_m": 784.59186008574329 }, "geometry": { "type": "LineString", "coordinates": [ [ 533651.093411749578081, 7262065.756988408043981 ], [ 533652.129675285425037, 7262072.086809692904353 ], [ 533652.659642571699806, 7262080.546306265518069 ], [ 533652.129675285425037, 7262090.099214586429298 ], [ 533651.093411749578081, 7262100.012066387571394 ], [ 533650.359943480812944, 7262110.000892210751772 ], [ 533650.075974022038281, 7262120.0 ], [ 533650.01028196583502, 7262130.0 ], [ 533650.001784421387129, 7262140.0 ], [ 533650.011174176470377, 7262150.0 ], [ 533650.087148198508658, 7262160.0 ], [ 533650.447091679205187, 7262170.0 ], [ 533651.540503428783268, 7262180.0 ], [ 533653.670178714208305, 7262190.0 ], [ 533656.330713496543467, 7262200.0 ], [ 533658.470670747803524, 7262210.0 ], [ 533659.640056519303471, 7262220.0 ], [ 533660.359943480696529, 7262230.0 ], [ 533661.529329252196476, 7262240.0 ], [ 533663.669286503572948, 7262250.0 ], [ 533666.329821285791695, 7262260.0 ], [ 533668.459496571333148, 7262270.0 ], [ 533669.552908320911229, 7262280.0 ], [ 533669.912851801607758, 7262290.0 ], [ 533669.988825823646039, 7262300.0 ], [ 533669.999107789364643, 7262310.0 ], [ 533670.0, 7262320.0 ], [ 533669.999107789364643, 7262330.0 ], [ 533669.988825823646039, 7262340.000000000931323 ], [ 533669.912851801607758, 7262350.0 ], [ 533669.552908320911229, 7262360.0 ], [ 533668.458604360697791, 7262370.0 ], [ 533666.318647109437734, 7262380.0 ], [ 533663.583030515816063, 7262390.0 ], [ 533661.092519538942724, 7262400.0 ], [ 533658.895414073951542, 7262410.0 ], [ 533656.329821285791695, 7262420.0 ], [ 533653.234261211473495, 7262430.0 ], [ 533650.0, 7262440.0 ], [ 533646.765738788526505, 7262450.0 ], [ 533643.670178714208305, 7262460.0 ], [ 533641.104585926048458, 7262470.0 ], [ 533638.906588250538334, 7262480.0 ], [ 533636.405795307829976, 7262490.0 ], [ 533633.594204692286439, 7262500.0 ], [ 533631.094303960213438, 7262510.0 ], [ 533628.905696039786562, 7262520.0 ], [ 533626.405795307713561, 7262530.0 ], [ 533623.594204692170024, 7262540.0 ], [ 533621.094303960213438, 7262550.0 ], [ 533618.906588250421919, 7262560.0 ], [ 533616.416077273664996, 7262570.0 ], [ 533613.670178714208305, 7262580.0 ], [ 533611.454247441026382, 7262590.0 ], [ 533610.0, 7262600.000000000931323 ], [ 533608.54664476972539, 7262610.0 ], [ 533606.340995462378487, 7262620.0 ], [ 533603.671070924960077, 7262630.0 ], [ 533601.540503428783268, 7262640.0 ], [ 533600.44619946856983, 7262650.0 ], [ 533600.075974022038281, 7262660.0 ], [ 533599.924025978078134, 7262670.0 ], [ 533599.553800531546585, 7262680.0 ], [ 533598.459496571216732, 7262690.0 ], [ 533596.329821285791695, 7262700.0 ], [ 533593.669286503456533, 7262710.0 ], [ 533591.529329252196476, 7262720.0 ], [ 533590.359943480696529, 7262730.0 ], [ 533589.640056519303471, 7262740.0 ], [ 533588.469778537051752, 7262750.0 ], [ 533586.31953932007309, 7262760.0 ], [ 533583.582138305064291, 7262770.0 ], [ 533581.082237573107705, 7262780.0 ], [ 533578.819440052029677, 7262789.999107789248228 ], [ 533575.969877805095166, 7262799.987933613359928 ], [ 533572.140849462011829, 7262809.900785414502025 ], [ 533567.871216925210319, 7262819.453693736344576 ], [ 533564.117270393413492, 7262827.913190307095647 ], [ 533561.62765162717551, 7262834.243011592887342 ] ] } },
{ "type": "Feature", "properties": { "id": 11, "reference_id": 8, "dune_id": 8, "dune_name": "Inverted Y Dune", "acquisition_date": "2022-08-17", "length_m": 741.27716827267477 }, "geometry": { "type": "LineString", "coordinates": [ [ 530554.243011592305265, 7261162.085917483083904 ], [ 530547.91319030651357, 7261165.745814232155681 ], [ 530539.453693735296838, 7261171.998769285157323 ], [ 530529.900785414385609, 7261180.087148198857903 ], [ 530519.987933612894267, 7261188.459496572613716 ], [ 530509.999107789248228, 7261195.795581408776343 ], [ 530500.0, 7261201.584261231124401 ], [ 530490.0, 7261205.783515021204948 ], [ 530480.0, 7261208.359389776363969 ], [ 530470.0, 7261209.529667757451534 ], [ 530460.0, 7261209.824811393395066 ], [ 530450.0, 7261209.541734145022929 ], [ 530440.0, 7261208.458604361861944 ], [ 530430.000000000116415, 7261206.329821285791695 ], [ 530420.0, 7261203.670178713276982 ], [ 530410.0, 7261201.540503428317606 ], [ 530400.0, 7261200.447091678157449 ], [ 530390.0, 7261200.087148198857903 ], [ 530380.0, 7261200.0111741758883 ], [ 530370.0, 7261200.000892210751772 ], [ 530360.0, 7261200.0 ], [ 530350.0, 7261200.000892210751772 ], [ 530340.0, 7261200.0111741758883 ], [ 530330.0, 7261200.087148198857903 ], [ 530320.0, 7261200.447983888909221 ], [ 530310.0, 7261201.551677605137229 ], [ 530300.0, 7261203.758219122886658 ], [ 530290.0, 7261206.788087140768766 ], [ 530280.0, 7261210.088040409609675 ], [ 530270.0, 7261213.682245101779699 ], [ 530260.0, 7261217.882391102612019 ], [ 530250.0, 7261222.664807373657823 ], [ 530240.0, 7261227.96864709071815 ], [ 530230.0, 7261234.129336780868471 ], [ 530220.0, 7261241.628543837927282 ], [ 530210.000892210751772, 7261250.458265855908394 ], [ 530200.011174176586792, 7261260.088040409609675 ], [ 530190.088040409144014, 7261270.011174176819623 ], [ 530180.458265855675563, 7261280.000892210751772 ], [ 530171.628543837927282, 7261290.0 ], [ 530164.129336780519225, 7261300.0 ], [ 530157.968647089553997, 7261310.000000000931323 ], [ 530152.664807373890653, 7261320.0 ], [ 530147.882391101680696, 7261330.0 ], [ 530143.682245101314038, 7261340.0 ], [ 530140.087148198392242, 7261350.0 ], [ 530136.776912964996882, 7261360.0 ], [ 530133.671070924960077, 7261370.0 ], [ 530131.104585926048458, 7261380.0 ], [ 530128.907480461173691, 7261390.0 ], [ 530126.416969484183937, 7261400.0 ], [ 530123.680460680043325, 7261410.0 ], [ 530121.530221462948248, 7261420.0 ], [ 530120.359943480812944, 7261430.0 ], [ 530119.640056519303471, 7261440.0 ], [ 530118.470670747803524, 7261450.0 ], [ 530116.330713496543467, 7261460.0 ], [ 530113.670178714208305, 7261470.000000000931323 ], [ 530111.540503428666852, 7261480.0 ], [ 530110.44619946856983, 7261490.0 ], [ 530110.075974022038281, 7261500.0 ], [ 530109.924025978078134, 7261510.0 ], [ 530109.553800531546585, 7261520.0 ], [ 530108.459496571333148, 7261530.0 ], [ 530106.329375180532224, 7261539.999553894624114 ], [ 530103.664591626031324, 7261549.993520701304078 ], [ 530101.496929329470731, 7261559.944359513930976 ], [ 530100.223545839544386, 7261569.6772395754233 ], [ 530099.316896484117024, 7261578.683442020788789 ], [ 530098.176084819366224, 7261586.078100949525833 ], [ 530096.835981567739509, 7261591.078100949525833 ] ] } },
{ "type": "Feature", "properties": { "id": 12, "reference_id": 9, "dune_id": 9, "dune_name": "Inverted Y Dune", "acquisition_date": "2022-08-17", "length_m": 803.40364225800283 }, "geometry": { "type": "LineString", "coordinates": [ [ 530091.078100949525833, 7261598.474807371385396 ], [ 530086.078100949409418, 7261602.380503410473466 ], [ 530078.683442020905204, 7261607.635205089114606 ], [ 530069.677239574841224, 7261613.904898731037974 ], [ 530059.944359513698146, 7261621.137878060340881 ], [ 530049.993520701071247, 7261628.825919350609183 ], [ 530039.999553894624114, 7261635.969431700184941 ], [ 530030.0, 7261642.129675285890698 ], [ 530020.0, 7261647.784068727865815 ], [ 530010.0, 7261653.669286503456533 ], [ 530000.0, 7261660.075974022969604 ], [ 529990.0, 7261666.700938943773508 ], [ 529980.0, 7261673.311127444729209 ], [ 529970.0, 7261680.010281966067851 ], [ 529960.0, 7261686.766630999743938 ], [ 529950.0, 7261693.670178714208305 ], [ 529940.0, 7261701.10458592697978 ], [ 529930.0, 7261708.907480461522937 ], [ 529920.0, 7261716.416969484649599 ], [ 529910.0, 7261723.681352891027927 ], [ 529900.0, 7261731.541395640000701 ], [ 529890.0, 7261740.447091680020094 ], [ 529880.0, 7261750.087148198857903 ], [ 529870.000892210751772, 7261760.011174176819623 ], [ 529860.011174176470377, 7261770.000892210751772 ], [ 529850.087148198392242, 7261780.0 ], [ 529840.447983889840543, 7261790.0 ], [ 529831.551677605137229, 7261800.0 ], [ 529823.758219123352319, 7261810.0 ], [ 529816.788087141467258, 7261820.0 ], [ 529810.088040409144014, 7261830.0 ], [ 529803.682245101314038, 7261840.000000000931323 ], [ 529797.881498891045339, 7261850.0 ], [ 529792.653633197303861, 7261860.0 ], [ 529787.881498891045339, 7261870.0 ], [ 529783.681352890678681, 7261880.0 ], [ 529780.076866232673638, 7261890.0 ], [ 529776.700938943075016, 7261900.0 ], [ 529773.310235233511776, 7261910.0 ], [ 529770.0, 7261920.0 ], [ 529766.689764766488224, 7261930.0 ], [ 529763.299061056924984, 7261940.0 ], [ 529759.923133767326362, 7261950.0 ], [ 529756.319539319956675, 7261960.0 ], [ 529752.129675285425037, 7261970.0 ], [ 529747.433515001204796, 7261980.0 ], [ 529742.566484998911619, 7261990.0 ], [ 529737.869432503823191, 7262000.0 ], [ 529733.670178714208305, 7262010.0 ], [ 529730.0, 7262020.0 ], [ 529726.329821285791695, 7262030.0 ], [ 529722.129675285541452, 7262040.0 ], [ 529717.423233035369776, 7262050.0 ], [ 529712.489618766121566, 7262060.0 ], [ 529707.499207057291642, 7262070.0 ], [ 529702.500792942708358, 7262080.0 ], [ 529697.511273444397375, 7262090.0 ], [ 529692.587048930465244, 7262100.0 ], [ 529687.947190947132185, 7262110.0 ], [ 529684.040404160739854, 7262120.0 ], [ 529681.170277982251719, 7262130.0 ], [ 529678.830614228500053, 7262140.0 ], [ 529675.969877805095166, 7262150.0 ], [ 529672.129675285541452, 7262160.0 ], [ 529667.784068726818077, 7262170.0 ], [ 529663.670178714208305, 7262180.0 ], [ 529660.087148198508658, 7262189.999107789248228 ], [ 529656.788087141467258, 7262199.987933613359928 ], [ 529653.758219123352319, 7262209.900785414502025 ], [ 529651.551677605253644, 7262219.453693735413253 ], [ 529650.447983889840543, 7262227.913190307095647 ], [ 529650.087148198392242, 7262234.243011592887342 ] ] } }
]
}
