{
"type": "FeatureCollection",
"name": "crests_2021_10_2021-10-11",
"crs": { "type": "name", "properties": { "name": "urn:ogc:def:crs:EPSG::32733" } },
"features": [
{ "type": "Feature", "properties": { "id": 0, "reference_id": 5, "dune_id": 5, "dune_name": "The Star Dune", "acquisition_date": "2021-10-11", "length_m": 108.29701344564785 }, "geometry": { "type": "LineString", "coordinates": [ [ 533657.294247423415072, 7262041.078100949525833 ], [ 533659.803736446541734, 7262036.078100949525833 ], [ 533663.435059088165872, 7262028.683442020788789 ], [ 533668.105044730589725, 7262019.677239574491978 ], [ 533673.714645024156198, 7262009.944359513930976 ], [ 533680.005587088293396, 7261999.993520701304078 ], [ 533686.329375180532224, 7261990.000446105375886 ], [ 533692.118501109071076, 7261980.012066386640072 ], [ 533697.335192626225762, 7261970.099214585497975 ], [ 533702.031352910562418, 7261960.546306265518069 ], [ 533705.870663219480775, 7261952.086809693835676 ], [ 533708.371456162189133, 7261945.756988408043981 ] ] } },
{ "type": "Feature", "properties": { "id": 1, "reference_id": 5, "dune_id": 5, "dune_name": "The Star Dune", "acquisition_date": "2021-10-11", "length_m": 51.658280285026578 }, "geometry": { "type": "LineString", "coordinates": [ [ 533965.756988407694735, 7261699.911959590390325 ], [ 533972.085917482851073, 7261699.541734144091606 ], [ 533980.534239877597429, 7261698.372348373755813 ], [ 533990.0, 7261695.882729606702924 ], [ 533999.465760122402571, 7261692.129675285890698 ], [ 534007.914082517265342, 7261687.870324714109302 ], [ 534014.243011592305265, 7261684.117270393297076 ] ] } },
{ "type": "Feature", "properties": { "id": 2, "reference_id": 7, "dune_id": 7, "dune_name": "Inverted Y Dune", "acquisition_date": "2021-10-11", "length_m": 120.31159929719416 }, "geometry": { "type": "LineString", "coordinates": [ [ 530155.75698840781115, 7261640.087148198857903 ], [ 530162.08680969348643, 7261640.447091680020094 ], [ 530170.546306264819577, 7261641.540503429248929 ], [ 530180.099214585614391, 7261643.670178715139627 ], [ 530190.012066387105733, 7261646.329821286723018 ], [ 530200.000892210751772, 7261648.459496572613716 ], [ 530210.0, 7261649.552908321842551 ], [ 530220.0, 7261649.911959591321647 ], [ 530229.999107789364643, 7261649.977651647292078 ], [ 530239.987933612894267, 7261649.911959591321647 ], [ 530249.900785414385609, 7261649.552908321842551 ], [ 530259.453693735180423, 7261648.459496572613716 ], [ 530267.913190306629986, 7261646.329821286723018 ], [ 530274.243011592421681, 7261643.670178715139627 ] ] } },
{ "type": "Feature", "properties": { "id": 3, "reference_id": 7, "dune_id": 7, "dune_name": "Inverted Y Dune", "acquisition_date": "2021-10-11", "length_m": 116.97564030396764 }, "geometry": { "type": "LineString", "coordinates": [ [ 530557.924364482983947, 7261435.756988408043981 ], [ 530554.331052001449279, 7261442.086809692904353 ], [ 530548.371456162189133, 7261450.546306265518069 ], [ 530541.082237573107705, 7261460.099214585497975 ], [ 530534.029229984269477, 7261470.012066387571394 ], [ 530527.945406525861472, 7261480.000892210751772 ], [ 530522.576766964746639, 7261489.999107789248228 ], [ 530517.435299422591925, 7261499.987933613359928 ], [ 530512.141741672647186, 7261509.900785414502025 ], [ 530506.417861694935709, 7261519.453693736344576 ], [ 530500.458265855675563, 7261527.913190307095647 ], [ 530495.298722552019171, 7261534.243011591956019 ] ] } },
{ "type": "Feature", "properties": { "id": 4, "reference_id": 4, "dune_id": 4, "dune_name": "The Star Dune", "acquisition_date": "2021-10-11", "length_m": 615.82472014279915 }, "geometry": { "type": "LineString", "coordinates": [ [ 533594.243011592305265, 7262039.552016111090779 ], [ 533587.913190306629986, 7262038.448322394862771 ], [ 533579.453693735296838, 7262036.242673087865114 ], [ 533569.900785414385609, 7262033.222194824367762 ], [ 533559.987933612777852, 7262029.988825823180377 ], [ 533549.999107789248228, 7262026.688872555270791 ], [ 533540.0, 7262023.299061058089137 ], [ 533530.0, 7262019.924025978893042 ], [ 533520.0, 7262016.329821285791695 ], [ 533510.0, 7262012.205649306997657 ], [ 533500.0, 7262007.794350693002343 ], [ 533490.0, 7262003.671070925891399 ], [ 533480.0, 7262000.086255988106132 ], [ 533470.0, 7261996.776912964880466 ], [ 533460.0, 7261993.671070925891399 ], [ 533450.0, 7261991.103693716228008 ], [ 533440.0, 7261988.896306284703314 ], [ 533430.0, 7261986.329821286723018 ], [ 533420.0, 7261983.233369000256062 ], [ 533410.0, 7261979.989718034863472 ], [ 533400.000000000116415, 7261976.689764766953886 ], [ 533390.0, 7261973.310235233977437 ], [ 533380.000000000116415, 7261970.010281966067851 ], [ 533370.0, 7261966.766630999743938 ], [ 533360.0, 7261963.670178714208305 ], [ 533350.0, 7261961.103693716228008 ], [ 533340.0, 7261958.896306285634637 ], [ 533330.0, 7261956.328929075971246 ], [ 533320.0, 7261953.223087035119534 ], [ 533310.0, 7261949.913744011893868 ], [ 533300.0, 7261946.329821284860373 ], [ 533290.0, 7261942.215931273065507 ], [ 533280.0, 7261937.870324714109302 ], [ 533270.0, 7261934.031014405190945 ], [ 533260.0, 7261931.180559948086739 ], [ 533250.0, 7261928.916870215907693 ], [ 533240.0, 7261926.406687518581748 ], [ 533230.0, 7261923.594204692170024 ], [ 533220.0, 7261921.093411749228835 ], [ 533210.0, 7261918.895414073951542 ], [ 533200.0, 7261916.329821286723018 ], [ 533190.0, 7261913.233369002118707 ], [ 533180.0, 7261909.989718034863472 ], [ 533170.0, 7261906.689764766953886 ], [ 533160.0, 7261903.310235233977437 ], [ 533150.0, 7261900.0111741758883 ], [ 533140.0, 7261896.776912964880466 ], [ 533130.0, 7261893.746152736246586 ], [ 533120.0, 7261891.464529407210648 ], [ 533110.0, 7261890.0 ], [ 533100.0, 7261888.535470593720675 ], [ 533090.0, 7261886.253847263753414 ], [ 533080.0, 7261883.223979245871305 ], [ 533070.0, 7261879.999107789248228 ], [ 533060.0, 7261876.765738788992167 ], [ 533050.000892210751772, 7261873.670178715139627 ], [ 533040.012066387105733, 7261871.10458592697978 ], [ 533030.099214585614391, 7261868.907480461522937 ], [ 533020.546306264819577, 7261866.416969484649599 ], [ 533012.08680969348643, 7261863.681352891027927 ], [ 533005.756988407694735, 7261861.541395640000701 ] ] } },
{ "type": "Feature", "properties": { "id": 5, "reference_id": 9, "dune_id": 9, "dune_name": "Inverted Y Dune", "acquisition_date": "2021-10-11", "length_m": 235.82238295803666 }, "geometry": { "type": "LineString", "coordinates": [ [ 529735.871555430232547, 7262015.756988408043981 ], [ 529732.04252708714921, 7262022.086809693835676 ], [ 529727.42234082473442, 7262030.546306264586747 ], [ 529722.565592788159847, 7262040.099214585497975 ], [ 529717.869432503823191, 7262050.012066387571394 ], [ 529713.670178714208305, 7262060.000892210751772 ], [ 529710.000892210751772, 7262070.0 ], [ 529706.340103251626715, 7262080.0 ], [ 529702.20654151821509, 7262090.0 ], [ 529697.79345848178491, 7262100.0 ], [ 529693.659896748373285, 7262110.0 ], [ 529689.999107789364643, 7262120.0 ], [ 529686.329821285791695, 7262130.0 ], [ 529682.130567496176809, 7262140.0 ], [ 529677.433515001088381, 7262150.0 ], [ 529672.566484998911619, 7262160.0 ], [ 529667.870324714574963, 7262170.0 ], [ 529663.681352890678681, 7262180.0 ], [ 529660.088040409144014, 7262189.999107789248228 ], [ 529656.788087141467258, 7262199.987933613359928 ], [ 529653.758219123352319, 7262209.900785414502025 ], [ 529651.551677605253644, 7262219.453693735413253 ], [ 529650.447983889840543, 7262227.913190307095647 ], [ 529650.087148198392242, 7262234.243011592887342 ] ] } },
{ "type": "Feature", "properties": { "id": 6, "reference_id": 9, "dune_id": 9, "dune_name": "Inverted Y Dune", "acquisition_date": "2021-10-11", "length_m": 103.24224036389822 }, "geometry": { "type": "LineString", "coordinates": [ [ 529834.690103271510452, 7261805.756988408043981 ], [ 529829.454585945932195, 7261812.086809693835676 ], [ 529823.135938836610876, 7261820.546306265518069 ], [ 529816.329821285791695, 7261830.099214585497975 ], [ 529808.99284423829522, 7261840.012066387571394 ], [ 529801.62765162717551, 7261850.0 ], [ 529795.582692010793835, 7261859.987933613359928 ], [ 529791.628543837927282, 7261869.900785414502025 ], [ 529789.004910625400953, 7261879.453693735413253 ], [ 529786.429035871406086, 7261887.913190307095647 ], [ 529783.682245101314038, 7261894.243011591956019 ] ] } },
{ "type": "Feature", "properties": { "id": 7, "reference_id": 9, "dune_id": 9, "dune_name": "Inverted Y Dune", "acquisition_date": "2021-10-11", "length_m": 54.429979502572884 }, "geometry": { "type": "LineString", "coordinates": [ [ 529845.756096197059378, 7261794.243903803639114 ], [ 529852.074743306264281, 7261787.925256693735719 ], [ 529860.447091679205187, 7261779.552908320911229 ], [ 529869.552908320794813, 7261770.447091679088771 ], [ 529877.925256693735719, 7261762.074743306264281 ], [ 529884.243903802940622, 7261755.756096197292209 ] ] } },
{ "type": "Feature", "properties": { "id": 8, "reference_id": 6, "dune_id": 6, "dune_name": "The Star Dune", "acquisition_date": "2021-10-11", "length_m": 173.2530783379184 }, "geometry": { "type": "LineString", "coordinates": [ [ 533590.087148198392242, 7262734.243011592887342 ], [ 533590.447091679205187, 7262727.913190307095647 ], [ 533591.541395639418624, 7262719.453693735413253 ], [ 533593.681352890795097, 7262709.900785414502025 ], [ 533596.416969484183937, 7262699.987933613359928 ], [ 533598.906588250538334, 7262689.999107789248228 ], [ 533601.093411749578081, 7262680.0 ], [ 533603.583030515816063, 7262670.0 ], [ 533606.318647109437734, 7262660.0 ], [ 533608.459496571333148, 7262650.0 ], [ 533609.56408249726519, 7262640.0 ], [ 533610.0, 7262630.0 ], [ 533610.436809713486582, 7262620.0 ], [ 533611.550785394501872, 7262610.000892210751772 ], [ 533613.757326912600547, 7262600.012066387571394 ], [ 533616.776912964996882, 7262590.099214585497975 ], [ 533620.0, 7262580.546306265518069 ], [ 533623.223087035003118, 7262572.086809694766998 ], [ 533626.242673087399453, 7262565.756988408043981 ] ] } },
{ "type": "Feature", "properties": { "id": 9, "reference_id": 6, "dune_id": 6, "dune_name": "The Star Dune", "acquisition_date": "2021-10-11", "length_m": 70.491637231256959 }, "geometry": { "type": "LineString", "coordinates": [ [ 533656.328929075156339, 7262445.756988408043981 ], [ 533653.659004537737928, 7262452.086809693835676 ], [ 533651.453355230391026, 7262460.546306264586747 ], [ 533650.0, 7262470.098322375677526 ], [ 533648.54664476972539, 7262480.0 ], [ 533646.340995462262072, 7262489.901677625253797 ], [ 533643.671070924843661, 7262499.453693735413253 ], [ 533641.540503428783268, 7262507.913190307095647 ], [ 533640.447091679205187, 7262514.243011591956019 ] ] } },
{ "type": "Feature", "properties": { "id": 10, "reference_id": 1, "dune_id": 1, "dune_name": "Big Mommy Dune", "acquisition_date": "2021-10-11", "length_m": 359.11468456816112 }, "geometry": { "type": "LineString", "coordinates": [ [ 528875.756988407694735, 7262215.783515021204948 ], [ 528882.08680969348643, 7262211.583369021303952 ], [ 528890.546306264819577, 7262205.783515021204948 ], [ 528900.099214585614391, 7262198.360281986184418 ], [ 528910.012066387105733, 7262189.540841933339834 ], [ 528920.0, 7262179.911959591321647 ], [ 528929.988825823529623, 7262169.9888258241117 ], [ 528939.911959590972401, 7262159.999107789248228 ], [ 528949.541734144324437, 7262150.0 ], [ 528958.37234837282449, 7262140.0 ], [ 528965.881837395951152, 7262130.0 ], [ 528972.117608898319304, 7262120.0 ], [ 528977.772002339712344, 7262110.0 ], [ 528983.582138305064291, 7262100.0 ], [ 528989.627990132081322, 7262090.0 ], [ 528995.149261337821372, 7262080.0 ], [ 528999.552908320911229, 7262070.0 ], [ 529003.223087035119534, 7262060.0 ], [ 529006.68976476660464, 7262050.0 ], [ 529010.075974022038281, 7262040.0 ], [ 529013.681352890795097, 7262030.0 ], [ 529017.881498890928924, 7262020.0 ], [ 529022.653633197303861, 7262010.0 ], [ 529027.881498891045339, 7262000.0 ], [ 529033.682245101314038, 7261990.0 ], [ 529040.087148198392242, 7261980.0 ], [ 529046.77602075424511, 7261970.000892210751772 ], [ 529053.659004537737928, 7261960.012066386640072 ], [ 529061.005371340434067, 7261950.099214585497975 ], [ 529068.361174196354114, 7261940.546306264586747 ], [ 529074.330159790813923, 7261932.086809693835676 ], [ 529077.924364482983947, 7261925.756988408043981 ] ] } },
{ "type": "Feature", "properties": { "id": 11, "reference_id": 2, "dune_id": 2, "dune_name": "Big Mommy Dune", "acquisition_date": "2021-10-11", "length_m": 108.48122177600298 }, "geometry": { "type": "LineString", "coordinates": [ [ 528514.243011592421681, 7260717.924364482983947 ], [ 528507.91319030651357, 7260714.330159790813923 ], [ 528499.453693735296838, 7260708.361174196004868 ], [ 528489.900785414385609, 7260701.005371340550482 ], [ 528479.987933612894267, 7260693.65811232663691 ], [ 528470.0, 7260686.765738788992167 ], [ 528460.012066387105733, 7260680.0111741758883 ], [ 528450.099214585614391, 7260673.322301620617509 ], [ 528440.546306264819577, 7260666.788979352451861 ], [ 528432.08680969348643, 7260660.535132088698447 ], [ 528425.756988407694735, 7260655.309004518203437 ] ] } },
{ "type": "Feature", "properties": { "id": 12, "reference_id": 2, "dune_id": 2, "dune_name": "Big Mommy Dune", "acquisition_date": "2021-10-11", "length_m": 501.39965574346735 }, "geometry": { "type": "LineString", "coordinates": [ [ 528984.243011592421681, 7260918.448322394862771 ], [ 528977.913190306629986, 7260916.242673087865114 ], [ 528969.453693735180423, 7260913.223087035119534 ], [ 528959.900785414502025, 7260909.999107789248228 ], [ 528949.987933612894267, 7260906.765738788992167 ], [ 528939.999107789364643, 7260903.670178715139627 ], [ 528930.0, 7260901.103693715296686 ], [ 528920.0, 7260898.896306284703314 ], [ 528910.0, 7260896.329821285791695 ], [ 528900.0, 7260893.234261211939156 ], [ 528890.0, 7260890.0 ], [ 528880.0, 7260886.765738788992167 ], [ 528870.0, 7260883.670178715139627 ], [ 528860.0, 7260881.104585926048458 ], [ 528850.0, 7260878.906588250771165 ], [ 528840.0, 7260876.405795307829976 ], [ 528830.0, 7260873.593312481418252 ], [ 528820.0, 7260871.083129784092307 ], [ 528810.0, 7260868.819440052844584 ], [ 528800.0, 7260865.968985594809055 ], [ 528790.0, 7260862.129675285890698 ], [ 528780.0, 7260857.783176516182721 ], [ 528770.0, 7260853.659004537388682 ], [ 528760.0, 7260850.0 ], [ 528750.0, 7260846.340103251859546 ], [ 528740.0, 7260842.205649307928979 ], [ 528730.0, 7260837.783176516182721 ], [ 528720.0, 7260833.583030516281724 ], [ 528710.0, 7260829.62888234294951 ], [ 528700.0, 7260825.160435514524579 ], [ 528690.0, 7260819.64005651883781 ], [ 528680.0, 7260813.670178714208305 ], [ 528670.0, 7260808.230268195271492 ], [ 528660.0, 7260803.746152736246586 ], [ 528650.0, 7260800.010281966067851 ], [ 528640.0, 7260796.329821286723018 ], [ 528630.0, 7260792.11939332075417 ], [ 528620.0, 7260787.346366802230477 ], [ 528610.0, 7260782.118501110002398 ], [ 528600.0, 7260776.318647108972073 ], [ 528590.0, 7260769.923133767209947 ], [ 528580.0, 7260763.299061057157815 ], [ 528570.000892210751772, 7260756.689764766953886 ], [ 528560.012066387222148, 7260750.000892210751772 ], [ 528550.099214585614391, 7260743.321409409865737 ], [ 528540.546306264819577, 7260736.788979352451861 ], [ 528532.08680969348643, 7260730.535132087767124 ], [ 528525.756988407694735, 7260725.309004517272115 ] ] } },
{ "type": "Feature", "properties": { "id": 13, "reference_id": 2, "dune_id": 2, "dune_name": "Big Mommy Dune", "acquisition_date": "2021-10-11", "length_m": 106.44647595293115 }, "geometry": { "type": "LineString", "coordinates": [ [ 529151.078100949409418, 7260978.371456163004041 ], [ 529146.078100949409418, 7260975.870663220062852 ], [ 529138.683442020905204, 7260972.031352911144495 ], [ 529129.677239574841224, 7260967.336084837093949 ], [ 529119.944359513698146, 7260962.128783075138927 ], [ 529109.993520701071247, 7260956.405795307829976 ], [ 529100.000446105375886, 7260950.371117657981813 ], [ 529090.012066387105733, 7260944.851630873046815 ], [ 529080.099214585614391, 7260940.458265855908394 ], [ 529070.546306264819577, 7260936.864953374490142 ], [ 529062.08680969348643, 7260933.768501088954508 ], [ 529055.756988407694735, 7260931.552569815889001 ] ] } },
{ "type": "Feature", "properties": { "id": 14, "reference_id": 8, "dune_id": 8, "dune_name": "Inverted Y Dune", "acquisition_date": "2021-10-11", "length_m": 290.93598499712203 }, "geometry": { "type": "LineString", "coordinates": [ [ 530204.330159790813923, 7261255.756988408043981 ], [ 530198.361174196470529, 7261262.086809693835676 ], [ 530191.005371340317652, 7261270.546306265518069 ], [ 530183.659004537737928, 7261280.099214585497975 ], [ 530176.776912964996882, 7261290.012066386640072 ], [ 530170.097430164227262, 7261300.000892210751772 ], [ 530163.758219123352319, 7261310.000000000931323 ], [ 530158.241442371858284, 7261320.0 ], [ 530153.747044946881942, 7261330.0 ], [ 530150.011174176586792, 7261340.0 ], [ 530146.341887672897428, 7261350.0 ], [ 530142.216823483933695, 7261360.0 ], [ 530137.870324714574963, 7261370.0 ], [ 530134.031014405656606, 7261380.0 ], [ 530131.180559947970323, 7261390.0 ], [ 530128.917762426892295, 7261400.0 ], [ 530126.416969484183937, 7261410.0 ], [ 530123.670178714208305, 7261420.0 ], [ 530121.454247441026382, 7261430.0 ], [ 530120.0, 7261440.0 ], [ 530118.54664476972539, 7261450.0 ], [ 530116.340995462262072, 7261460.0 ], [ 530113.671070924960077, 7261470.000000000931323 ], [ 530111.540503428666852, 7261479.999107789248228 ], [ 530110.447091679205187, 7261489.987933613359928 ], [ 530110.087148198392242, 7261499.900785414502025 ], [ 530110.011174176470377, 7261509.453693735413253 ], [ 530110.000892210751772, 7261517.913190307095647 ], [ 530110.0, 7261524.243011592887342 ] ] } },
{ "type": "Feature", "properties": { "id": 15, "reference_id": 3, "dune_id": 3, "dune_name": "Big Mommy Dune", "acquisition_date": "2021-10-11", "length_m": 91.102492212077124 }, "geometry": { "type": "LineString", "coordinates": [ [ 529714.243011592421681, 7260611.540503429248929 ], [ 529707.913190306629986, 7260613.669286504387856 ], [ 529699.453693735180423, 7260616.319539320655167 ], [ 529689.900785414502025, 7260618.383522549644113 ], [ 529679.987933612894267, 7260619.193857051432133 ], [ 529670.0, 7260618.830614228732884 ], [ 529660.012066387105733, 7260617.946298737078905 ], [ 529650.099214585614391, 7260617.786556896753609 ], [ 529640.546306264819577, 7260619.410828143358231 ], [ 529632.08680969348643, 7260622.576766964048147 ], [ 529625.756988407694735, 7260625.969877805560827 ] ] } },
{ "type": "Feature", "properties": { "id": 16, "reference_id": 3, "dune_id": 3, "dune_name": "Big Mommy Dune", "acquisition_date": "2021-10-11", "length_m": 192.50436518949584 }, "geometry": { "type": "LineString", "coordinates": [ [ 530015.756988407694735, 7260603.299061058089137 ], [ 530022.08680969348643, 7260605.149261338636279 ], [ 530030.546306264819577, 7260605.882729606702924 ], [ 530040.099214585614391, 7260605.35187011025846 ], [ 530050.012066387222148, 7260604.101823626086116 ], [ 530060.000892210751772, 7260602.478444590233266 ], [ 530070.0, 7260600.732576058246195 ], [ 530080.0, 7260598.830614228732884 ], [ 530090.0, 7260596.405795307829976 ], [ 530100.0, 7260593.669286503456533 ], [ 530110.0, 7260591.454247441142797 ], [ 530120.0, 7260590.0 ], [ 530130.0, 7260588.546644769608974 ], [ 530140.0, 7260586.340103251859546 ], [ 530150.0, 7260583.659896748140454 ], [ 530159.999107789364643, 7260581.453355230391026 ], [ 530169.987933612894267, 7260580.0 ], [ 530179.900785414385609, 7260578.546644769608974 ], [ 530189.453693735180423, 7260576.340995462611318 ], [ 530197.91319030651357, 7260573.671070925891399 ], [ 530204.243011592305265, 7260571.540503429248929 ] ] } },
{ "type": "Feature", "properties": { "id": 17, "reference_id": 3, "dune_id": 3, "dune_name": "Big Mommy Dune", "acquisition_date": "2021-10-11", "length_m": 81.720873654245494 }, "geometry": { "type": "LineString", "coordinates": [ [ 529206.231498910929076, 7260915.756988408043981 ], [ 529203.135046625859104, 7260922.086809693835676 ], [ 529199.540841933572665, 7260930.545414054766297 ], [ 529195.137641056091525, 7260940.087148198857903 ], [ 529189.547321232617833, 7260949.912851802073419 ], [ 529183.190687112277374, 7260959.454585947096348 ], [ 529176.554259336087853, 7260967.913190307095647 ], [ 529169.763988163205795, 7260974.243011591956019 ], [ 529163.473915160750039, 7260977.913190307095647 ], [ 529158.83475085219834, 7260979.453693735413253 ] ] } }
]
}
