{
"type": "FeatureCollection",
"name": "crests_2023_07_2023-07-03",
"crs": { "type": "name", "properties": { "name": "urn:ogc:def:crs:EPSG::32733" } },
"features": [
{ "type": "Feature", "properties": { "id": 0, "reference_id": 3, "dune_id": 3, "dune_name": "Big Mommy Dune", "acquisition_date": "2023-07-03", "length_m": 360.02351723084365 }, "geometry": { "type": "LineString", "coordinates": [ [ 529374.243011592305265, 7260695.756988408043981 ], [ 529367.91319030651357, 7260702.086809693835676 ], [ 529359.453693735180423, 7260710.546306265518069 ], [ 529349.901677625253797, 7260720.099214585497975 ], [ 529339.999107789364643, 7260730.012066388502717 ], [ 529330.086255987756886, 7260740.000892210751772 ], [ 529320.447983889956959, 7260750.0 ], [ 529311.551677605253644, 7260760.0 ], [ 529303.757326912600547, 7260770.0 ], [ 529296.777805175632238, 7260780.000000000931323 ], [ 529290.011174176470377, 7260790.0 ], [ 529283.311127444263548, 7260800.0 ], [ 529276.700938943075016, 7260810.0 ], [ 529270.075974022038281, 7260820.0 ], [ 529263.670178714208305, 7260830.0 ], [ 529257.794350692653097, 7260840.0 ], [ 529252.205649307463318, 7260850.0 ], [ 529246.32982128590811, 7260860.0 ], [ 529239.924025977961719, 7260870.0 ], [ 529233.299953267676756, 7260880.0 ], [ 529226.700046732323244, 7260890.0 ], [ 529220.076866232557222, 7260900.0 ], [ 529213.680460680043325, 7260910.0 ], [ 529207.870324714574963, 7260920.0 ], [ 529202.565592788159847, 7260929.999107789248228 ], [ 529197.42278692999389, 7260939.987933613359928 ], [ 529192.049006385961547, 7260949.900785415433347 ], [ 529185.927195916534401, 7260959.453693736344576 ], [ 529178.69421658734791, 7260967.913190307095647 ], [ 529170.858292123419233, 7260974.243011591956019 ], [ 529163.833858641446568, 7260977.913190307095647 ], [ 529158.910724874120206, 7260979.453693735413253 ] ] } },
{ "type": "Feature", "properties": { "id": 1, "reference_id": 3, "dune_id": 3, "dune_name": "Big Mommy Dune", "acquisition_date": "2023-07-03", "length_m": 647.10420015599743 }, "geometry": { "type": "LineString", "coordinates": [ [ 529405.756988407694735, 7260679.552016109228134 ], [ 529412.08680969348643, 7260678.448322394862771 ], [ 529420.546306264819577, 7260676.242673087865114 ], [ 529430.099214585614391, 7260673.222194824367762 ], [ 529440.012066387222148, 7260669.9888258241117 ], [ 529450.000892210751772, 7260666.689764766953886 ], [ 529460.0, 7260663.310235233977437 ], [ 529470.0, 7260660.010281966067851 ], [ 529480.0, 7260656.766630999743938 ], [ 529490.0, 7260653.670178714208305 ], [ 529500.000000000116415, 7260651.10458592697978 ], [ 529510.0, 7260648.906588250771165 ], [ 529520.0, 7260646.405795307829976 ], [ 529530.0, 7260643.594204693101346 ], [ 529540.0, 7260641.094303959980607 ], [ 529550.0, 7260638.906588250771165 ], [ 529560.0, 7260636.416969483718276 ], [ 529570.0, 7260633.680460680276155 ], [ 529580.0, 7260631.530221463181078 ], [ 529590.0, 7260630.35994348116219 ], [ 529600.0, 7260629.64005651883781 ], [ 529610.0, 7260628.470670747570693 ], [ 529620.0, 7260626.330713496543467 ], [ 529630.0, 7260623.670178714208305 ], [ 529640.0, 7260621.540503429248929 ], [ 529650.0, 7260620.446199468336999 ], [ 529660.0, 7260620.075974022038281 ], [ 529670.0, 7260619.924025977961719 ], [ 529680.0, 7260619.553800531663001 ], [ 529690.0, 7260618.459496571682394 ], [ 529700.0, 7260616.329821286723018 ], [ 529710.0, 7260613.670178715139627 ], [ 529720.0, 7260611.540503429248929 ], [ 529730.0, 7260610.447091680020094 ], [ 529740.0, 7260610.087148198857903 ], [ 529750.0, 7260610.011174176819623 ], [ 529760.0, 7260610.000892210751772 ], [ 529770.0, 7260610.0 ], [ 529780.0, 7260610.0 ], [ 529790.0, 7260610.0 ], [ 529800.0, 7260610.0 ], [ 529810.0, 7260610.0 ], [ 529820.0, 7260610.0 ], [ 529830.0, 7260610.0 ], [ 529840.0, 7260610.0 ], [ 529850.0, 7260610.0 ], [ 529860.0, 7260610.0 ], [ 529870.0, 7260610.0 ], [ 529880.0, 7260610.0 ], [ 529890.0, 7260610.0 ], [ 529900.0, 7260610.0 ], [ 529910.0, 7260610.0 ], [ 529920.0, 7260610.0 ], [ 529930.0, 7260610.0 ], [ 529940.0, 7260610.0 ], [ 529950.0, 7260610.0 ], [ 529960.0, 7260610.0 ], [ 529970.0, 7260610.0 ], [ 529980.0, 7260610.0 ], [ 529990.0, 7260610.0 ], [ 529999.999107789364643, 7260610.0 ], [ 530009.987933612894267, 7260610.0 ], [ 530019.900785414502025, 7260610.0 ], [ 530029.453693735180423, 7260610.0 ], [ 530037.91319030651357, 7260610.0 ], [ 530044.243011592305265, 7260610.0 ] ] } },
{ "type": "Feature", "properties": { "id": 2, "reference_id": 3, "dune_id": 3, "dune_name": "Big Mommy Dune", "acquisition_date": "2023-07-03", "length_m": 120.49323943405004 }, "geometry": { "type": "LineString", "coordinates": [ [ 530204.243011592305265, 7260580.087148198857903 ], [ 530197.91319030651357, 7260580.447091679088771 ], [ 530189.453693735180423, 7260581.540503429248929 ], [ 530179.900785414385609, 7260583.671070924960077 ], [ 530169.987933612894267, 7260586.340995462611318 ], [ 530159.999107789364643, 7260588.546644769608974 ], [ 530150.0, 7260590.0 ], [ 530140.0, 7260591.453355230391026 ], [ 530130.000892210751772, 7260593.659004537388682 ], [ 530120.012066387222148, 7260596.328929075039923 ], [ 530110.099214585614391, 7260598.459496571682394 ], [ 530100.546306264819577, 7260599.552908321842551 ], [ 530092.08680969348643, 7260599.912851802073419 ], [ 530085.756988407694735, 7260599.9888258241117 ] ] } },
{ "type": "Feature", "properties": { "id": 3, "reference_id": 7, "dune_id": 7, "dune_name": "Inverted Y Dune", "acquisition_date": "2023-07-03", "length_m": 555.19178173295154 }, "geometry": { "type": "LineString", "coordinates": [ [ 530125.756988407694735, 7261640.000892210751772 ], [ 530132.08680969348643, 7261640.0111741758883 ], [ 530140.546306264819577, 7261640.087148198857903 ], [ 530150.099214585614391, 7261640.447091680020094 ], [ 530160.012066387222148, 7261641.540503429248929 ], [ 530170.000892210751772, 7261643.670178715139627 ], [ 530180.0, 7261646.329821286723018 ], [ 530190.0, 7261648.459496572613716 ], [ 530200.0, 7261649.552016111090779 ], [ 530210.0, 7261649.901677625253797 ], [ 530220.0, 7261649.901677625253797 ], [ 530230.0, 7261649.552016111090779 ], [ 530240.0, 7261648.459496572613716 ], [ 530250.0, 7261646.329821286723018 ], [ 530260.0, 7261643.670178715139627 ], [ 530270.0, 7261641.539611218497157 ], [ 530280.0, 7261640.435917502269149 ], [ 530290.0, 7261639.999107789248228 ], [ 530300.0, 7261639.552908320911229 ], [ 530310.0, 7261638.372348373755813 ], [ 530320.0, 7261635.871555429883301 ], [ 530330.0, 7261632.042527087032795 ], [ 530340.0, 7261627.422340825200081 ], [ 530350.0, 7261622.564700577408075 ], [ 530360.0, 7261617.859150538221002 ], [ 530370.0, 7261613.593312481418252 ], [ 530380.0, 7261609.629774553701282 ], [ 530390.0, 7261605.159543303772807 ], [ 530400.0, 7261599.62888234294951 ], [ 530410.0, 7261593.582138305529952 ], [ 530420.0, 7261587.772002339363098 ], [ 530430.000000000116415, 7261582.117608899250627 ], [ 530440.0, 7261575.881837395951152 ], [ 530450.0, 7261568.372348373755813 ], [ 530460.0, 7261559.541734145022929 ], [ 530469.999107789364643, 7261549.911959590390325 ], [ 530479.988825823529623, 7261539.9888258241117 ], [ 530489.912851801607758, 7261529.999107789248228 ], [ 530499.552016110159457, 7261520.0 ], [ 530508.448322394862771, 7261510.0 ], [ 530516.242673087399453, 7261500.0 ], [ 530523.222194824367762, 7261490.0 ], [ 530529.988825823529623, 7261480.0 ], [ 530536.689764766488224, 7261470.000000000931323 ], [ 530543.31023523339536, 7261460.0 ], [ 530550.01028196583502, 7261450.000892210751772 ], [ 530556.765738788526505, 7261440.012066387571394 ], [ 530563.658112327102572, 7261430.099214585497975 ], [ 530571.005371340434067, 7261420.546306264586747 ], [ 530578.361174196470529, 7261412.086809693835676 ], [ 530584.330159790813923, 7261405.756988408043981 ] ] } },
{ "type": "Feature", "properties": { "id": 4, "reference_id": 5, "dune_id": 5, "dune_name": "The Star Dune", "acquisition_date": "2023-07-03", "length_m": 879.10521522410772 }, "geometry": { "type": "LineString", "coordinates": [ [ 534317.91319030651357, 7261555.756988408043981 ], [ 534314.243011592305265, 7261562.085917483083904 ], [ 534307.91319030651357, 7261570.535132088698447 ], [ 534299.453693735296838, 7261580.012066387571394 ], [ 534289.900785414502025, 7261589.564082497730851 ], [ 534279.987933612894267, 7261598.449214605614543 ], [ 534269.999107789248228, 7261606.242673087865114 ], [ 534260.0, 7261613.222194824367762 ], [ 534250.0, 7261619.9888258241117 ], [ 534240.0, 7261626.688872555270791 ], [ 534230.0, 7261633.298168846406043 ], [ 534220.0, 7261639.912851801142097 ], [ 534210.0, 7261646.242673087865114 ], [ 534200.0, 7261651.757665418088436 ], [ 534190.0, 7261656.241780877113342 ], [ 534180.0, 7261659.901677625253797 ], [ 534170.0, 7261663.211020648479462 ], [ 534160.0, 7261666.242673087865114 ], [ 534150.0, 7261668.459496571682394 ], [ 534140.0, 7261669.63916430901736 ], [ 534130.0, 7261670.35994348116219 ], [ 534120.0, 7261671.529329252429307 ], [ 534110.0, 7261673.669286503456533 ], [ 534100.0, 7261676.330713496543467 ], [ 534090.0, 7261678.470670748502016 ], [ 534080.0, 7261679.640056519769132 ], [ 534070.0, 7261680.35994348116219 ], [ 534060.0, 7261681.529329252429307 ], [ 534050.0, 7261683.670178715139627 ], [ 534040.0, 7261686.340995462611318 ], [ 534030.0, 7261688.546644769608974 ], [ 534020.0, 7261690.0 ], [ 534010.0, 7261691.454247441142797 ], [ 534000.0, 7261693.670178714208305 ], [ 533990.0, 7261696.416077273897827 ], [ 533980.0, 7261698.906588250771165 ], [ 533970.0, 7261701.094303959980607 ], [ 533960.0, 7261703.594204692170024 ], [ 533950.0, 7261706.406687518581748 ], [ 533940.0, 7261708.916870215907693 ], [ 533930.0, 7261711.181452158838511 ], [ 533920.0, 7261714.041296371258795 ], [ 533910.0, 7261717.947190947830677 ], [ 533900.0, 7261722.58704893104732 ], [ 533890.0, 7261727.511273444630206 ], [ 533880.0, 7261732.500792942941189 ], [ 533870.0, 7261737.500099267810583 ], [ 533860.0, 7261742.500792942941189 ], [ 533850.0, 7261747.511273445561528 ], [ 533840.0, 7261752.58794114086777 ], [ 533830.0, 7261757.958365123718977 ], [ 533820.0, 7261764.128444569185376 ], [ 533810.000892210635357, 7261771.628543837927282 ], [ 533800.012066387105733, 7261780.458265855908394 ], [ 533790.098322374979034, 7261790.088040409609675 ], [ 533780.535132088232785, 7261800.011174176819623 ], [ 533771.999661495094188, 7261810.000892210751772 ], [ 533765.309004517854191, 7261820.0 ], [ 533760.535132088349201, 7261830.0 ], [ 533756.78897935221903, 7261840.000000000931323 ], [ 533753.321409409982152, 7261850.0 ], [ 533750.000892210751772, 7261860.0 ], [ 533746.689764766488224, 7261870.0 ], [ 533743.299061057041399, 7261880.0 ], [ 533739.923133767442778, 7261890.0 ], [ 533736.31953932007309, 7261900.0 ], [ 533732.128783074906096, 7261910.0 ], [ 533727.42234082473442, 7261920.0 ], [ 533722.479336800519377, 7261930.0 ], [ 533717.42234082473442, 7261940.0 ], [ 533712.128783074789681, 7261950.0 ], [ 533706.31953932007309, 7261960.0 ], [ 533699.923133767326362, 7261970.0 ], [ 533693.299953267676756, 7261980.0 ], [ 533686.70049283769913, 7261989.999553894624114 ], [ 533680.082453320967034, 7261999.993520701304078 ], [ 533673.724926989991218, 7262009.944359513930976 ], [ 533668.105936941225082, 7262019.677239574491978 ], [ 533663.435059088165872, 7262028.683442020788789 ], [ 533659.803736446541734, 7262036.078100949525833 ], [ 533657.294247423415072, 7262041.078100949525833 ] ] } },
{ "type": "Feature", "properties": { "id": 5, "reference_id": 5, "dune_id": 5, "dune_name": "The Star Dune", "acquisition_date": "2023-07-03", "length_m": 129.49967551763453 }, "geometry": { "type": "LineString", "coordinates": [ [ 534320.447091679205187, 7261395.756988408043981 ], [ 534321.540503428666852, 7261402.086809693835676 ], [ 534323.670178714208305, 7261410.546306265518069 ], [ 534326.329821285791695, 7261420.099214585497975 ], [ 534328.459496571333148, 7261430.012066386640072 ], [ 534329.552908320794813, 7261440.000892210751772 ], [ 534329.912851801607758, 7261450.0 ], [ 534329.988825823529623, 7261460.0 ], [ 534329.999107789364643, 7261470.000000000931323 ], [ 534330.0, 7261479.999107789248228 ], [ 534330.0, 7261489.987933613359928 ], [ 534330.0, 7261499.900785414502025 ], [ 534330.0, 7261509.453693735413253 ], [ 534330.0, 7261517.913190307095647 ], [ 534330.0, 7261524.243011592887342 ] ] } },
{ "type": "Feature", "properties": { "id": 6, "reference_id": 6, "dune_id": 6, "dune_name": "The Star Dune", "acquisition_date": "2023-07-03", "length_m": 778.17373415177349 }, "geometry": { "type": "LineString", "coordinates": [ [ 533551.551677605253644, 7262874.243011591956019 ], [ 533553.758219123352319, 7262867.913190307095647 ], [ 533556.788087141467258, 7262859.453693735413253 ], [ 533560.087148198392242, 7262849.900785414502025 ], [ 533563.671070924843661, 7262839.987933613359928 ], [ 533567.794350692653097, 7262829.999107789248228 ], [ 533572.205649307463318, 7262820.0 ], [ 533576.328929075156339, 7262810.0 ], [ 533579.91374401235953, 7262800.0 ], [ 533583.223087035119534, 7262790.0 ], [ 533586.328929075156339, 7262780.0 ], [ 533588.895414073951542, 7262770.0 ], [ 533591.092519538942724, 7262760.0 ], [ 533593.583030515816063, 7262750.0 ], [ 533596.318647109321319, 7262740.0 ], [ 533598.458604360581376, 7262730.0 ], [ 533599.553800531546585, 7262720.0 ], [ 533599.924025978078134, 7262710.0 ], [ 533600.075974022038281, 7262700.0 ], [ 533600.44619946856983, 7262690.0 ], [ 533601.540503428783268, 7262680.0 ], [ 533603.670178714208305, 7262670.0 ], [ 533606.329821285791695, 7262660.0 ], [ 533608.460388781968504, 7262650.0 ], [ 533609.56408249726519, 7262640.0 ], [ 533610.0, 7262630.0 ], [ 533610.43591750273481, 7262620.0 ], [ 533611.540503428783268, 7262610.0 ], [ 533613.681352890795097, 7262600.000000000931323 ], [ 533616.416969484183937, 7262590.0 ], [ 533618.906588250421919, 7262580.0 ], [ 533621.094303960213438, 7262570.0 ], [ 533623.594204692170024, 7262560.0 ], [ 533626.405795307713561, 7262550.0 ], [ 533628.906588250421919, 7262540.0 ], [ 533631.104585926048458, 7262530.0 ], [ 533633.670178714208305, 7262520.0 ], [ 533636.765738788526505, 7262510.0 ], [ 533640.000000000116415, 7262500.0 ], [ 533643.234261211473495, 7262490.0 ], [ 533646.329821285791695, 7262480.0 ], [ 533648.896306284703314, 7262470.0 ], [ 533651.103693715413101, 7262460.0 ], [ 533653.670178714208305, 7262450.0 ], [ 533656.765738788526505, 7262440.0 ], [ 533660.0, 7262430.0 ], [ 533663.234261211473495, 7262420.0 ], [ 533666.329821285791695, 7262410.0 ], [ 533668.895414073951542, 7262400.0 ], [ 533671.092519538942724, 7262390.0 ], [ 533673.583030515816063, 7262380.0 ], [ 533676.318647109437734, 7262370.0 ], [ 533678.457712149946019, 7262360.0 ], [ 533679.541734144324437, 7262350.0 ], [ 533679.825703603215516, 7262340.000000000931323 ], [ 533679.541734144324437, 7262330.0 ], [ 533678.458604360697791, 7262320.0 ], [ 533676.329821285791695, 7262310.0 ], [ 533673.670178714208305, 7262300.0 ], [ 533671.540503428783268, 7262290.0 ], [ 533670.447091679205187, 7262280.0 ], [ 533670.087148198392242, 7262270.0 ], [ 533670.01028196583502, 7262260.0 ], [ 533669.989718034281395, 7262250.0 ], [ 533669.912851801607758, 7262240.0 ], [ 533669.552908320911229, 7262230.0 ], [ 533668.459496571333148, 7262220.0 ], [ 533666.329821285791695, 7262210.0 ], [ 533663.670178714208305, 7262200.0 ], [ 533661.540503428783268, 7262190.0 ], [ 533660.447091679088771, 7262180.0 ], [ 533660.087148198392242, 7262170.0 ], [ 533660.011174176470377, 7262160.000892210751772 ], [ 533660.000892210751772, 7262150.012066386640072 ], [ 533660.0, 7262140.099214585497975 ], [ 533660.0, 7262130.546306265518069 ], [ 533660.0, 7262122.086809693835676 ], [ 533660.0, 7262115.756988408043981 ] ] } },
{ "type": "Feature", "properties": { "id": 7, "reference_id": 2, "dune_id": 2, "dune_name": "Big Mommy Dune", "acquisition_date": "2023-07-03", "length_m": 800.64856483454446 }, "geometry": { "type": "LineString", "coordinates": [ [ 529151.078100949409418, 7260978.372348373755813 ], [ 529146.078100949409418, 7260975.881837395951152 ], [ 529138.683442020905204, 7260972.118501109071076 ], [ 529129.677239574841224, 7260967.782284305430949 ], [ 529119.944359513698146, 7260963.659004537388682 ], [ 529109.993520701071247, 7260960.0 ], [ 529099.999553894624114, 7260956.340103251859546 ], [ 529090.0, 7260952.206541519612074 ], [ 529080.0, 7260947.794350693002343 ], [ 529070.0, 7260943.670178714208305 ], [ 529060.0, 7260940.075974022038281 ], [ 529050.0, 7260936.700938942842185 ], [ 529040.0, 7260933.310235233977437 ], [ 529030.0, 7260930.0 ], [ 529020.0, 7260926.690656977705657 ], [ 529010.0, 7260923.310235233977437 ], [ 529000.0, 7260920.010281965136528 ], [ 528990.0, 7260916.766630999743938 ], [ 528980.0, 7260913.670178714208305 ], [ 528970.0, 7260911.10458592697978 ], [ 528960.0, 7260908.906588250771165 ], [ 528950.0, 7260906.405795308761299 ], [ 528940.0, 7260903.594204693101346 ], [ 528930.0, 7260901.094303959980607 ], [ 528920.0, 7260898.905696040019393 ], [ 528910.0, 7260896.405795307829976 ], [ 528900.0, 7260893.594204692170024 ], [ 528890.0, 7260891.093411749228835 ], [ 528880.0, 7260888.895414073951542 ], [ 528870.0, 7260886.329821286723018 ], [ 528860.0, 7260883.233369002118707 ], [ 528850.0, 7260879.989718034863472 ], [ 528840.0, 7260876.689764766953886 ], [ 528830.0, 7260873.309343023225665 ], [ 528820.0, 7260870.0 ], [ 528810.0, 7260866.689764767885208 ], [ 528800.0, 7260863.299061058089137 ], [ 528790.0, 7260859.924025978893042 ], [ 528780.0, 7260856.329821285791695 ], [ 528770.0, 7260852.205649306997657 ], [ 528760.0, 7260847.793458482250571 ], [ 528750.0, 7260843.659896748140454 ], [ 528740.0, 7260839.999107789248228 ], [ 528730.0, 7260836.329821286723018 ], [ 528720.0, 7260832.129675285890698 ], [ 528710.0, 7260827.423233035951853 ], [ 528700.0, 7260822.489618766121566 ], [ 528690.0, 7260817.499207057058811 ], [ 528680.0, 7260812.499900732189417 ], [ 528670.0, 7260807.500099267810583 ], [ 528660.0, 7260802.499900732189417 ], [ 528650.0, 7260797.499207057990134 ], [ 528640.0, 7260792.489618767052889 ], [ 528630.0, 7260787.423233035951853 ], [ 528620.0, 7260782.129675285890698 ], [ 528610.0, 7260776.329821286723018 ], [ 528600.0, 7260769.999107789248228 ], [ 528590.0, 7260763.659896748140454 ], [ 528580.0, 7260757.793458482250571 ], [ 528570.0, 7260752.205649306997657 ], [ 528560.0, 7260746.329821285791695 ], [ 528550.0, 7260739.924025978893042 ], [ 528540.0, 7260733.299061058089137 ], [ 528530.0, 7260726.689764766022563 ], [ 528520.0, 7260720.0 ], [ 528510.0, 7260713.309343023225665 ], [ 528500.0, 7260706.689764766953886 ], [ 528490.0, 7260699.989718034863472 ], [ 528480.0, 7260693.233369000256062 ], [ 528470.000892210751772, 7260686.33071349747479 ], [ 528460.012066387105733, 7260678.907480461522937 ], [ 528450.099214585614391, 7260671.191734123975039 ], [ 528440.546306264819577, 7260664.129336780868471 ], [ 528432.08680969348643, 7260658.405456803739071 ], [ 528425.756988407694735, 7260654.215592768974602 ] ] } },
{ "type": "Feature", "properties": { "id": 8, "reference_id": 4, "dune_id": 4, "dune_name": "The Star Dune", "acquisition_date": "2023-07-03", "length_m": 647.64929845530742 }, "geometry": { "type": "LineString", "coordinates": [ [ 533005.756988407694735, 7261870.011174177750945 ], [ 533012.08680969348643, 7261870.087148198857903 ], [ 533020.546306264819577, 7261870.447091680020094 ], [ 533030.099214585614391, 7261871.541395640000701 ], [ 533040.012066387105733, 7261873.681352891027927 ], [ 533050.000892210751772, 7261876.416969484649599 ], [ 533060.0, 7261878.906588250771165 ], [ 533070.0, 7261881.093411749228835 ], [ 533080.0, 7261883.583922726102173 ], [ 533090.0, 7261886.329821285791695 ], [ 533100.0, 7261888.545752558857203 ], [ 533110.0, 7261890.000892210751772 ], [ 533120.0, 7261891.464529407210648 ], [ 533130.0, 7261893.746152736246586 ], [ 533140.0, 7261896.776912964880466 ], [ 533150.0, 7261900.0111741758883 ], [ 533160.0, 7261903.310235233977437 ], [ 533170.0, 7261906.689764766953886 ], [ 533180.0, 7261909.989718034863472 ], [ 533190.0, 7261913.233369002118707 ], [ 533200.0, 7261916.329821286723018 ], [ 533210.0, 7261918.895414073951542 ], [ 533220.0, 7261921.093411749228835 ], [ 533230.0, 7261923.594204692170024 ], [ 533240.0, 7261926.405795307829976 ], [ 533250.0, 7261928.906588250771165 ], [ 533260.0, 7261931.104585926048458 ], [ 533270.0, 7261933.670178715139627 ], [ 533280.0, 7261936.766630999743938 ], [ 533290.0, 7261940.010281966067851 ], [ 533300.0, 7261943.310235233977437 ], [ 533310.0, 7261946.689764766022563 ], [ 533320.0, 7261949.989718034863472 ], [ 533330.0, 7261953.233369001187384 ], [ 533340.0, 7261956.329821286723018 ], [ 533350.0, 7261958.896306285634637 ], [ 533360.0, 7261961.103693716228008 ], [ 533370.0, 7261963.670178714208305 ], [ 533380.000000000116415, 7261966.766630999743938 ], [ 533390.0, 7261970.010281966067851 ], [ 533400.000000000116415, 7261973.310235233977437 ], [ 533410.0, 7261976.690656977705657 ], [ 533420.0, 7261980.0 ], [ 533430.0, 7261983.310235233977437 ], [ 533440.0, 7261986.700938943773508 ], [ 533450.0, 7261990.076866232790053 ], [ 533460.0, 7261993.680460680276155 ], [ 533470.0, 7261997.871216925792396 ], [ 533480.0, 7262002.57676696497947 ], [ 533490.0, 7262007.510381234809756 ], [ 533500.0, 7262012.500792942941189 ], [ 533510.0, 7262017.499207057058811 ], [ 533520.0, 7262022.489618767052889 ], [ 533530.0, 7262027.423233035951853 ], [ 533540.0, 7262032.128783075138927 ], [ 533550.0, 7262036.318647109903395 ], [ 533560.0, 7262039.911959590390325 ], [ 533570.0, 7262043.211912859231234 ], [ 533579.999107789364643, 7262046.241780877113342 ], [ 533589.987933612894267, 7262048.448322394862771 ], [ 533599.900785414385609, 7262049.552016111090779 ], [ 533609.453693735180423, 7262049.912851801142097 ], [ 533617.91319030651357, 7262049.9888258241117 ], [ 533624.243011592305265, 7262049.999107789248228 ] ] } },
{ "type": "Feature", "properties": { "id": 9, "reference_id": 9, "dune_id": 9, "dune_name": "Inverted Y Dune", "acquisition_date": "2023-07-03", "length_m": 194.85459919677612 }, "geometry": { "type": "LineString", "coordinates": [ [ 529748.371456162189133, 7261995.756988408043981 ], [ 529745.871555430232547, 7262002.086809693835676 ], [ 529742.042527087032795, 7262010.546306264586747 ], [ 529737.422340824618004, 7262020.099214585497975 ], [ 529732.564700577524491, 7262030.012066386640072 ], [ 529727.859150538104586, 7262040.000892210751772 ], [ 529723.593312481534667, 7262050.0 ], [ 529719.629774553468451, 7262060.0 ], [ 529715.160435514291748, 7262070.0 ], [ 529709.640948729938827, 7262080.0 ], [ 529703.680460680043325, 7262090.0 ], [ 529698.30713442794513, 7262100.0 ], [ 529694.11637818266172, 7262110.0 ], [ 529691.180559947970323, 7262120.0 ], [ 529688.831506439251825, 7262129.999107789248228 ], [ 529685.970770015730523, 7262139.987933613359928 ], [ 529682.140849462011829, 7262149.900785414502025 ], [ 529677.871216925210319, 7262159.453693735413253 ], [ 529674.117270393413492, 7262167.913190307095647 ], [ 529671.62765162717551, 7262174.243011591956019 ] ] } },
{ "type": "Feature", "properties": { "id": 10, "reference_id": 9, "dune_id": 9, "dune_name": "Inverted Y Dune", "acquisition_date": "2023-07-03", "length_m": 82.969449204013998 }, "geometry": { "type": "LineString", "coordinates": [ [ 529788.448322394862771, 7261885.756988408043981 ], [ 529786.242673087399453, 7261892.086809693835676 ], [ 529783.222194824367762, 7261900.546306265518069 ], [ 529779.988825823529623, 7261910.099214585497975 ], [ 529776.689764766488224, 7261920.011174176819623 ], [ 529773.310235233511776, 7261929.9888258241117 ], [ 529770.011174176470377, 7261939.900785414502025 ], [ 529766.777805175632238, 7261949.453693736344576 ], [ 529763.757326912600547, 7261957.913190307095647 ], [ 529761.551677605137229, 7261964.243011592887342 ] ] } },
{ "type": "Feature", "properties": { "id": 11, "reference_id": 9, "dune_id": 9, "dune_name": "Inverted Y Dune", "acquisition_date": "2023-07-03", "length_m": 395.14380014609941 }, "geometry": { "type": "LineString", "coordinates": [ [ 530097.91319030651357, 7261598.834750852547586 ], [ 530094.243011592421681, 7261603.473915160633624 ], [ 530087.913190306629986, 7261609.764880374073982 ], [ 530079.453693735180423, 7261616.564541302621365 ], [ 530069.900785414502025, 7261623.267553345300257 ], [ 530059.987933612894267, 7261629.919331100769341 ], [ 530049.999107789364643, 7261636.329375180415809 ], [ 530040.0, 7261642.205649307928979 ], [ 530030.0, 7261647.794350693002343 ], [ 530020.0, 7261653.670178714208305 ], [ 530010.0, 7261660.075974022969604 ], [ 530000.0, 7261666.700938943773508 ], [ 529990.0, 7261673.310235233977437 ], [ 529980.0, 7261680.0 ], [ 529970.0, 7261686.690656976774335 ], [ 529960.0, 7261693.310235233977437 ], [ 529950.0, 7261700.011174177750945 ], [ 529940.0, 7261706.777805175632238 ], [ 529930.0, 7261713.757326913066208 ], [ 529920.0, 7261721.551677605137229 ], [ 529910.0, 7261730.447983890771866 ], [ 529900.0, 7261740.087148198857903 ], [ 529890.0, 7261750.011174176819623 ], [ 529880.0, 7261760.000892210751772 ], [ 529870.000892210751772, 7261770.0 ], [ 529860.011174176470377, 7261780.0 ], [ 529850.087148198392242, 7261790.0 ], [ 529840.447983889840543, 7261800.0 ], [ 529831.552569815889001, 7261809.999107789248228 ], [ 529823.769393299822696, 7261819.987933613359928 ], [ 529816.876127550611272, 7261829.900785414502025 ], [ 529810.546306264819577, 7261839.453693735413253 ], [ 529805.309896728489548, 7261847.913190307095647 ], [ 529801.999661495094188, 7261854.243011591956019 ] ] } },
{ "type": "Feature", "properties": { "id": 12, "reference_id": 8, "dune_id": 8, "dune_name": "Inverted Y Dune", "acquisition_date": "2023-07-03", "length_m": 507.64330757302855 }, "geometry": { "type": "LineString", "coordinates": [ [ 530554.243011592305265, 7261171.999661495909095 ], [ 530547.91319030651357, 7261175.309004518203437 ], [ 530539.453693735296838, 7261180.534239877015352 ], [ 530529.900785414385609, 7261186.776912964880466 ], [ 530519.987933612894267, 7261193.223087035119534 ], [ 530509.999107789248228, 7261199.465760122984648 ], [ 530500.0, 7261204.690995481796563 ], [ 530490.0, 7261208.00033850595355 ], [ 530480.0, 7261209.464867912232876 ], [ 530470.0, 7261209.901677625253797 ], [ 530460.0, 7261209.987933613359928 ], [ 530450.0, 7261209.998215579427779 ], [ 530440.0, 7261209.9888258241117 ], [ 530430.000000000116415, 7261209.912851802073419 ], [ 530420.0, 7261209.552908320911229 ], [ 530410.0, 7261208.459496571682394 ], [ 530400.0, 7261206.329821285791695 ], [ 530390.0, 7261203.670178713276982 ], [ 530380.0, 7261201.541395639069378 ], [ 530370.0, 7261200.458265855908394 ], [ 530360.0, 7261200.174296397715807 ], [ 530350.0, 7261200.458265855908394 ], [ 530340.0, 7261201.541395639069378 ], [ 530330.0, 7261203.671070924028754 ], [ 530320.0, 7261206.340995462611318 ], [ 530310.0, 7261208.547536980360746 ], [ 530300.0, 7261210.011174176819623 ], [ 530290.0, 7261211.541395640000701 ], [ 530280.0, 7261214.118162604048848 ], [ 530270.0, 7261217.968647089786828 ], [ 530260.0, 7261222.675981550477445 ], [ 530250.0, 7261227.969539299607277 ], [ 530240.0, 7261234.129336780868471 ], [ 530230.0, 7261241.628543837927282 ], [ 530220.0, 7261250.458265855908394 ], [ 530210.000892210751772, 7261260.088040409609675 ], [ 530200.011174176586792, 7261270.011174176819623 ], [ 530190.088040409144014, 7261280.000892210751772 ], [ 530180.45915806631092, 7261290.0 ], [ 530171.638825803645886, 7261300.0 ], [ 530164.20531080244109, 7261310.000000000931323 ], [ 530158.329482780885883, 7261320.0 ], [ 530153.769393299939111, 7261329.999107789248228 ], [ 530150.099214585614391, 7261339.987933613359928 ], [ 530146.78897935221903, 7261349.900785414502025 ], [ 530143.758219123352319, 7261359.453693735413253 ], [ 530141.551677605137229, 7261367.913190307095647 ], [ 530140.447983889840543, 7261374.243011592887342 ] ] } },
{ "type": "Feature", "properties": { "id": 13, "reference_id": 8, "dune_id": 8, "dune_name": "Inverted Y Dune", "acquisition_date": "2023-07-03", "length_m": 76.421443625262199 }, "geometry": { "type": "LineString", "coordinates": [ [ 530110.0, 7261515.756988408043981 ], [ 530109.999107789364643, 7261522.086809692904353 ], [ 530109.988825823529623, 7261530.546306265518069 ], [ 530109.912851801607758, 7261540.098768480122089 ], [ 530109.552908320911229, 7261550.00558708794415 ], [ 530108.459496571333148, 7261559.945251724682748 ], [ 530106.329821285791695, 7261569.6772395754233 ], [ 530103.670178714208305, 7261578.683442020788789 ], [ 530101.540503428783268, 7261586.078100949525833 ], [ 530100.447091679205187, 7261591.078100949525833 ] ] } },
{ "type": "Feature", "properties": { "id": 14, "reference_id": 1, "dune_id": 1, "dune_name": "Big Mommy Dune", "acquisition_date": "2023-07-03", "length_m": 510.03545384666506 }, "geometry": { "type": "LineString", "coordinates": [ [ 529108.459496571216732, 7261825.756988408043981 ], [ 529106.329821285791695, 7261832.086809693835676 ], [ 529103.669286503456533, 7261840.546306265518069 ], [ 529101.528437041561119, 7261850.099214585497975 ], [ 529100.348769304342568, 7261860.012066387571394 ], [ 529099.552016110159457, 7261870.000892210751772 ], [ 529098.011512681376189, 7261880.0 ], [ 529094.691887692897581, 7261890.0 ], [ 529089.464867911767215, 7261900.0 ], [ 529083.211020647897385, 7261910.0 ], [ 529076.678590590134263, 7261920.0 ], [ 529069.999107789364643, 7261930.0 ], [ 529063.310235233511776, 7261940.0 ], [ 529056.700938943075016, 7261950.0 ], [ 529050.076866232673638, 7261960.0 ], [ 529043.68046067992691, 7261970.0 ], [ 529037.871216925210319, 7261980.0 ], [ 529032.577659175381996, 7261990.0 ], [ 529027.520663199597038, 7262000.0 ], [ 529022.577659175381996, 7262010.0 ], [ 529017.871216925326735, 7262020.0 ], [ 529013.680460680043325, 7262030.0 ], [ 529010.075974022038281, 7262040.0 ], [ 529006.68976476660464, 7262050.0 ], [ 529003.223087035119534, 7262060.0 ], [ 528999.552908320911229, 7262070.0 ], [ 528995.149261337821372, 7262080.0 ], [ 528989.627990132081322, 7262090.0 ], [ 528983.582138305064291, 7262100.0 ], [ 528977.772002339712344, 7262110.0 ], [ 528972.117608898319304, 7262120.0 ], [ 528965.881837395951152, 7262130.0 ], [ 528958.37234837282449, 7262140.0 ], [ 528949.541734144324437, 7262150.0 ], [ 528939.911959590972401, 7262159.999107789248228 ], [ 528929.988825823529623, 7262169.9888258241117 ], [ 528919.999107789364643, 7262179.911959591321647 ], [ 528910.0, 7262189.541734144091606 ], [ 528900.0, 7262198.37234837282449 ], [ 528890.0, 7262205.881837395951152 ], [ 528880.000892210751772, 7262212.117608899250627 ], [ 528870.012066387105733, 7262217.771110128611326 ], [ 528860.099214585614391, 7262223.57096412871033 ], [ 528850.546306264819577, 7262229.540841933339834 ], [ 528842.086809693370014, 7262234.701277447864413 ], [ 528835.756988407694735, 7262238.001230715774 ] ] } },
{ "type": "Feature", "properties": { "id": 15, "reference_id": 1, "dune_id": 1, "dune_name": "Big Mommy Dune", "acquisition_date": "2023-07-03", "length_m": 58.486023183912039 }, "geometry": { "type": "LineString", "coordinates": [ [ 529020.0, 7261585.756988408043981 ], [ 529020.0, 7261592.086809692904353 ], [ 529020.0, 7261600.545414054766297 ], [ 529020.0, 7261610.087148198857903 ], [ 529020.0, 7261619.912851801142097 ], [ 529020.0, 7261629.454585946165025 ], [ 529020.0, 7261637.913190307095647 ], [ 529020.0, 7261644.243011591956019 ] ] } },
{ "type": "Feature", "properties": { "id": 16, "reference_id": 1, "dune_id": 1, "dune_name": "Big Mommy Dune", "acquisition_date": "2023-07-03", "length_m": 436.08607983011132 }, "geometry": { "type": "LineString", "coordinates": [ [ 529179.911959590855986, 7261115.756988408043981 ], [ 529179.541734144324437, 7261122.086809694766998 ], [ 529178.372348372940905, 7261130.546306265518069 ], [ 529175.881837395951152, 7261140.099214585497975 ], [ 529172.118501109071076, 7261150.012066387571394 ], [ 529167.783176516182721, 7261160.000892210751772 ], [ 529163.669286503456533, 7261170.0 ], [ 529160.075974022038281, 7261180.0 ], [ 529156.700046732323244, 7261190.0 ], [ 529153.299953267676756, 7261200.0 ], [ 529149.923133767442778, 7261210.000000000931323 ], [ 529146.319539319956675, 7261220.0 ], [ 529142.129675285425037, 7261230.0 ], [ 529137.433515001088381, 7261240.0 ], [ 529132.566484998911619, 7261250.0 ], [ 529127.869432503939606, 7261260.0 ], [ 529123.670178714208305, 7261270.0 ], [ 529120.000000000116415, 7261280.0 ], [ 529116.329821285791695, 7261290.0 ], [ 529112.130567496176809, 7261300.0 ], [ 529107.433515001088381, 7261310.000000000931323 ], [ 529102.566484998911619, 7261320.0 ], [ 529097.870324714574963, 7261330.0 ], [ 529093.680460680043325, 7261340.0 ], [ 529090.076866232673638, 7261350.0 ], [ 529086.700046732323244, 7261360.0 ], [ 529083.299953267676756, 7261370.0 ], [ 529079.924025977961719, 7261380.0 ], [ 529076.329821285791695, 7261390.0 ], [ 529072.205649307463318, 7261400.0 ], [ 529067.794350692536682, 7261410.0 ], [ 529063.670178714208305, 7261420.0 ], [ 529060.075974022038281, 7261430.0 ], [ 529056.700938943075016, 7261440.0 ], [ 529053.310235233511776, 7261450.0 ], [ 529050.0, 7261460.0 ], [ 529046.690656977239996, 7261470.000000000931323 ], [ 529043.31023523339536, 7261479.999107789248228 ], [ 529040.011174176470377, 7261489.987933613359928 ], [ 529036.777805175632238, 7261499.900785414502025 ], [ 529033.757326912600547, 7261509.453693735413253 ], [ 529031.551677605253644, 7261517.913190307095647 ], [ 529030.447983889840543, 7261524.243011592887342 ] ] } }
]
}
