{
"type": "FeatureCollection",
"name": "crests_2018_02_2018-02-14",
"crs": { "type": "name", "properties": { "name": "urn:ogc:def:crs:EPSG::32733" } },
"features": [
{ "type": "Feature", "properties": { "id": 0, "reference_id": 4, "dune_id": 4, "dune_name": "The Star Dune", "acquisition_date": "2018-02-14", "length_m": 69.544496895716648 }, "geometry": { "type": "LineString", "coordinates": [ [ 533104.243011592421681, 7261880.0 ], [ 533097.91319030651357, 7261879.999107789248228 ], [ 533089.453693735296838, 7261879.9888258241117 ], [ 533079.901677625137381, 7261879.912851802073419 ], [ 533070.0, 7261879.552908321842551 ], [ 533060.098322374979034, 7261878.459496571682394 ], [ 533050.546306264819577, 7261876.329821286723018 ], [ 533042.08680969348643, 7261873.670178715139627 ], [ 533035.756988407578319, 7261871.540503429248929 ] ] } },
{ "type": "Feature", "properties": { "id": 1, "reference_id": 4, "dune_id": 4, "dune_name": "The Star Dune", "acquisition_date": "2018-02-14", "length_m": 56.125001558383147 }, "geometry": { "type": "LineString", "coordinates": [ [ 533184.243011592421681, 7261917.925256693735719 ], [ 533177.914082517265342, 7261914.342226178385317 ], [ 533169.465760122402571, 7261908.459496571682394 ], [ 533160.0, 7261901.540503429248929 ], [ 533150.534239877597429, 7261895.657773822546005 ], [ 533142.085917482851073, 7261892.074743306264281 ], [ 533135.756988407694735, 7261890.545414054766297 ] ] } },
{ "type": "Feature", "properties": { "id": 2, "reference_id": 3, "dune_id": 3, "dune_name": "Big Mommy Dune", "acquisition_date": "2018-02-14", "length_m": 158.48602318472695 }, "geometry": { "type": "LineString", "coordinates": [ [ 529735.756988407694735, 7260610.0 ], [ 529742.08680969348643, 7260610.0 ], [ 529750.546306264819577, 7260610.0 ], [ 529760.099214585614391, 7260610.0 ], [ 529770.012066387222148, 7260610.0 ], [ 529780.000892210751772, 7260610.0 ], [ 529790.0, 7260610.0 ], [ 529800.0, 7260610.0 ], [ 529810.0, 7260610.0 ], [ 529820.0, 7260610.0 ], [ 529830.0, 7260610.0 ], [ 529840.0, 7260610.0 ], [ 529849.999107789364643, 7260610.0 ], [ 529859.987933612894267, 7260610.0 ], [ 529869.900785414385609, 7260610.0 ], [ 529879.453693735180423, 7260610.0 ], [ 529887.91319030651357, 7260610.0 ], [ 529894.243011592421681, 7260610.0 ] ] } },
{ "type": "Feature", "properties": { "id": 3, "reference_id": 3, "dune_id": 3, "dune_name": "Big Mommy Dune", "acquisition_date": "2018-02-14", "length_m": 58.486023184610531 }, "geometry": { "type": "LineString", "coordinates": [ [ 530044.243011592305265, 7260610.0 ], [ 530037.91319030651357, 7260610.0 ], [ 530029.454585945932195, 7260610.0 ], [ 530019.912851801607758, 7260610.0 ], [ 530010.087148198508658, 7260610.0 ], [ 530000.545414054067805, 7260610.0 ], [ 529992.08680969348643, 7260610.0 ], [ 529985.756988407694735, 7260610.0 ] ] } },
{ "type": "Feature", "properties": { "id": 4, "reference_id": 3, "dune_id": 3, "dune_name": "Big Mommy Dune", "acquisition_date": "2018-02-14", "length_m": 111.02035935484089 }, "geometry": { "type": "LineString", "coordinates": [ [ 530204.243011592305265, 7260580.0111741758883 ], [ 530197.91319030651357, 7260580.087148198857903 ], [ 530189.453693735180423, 7260580.447983889840543 ], [ 530179.900785414385609, 7260581.551677605137229 ], [ 530169.987933612894267, 7260583.757326913066208 ], [ 530159.999107789364643, 7260586.776912964880466 ], [ 530150.0, 7260590.0 ], [ 530140.000892210751772, 7260593.223087035119534 ], [ 530130.012066387222148, 7260596.242673087865114 ], [ 530120.099214585614391, 7260598.448322394862771 ], [ 530110.546306264819577, 7260599.552016111090779 ], [ 530102.08680969348643, 7260599.912851802073419 ], [ 530095.756988407694735, 7260599.9888258241117 ] ] } },
{ "type": "Feature", "properties": { "id": 5, "reference_id": 3, "dune_id": 3, "dune_name": "Big Mommy Dune", "acquisition_date": "2018-02-14", "length_m": 360.91908971364825 }, "geometry": { "type": "LineString", "coordinates": [ [ 529374.243011592305265, 7260695.756988408043981 ], [ 529367.91319030651357, 7260702.086809693835676 ], [ 529359.453693735180423, 7260710.546306265518069 ], [ 529349.901677625253797, 7260720.099214585497975 ], [ 529339.999107789364643, 7260730.012066388502717 ], [ 529330.086255987756886, 7260740.000892210751772 ], [ 529320.447091679205187, 7260750.0 ], [ 529311.541395639418624, 7260760.0 ], [ 529303.681352890678681, 7260770.0 ], [ 529296.417861694935709, 7260780.000000000931323 ], [ 529288.917762426892295, 7260790.0 ], [ 529281.180559947970323, 7260800.0 ], [ 529274.031014405656606, 7260810.0 ], [ 529267.870324714574963, 7260820.0 ], [ 529262.216823483933695, 7260830.0 ], [ 529256.340995462378487, 7260840.0 ], [ 529250.0, 7260850.0 ], [ 529243.6598967484897, 7260860.0 ], [ 529237.793458481901325, 7260870.0 ], [ 529232.205649307463318, 7260880.0 ], [ 529226.329821285791695, 7260890.0 ], [ 529219.924025977961719, 7260900.0 ], [ 529213.299953267676756, 7260910.0 ], [ 529206.700938942958601, 7260920.0 ], [ 529200.087148198392242, 7260930.0 ], [ 529193.757326912716962, 7260939.999553894624114 ], [ 529188.24233458249364, 7260949.993520701304078 ], [ 529183.758219123352319, 7260959.944359514862299 ], [ 529180.098322374862619, 7260969.6772395754233 ], [ 529176.788979352102615, 7260978.683442020788789 ], [ 529173.758219123352319, 7260986.078100949525833 ], [ 529171.551677605253644, 7260991.078100949525833 ] ] } },
{ "type": "Feature", "properties": { "id": 6, "reference_id": 3, "dune_id": 3, "dune_name": "Big Mommy Dune", "acquisition_date": "2018-02-14", "length_m": 141.81245207770343 }, "geometry": { "type": "LineString", "coordinates": [ [ 529614.243011592421681, 7260630.087148198857903 ], [ 529607.91319030651357, 7260630.447091680020094 ], [ 529599.453693735180423, 7260631.540503429248929 ], [ 529589.900785414502025, 7260633.671070925891399 ], [ 529579.987933612894267, 7260636.340995462611318 ], [ 529569.999107789248228, 7260638.546644769608974 ], [ 529560.0, 7260640.0 ], [ 529550.0, 7260641.454247441142797 ], [ 529540.0, 7260643.670178715139627 ], [ 529530.0, 7260646.416077273897827 ], [ 529520.000892210751772, 7260648.906588250771165 ], [ 529510.012066387105733, 7260651.093411749228835 ], [ 529500.099214585614391, 7260653.583030516281724 ], [ 529490.546306264819577, 7260656.318647109903395 ], [ 529482.08680969348643, 7260658.458604361861944 ], [ 529475.756988407694735, 7260659.552908320911229 ] ] } },
{ "type": "Feature", "properties": { "id": 7, "reference_id": 1, "dune_id": 1, "dune_name": "Big Mommy Dune", "acquisition_date": "2018-02-14", "length_m": 680.25170455628108 }, "geometry": { "type": "LineString", "coordinates": [ [ 529020.0, 7261555.756988408043981 ], [ 529020.0, 7261562.086809693835676 ], [ 529020.0, 7261570.546306264586747 ], [ 529020.0, 7261580.099214585497975 ], [ 529020.0, 7261590.012066387571394 ], [ 529020.0, 7261600.000892210751772 ], [ 529020.0, 7261610.0 ], [ 529020.0, 7261620.0 ], [ 529020.000892210751772, 7261630.0 ], [ 529020.011174176470377, 7261640.0 ], [ 529020.087148198508658, 7261650.0 ], [ 529020.447983889840543, 7261660.0 ], [ 529021.551677605137229, 7261670.0 ], [ 529023.758219123352319, 7261680.0 ], [ 529026.78897935221903, 7261690.0 ], [ 529030.098322374979034, 7261700.0 ], [ 529033.758219123352319, 7261710.0 ], [ 529038.241442371741869, 7261720.0 ], [ 529043.747044946765527, 7261730.000000000931323 ], [ 529050.01028196583502, 7261740.0 ], [ 529056.330713496543467, 7261750.0 ], [ 529062.130567496176809, 7261760.0 ], [ 529067.433515001088381, 7261770.0 ], [ 529072.565592788159847, 7261780.0 ], [ 529077.858258327352814, 7261790.0 ], [ 529083.582138305064291, 7261800.0 ], [ 529089.541734144324437, 7261810.0 ], [ 529094.701277447980829, 7261820.0 ], [ 529098.000338505022228, 7261830.0 ], [ 529099.453693735413253, 7261840.000000000931323 ], [ 529099.813637216109782, 7261850.0 ], [ 529099.528775546583347, 7261860.0 ], [ 529098.360281985718757, 7261870.0 ], [ 529095.79468919755891, 7261880.0 ], [ 529091.670517219230533, 7261890.0 ], [ 529086.231498910929076, 7261900.0 ], [ 529079.911959590855986, 7261910.0 ], [ 529073.298168846289627, 7261920.0 ], [ 529066.68976476660464, 7261930.0 ], [ 529060.0, 7261940.0 ], [ 529053.310235233511776, 7261950.0 ], [ 529046.700938942958601, 7261960.0 ], [ 529040.076866232673638, 7261970.0 ], [ 529033.681352890795097, 7261980.0 ], [ 529027.881498891045339, 7261990.0 ], [ 529022.653633197303861, 7262000.0 ], [ 529017.881498890928924, 7262010.0 ], [ 529013.681352890795097, 7262020.0 ], [ 529010.076866232673638, 7262030.0 ], [ 529006.700938943075016, 7262040.0 ], [ 529003.310235233511776, 7262050.0 ], [ 528999.999107789364643, 7262060.0 ], [ 528996.67948280076962, 7262070.0 ], [ 528993.222194824367762, 7262080.0 ], [ 528989.552016110159457, 7262090.0 ], [ 528985.138979372102767, 7262100.0 ], [ 528979.552016110159457, 7262110.0 ], [ 528973.222194824367762, 7262120.0 ], [ 528966.67948280076962, 7262129.999107789248228 ], [ 528960.0, 7262139.987933613359928 ], [ 528953.321409409982152, 7262149.900785414502025 ], [ 528946.788979352102615, 7262159.453693735413253 ], [ 528940.535132088349201, 7262167.913190307095647 ], [ 528935.309004517854191, 7262174.243011591956019 ] ] } },
{ "type": "Feature", "properties": { "id": 8, "reference_id": 1, "dune_id": 1, "dune_name": "Big Mommy Dune", "acquisition_date": "2018-02-14", "length_m": 555.66865549205068 }, "geometry": { "type": "LineString", "coordinates": [ [ 529171.540503428783268, 7260998.921899050474167 ], [ 529173.671070924843661, 7261003.921899050474167 ], [ 529176.340995462262072, 7261011.316557979211211 ], [ 529178.546644769841805, 7261020.322760425508022 ], [ 529179.999107789364643, 7261030.055640487000346 ], [ 529181.442181053804234, 7261040.006479299627244 ], [ 529183.571856339345686, 7261050.000446105375886 ], [ 529185.881837395951152, 7261060.0 ], [ 529186.918993142666295, 7261070.0 ], [ 529185.881837395951152, 7261080.0 ], [ 529183.571856339345686, 7261090.0 ], [ 529181.442181053804234, 7261100.0 ], [ 529179.998215578612871, 7261110.0 ], [ 529178.535470593255013, 7261120.000000000931323 ], [ 529176.253847263869829, 7261130.0 ], [ 529173.223087035003118, 7261140.0 ], [ 529169.988825823529623, 7261150.0 ], [ 529166.688872555969283, 7261160.0 ], [ 529163.299061057041399, 7261170.0 ], [ 529159.924025978078134, 7261180.0 ], [ 529156.329821285791695, 7261190.0 ], [ 529152.204757096711546, 7261200.0 ], [ 529147.783176516066305, 7261210.000000000931323 ], [ 529143.583922726451419, 7261220.0 ], [ 529139.639164308551699, 7261230.0 ], [ 529135.236409536330029, 7261240.0 ], [ 529130.000892210751772, 7261250.0 ], [ 529124.773872429504991, 7261260.0 ], [ 529120.43591750273481, 7261270.0 ], [ 529116.765738788526505, 7261280.0 ], [ 529113.234261211473495, 7261290.0 ], [ 529109.56408249726519, 7261300.0 ], [ 529105.226127570495009, 7261310.000000000931323 ], [ 529100.0, 7261320.0 ], [ 529094.773872429504991, 7261330.0 ], [ 529090.436809713486582, 7261340.0 ], [ 529086.776912964996882, 7261350.0 ], [ 529083.32051719923038, 7261360.0 ], [ 529080.000892210751772, 7261370.0 ], [ 529076.689764766488224, 7261380.0 ], [ 529073.299061056924984, 7261390.0 ], [ 529069.924025978078134, 7261400.0 ], [ 529066.329821285791695, 7261410.0 ], [ 529062.205649307463318, 7261420.0 ], [ 529057.794350692536682, 7261430.0 ], [ 529053.670178714208305, 7261440.0 ], [ 529050.075974021921866, 7261450.0 ], [ 529046.700938942958601, 7261460.0 ], [ 529043.311127444147132, 7261470.000000000931323 ], [ 529040.011174176470377, 7261479.999107789248228 ], [ 529036.777805175632238, 7261489.987933613359928 ], [ 529033.757326912600547, 7261499.900785414502025 ], [ 529031.551677605253644, 7261509.453693735413253 ], [ 529030.447983889840543, 7261517.913190307095647 ], [ 529030.087148198508658, 7261524.243011592887342 ] ] } },
{ "type": "Feature", "properties": { "id": 9, "reference_id": 8, "dune_id": 8, "dune_name": "Inverted Y Dune", "acquisition_date": "2018-02-14", "length_m": 403.43609625524317 }, "geometry": { "type": "LineString", "coordinates": [ [ 530244.243011592421681, 7261232.086809693835676 ], [ 530237.91319030651357, 7261235.756988408043981 ], [ 530229.453693735180423, 7261242.086809693835676 ], [ 530219.900785414385609, 7261250.546306264586747 ], [ 530209.988825823646039, 7261260.099214585497975 ], [ 530200.01028196583502, 7261270.012066387571394 ], [ 530190.088040409144014, 7261280.000892210751772 ], [ 530180.45915806631092, 7261290.0 ], [ 530171.638825803645886, 7261300.0 ], [ 530164.20531080244109, 7261310.000000000931323 ], [ 530158.329482780885883, 7261320.0 ], [ 530153.768501089187339, 7261330.0 ], [ 530150.088040409144014, 7261340.0 ], [ 530146.701831153710373, 7261350.0 ], [ 530143.311127444263548, 7261360.0 ], [ 530140.01028196583502, 7261370.0 ], [ 530136.766630999278277, 7261380.0 ], [ 530133.670178714208305, 7261390.0 ], [ 530131.104585926048458, 7261400.0 ], [ 530128.907480461173691, 7261410.0 ], [ 530126.416077273664996, 7261420.0 ], [ 530123.670178714208305, 7261430.0 ], [ 530121.454247441026382, 7261440.0 ], [ 530120.0, 7261450.0 ], [ 530118.54664476972539, 7261460.0 ], [ 530116.340995462262072, 7261470.000000000931323 ], [ 530113.671070924960077, 7261480.0 ], [ 530111.540503428666852, 7261490.0 ], [ 530110.447091679205187, 7261500.0 ], [ 530110.086255987756886, 7261510.0 ], [ 530110.0, 7261520.0 ], [ 530109.913744012243114, 7261530.0 ], [ 530109.552462215535343, 7261539.999553894624114 ], [ 530108.453909483039752, 7261549.993520701304078 ], [ 530106.286247186595574, 7261559.944359513930976 ], [ 530103.446632874663919, 7261569.6772395754233 ], [ 530100.770251714391634, 7261578.683442020788789 ], [ 530098.612002322101034, 7261586.078100949525833 ], [ 530096.922237555496395, 7261591.078100949525833 ] ] } },
{ "type": "Feature", "properties": { "id": 10, "reference_id": 8, "dune_id": 8, "dune_name": "Inverted Y Dune", "acquisition_date": "2018-02-14", "length_m": 58.578493066226351 }, "geometry": { "type": "LineString", "coordinates": [ [ 530505.756988407694735, 7261208.00033850595355 ], [ 530512.085917482851073, 7261204.690995481796563 ], [ 530520.534239877597429, 7261199.465760122984648 ], [ 530530.0, 7261193.223087035119534 ], [ 530539.465760122402571, 7261186.776912964880466 ], [ 530547.914082517265342, 7261180.534239877015352 ], [ 530554.243011592305265, 7261175.309004518203437 ] ] } },
{ "type": "Feature", "properties": { "id": 11, "reference_id": 9, "dune_id": 9, "dune_name": "Inverted Y Dune", "acquisition_date": "2018-02-14", "length_m": 739.57953456428993 }, "geometry": { "type": "LineString", "coordinates": [ [ 530092.618604378192686, 7261598.910724874585867 ], [ 530089.748279663734138, 7261603.834750852547586 ], [ 530085.013263306696899, 7261610.868574090301991 ], [ 530078.136736146174371, 7261618.771082820370793 ], [ 530069.497267834376544, 7261626.297421364113688 ], [ 530059.906372502679005, 7261633.218392157927155 ], [ 530049.988379718270153, 7261639.912405695766211 ], [ 530039.999107789364643, 7261646.318647109903395 ], [ 530030.0, 7261652.129675285890698 ], [ 530020.0, 7261657.433515001088381 ], [ 530010.0, 7261662.566484998911619 ], [ 530000.0, 7261667.870324714109302 ], [ 529990.0, 7261673.680460680276155 ], [ 529980.0, 7261680.076866232790053 ], [ 529970.0, 7261686.700938943773508 ], [ 529960.0, 7261693.311127444729209 ], [ 529950.0, 7261700.011174177750945 ], [ 529940.0, 7261706.777805175632238 ], [ 529930.0, 7261713.757326913066208 ], [ 529920.0, 7261721.551677605137229 ], [ 529910.0, 7261730.447983890771866 ], [ 529900.0, 7261740.087148198857903 ], [ 529890.0, 7261750.011174176819623 ], [ 529880.0, 7261760.000892210751772 ], [ 529870.000892210751772, 7261770.0 ], [ 529860.011174176470377, 7261780.0 ], [ 529850.087148198392242, 7261790.0 ], [ 529840.447091679205187, 7261800.0 ], [ 529831.541395639418624, 7261810.0 ], [ 529823.682245101314038, 7261820.0 ], [ 529816.428143660770729, 7261830.0 ], [ 529808.994628659682348, 7261840.000000000931323 ], [ 529801.552569815889001, 7261850.0 ], [ 529795.222748530097306, 7261860.0 ], [ 529790.534239877597429, 7261870.0 ], [ 529786.864061163389124, 7261880.0 ], [ 529783.682245101314038, 7261890.0 ], [ 529781.104585926048458, 7261900.0 ], [ 529778.896306284703314, 7261910.0 ], [ 529776.328929075039923, 7261920.0 ], [ 529773.223087035119534, 7261930.0 ], [ 529769.912851801607758, 7261940.0 ], [ 529766.318647109437734, 7261950.0 ], [ 529762.128783074906096, 7261960.0 ], [ 529757.423233035253361, 7261970.0 ], [ 529752.490510976873338, 7261980.0 ], [ 529747.509489023126662, 7261990.0 ], [ 529742.576766964630224, 7262000.0 ], [ 529737.870324714574963, 7262010.0 ], [ 529733.670178714208305, 7262020.0 ], [ 529730.0, 7262030.0 ], [ 529726.329821285791695, 7262040.0 ], [ 529722.130567496176809, 7262050.0 ], [ 529717.433515001088381, 7262060.0 ], [ 529712.566484998911619, 7262070.0 ], [ 529707.869432503823191, 7262080.0 ], [ 529703.670178714208305, 7262090.0 ], [ 529700.0, 7262100.0 ], [ 529696.329821285791695, 7262110.0 ], [ 529692.130567496176809, 7262120.0 ], [ 529687.434407211840153, 7262129.999107789248228 ], [ 529682.577659175381996, 7262139.987933613359928 ], [ 529677.957472912967205, 7262149.900785414502025 ], [ 529674.128444569883868, 7262159.453693735413253 ], [ 529671.628543837810867, 7262167.913190307095647 ], [ 529670.458265855675563, 7262174.243011591956019 ] ] } },
{ "type": "Feature", "properties": { "id": 12, "reference_id": 2, "dune_id": 2, "dune_name": "Big Mommy Dune", "acquisition_date": "2018-02-14", "length_m": 122.81291524761376 }, "geometry": { "type": "LineString", "coordinates": [ [ 528825.756988407694735, 7260880.087148198857903 ], [ 528832.08680969348643, 7260880.447091680020094 ], [ 528840.546306264819577, 7260881.541395640000701 ], [ 528850.099214585497975, 7260883.681352891027927 ], [ 528860.012066387222148, 7260886.417861694470048 ], [ 528870.000892210751772, 7260888.917762427590787 ], [ 528880.0, 7260891.180559948086739 ], [ 528890.0, 7260894.030122195370495 ], [ 528899.999107789364643, 7260897.859150538221002 ], [ 528909.987933612894267, 7260902.128783075138927 ], [ 528919.900785414385609, 7260905.882729607634246 ], [ 528929.453693735296838, 7260908.372348373755813 ], [ 528937.913190306629986, 7260909.541734145022929 ], [ 528944.243011592305265, 7260909.911959591321647 ] ] } },
{ "type": "Feature", "properties": { "id": 13, "reference_id": 2, "dune_id": 2, "dune_name": "Big Mommy Dune", "acquisition_date": "2018-02-14", "length_m": 337.76696132815846 }, "geometry": { "type": "LineString", "coordinates": [ [ 528724.243011592421681, 7260838.371456163004041 ], [ 528717.91319030651357, 7260835.871555430814624 ], [ 528709.453693735180423, 7260832.041634876281023 ], [ 528699.900785414502025, 7260827.41205885913223 ], [ 528689.987933612894267, 7260822.488726555369794 ], [ 528679.999107789364643, 7260817.499207057058811 ], [ 528670.0, 7260812.499900732189417 ], [ 528660.0, 7260807.499207057058811 ], [ 528650.0, 7260802.489618767052889 ], [ 528640.0, 7260797.423233035951853 ], [ 528630.0, 7260792.129675285890698 ], [ 528620.0, 7260786.329821286723018 ], [ 528610.0, 7260779.999107790179551 ], [ 528600.0, 7260773.659896748140454 ], [ 528590.0, 7260767.793458482250571 ], [ 528580.0, 7260762.205649306997657 ], [ 528570.0, 7260756.329821286723018 ], [ 528560.0, 7260749.924025977961719 ], [ 528550.0, 7260743.299061057157815 ], [ 528540.0, 7260736.688872556202114 ], [ 528530.0, 7260729.989718034863472 ], [ 528520.0, 7260723.233369001187384 ], [ 528510.0, 7260716.329821286723018 ], [ 528500.0, 7260708.896306284703314 ], [ 528490.0, 7260701.103693716228008 ], [ 528480.000892210751772, 7260693.671070925891399 ], [ 528470.012066387105733, 7260686.777805175632238 ], [ 528460.099214585614391, 7260680.098322374746203 ], [ 528450.546306264819577, 7260673.76939329970628 ], [ 528442.08680969348643, 7260668.329482780769467 ], [ 528435.756988407694735, 7260664.205310802906752 ] ] } },
{ "type": "Feature", "properties": { "id": 14, "reference_id": 2, "dune_id": 2, "dune_name": "Big Mommy Dune", "acquisition_date": "2018-02-14", "length_m": 71.637751487987998 }, "geometry": { "type": "LineString", "coordinates": [ [ 529065.756988407694735, 7260950.088040409609675 ], [ 529072.08680969348643, 7260950.458265855908394 ], [ 529080.546306264819577, 7260951.627651628106833 ], [ 529090.098322374979034, 7260954.117270393297076 ], [ 529100.0, 7260957.870324715040624 ], [ 529109.901677625137381, 7260962.129675285890698 ], [ 529119.453693735296838, 7260965.882729606702924 ], [ 529127.91319030651357, 7260968.37234837282449 ], [ 529134.243011592421681, 7260969.541734144091606 ] ] } },
{ "type": "Feature", "properties": { "id": 15, "reference_id": 5, "dune_id": 5, "dune_name": "The Star Dune", "acquisition_date": "2018-02-14", "length_m": 1142.2406002319881 }, "geometry": { "type": "LineString", "coordinates": [ [ 534334.342226177919656, 7261305.756988408043981 ], [ 534328.459496571333148, 7261312.086809693835676 ], [ 534321.541395639418624, 7261320.546306264586747 ], [ 534315.668947998550721, 7261330.099214585497975 ], [ 534312.161891504772939, 7261340.012066386640072 ], [ 534310.992505733272992, 7261350.000892210751772 ], [ 534311.639718014281243, 7261360.0 ], [ 534313.682245101430453, 7261370.0 ], [ 534316.331605707178824, 7261380.0 ], [ 534318.470670747687109, 7261390.0 ], [ 534319.640056519303471, 7261400.0 ], [ 534320.359943480696529, 7261410.0 ], [ 534321.529329252196476, 7261420.0 ], [ 534323.669286503572948, 7261430.0 ], [ 534326.329821285791695, 7261440.0 ], [ 534328.459496571333148, 7261450.0 ], [ 534329.552908320794813, 7261460.0 ], [ 534329.912851801607758, 7261470.000000000931323 ], [ 534329.988825823529623, 7261480.0 ], [ 534329.999107789364643, 7261490.0 ], [ 534329.999107789364643, 7261500.0 ], [ 534329.987933612894267, 7261510.0 ], [ 534329.900785414385609, 7261520.0 ], [ 534329.453693735296838, 7261530.0 ], [ 534327.91319030651357, 7261540.0 ], [ 534324.243011592421681, 7261550.0 ], [ 534317.91319030651357, 7261560.000000000931323 ], [ 534309.453693735296838, 7261569.999107789248228 ], [ 534299.900785414502025, 7261579.9888258241117 ], [ 534289.987933612894267, 7261589.912851802073419 ], [ 534279.999107789248228, 7261599.552016111090779 ], [ 534270.0, 7261608.448322394862771 ], [ 534260.0, 7261616.241780877113342 ], [ 534250.0, 7261623.211912859231234 ], [ 534240.0, 7261629.912851801142097 ], [ 534230.0, 7261636.328929075971246 ], [ 534220.0, 7261642.204757097177207 ], [ 534210.0, 7261647.782284306362271 ], [ 534200.0, 7261653.571856340393424 ], [ 534190.0, 7261659.541734144091606 ], [ 534180.0, 7261664.712451624684036 ], [ 534170.0, 7261668.088378914631903 ], [ 534160.0, 7261669.911959591321647 ], [ 534150.0, 7261671.442181054502726 ], [ 534140.0, 7261673.65811232663691 ], [ 534130.0, 7261676.329821285791695 ], [ 534120.0, 7261678.470670748502016 ], [ 534110.0, 7261679.640056519769132 ], [ 534100.0, 7261680.35994348116219 ], [ 534090.0, 7261681.529329252429307 ], [ 534080.0, 7261683.669286504387856 ], [ 534070.0, 7261686.33071349747479 ], [ 534060.0, 7261688.470670748502016 ], [ 534050.0, 7261689.64005651883781 ], [ 534040.0, 7261690.35994348116219 ], [ 534030.0, 7261691.529329253360629 ], [ 534020.0, 7261693.670178714208305 ], [ 534010.0, 7261696.340995462611318 ], [ 534000.0, 7261698.546644769608974 ], [ 533990.0, 7261700.0 ], [ 533980.0, 7261701.454247441142797 ], [ 533970.0, 7261703.670178714208305 ], [ 533960.0, 7261706.416969484649599 ], [ 533950.0, 7261708.917762426659465 ], [ 533940.0, 7261711.181452158838511 ], [ 533930.0, 7261714.041296371258795 ], [ 533920.0, 7261717.946298737078905 ], [ 533910.0, 7261722.576766964048147 ], [ 533900.0, 7261727.434407211840153 ], [ 533890.0, 7261732.13056749664247 ], [ 533880.0, 7261736.329821286723018 ], [ 533870.0, 7261740.0 ], [ 533860.0, 7261743.671070925891399 ], [ 533850.0, 7261747.881498891860247 ], [ 533840.0, 7261752.664807373657823 ], [ 533830.0, 7261757.96864709071815 ], [ 533820.0, 7261764.129336779937148 ], [ 533810.000892210635357, 7261771.628543837927282 ], [ 533800.011174176470377, 7261780.458265855908394 ], [ 533790.088040409144014, 7261790.088040409609675 ], [ 533780.45915806631092, 7261800.011174176819623 ], [ 533771.638825803645886, 7261810.000892210751772 ], [ 533764.205310802557506, 7261820.0 ], [ 533758.329482780885883, 7261830.0 ], [ 533753.768501089187339, 7261840.000000000931323 ], [ 533750.088040409144014, 7261850.0 ], [ 533746.700938942958601, 7261860.0 ], [ 533743.299953267676756, 7261870.0 ], [ 533739.923133767442778, 7261880.0 ], [ 533736.31953932007309, 7261890.0 ], [ 533732.128783074906096, 7261900.0 ], [ 533727.423233035253361, 7261910.0 ], [ 533722.489618766237982, 7261920.0 ], [ 533717.499207057291642, 7261930.0 ], [ 533712.499900731956586, 7261940.0 ], [ 533707.499207057408057, 7261950.0 ], [ 533702.489618766237982, 7261960.0 ], [ 533697.423233035369776, 7261970.0 ], [ 533692.129675285541452, 7261980.0 ], [ 533686.330267391167581, 7261989.999553894624114 ], [ 533680.005587088293396, 7261999.993520701304078 ], [ 533673.714645024156198, 7262009.944359513930976 ], [ 533668.105044730589725, 7262019.677239574491978 ], [ 533663.435059088165872, 7262028.683442020788789 ], [ 533659.803736446541734, 7262036.078100949525833 ], [ 533657.294247423415072, 7262041.078100949525833 ] ] } },
{ "type": "Feature", "properties": { "id": 16, "reference_id": 6, "dune_id": 6, "dune_name": "The Star Dune", "acquisition_date": "2018-02-14", "length_m": 895.79374120666751 }, "geometry": { "type": "LineString", "coordinates": [ [ 533653.176084819366224, 7262048.921899050474167 ], [ 533651.922237555496395, 7262053.921899050474167 ], [ 533651.217343393596821, 7262061.316557979211211 ], [ 533651.764049268327653, 7262070.322760425508022 ], [ 533653.713752813404426, 7262080.055640487000346 ], [ 533656.335408374085091, 7262090.006479298695922 ], [ 533658.459942676592618, 7262100.000446105375886 ], [ 533659.552908320911229, 7262110.0 ], [ 533659.912851801607758, 7262120.0 ], [ 533659.988825823529623, 7262130.0 ], [ 533659.999107789248228, 7262140.0 ], [ 533660.0, 7262150.0 ], [ 533660.0, 7262160.0 ], [ 533660.0, 7262170.0 ], [ 533660.000892210751772, 7262180.0 ], [ 533660.011174176470377, 7262190.0 ], [ 533660.087148198392242, 7262200.0 ], [ 533660.447091679088771, 7262210.0 ], [ 533661.540503428783268, 7262220.0 ], [ 533663.670178714208305, 7262230.0 ], [ 533666.330713496543467, 7262240.0 ], [ 533668.470670747803524, 7262250.0 ], [ 533669.640056519303471, 7262260.0 ], [ 533670.359943480696529, 7262270.0 ], [ 533671.529329252196476, 7262280.0 ], [ 533673.669286503456533, 7262290.0 ], [ 533676.329821285791695, 7262300.0 ], [ 533678.458604360697791, 7262310.0 ], [ 533679.541734144324437, 7262320.0 ], [ 533679.825703603215516, 7262330.0 ], [ 533679.541734144324437, 7262340.000000000931323 ], [ 533678.457712149946019, 7262350.0 ], [ 533676.318647109437734, 7262360.0 ], [ 533673.583030515816063, 7262370.0 ], [ 533671.093411749578081, 7262380.0 ], [ 533668.905696039786562, 7262390.0 ], [ 533666.405795307829976, 7262400.0 ], [ 533663.594204692286439, 7262410.0 ], [ 533661.093411749578081, 7262420.0 ], [ 533658.895414073951542, 7262430.0 ], [ 533656.329821285791695, 7262440.0 ], [ 533653.233369000838138, 7262450.0 ], [ 533649.989718034281395, 7262460.0 ], [ 533646.689764766488224, 7262470.0 ], [ 533643.310235233511776, 7262480.0 ], [ 533640.01028196583502, 7262490.0 ], [ 533636.766630999278277, 7262500.0 ], [ 533633.670178714208305, 7262510.0 ], [ 533631.104585926048458, 7262520.0 ], [ 533628.907480461173691, 7262530.0 ], [ 533626.416077273548581, 7262540.0 ], [ 533623.670178714208305, 7262550.0 ], [ 533621.454247440909967, 7262560.0 ], [ 533620.0, 7262570.0 ], [ 533618.54664476972539, 7262580.0 ], [ 533616.340103251626715, 7262590.0 ], [ 533613.659896748373285, 7262600.000000000931323 ], [ 533611.45335523027461, 7262610.0 ], [ 533610.0, 7262620.0 ], [ 533608.54664476972539, 7262630.0 ], [ 533606.340995462378487, 7262640.0 ], [ 533603.671070924960077, 7262650.0 ], [ 533601.540503428783268, 7262660.0 ], [ 533600.44619946856983, 7262670.0 ], [ 533600.075974022038281, 7262680.0 ], [ 533599.924025978078134, 7262690.0 ], [ 533599.553800531546585, 7262700.0 ], [ 533598.459496571216732, 7262710.0 ], [ 533596.329821285791695, 7262720.0 ], [ 533593.669286503456533, 7262730.0 ], [ 533591.529329252196476, 7262740.0 ], [ 533590.359943480696529, 7262750.0 ], [ 533589.639164308551699, 7262760.0 ], [ 533588.458604360697791, 7262770.0 ], [ 533586.232391121680848, 7262780.0 ], [ 533583.135938836610876, 7262790.0 ], [ 533579.552908320911229, 7262800.0 ], [ 533575.235517325578257, 7262810.0 ], [ 533570.075974022038281, 7262820.0 ], [ 533565.134708120953292, 7262830.0 ], [ 533561.541395639418624, 7262840.0 ], [ 533558.993736448930576, 7262850.0 ], [ 533556.428143660770729, 7262860.0 ], [ 533553.682245101314038, 7262870.000000000931323 ], [ 533551.54139563953504, 7262879.999107789248228 ], [ 533550.447091679205187, 7262889.987933613359928 ], [ 533550.087148198392242, 7262899.900785414502025 ], [ 533550.011174176470377, 7262909.453693736344576 ], [ 533550.000892210751772, 7262917.913190307095647 ], [ 533550.0, 7262924.243011591956019 ] ] } },
{ "type": "Feature", "properties": { "id": 17, "reference_id": 7, "dune_id": 7, "dune_name": "Inverted Y Dune", "acquisition_date": "2018-02-14", "length_m": 550.13304610836792 }, "geometry": { "type": "LineString", "coordinates": [ [ 530654.243011592305265, 7261325.756988408043981 ], [ 530647.913190306629986, 7261332.086809693835676 ], [ 530639.453693735296838, 7261340.546306265518069 ], [ 530629.901677625137381, 7261350.099214585497975 ], [ 530619.999107789364643, 7261360.012066386640072 ], [ 530610.086255987756886, 7261370.000892210751772 ], [ 530600.447983889840543, 7261380.0 ], [ 530591.551677605137229, 7261390.0 ], [ 530583.757326912600547, 7261400.0 ], [ 530576.777805175632238, 7261410.0 ], [ 530570.011174176470377, 7261420.0 ], [ 530563.310235233511776, 7261430.0 ], [ 530556.690656977239996, 7261440.0 ], [ 530550.0, 7261450.0 ], [ 530543.309343022760004, 7261460.0 ], [ 530536.689764766488224, 7261470.000000000931323 ], [ 530529.988825823529623, 7261480.0 ], [ 530523.222194824367762, 7261490.0 ], [ 530516.242673087399453, 7261500.0 ], [ 530508.448322394862771, 7261510.0 ], [ 530499.552016110159457, 7261520.0 ], [ 530489.912851801607758, 7261529.999107789248228 ], [ 530479.988825823529623, 7261539.9888258241117 ], [ 530469.999107789364643, 7261549.912851801142097 ], [ 530460.0, 7261559.552016111090779 ], [ 530450.0, 7261568.448322394862771 ], [ 530440.0, 7261576.241780877113342 ], [ 530430.000000000116415, 7261583.211020648479462 ], [ 530420.0, 7261589.901677625253797 ], [ 530410.0, 7261596.241780877113342 ], [ 530400.0, 7261601.758557628840208 ], [ 530390.0, 7261606.252955053001642 ], [ 530380.0, 7261609.9888258241117 ], [ 530370.0, 7261613.658112327568233 ], [ 530360.0, 7261617.783176516182721 ], [ 530350.0, 7261622.129675285890698 ], [ 530340.0, 7261625.968985594809055 ], [ 530330.0, 7261628.819440051913261 ], [ 530320.0, 7261631.082237573340535 ], [ 530310.0, 7261633.582138305529952 ], [ 530300.0, 7261636.318647109903395 ], [ 530290.0, 7261638.459496570751071 ], [ 530280.000892210751772, 7261639.564082497730851 ], [ 530270.012066387105733, 7261640.0 ], [ 530260.099214585614391, 7261640.435917502269149 ], [ 530250.546306264819577, 7261641.539611218497157 ], [ 530242.08680969348643, 7261643.670178715139627 ], [ 530235.756988407694735, 7261646.329821286723018 ] ] } }
]
}
