{
"type": "FeatureCollection",
"name": "crests_2020_02_2020-02-06",
"crs": { "type": "name", "properties": { "name": "urn:ogc:def:crs:EPSG::32733" } },
"features": [
{ "type": "Feature", "properties": { "id": 0, "reference_id": 3, "dune_id": 3, "dune_name": "Big Mommy Dune", "acquisition_date": "2020-02-06", "length_m": 169.35523700315508 }, "geometry": { "type": "LineString", "coordinates": [ [ 529735.756988407694735, 7260610.0 ], [ 529742.08680969348643, 7260610.0 ], [ 529750.546306264819577, 7260610.0 ], [ 529760.099214585614391, 7260610.0 ], [ 529770.012066387222148, 7260610.0 ], [ 529780.000892210751772, 7260610.0 ], [ 529790.0, 7260610.0 ], [ 529800.0, 7260610.0 ], [ 529810.0, 7260610.0 ], [ 529820.0, 7260610.0 ], [ 529830.0, 7260610.0 ], [ 529840.0, 7260610.0 ], [ 529850.0, 7260609.999107789248228 ], [ 529859.999107789364643, 7260609.9888258241117 ], [ 529869.987933612894267, 7260609.912851802073419 ], [ 529879.900785414385609, 7260609.552908320911229 ], [ 529889.453693735180423, 7260608.459496571682394 ], [ 529897.91319030651357, 7260606.329821286723018 ], [ 529904.243011592421681, 7260603.670178715139627 ] ] } },
{ "type": "Feature", "properties": { "id": 1, "reference_id": 3, "dune_id": 3, "dune_name": "Big Mommy Dune", "acquisition_date": "2020-02-06", "length_m": 173.68860824152512 }, "geometry": { "type": "LineString", "coordinates": [ [ 530075.756988407694735, 7260600.0 ], [ 530082.08680969348643, 7260599.999107789248228 ], [ 530090.546306264819577, 7260599.9888258241117 ], [ 530100.099214585614391, 7260599.912851802073419 ], [ 530110.012066387222148, 7260599.552016111090779 ], [ 530120.000892210751772, 7260598.448322394862771 ], [ 530130.0, 7260596.242673087865114 ], [ 530140.0, 7260593.223087035119534 ], [ 530150.0, 7260590.0 ], [ 530160.0, 7260586.776020754128695 ], [ 530170.000000000116415, 7260583.746152736246586 ], [ 530180.0, 7260581.464529406279325 ], [ 530190.0, 7260580.0 ], [ 530199.999107789248228, 7260578.535470593720675 ], [ 530209.987933612894267, 7260576.253847264684737 ], [ 530219.900785414385609, 7260573.223979245871305 ], [ 530229.453693735180423, 7260570.0 ], [ 530237.91319030651357, 7260566.776912964880466 ], [ 530244.243011592421681, 7260563.757326913066208 ] ] } },
{ "type": "Feature", "properties": { "id": 2, "reference_id": 3, "dune_id": 3, "dune_name": "Big Mommy Dune", "acquisition_date": "2020-02-06", "length_m": 611.83169686223869 }, "geometry": { "type": "LineString", "coordinates": [ [ 529614.243011592421681, 7260630.011174176819623 ], [ 529607.91319030651357, 7260630.087148198857903 ], [ 529599.453693735180423, 7260630.447091680020094 ], [ 529589.900785414502025, 7260631.540503429248929 ], [ 529579.987933612894267, 7260633.671070925891399 ], [ 529569.999107789248228, 7260636.340995462611318 ], [ 529560.0, 7260638.546644769608974 ], [ 529550.0, 7260640.000892210751772 ], [ 529540.0, 7260641.464529407210648 ], [ 529530.0, 7260643.746152736246586 ], [ 529520.0, 7260646.776020754128695 ], [ 529510.0, 7260650.000892210751772 ], [ 529500.000000000116415, 7260653.234261211939156 ], [ 529490.0, 7260656.329821285791695 ], [ 529480.0, 7260658.896306285634637 ], [ 529470.0, 7260661.103693716228008 ], [ 529460.0, 7260663.670178714208305 ], [ 529450.0, 7260666.765738788992167 ], [ 529440.000000000116415, 7260670.0 ], [ 529430.0, 7260673.235153421759605 ], [ 529420.0, 7260676.34188767336309 ], [ 529410.0, 7260678.994628659449518 ], [ 529400.0, 7260681.638825803995132 ], [ 529390.0, 7260685.669840209186077 ], [ 529380.0, 7260692.075635517016053 ], [ 529370.0, 7260700.545414054766297 ], [ 529360.0, 7260710.099214585497975 ], [ 529350.0, 7260720.012066386640072 ], [ 529340.000892210751772, 7260730.000892210751772 ], [ 529330.011174176470377, 7260740.0 ], [ 529320.087148198508658, 7260750.0 ], [ 529310.447983889956959, 7260760.0 ], [ 529301.551677605253644, 7260770.0 ], [ 529293.757326912600547, 7260780.000000000931323 ], [ 529286.777805175632238, 7260790.0 ], [ 529280.011174176470377, 7260800.0 ], [ 529273.310235233511776, 7260810.0 ], [ 529266.690656977239996, 7260820.0 ], [ 529260.0, 7260830.0 ], [ 529253.309343022876419, 7260840.0 ], [ 529246.690656977239996, 7260850.0 ], [ 529240.0, 7260860.0 ], [ 529233.31023523339536, 7260870.0 ], [ 529226.700938943075016, 7260880.0 ], [ 529220.076866232557222, 7260890.0 ], [ 529213.680460680043325, 7260900.0 ], [ 529207.871216925210319, 7260910.0 ], [ 529202.57765917526558, 7260920.0 ], [ 529197.520663199597038, 7260930.0 ], [ 529192.577659175381996, 7260939.999553894624114 ], [ 529187.871216925210319, 7260949.993520701304078 ], [ 529183.681352890678681, 7260959.944359514862299 ], [ 529180.088040409144014, 7260969.6772395754233 ], [ 529176.788087141467258, 7260978.683442020788789 ], [ 529173.758219123352319, 7260986.078100949525833 ], [ 529171.551677605253644, 7260991.078100949525833 ] ] } },
{ "type": "Feature", "properties": { "id": 3, "reference_id": 8, "dune_id": 8, "dune_name": "Inverted Y Dune", "acquisition_date": "2020-02-06", "length_m": 429.01096752372996 }, "geometry": { "type": "LineString", "coordinates": [ [ 530264.243011592421681, 7261221.638825803995132 ], [ 530257.913190306629986, 7261224.205310802906752 ], [ 530249.453693735180423, 7261228.329482780769467 ], [ 530239.900785414502025, 7261233.76939329970628 ], [ 530229.987933612777852, 7261240.099214585497975 ], [ 530220.0, 7261246.788979351520538 ], [ 530210.011174176470377, 7261253.75821912381798 ], [ 530200.087148198392242, 7261261.551677605137229 ], [ 530190.447983889840543, 7261270.447983890771866 ], [ 530181.552569815889001, 7261280.087148198857903 ], [ 530173.768501089187339, 7261290.0111741758883 ], [ 530166.864953374140896, 7261300.000892210751772 ], [ 530160.45915806631092, 7261310.000000000931323 ], [ 530154.861912838649005, 7261320.0 ], [ 530150.447983889840543, 7261330.0 ], [ 530146.777805175632238, 7261340.0 ], [ 530143.320517199346796, 7261350.0 ], [ 530140.000892210751772, 7261360.0 ], [ 530136.690656977239996, 7261370.0 ], [ 530133.310235233511776, 7261380.0 ], [ 530130.01028196583502, 7261390.0 ], [ 530126.766630999278277, 7261400.0 ], [ 530123.670178714208305, 7261410.0 ], [ 530121.104585926048458, 7261420.0 ], [ 530118.907480461173691, 7261430.0 ], [ 530116.416969484300353, 7261440.0 ], [ 530113.680460680043325, 7261450.0 ], [ 530111.530221462948248, 7261460.0 ], [ 530110.359943480812944, 7261470.000000000931323 ], [ 530109.640056519303471, 7261480.0 ], [ 530108.470670747803524, 7261490.0 ], [ 530106.330713496543467, 7261500.0 ], [ 530103.670178714208305, 7261510.0 ], [ 530101.540503428783268, 7261520.0 ], [ 530100.447091679205187, 7261530.0 ], [ 530100.087148198508658, 7261539.999553894624114 ], [ 530100.011174176470377, 7261549.993520701304078 ], [ 530100.000892210751772, 7261559.944359513930976 ], [ 530100.0, 7261569.6772395754233 ], [ 530100.0, 7261578.683442020788789 ], [ 530100.0, 7261586.078100949525833 ], [ 530100.0, 7261591.078100949525833 ] ] } },
{ "type": "Feature", "properties": { "id": 4, "reference_id": 8, "dune_id": 8, "dune_name": "Inverted Y Dune", "acquisition_date": "2020-02-06", "length_m": 70.095108305550156 }, "geometry": { "type": "LineString", "coordinates": [ [ 530554.243011592305265, 7261172.085917483083904 ], [ 530547.91319030651357, 7261175.744922020472586 ], [ 530539.454585945932195, 7261181.987595107406378 ], [ 530529.912851801607758, 7261190.0 ], [ 530520.087148198392242, 7261198.012404892593622 ], [ 530510.545414054067805, 7261204.255077979527414 ], [ 530502.08680969348643, 7261207.914082517847419 ], [ 530495.756988407694735, 7261209.453693735413253 ] ] } },
{ "type": "Feature", "properties": { "id": 5, "reference_id": 9, "dune_id": 9, "dune_name": "Inverted Y Dune", "acquisition_date": "2020-02-06", "length_m": 717.37964406673962 }, "geometry": { "type": "LineString", "coordinates": [ [ 530064.243011592305265, 7261631.998769285157323 ], [ 530057.91319030651357, 7261635.298722552135587 ], [ 530049.453693735180423, 7261640.458265855908394 ], [ 530039.900785414385609, 7261646.417861695401371 ], [ 530029.987933612894267, 7261652.140849461778998 ], [ 530019.999107789248228, 7261657.424125246703625 ], [ 530010.0, 7261662.490510977804661 ], [ 530000.0, 7261667.509489024057984 ], [ 529990.0, 7261672.576766964048147 ], [ 529980.0, 7261677.871216924861073 ], [ 529970.0, 7261683.681352891027927 ], [ 529960.0, 7261690.088040409609675 ], [ 529950.0, 7261696.788087141700089 ], [ 529940.0, 7261703.75821912381798 ], [ 529930.0, 7261711.551677605137229 ], [ 529920.0, 7261720.447983889840543 ], [ 529910.0, 7261730.087148198857903 ], [ 529900.0, 7261740.011174176819623 ], [ 529890.0, 7261750.000892210751772 ], [ 529880.0, 7261760.0 ], [ 529870.000892210751772, 7261770.0 ], [ 529860.011174176470377, 7261780.0 ], [ 529850.087148198392242, 7261790.0 ], [ 529840.447983889840543, 7261800.0 ], [ 529831.551677605137229, 7261810.0 ], [ 529823.758219123352319, 7261820.0 ], [ 529816.788087141467258, 7261830.0 ], [ 529810.088040409144014, 7261840.000000000931323 ], [ 529803.682245101314038, 7261850.0 ], [ 529797.881498891045339, 7261860.0 ], [ 529792.653633197303861, 7261870.0 ], [ 529787.881498891045339, 7261880.0 ], [ 529783.681352890678681, 7261890.0 ], [ 529780.076866232673638, 7261900.0 ], [ 529776.700938943075016, 7261910.0 ], [ 529773.310235233511776, 7261920.0 ], [ 529770.0, 7261930.0 ], [ 529766.689764766488224, 7261940.0 ], [ 529763.299061056924984, 7261950.0 ], [ 529759.923133767326362, 7261960.0 ], [ 529756.319539319956675, 7261970.0 ], [ 529752.128783074789681, 7261980.0 ], [ 529747.423233035369776, 7261990.0 ], [ 529742.490510976989754, 7262000.0 ], [ 529737.509489023126662, 7262010.0 ], [ 529732.576766964630224, 7262020.0 ], [ 529727.870324714574963, 7262030.0 ], [ 529723.670178714208305, 7262040.0 ], [ 529720.000892210751772, 7262050.0 ], [ 529716.340103251626715, 7262060.0 ], [ 529712.20654151821509, 7262070.0 ], [ 529707.793458481901325, 7262080.0 ], [ 529703.659896748373285, 7262090.0 ], [ 529699.999107789248228, 7262100.0 ], [ 529696.329821285791695, 7262110.0 ], [ 529692.130567496176809, 7262120.0 ], [ 529687.433515001204796, 7262130.0 ], [ 529682.566484998911619, 7262140.0 ], [ 529677.870324714574963, 7262149.999107789248228 ], [ 529673.681352890678681, 7262159.987933613359928 ], [ 529670.088040409144014, 7262169.900785414502025 ], [ 529666.788087141467258, 7262179.453693735413253 ], [ 529663.758219123352319, 7262187.913190307095647 ], [ 529661.551677605137229, 7262194.243011591956019 ] ] } },
{ "type": "Feature", "properties": { "id": 6, "reference_id": 5, "dune_id": 5, "dune_name": "The Star Dune", "acquisition_date": "2020-02-06", "length_m": 1146.8967992754576 }, "geometry": { "type": "LineString", "coordinates": [ [ 534334.342226177919656, 7261305.756988408043981 ], [ 534328.459496571333148, 7261312.086809693835676 ], [ 534321.540503428666852, 7261320.546306264586747 ], [ 534315.657773822080344, 7261330.099214585497975 ], [ 534312.075635517016053, 7261340.012066386640072 ], [ 534310.556588230538182, 7261350.000892210751772 ], [ 534310.186362784006633, 7261360.0 ], [ 534310.45915806631092, 7261370.0 ], [ 534311.541395639418624, 7261380.0 ], [ 534313.670178714208305, 7261390.0 ], [ 534316.329821285791695, 7261400.0 ], [ 534318.459496571216732, 7261410.0 ], [ 534319.553800531546585, 7261420.0 ], [ 534319.924025978078134, 7261430.0 ], [ 534320.075974021921866, 7261440.0 ], [ 534320.446199468453415, 7261450.0 ], [ 534321.540503428666852, 7261460.0 ], [ 534323.670178714208305, 7261470.000000000931323 ], [ 534326.329821285791695, 7261480.0 ], [ 534328.458604360581376, 7261490.0 ], [ 534329.541734144324437, 7261500.0 ], [ 534329.824811392463744, 7261510.0 ], [ 534329.529667757218704, 7261520.0 ], [ 534328.3593897750834, 7261530.0 ], [ 534325.783515021088533, 7261540.0 ], [ 534321.583369020721875, 7261550.0 ], [ 534315.783515021088533, 7261559.999107790179551 ], [ 534308.360281985718757, 7261569.9888258241117 ], [ 534299.54084193368908, 7261579.912851802073419 ], [ 534289.911959590855986, 7261589.552016110159457 ], [ 534279.988825823529623, 7261598.448322394862771 ], [ 534269.999107789248228, 7261606.242673087865114 ], [ 534260.0, 7261613.222194824367762 ], [ 534250.0, 7261619.9888258241117 ], [ 534240.0, 7261626.688872555270791 ], [ 534230.0, 7261633.299061057157815 ], [ 534220.0, 7261639.92313376814127 ], [ 534210.0, 7261646.318647109903395 ], [ 534200.0, 7261652.117608899250627 ], [ 534190.0, 7261657.335192626342177 ], [ 534180.0, 7261662.032245121896267 ], [ 534170.0, 7261665.881837395951152 ], [ 534160.0, 7261668.458604360930622 ], [ 534150.0, 7261669.9888258241117 ], [ 534140.0, 7261671.452463019639254 ], [ 534130.0, 7261673.659004537388682 ], [ 534120.0, 7261676.328929075039923 ], [ 534110.0, 7261678.460388781502843 ], [ 534100.0, 7261679.564082497730851 ], [ 534090.0, 7261680.0 ], [ 534080.0, 7261680.435917503200471 ], [ 534070.0, 7261681.539611218497157 ], [ 534060.0, 7261683.670178715139627 ], [ 534050.0, 7261686.33071349747479 ], [ 534040.0, 7261688.470670748502016 ], [ 534030.0, 7261689.64005651883781 ], [ 534020.0, 7261690.35994348116219 ], [ 534010.0, 7261691.530221464112401 ], [ 534000.0, 7261693.680460680276155 ], [ 533990.0, 7261696.416969484649599 ], [ 533980.0, 7261698.906588250771165 ], [ 533970.0, 7261701.094303959980607 ], [ 533960.0, 7261703.594204692170024 ], [ 533950.0, 7261706.406687518581748 ], [ 533940.0, 7261708.916870215907693 ], [ 533930.0, 7261711.181452158838511 ], [ 533920.0, 7261714.041296371258795 ], [ 533910.0, 7261717.946298737078905 ], [ 533900.0, 7261722.576766964048147 ], [ 533890.0, 7261727.434407211840153 ], [ 533880.0, 7261732.13056749664247 ], [ 533870.0, 7261736.33071349747479 ], [ 533860.0, 7261740.010281966067851 ], [ 533850.0, 7261743.747044946998358 ], [ 533840.0, 7261748.241442372091115 ], [ 533830.0, 7261753.758219122886658 ], [ 533820.0, 7261760.098322375677526 ], [ 533810.000892210635357, 7261766.788979351520538 ], [ 533800.011174176470377, 7261773.75821912381798 ], [ 533790.088040409144014, 7261781.551677605137229 ], [ 533780.45915806631092, 7261790.447983890771866 ], [ 533771.638825803645886, 7261800.087148198857903 ], [ 533764.205310802557506, 7261810.011174177750945 ], [ 533758.329482780885883, 7261820.000892210751772 ], [ 533753.768501089187339, 7261830.0 ], [ 533750.088040409144014, 7261840.000000000931323 ], [ 533746.700938942958601, 7261850.0 ], [ 533743.299953267676756, 7261860.0 ], [ 533739.923133767442778, 7261870.0 ], [ 533736.31953932007309, 7261880.0 ], [ 533732.128783074906096, 7261890.0 ], [ 533727.423233035253361, 7261900.0 ], [ 533722.489618766237982, 7261910.0 ], [ 533717.499207057291642, 7261920.0 ], [ 533712.499900731956586, 7261930.0 ], [ 533707.500099268043414, 7261940.0 ], [ 533702.499900732073002, 7261950.0 ], [ 533697.499207057408057, 7261960.0 ], [ 533692.489618766237982, 7261970.0 ], [ 533687.423233035369776, 7261980.0 ], [ 533682.129675285541452, 7261989.999553894624114 ], [ 533676.330713496543467, 7261999.993520701304078 ], [ 533670.011174176586792, 7262009.944359513930976 ], [ 533663.758219123352319, 7262019.677239574491978 ], [ 533658.328590570134111, 7262028.683442020788789 ], [ 533654.20531080244109, 7262036.078100949525833 ], [ 533651.638825803645886, 7262041.078100949525833 ] ] } },
{ "type": "Feature", "properties": { "id": 7, "reference_id": 6, "dune_id": 6, "dune_name": "The Star Dune", "acquisition_date": "2020-02-06", "length_m": 894.3105726878639 }, "geometry": { "type": "LineString", "coordinates": [ [ 533650.0, 7262048.921899050474167 ], [ 533650.0, 7262053.921899050474167 ], [ 533650.0, 7262061.316557979211211 ], [ 533650.0, 7262070.322760425508022 ], [ 533650.0, 7262080.055640487000346 ], [ 533650.0, 7262090.006479298695922 ], [ 533650.0, 7262100.000446105375886 ], [ 533650.0, 7262110.0 ], [ 533650.0, 7262120.0 ], [ 533650.000892210751772, 7262130.0 ], [ 533650.011174176470377, 7262140.0 ], [ 533650.087148198508658, 7262150.0 ], [ 533650.447091679205187, 7262160.0 ], [ 533651.540503428783268, 7262170.0 ], [ 533653.670178714208305, 7262180.0 ], [ 533656.329821285791695, 7262190.0 ], [ 533658.460388781968504, 7262200.0 ], [ 533659.56408249726519, 7262210.0 ], [ 533660.0, 7262220.0 ], [ 533660.43591750273481, 7262230.0 ], [ 533661.539611218031496, 7262240.0 ], [ 533663.670178714208305, 7262250.0 ], [ 533666.330713496543467, 7262260.0 ], [ 533668.470670747803524, 7262270.0 ], [ 533669.640056519303471, 7262280.0 ], [ 533670.359051270061173, 7262290.0 ], [ 533671.518155075842515, 7262300.0 ], [ 533673.582138305064291, 7262310.0 ], [ 533675.882729606702924, 7262320.0 ], [ 533676.918993142666295, 7262330.0 ], [ 533675.881837395951152, 7262340.000000000931323 ], [ 533673.571856339345686, 7262350.0 ], [ 533671.442181053804234, 7262360.0 ], [ 533669.999107789364643, 7262370.0 ], [ 533668.545752559090033, 7262380.0 ], [ 533666.329821285791695, 7262390.0 ], [ 533663.583922726451419, 7262400.0 ], [ 533661.092519538942724, 7262410.0 ], [ 533658.895414073951542, 7262420.0 ], [ 533656.329821285791695, 7262430.0 ], [ 533653.233369000838138, 7262440.0 ], [ 533649.989718034281395, 7262450.0 ], [ 533646.689764766488224, 7262460.0 ], [ 533643.309343022760004, 7262470.0 ], [ 533640.000000000116415, 7262480.0 ], [ 533636.690656977239996, 7262490.0 ], [ 533633.310235233511776, 7262500.0 ], [ 533630.01028196583502, 7262510.0 ], [ 533626.766630999161862, 7262520.0 ], [ 533623.670178714208305, 7262530.0 ], [ 533621.104585925932042, 7262540.0 ], [ 533618.907480461173691, 7262550.0 ], [ 533616.416077273664996, 7262560.0 ], [ 533613.670178714208305, 7262570.0 ], [ 533611.454247441026382, 7262580.0 ], [ 533610.0, 7262590.0 ], [ 533608.54664476972539, 7262600.000000000931323 ], [ 533606.340995462378487, 7262610.0 ], [ 533603.671070924960077, 7262620.0 ], [ 533601.540503428783268, 7262630.0 ], [ 533600.447091679205187, 7262640.0 ], [ 533600.086255987756886, 7262650.0 ], [ 533600.0, 7262660.0 ], [ 533599.913744012243114, 7262670.0 ], [ 533599.552908320794813, 7262680.0 ], [ 533598.459496571216732, 7262690.0 ], [ 533596.329821285791695, 7262700.0 ], [ 533593.669286503456533, 7262710.0 ], [ 533591.529329252196476, 7262720.0 ], [ 533590.359943480696529, 7262730.0 ], [ 533589.640056519303471, 7262740.0 ], [ 533588.469778537051752, 7262750.0 ], [ 533586.31953932007309, 7262760.0 ], [ 533583.582138305064291, 7262770.0 ], [ 533581.082237573107705, 7262780.0 ], [ 533578.819440052029677, 7262790.0 ], [ 533575.969877805095166, 7262800.0 ], [ 533572.139957251260057, 7262810.0 ], [ 533567.860042748739943, 7262820.0 ], [ 533564.030122194904834, 7262830.0 ], [ 533561.180559947970323, 7262840.0 ], [ 533558.917762426892295, 7262850.0 ], [ 533556.417861694935709, 7262860.0 ], [ 533553.681352890795097, 7262870.000000000931323 ], [ 533551.54139563953504, 7262879.999107789248228 ], [ 533550.447091679205187, 7262889.987933613359928 ], [ 533550.087148198392242, 7262899.900785414502025 ], [ 533550.011174176470377, 7262909.453693736344576 ], [ 533550.000892210751772, 7262917.913190307095647 ], [ 533550.0, 7262924.243011591956019 ] ] } },
{ "type": "Feature", "properties": { "id": 8, "reference_id": 2, "dune_id": 2, "dune_name": "Big Mommy Dune", "acquisition_date": "2020-02-06", "length_m": 351.0768099241252 }, "geometry": { "type": "LineString", "coordinates": [ [ 528724.243011592421681, 7260838.371456163004041 ], [ 528717.91319030651357, 7260835.871555430814624 ], [ 528709.453693735180423, 7260832.041634876281023 ], [ 528699.900785414502025, 7260827.41205885913223 ], [ 528689.987933612894267, 7260822.488726555369794 ], [ 528679.999107789364643, 7260817.499207057058811 ], [ 528670.0, 7260812.499900732189417 ], [ 528660.0, 7260807.499207057058811 ], [ 528650.0, 7260802.489618767052889 ], [ 528640.0, 7260797.423233035951853 ], [ 528630.0, 7260792.129675285890698 ], [ 528620.0, 7260786.329821286723018 ], [ 528610.0, 7260779.999107790179551 ], [ 528600.0, 7260773.659896748140454 ], [ 528590.0, 7260767.793458482250571 ], [ 528580.0, 7260762.205649306997657 ], [ 528570.0, 7260756.329821286723018 ], [ 528560.0, 7260749.924025977961719 ], [ 528550.0, 7260743.299061057157815 ], [ 528540.0, 7260736.688872556202114 ], [ 528530.0, 7260729.989718034863472 ], [ 528520.0, 7260723.233369001187384 ], [ 528510.0, 7260716.329821286723018 ], [ 528500.0, 7260708.896306284703314 ], [ 528490.0, 7260701.103693716228008 ], [ 528480.0, 7260693.670178715139627 ], [ 528470.000892210751772, 7260686.766630999743938 ], [ 528460.012066387105733, 7260680.0111741758883 ], [ 528450.099214585614391, 7260673.322301620617509 ], [ 528440.546306264819577, 7260666.788979352451861 ], [ 528432.08680969348643, 7260660.535132088698447 ], [ 528425.756988407694735, 7260655.309004518203437 ] ] } },
{ "type": "Feature", "properties": { "id": 9, "reference_id": 4, "dune_id": 4, "dune_name": "The Star Dune", "acquisition_date": "2020-02-06", "length_m": 90.629247051372971 }, "geometry": { "type": "LineString", "coordinates": [ [ 533174.243011592421681, 7261899.552908321842551 ], [ 533167.913190306629986, 7261898.459496571682394 ], [ 533159.453693735180423, 7261896.328929075971246 ], [ 533149.900785414502025, 7261893.659004537388682 ], [ 533139.987933612894267, 7261891.453355230391026 ], [ 533130.0, 7261890.0 ], [ 533120.012066387105733, 7261888.546644769608974 ], [ 533110.099214585497975, 7261886.340995462611318 ], [ 533100.546306264819577, 7261883.671070924960077 ], [ 533092.08680969348643, 7261881.540503429248929 ], [ 533085.756988407694735, 7261880.447091679088771 ] ] } },
{ "type": "Feature", "properties": { "id": 10, "reference_id": 1, "dune_id": 1, "dune_name": "Big Mommy Dune", "acquisition_date": "2020-02-06", "length_m": 1285.5361584290174 }, "geometry": { "type": "LineString", "coordinates": [ [ 529171.540503428783268, 7260998.921899050474167 ], [ 529173.670178714208305, 7261003.921899050474167 ], [ 529176.329821285791695, 7261011.316557979211211 ], [ 529178.459496571333148, 7261020.322760425508022 ], [ 529179.552908320794813, 7261030.055640487000346 ], [ 529179.912851801607758, 7261040.006479299627244 ], [ 529179.988825823529623, 7261050.000446105375886 ], [ 529179.999107789364643, 7261060.0 ], [ 529179.999107789364643, 7261070.0 ], [ 529179.988825823529623, 7261080.0 ], [ 529179.912851801607758, 7261090.0 ], [ 529179.552016110159457, 7261100.0 ], [ 529178.448322394862771, 7261110.0 ], [ 529176.242673087399453, 7261120.000000000931323 ], [ 529173.222194824367762, 7261130.0 ], [ 529169.988825823529623, 7261140.0 ], [ 529166.689764766488224, 7261150.0 ], [ 529163.309343022760004, 7261160.0 ], [ 529160.0, 7261170.0 ], [ 529156.68976476660464, 7261180.0 ], [ 529153.299061057041399, 7261190.0 ], [ 529149.923133767442778, 7261200.0 ], [ 529146.319539319956675, 7261210.000000000931323 ], [ 529142.128783074906096, 7261220.0 ], [ 529137.423233035369776, 7261230.0 ], [ 529132.490510976873338, 7261240.0 ], [ 529127.510381233878434, 7261250.0 ], [ 529122.587048930465244, 7261260.0 ], [ 529117.9471909472486, 7261270.0 ], [ 529114.040404160739854, 7261280.0 ], [ 529111.170277982251719, 7261290.0 ], [ 529108.829722017748281, 7261300.0 ], [ 529105.959595839260146, 7261310.000000000931323 ], [ 529102.053701263503172, 7261320.0 ], [ 529097.423233035369776, 7261330.0 ], [ 529092.565592788159847, 7261340.0 ], [ 529087.869432503823191, 7261350.0 ], [ 529083.670178714208305, 7261360.0 ], [ 529080.000892210751772, 7261370.0 ], [ 529076.340103251626715, 7261380.0 ], [ 529072.20654151821509, 7261390.0 ], [ 529067.794350692536682, 7261400.0 ], [ 529063.670178714208305, 7261410.0 ], [ 529060.075974022038281, 7261420.0 ], [ 529056.700938943075016, 7261430.0 ], [ 529053.310235233511776, 7261440.0 ], [ 529050.0, 7261450.0 ], [ 529046.690656977239996, 7261460.0 ], [ 529043.31023523339536, 7261470.000000000931323 ], [ 529040.01028196583502, 7261480.0 ], [ 529036.766630999278277, 7261490.0 ], [ 529033.670178714208305, 7261500.0 ], [ 529031.104585926048458, 7261510.0 ], [ 529028.907480461173691, 7261520.0 ], [ 529026.416969484183937, 7261530.0 ], [ 529023.680460680043325, 7261540.0 ], [ 529021.530221462948248, 7261550.0 ], [ 529020.359943480812944, 7261560.000000000931323 ], [ 529019.640056519303471, 7261570.0 ], [ 529018.470670747803524, 7261580.0 ], [ 529016.331605707178824, 7261590.0 ], [ 529013.681352890795097, 7261600.0 ], [ 529011.62765162717551, 7261610.0 ], [ 529010.894183358410373, 7261620.0 ], [ 529011.62765162717551, 7261630.0 ], [ 529013.682245101314038, 7261640.0 ], [ 529016.341887672897428, 7261650.0 ], [ 529018.54664476972539, 7261660.0 ], [ 529020.000892210751772, 7261670.0 ], [ 529021.465421617496759, 7261680.0 ], [ 529023.757326912600547, 7261690.0 ], [ 529026.864061163505539, 7261700.0 ], [ 529030.459158066427335, 7261710.0 ], [ 529034.861912838649005, 7261720.0 ], [ 529040.447983889840543, 7261730.000000000931323 ], [ 529046.776912964880466, 7261740.0 ], [ 529053.310235233511776, 7261750.0 ], [ 529059.924918188713491, 7261760.0 ], [ 529066.329821285791695, 7261770.0 ], [ 529072.205649307463318, 7261780.0 ], [ 529077.79345848178491, 7261790.0 ], [ 529083.659004537737928, 7261800.0 ], [ 529089.987933612894267, 7261810.0 ], [ 529096.24088866612874, 7261820.0 ], [ 529101.659343042760156, 7261830.0 ], [ 529105.696366822696291, 7261840.000000000931323 ], [ 529107.826042108121328, 7261850.0 ], [ 529107.542072649346665, 7261860.0 ], [ 529104.61323703895323, 7261870.0 ], [ 529099.529667757218704, 7261880.0 ], [ 529093.570071917958558, 7261890.0 ], [ 529087.772002339595929, 7261900.0 ], [ 529082.128783074789681, 7261910.0 ], [ 529075.969877805095166, 7261920.0 ], [ 529068.830614228500053, 7261930.0 ], [ 529061.170277982251719, 7261940.0 ], [ 529054.040404160739854, 7261950.0 ], [ 529047.947190947132185, 7261960.0 ], [ 529042.587048930465244, 7261970.0 ], [ 529037.511273444397375, 7261980.0 ], [ 529032.50168515346013, 7261990.0 ], [ 529027.510381233878434, 7262000.0 ], [ 529022.576766964746639, 7262010.0 ], [ 529017.871216925326735, 7262020.0 ], [ 529013.680460680043325, 7262030.0 ], [ 529010.076866232673638, 7262040.0 ], [ 529006.700046732323244, 7262050.0 ], [ 529003.299953267676756, 7262060.0 ], [ 528999.923133767442778, 7262070.0 ], [ 528996.31953932007309, 7262080.0 ], [ 528992.128783074789681, 7262090.0 ], [ 528987.42234082473442, 7262100.0 ], [ 528982.478444589767605, 7262110.0 ], [ 528977.411166648264043, 7262120.0 ], [ 528972.041634876397438, 7262129.999107789248228 ], [ 528965.872447640867904, 7262139.987933613359928 ], [ 528958.383522549411282, 7262149.900785414502025 ], [ 528949.640948729938827, 7262159.453693735413253 ], [ 528940.458265855675563, 7262167.913190307095647 ], [ 528932.075635517016053, 7262174.243011591956019 ], [ 528925.756096196942963, 7262177.913190307095647 ] ] } },
{ "type": "Feature", "properties": { "id": 11, "reference_id": 7, "dune_id": 7, "dune_name": "Inverted Y Dune", "acquisition_date": "2020-02-06", "length_m": 551.3835453365416 }, "geometry": { "type": "LineString", "coordinates": [ [ 530654.243011592305265, 7261325.756988408043981 ], [ 530647.913190306629986, 7261332.086809693835676 ], [ 530639.453693735296838, 7261340.546306265518069 ], [ 530629.901677625137381, 7261350.099214585497975 ], [ 530619.999107789364643, 7261360.012066386640072 ], [ 530610.086255987756886, 7261370.000892210751772 ], [ 530600.447983889840543, 7261380.0 ], [ 530591.551677605137229, 7261390.0 ], [ 530583.757326912600547, 7261400.0 ], [ 530576.777805175632238, 7261410.0 ], [ 530570.011174176470377, 7261420.0 ], [ 530563.310235233511776, 7261430.0 ], [ 530556.690656977239996, 7261440.0 ], [ 530550.0, 7261450.0 ], [ 530543.309343022760004, 7261460.0 ], [ 530536.689764766488224, 7261470.000000000931323 ], [ 530529.988825823529623, 7261480.0 ], [ 530523.222194824367762, 7261490.0 ], [ 530516.242673087399453, 7261500.0 ], [ 530508.448322394862771, 7261510.0 ], [ 530499.552016110159457, 7261520.0 ], [ 530489.912851801607758, 7261529.999107789248228 ], [ 530479.988825823529623, 7261539.9888258241117 ], [ 530469.999107789364643, 7261549.912851801142097 ], [ 530460.0, 7261559.552016111090779 ], [ 530450.0, 7261568.448322394862771 ], [ 530440.0, 7261576.241780877113342 ], [ 530430.000000000116415, 7261583.211020648479462 ], [ 530420.0, 7261589.901677625253797 ], [ 530410.0, 7261596.241780877113342 ], [ 530400.0, 7261601.758557628840208 ], [ 530390.0, 7261606.252955053001642 ], [ 530380.0, 7261609.989718034863472 ], [ 530370.0, 7261613.669286504387856 ], [ 530360.0, 7261617.869432504288852 ], [ 530350.0, 7261622.565592788159847 ], [ 530340.0, 7261627.422340825200081 ], [ 530330.0, 7261632.043419297784567 ], [ 530320.0, 7261635.882729606702924 ], [ 530310.0, 7261638.458604361861944 ], [ 530300.0, 7261639.9888258241117 ], [ 530290.0, 7261641.452463019639254 ], [ 530280.000892210751772, 7261643.659004538320005 ], [ 530270.012066387105733, 7261646.328929075971246 ], [ 530260.099214585614391, 7261648.459496572613716 ], [ 530250.546306264819577, 7261649.552908321842551 ], [ 530242.08680969348643, 7261649.912851802073419 ], [ 530235.756988407694735, 7261649.9888258241117 ] ] } }
]
}
