{
"type": "FeatureCollection",
"name": "crests_2018_04_2018-04-20",
"crs": { "type": "name", "properties": { "name": "urn:ogc:def:crs:EPSG::32733" } },
"features": [
{ "type": "Feature", "properties": { "id": 0, "reference_id": 4, "dune_id": 4, "dune_name": "The Star Dune", "acquisition_date": "2018-04-20", "length_m": 299.63454290520281 }, "geometry": { "type": "LineString", "coordinates": [ [ 533294.243011592305265, 7261948.372348373755813 ], [ 533287.91319030651357, 7261945.882729606702924 ], [ 533279.453693735180423, 7261942.128783075138927 ], [ 533269.900785414502025, 7261937.859150538221002 ], [ 533259.987933612894267, 7261934.030122194439173 ], [ 533249.999107789364643, 7261931.180559948086739 ], [ 533240.0, 7261928.916870215907693 ], [ 533230.0, 7261926.406687518581748 ], [ 533220.0, 7261923.594204692170024 ], [ 533210.0, 7261921.093411749228835 ], [ 533200.0, 7261918.895414073951542 ], [ 533190.0, 7261916.329821286723018 ], [ 533180.0, 7261913.233369002118707 ], [ 533170.0, 7261909.989718034863472 ], [ 533160.0, 7261906.689764766953886 ], [ 533150.0, 7261903.310235233977437 ], [ 533140.0, 7261900.0111741758883 ], [ 533130.0, 7261896.776912964880466 ], [ 533120.0, 7261893.746152736246586 ], [ 533110.0, 7261891.464529407210648 ], [ 533100.0, 7261890.000892210751772 ], [ 533090.0, 7261888.546644769608974 ], [ 533080.0, 7261886.340103251859546 ], [ 533070.0, 7261883.659896748140454 ], [ 533060.0, 7261881.453355230391026 ], [ 533050.000892210751772, 7261880.0 ], [ 533040.012066387105733, 7261878.546644769608974 ], [ 533030.099214585614391, 7261876.340995462611318 ], [ 533020.546306264819577, 7261873.671070925891399 ], [ 533012.08680969348643, 7261871.540503429248929 ], [ 533005.756988407694735, 7261870.447091680020094 ] ] } },
{ "type": "Feature", "properties": { "id": 1, "reference_id": 4, "dune_id": 4, "dune_name": "The Star Dune", "acquisition_date": "2018-04-20", "length_m": 243.34128459707523 }, "geometry": { "type": "LineString", "coordinates": [ [ 533624.243011592305265, 7262059.552908321842551 ], [ 533617.91319030651357, 7262058.458604361861944 ], [ 533609.453693735180423, 7262056.318647109903395 ], [ 533599.900785414385609, 7262053.582138305529952 ], [ 533589.987933612894267, 7262051.081345362588763 ], [ 533579.999107789364643, 7262048.808265876024961 ], [ 533570.0, 7262045.882729606702924 ], [ 533560.0, 7262041.692865571938455 ], [ 533550.0, 7262036.319539320655167 ], [ 533540.0, 7262030.359051270410419 ], [ 533530.0, 7262024.839564485475421 ], [ 533520.0, 7262020.37111765705049 ], [ 533510.0, 7262016.416969484649599 ], [ 533500.0, 7262012.216823484748602 ], [ 533490.0, 7262007.795242903754115 ], [ 533480.0, 7262003.670178715139627 ], [ 533470.0, 7262000.075974022969604 ], [ 533460.0, 7261996.700938943773508 ], [ 533450.0, 7261993.311127444729209 ], [ 533440.000892210635357, 7261990.011174176819623 ], [ 533430.012066387222148, 7261986.777805175632238 ], [ 533420.099214585614391, 7261983.757326912134886 ], [ 533410.546306264819577, 7261981.551677605137229 ], [ 533402.08680969348643, 7261980.447983890771866 ], [ 533395.756988407694735, 7261980.087148198857903 ] ] } },
{ "type": "Feature", "properties": { "id": 2, "reference_id": 1, "dune_id": 1, "dune_name": "Big Mommy Dune", "acquisition_date": "2018-04-20", "length_m": 766.3772139428653 }, "geometry": { "type": "LineString", "coordinates": [ [ 529020.0, 7261555.756988408043981 ], [ 529020.0, 7261562.086809693835676 ], [ 529020.0, 7261570.546306264586747 ], [ 529020.0, 7261580.099214585497975 ], [ 529020.0, 7261590.012066387571394 ], [ 529020.0, 7261600.000892210751772 ], [ 529020.0, 7261610.0 ], [ 529020.0, 7261620.0 ], [ 529020.000892210751772, 7261630.0 ], [ 529020.011174176470377, 7261640.0 ], [ 529020.088040409144014, 7261650.0 ], [ 529020.458265855675563, 7261660.0 ], [ 529021.628543837927282, 7261670.0 ], [ 529024.128444569883868, 7261680.0 ], [ 529027.958365123718977, 7261690.0 ], [ 529032.5879411411006, 7261700.0 ], [ 529037.511273444397375, 7261710.0 ], [ 529042.501685153343715, 7261720.0 ], [ 529047.510381233762018, 7261730.000000000931323 ], [ 529052.575874753994867, 7261740.0 ], [ 529057.860042748739943, 7261750.0 ], [ 529063.594204692170024, 7261760.0 ], [ 529069.640056519303471, 7261770.0 ], [ 529075.235517325578257, 7261780.0 ], [ 529079.988825823529623, 7261790.0 ], [ 529084.675550054642372, 7261800.0 ], [ 529089.901677625020966, 7261810.0 ], [ 529094.77725147001911, 7261820.0 ], [ 529098.010620470857248, 7261830.0 ], [ 529099.454585945932195, 7261840.000000000931323 ], [ 529099.813637216109782, 7261850.0 ], [ 529099.529667757218704, 7261860.0 ], [ 529098.370563951553777, 7261870.0 ], [ 529095.870663219597191, 7261880.0 ], [ 529092.031352910562418, 7261890.0 ], [ 529087.335192626225762, 7261900.0 ], [ 529082.118501109071076, 7261910.0 ], [ 529076.328929075039923, 7261920.0 ], [ 529069.999107789364643, 7261930.0 ], [ 529063.659004537737928, 7261940.0 ], [ 529057.783176516066305, 7261950.0 ], [ 529052.130567496176809, 7261960.0 ], [ 529045.980159770813771, 7261970.0 ], [ 529038.907480461057276, 7261980.0 ], [ 529031.54139563953504, 7261990.0 ], [ 529025.220964108710177, 7262000.0 ], [ 529020.523957911878824, 7262010.0 ], [ 529016.788087141467258, 7262020.0 ], [ 529013.321409409982152, 7262030.0 ], [ 529010.0, 7262040.0 ], [ 529006.67948280076962, 7262050.0 ], [ 529003.222194824367762, 7262060.0 ], [ 528999.552908320911229, 7262070.0 ], [ 528995.149261337821372, 7262080.0 ], [ 528989.628882342833094, 7262090.0 ], [ 528983.593312481534667, 7262100.0 ], [ 528977.859150538104586, 7262110.0 ], [ 528972.564700577524491, 7262120.0 ], [ 528967.42234082473442, 7262130.0 ], [ 528962.042527087032795, 7262139.999107789248228 ], [ 528955.871555430116132, 7262149.9888258241117 ], [ 528948.371456162189133, 7262159.912851801142097 ], [ 528939.541734144440852, 7262169.552908321842551 ], [ 528929.911959590972401, 7262178.458604360930622 ], [ 528919.988825823529623, 7262186.318647108972073 ], [ 528910.0, 7262193.582138305529952 ], [ 528900.012066387105733, 7262201.081345362588763 ], [ 528890.099214585614391, 7262208.80737366527319 ], [ 528880.546306264819577, 7262215.870663220062852 ], [ 528872.08680969348643, 7262221.594543197192252 ], [ 528865.756988407694735, 7262225.78440723195672 ] ] } },
{ "type": "Feature", "properties": { "id": 3, "reference_id": 1, "dune_id": 1, "dune_name": "Big Mommy Dune", "acquisition_date": "2018-04-20", "length_m": 445.72288915552525 }, "geometry": { "type": "LineString", "coordinates": [ [ 529179.912851801607758, 7261105.756988408043981 ], [ 529179.552016110159457, 7261112.086809692904353 ], [ 529178.448322394862771, 7261120.546306265518069 ], [ 529176.242673087399453, 7261130.099214586429298 ], [ 529173.222194824367762, 7261140.012066387571394 ], [ 529169.988825823529623, 7261150.000892210751772 ], [ 529166.689764766488224, 7261160.0 ], [ 529163.309343022760004, 7261170.0 ], [ 529160.0, 7261180.0 ], [ 529156.68976476660464, 7261190.0 ], [ 529153.299061057041399, 7261200.0 ], [ 529149.923133767442778, 7261210.000000000931323 ], [ 529146.319539319956675, 7261220.0 ], [ 529142.129675285425037, 7261230.0 ], [ 529137.433515001088381, 7261240.0 ], [ 529132.566484998911619, 7261250.0 ], [ 529127.869432503939606, 7261260.0 ], [ 529123.670178714208305, 7261270.0 ], [ 529120.000000000116415, 7261280.0 ], [ 529116.329821285791695, 7261290.0 ], [ 529112.130567496176809, 7261300.0 ], [ 529107.433515001088381, 7261310.000000000931323 ], [ 529102.566484998911619, 7261320.0 ], [ 529097.869432503823191, 7261330.0 ], [ 529093.670178714208305, 7261340.0 ], [ 529090.000892210751772, 7261350.0 ], [ 529086.340103251626715, 7261360.0 ], [ 529082.206541518098675, 7261370.0 ], [ 529077.794350692536682, 7261380.0 ], [ 529073.670178714208305, 7261390.0 ], [ 529070.075974022038281, 7261400.0 ], [ 529066.700046732323244, 7261410.0 ], [ 529063.299953267676756, 7261420.0 ], [ 529059.924025978078134, 7261430.0 ], [ 529056.330713496543467, 7261440.0 ], [ 529052.215931273181923, 7261450.0 ], [ 529047.870324714458548, 7261460.0 ], [ 529044.031014405540191, 7261470.000000000931323 ], [ 529041.180559947970323, 7261479.999107789248228 ], [ 529038.917762426892295, 7261489.987933613359928 ], [ 529036.417861694935709, 7261499.900785414502025 ], [ 529033.681352890795097, 7261509.453693735413253 ], [ 529031.54139563953504, 7261517.913190307095647 ], [ 529030.447091679205187, 7261524.243011592887342 ] ] } },
{ "type": "Feature", "properties": { "id": 4, "reference_id": 1, "dune_id": 1, "dune_name": "Big Mommy Dune", "acquisition_date": "2018-04-20", "length_m": 76.335420623307087 }, "geometry": { "type": "LineString", "coordinates": [ [ 529180.0, 7260998.921899050474167 ], [ 529180.000892210751772, 7261003.921899050474167 ], [ 529180.011174176470377, 7261011.316557979211211 ], [ 529180.087148198392242, 7261020.322760425508022 ], [ 529180.447091679205187, 7261030.054748276248574 ], [ 529181.540503428783268, 7261039.99441291205585 ], [ 529183.670178714208305, 7261049.901231519877911 ], [ 529186.329821285791695, 7261059.453693735413253 ], [ 529188.459496571333148, 7261067.913190307095647 ], [ 529189.552908320911229, 7261074.243011591956019 ] ] } },
{ "type": "Feature", "properties": { "id": 5, "reference_id": 3, "dune_id": 3, "dune_name": "Big Mommy Dune", "acquisition_date": "2018-04-20", "length_m": 141.81245207770343 }, "geometry": { "type": "LineString", "coordinates": [ [ 529614.243011592421681, 7260630.087148198857903 ], [ 529607.91319030651357, 7260630.447091680020094 ], [ 529599.453693735180423, 7260631.540503429248929 ], [ 529589.900785414502025, 7260633.671070925891399 ], [ 529579.987933612894267, 7260636.340995462611318 ], [ 529569.999107789248228, 7260638.546644769608974 ], [ 529560.0, 7260640.0 ], [ 529550.0, 7260641.454247441142797 ], [ 529540.0, 7260643.670178715139627 ], [ 529530.0, 7260646.416077273897827 ], [ 529520.000892210751772, 7260648.906588250771165 ], [ 529510.012066387105733, 7260651.093411749228835 ], [ 529500.099214585614391, 7260653.583030516281724 ], [ 529490.546306264819577, 7260656.318647109903395 ], [ 529482.08680969348643, 7260658.458604361861944 ], [ 529475.756988407694735, 7260659.552908320911229 ] ] } },
{ "type": "Feature", "properties": { "id": 6, "reference_id": 3, "dune_id": 3, "dune_name": "Big Mommy Dune", "acquisition_date": "2018-04-20", "length_m": 58.486023184610531 }, "geometry": { "type": "LineString", "coordinates": [ [ 529704.243011592305265, 7260620.0 ], [ 529697.91319030651357, 7260620.0 ], [ 529689.454585945932195, 7260620.0 ], [ 529679.912851801607758, 7260620.0 ], [ 529670.087148198508658, 7260620.0 ], [ 529660.545414054067805, 7260620.0 ], [ 529652.08680969348643, 7260620.0 ], [ 529645.756988407694735, 7260620.0 ] ] } },
{ "type": "Feature", "properties": { "id": 7, "reference_id": 3, "dune_id": 3, "dune_name": "Big Mommy Dune", "acquisition_date": "2018-04-20", "length_m": 188.48602318461053 }, "geometry": { "type": "LineString", "coordinates": [ [ 529735.756988407694735, 7260610.0 ], [ 529742.08680969348643, 7260610.0 ], [ 529750.546306264819577, 7260610.0 ], [ 529760.099214585614391, 7260610.0 ], [ 529770.012066387222148, 7260610.0 ], [ 529780.000892210751772, 7260610.0 ], [ 529790.0, 7260610.0 ], [ 529800.0, 7260610.0 ], [ 529810.0, 7260610.0 ], [ 529820.0, 7260610.0 ], [ 529830.0, 7260610.0 ], [ 529840.0, 7260610.0 ], [ 529850.0, 7260610.0 ], [ 529860.0, 7260610.0 ], [ 529870.0, 7260610.0 ], [ 529879.999107789248228, 7260610.0 ], [ 529889.987933612894267, 7260610.0 ], [ 529899.900785414502025, 7260610.0 ], [ 529909.453693735296838, 7260610.0 ], [ 529917.91319030651357, 7260610.0 ], [ 529924.243011592305265, 7260610.0 ] ] } },
{ "type": "Feature", "properties": { "id": 8, "reference_id": 3, "dune_id": 3, "dune_name": "Big Mommy Dune", "acquisition_date": "2018-04-20", "length_m": 79.443761977511144 }, "geometry": { "type": "LineString", "coordinates": [ [ 530085.756988407694735, 7260599.999107789248228 ], [ 530092.08680969348643, 7260599.9888258241117 ], [ 530100.546306264819577, 7260599.912851802073419 ], [ 530110.099214585614391, 7260599.552908321842551 ], [ 530120.011174176470377, 7260598.459496571682394 ], [ 530129.988825823529623, 7260596.329821285791695 ], [ 530139.900785414502025, 7260593.670178714208305 ], [ 530149.453693735296838, 7260591.540503429248929 ], [ 530157.91319030651357, 7260590.447091680020094 ], [ 530164.243011592305265, 7260590.087148198857903 ] ] } },
{ "type": "Feature", "properties": { "id": 9, "reference_id": 3, "dune_id": 3, "dune_name": "Big Mommy Dune", "acquisition_date": "2018-04-20", "length_m": 358.26338002242863 }, "geometry": { "type": "LineString", "coordinates": [ [ 529374.243011592305265, 7260695.756988408043981 ], [ 529367.91319030651357, 7260702.086809693835676 ], [ 529359.453693735180423, 7260710.546306265518069 ], [ 529349.901677625253797, 7260720.099214585497975 ], [ 529339.999107789364643, 7260730.012066388502717 ], [ 529330.086255987756886, 7260740.000892210751772 ], [ 529320.447983889956959, 7260750.0 ], [ 529311.551677605253644, 7260760.0 ], [ 529303.757326912600547, 7260770.0 ], [ 529296.777805175632238, 7260780.000000000931323 ], [ 529290.011174176470377, 7260790.0 ], [ 529283.311127444263548, 7260800.0 ], [ 529276.700938943075016, 7260810.0 ], [ 529270.075974022038281, 7260820.0 ], [ 529263.670178714208305, 7260830.0 ], [ 529257.794350692653097, 7260840.0 ], [ 529252.205649307463318, 7260850.0 ], [ 529246.32982128590811, 7260860.0 ], [ 529239.924025977961719, 7260870.0 ], [ 529233.299953267676756, 7260880.0 ], [ 529226.700046732323244, 7260890.0 ], [ 529220.075974022038281, 7260900.0 ], [ 529213.670178714208305, 7260910.0 ], [ 529207.795242903288454, 7260920.0 ], [ 529202.217715694569051, 7260930.0 ], [ 529196.428143660654314, 7260939.999553894624114 ], [ 529190.45915806631092, 7260949.993520701304078 ], [ 529185.298722552019171, 7260959.944359514862299 ], [ 529181.998769284342416, 7260969.6772395754233 ], [ 529180.535132088349201, 7260978.683442020788789 ], [ 529180.098322374862619, 7260986.078100949525833 ], [ 529180.012066387222148, 7260991.078100949525833 ] ] } },
{ "type": "Feature", "properties": { "id": 10, "reference_id": 8, "dune_id": 8, "dune_name": "Inverted Y Dune", "acquisition_date": "2018-04-20", "length_m": 402.77330578239099 }, "geometry": { "type": "LineString", "coordinates": [ [ 530244.243011592421681, 7261232.086809693835676 ], [ 530237.91319030651357, 7261235.756988408043981 ], [ 530229.453693735180423, 7261242.086809693835676 ], [ 530219.900785414385609, 7261250.546306264586747 ], [ 530209.988825823646039, 7261260.099214585497975 ], [ 530200.01028196583502, 7261270.012066387571394 ], [ 530190.088040409144014, 7261280.000892210751772 ], [ 530180.45915806631092, 7261290.0 ], [ 530171.638825803645886, 7261300.0 ], [ 530164.20531080244109, 7261310.000000000931323 ], [ 530158.329482780885883, 7261320.0 ], [ 530153.768501089187339, 7261330.0 ], [ 530150.088040409144014, 7261340.0 ], [ 530146.701831153710373, 7261350.0 ], [ 530143.311127444263548, 7261360.0 ], [ 530140.01028196583502, 7261370.0 ], [ 530136.766630999278277, 7261380.0 ], [ 530133.670178714208305, 7261390.0 ], [ 530131.104585926048458, 7261400.0 ], [ 530128.907480461173691, 7261410.0 ], [ 530126.416969484183937, 7261420.0 ], [ 530123.680460680043325, 7261430.0 ], [ 530121.530221462948248, 7261440.0 ], [ 530120.359943480812944, 7261450.0 ], [ 530119.640056519303471, 7261460.0 ], [ 530118.470670747803524, 7261470.000000000931323 ], [ 530116.330713496543467, 7261480.0 ], [ 530113.670178714208305, 7261490.0 ], [ 530111.540503428666852, 7261500.0 ], [ 530110.447091679205187, 7261510.0 ], [ 530110.086255987756886, 7261520.0 ], [ 530110.0, 7261530.0 ], [ 530109.913744012243114, 7261539.999553894624114 ], [ 530109.552908320911229, 7261549.993520701304078 ], [ 530108.459496571333148, 7261559.944359513930976 ], [ 530106.329821285791695, 7261569.6772395754233 ], [ 530103.670178714208305, 7261578.683442020788789 ], [ 530101.540503428783268, 7261586.078100949525833 ], [ 530100.447091679205187, 7261591.078100949525833 ] ] } },
{ "type": "Feature", "properties": { "id": 11, "reference_id": 9, "dune_id": 9, "dune_name": "Inverted Y Dune", "acquisition_date": "2018-04-20", "length_m": 181.54010435974308 }, "geometry": { "type": "LineString", "coordinates": [ [ 529671.551677605253644, 7262174.243011591956019 ], [ 529673.758219123352319, 7262167.913190307095647 ], [ 529676.788087141467258, 7262159.453693735413253 ], [ 529680.088040409144014, 7262149.900785414502025 ], [ 529683.681352890678681, 7262139.987933613359928 ], [ 529687.871216925210319, 7262129.999107789248228 ], [ 529692.576766964630224, 7262120.0 ], [ 529697.509489023126662, 7262110.0 ], [ 529702.490510976873338, 7262100.0 ], [ 529707.423233035369776, 7262090.0 ], [ 529712.128783074789681, 7262080.0 ], [ 529716.31953932007309, 7262070.0 ], [ 529719.923133767442778, 7262060.0 ], [ 529723.299061057041399, 7262050.000892210751772 ], [ 529726.688872555852868, 7262040.012066386640072 ], [ 529729.988825823529623, 7262030.099214585497975 ], [ 529733.222194824367762, 7262020.546306265518069 ], [ 529736.242673087399453, 7262012.086809693835676 ], [ 529738.448322394862771, 7262005.756988408043981 ] ] } },
{ "type": "Feature", "properties": { "id": 12, "reference_id": 9, "dune_id": 9, "dune_name": "Inverted Y Dune", "acquisition_date": "2018-04-20", "length_m": 512.90320728593565 }, "geometry": { "type": "LineString", "coordinates": [ [ 530097.91319030651357, 7261598.834750852547586 ], [ 530094.243011592421681, 7261603.473915160633624 ], [ 530087.913190306629986, 7261609.764880374073982 ], [ 530079.453693735180423, 7261616.565433513373137 ], [ 530069.900785414502025, 7261623.277835311368108 ], [ 530059.987933612894267, 7261629.995305122807622 ], [ 530049.999107789364643, 7261636.689318661578 ], [ 530040.0, 7261643.299061058089137 ], [ 530030.0, 7261649.924025977961719 ], [ 530020.0, 7261656.329821285791695 ], [ 530010.0, 7261662.205649307928979 ], [ 530000.0, 7261667.794350693002343 ], [ 529990.0, 7261673.670178714208305 ], [ 529980.0, 7261680.075974022038281 ], [ 529970.0, 7261686.700938943773508 ], [ 529960.0, 7261693.311127444729209 ], [ 529950.0, 7261700.011174177750945 ], [ 529940.0, 7261706.777805175632238 ], [ 529930.0, 7261713.757326913066208 ], [ 529920.0, 7261721.551677605137229 ], [ 529910.0, 7261730.447983890771866 ], [ 529900.0, 7261740.087148198857903 ], [ 529890.0, 7261750.011174176819623 ], [ 529880.0, 7261760.000892210751772 ], [ 529870.000892210751772, 7261770.0 ], [ 529860.011174176470377, 7261780.0 ], [ 529850.087148198392242, 7261790.0 ], [ 529840.447983889840543, 7261800.0 ], [ 529831.551677605137229, 7261810.0 ], [ 529823.758219123352319, 7261820.0 ], [ 529816.788087141467258, 7261830.0 ], [ 529810.088040409144014, 7261840.000000000931323 ], [ 529803.682245101314038, 7261850.0 ], [ 529797.882391101680696, 7261860.0 ], [ 529792.663915163138881, 7261870.0 ], [ 529787.957472912967205, 7261880.0 ], [ 529784.042188582126983, 7261890.0 ], [ 529781.180559948086739, 7261900.0 ], [ 529778.906588250538334, 7261910.0 ], [ 529776.330713496543467, 7261919.999107790179551 ], [ 529773.234261211473495, 7261929.987933613359928 ], [ 529770.000892210751772, 7261939.900785414502025 ], [ 529766.776912964996882, 7261949.453693736344576 ], [ 529763.757326912600547, 7261957.913190307095647 ], [ 529761.551677605137229, 7261964.243011592887342 ] ] } },
{ "type": "Feature", "properties": { "id": 13, "reference_id": 5, "dune_id": 5, "dune_name": "The Star Dune", "acquisition_date": "2018-04-20", "length_m": 1139.3724173711271 }, "geometry": { "type": "LineString", "coordinates": [ [ 534334.779035891406238, 7261305.756988408043981 ], [ 534329.924025978078134, 7261312.086809693835676 ], [ 534324.850738662178628, 7261320.546306264586747 ], [ 534320.894183358410373, 7261330.099214585497975 ], [ 534318.404564592172392, 7261340.012066386640072 ], [ 534317.438679803279229, 7261350.000892210751772 ], [ 534317.882391101680696, 7261360.0 ], [ 534318.907480461173691, 7261370.0 ], [ 534319.640948729938827, 7261380.0 ], [ 534319.935200154548511, 7261390.0 ], [ 534320.076866232673638, 7261400.0 ], [ 534320.446199468453415, 7261410.0 ], [ 534321.540503428666852, 7261420.0 ], [ 534323.670178714208305, 7261430.0 ], [ 534326.329821285791695, 7261440.0 ], [ 534328.459496571333148, 7261450.0 ], [ 534329.552908320794813, 7261460.0 ], [ 534329.912851801607758, 7261470.000000000931323 ], [ 534329.988825823529623, 7261480.0 ], [ 534329.999107789364643, 7261490.0 ], [ 534329.999107789364643, 7261500.0 ], [ 534329.988825823529623, 7261510.0 ], [ 534329.911959590855986, 7261520.0 ], [ 534329.54084193368908, 7261530.0 ], [ 534328.360281985718757, 7261540.0 ], [ 534325.783515021088533, 7261549.999107789248228 ], [ 534321.583369020721875, 7261559.9888258241117 ], [ 534315.783515021088533, 7261569.912851802073419 ], [ 534308.360281985718757, 7261579.552016110159457 ], [ 534299.54084193368908, 7261588.448322394862771 ], [ 534289.911959590855986, 7261596.242673087865114 ], [ 534279.988825823529623, 7261603.222194825299084 ], [ 534269.999107789248228, 7261609.9888258241117 ], [ 534260.0, 7261616.689764766953886 ], [ 534250.0, 7261623.309343023225665 ], [ 534240.0, 7261630.0 ], [ 534230.0, 7261636.689764766953886 ], [ 534220.0, 7261643.298168847337365 ], [ 534210.0, 7261649.911959591321647 ], [ 534200.0, 7261656.231498911976814 ], [ 534190.0, 7261661.671409429982305 ], [ 534180.0, 7261665.805863374844193 ], [ 534170.0, 7261668.448322394862771 ], [ 534160.0, 7261669.987933613359928 ], [ 534150.0, 7261671.452463019639254 ], [ 534140.0, 7261673.659004537388682 ], [ 534130.0, 7261676.329821285791695 ], [ 534120.0, 7261678.470670748502016 ], [ 534110.0, 7261679.640056519769132 ], [ 534100.0, 7261680.35994348116219 ], [ 534090.0, 7261681.529329252429307 ], [ 534080.0, 7261683.669286504387856 ], [ 534070.0, 7261686.33071349747479 ], [ 534060.0, 7261688.470670748502016 ], [ 534050.0, 7261689.64005651883781 ], [ 534040.0, 7261690.35994348116219 ], [ 534030.0, 7261691.529329253360629 ], [ 534020.0, 7261693.670178714208305 ], [ 534010.0, 7261696.340995462611318 ], [ 534000.0, 7261698.546644769608974 ], [ 533990.0, 7261700.0 ], [ 533980.0, 7261701.454247441142797 ], [ 533970.0, 7261703.670178714208305 ], [ 533960.0, 7261706.416969484649599 ], [ 533950.0, 7261708.917762426659465 ], [ 533940.0, 7261711.181452158838511 ], [ 533930.0, 7261714.041296371258795 ], [ 533920.0, 7261717.947190947830677 ], [ 533910.0, 7261722.58704893104732 ], [ 533900.0, 7261727.511273444630206 ], [ 533890.0, 7261732.500792942941189 ], [ 533880.0, 7261737.500099267810583 ], [ 533870.0, 7261742.499900732189417 ], [ 533860.0, 7261747.500099267810583 ], [ 533850.0, 7261752.500792942941189 ], [ 533840.0, 7261757.511273443698883 ], [ 533830.0, 7261762.587941141799092 ], [ 533820.0, 7261767.958365123718977 ], [ 533810.000892210635357, 7261774.128444570116699 ], [ 533800.012066387105733, 7261781.628543838858604 ], [ 533790.098322374979034, 7261790.458265855908394 ], [ 533780.535132088232785, 7261800.088040409609675 ], [ 533771.999661495094188, 7261810.011174177750945 ], [ 533765.309004517854191, 7261820.000892210751772 ], [ 533760.535132088349201, 7261830.0 ], [ 533756.78897935221903, 7261840.000000000931323 ], [ 533753.321409409982152, 7261850.0 ], [ 533750.000892210751772, 7261860.0 ], [ 533746.689764766488224, 7261870.0 ], [ 533743.299061057041399, 7261880.0 ], [ 533739.923133767442778, 7261890.0 ], [ 533736.31953932007309, 7261900.0 ], [ 533732.128783074906096, 7261910.0 ], [ 533727.42234082473442, 7261920.0 ], [ 533722.479336800519377, 7261930.0 ], [ 533717.42234082473442, 7261940.0 ], [ 533712.128783074789681, 7261950.0 ], [ 533706.31953932007309, 7261960.0 ], [ 533699.923133767326362, 7261970.0 ], [ 533693.299953267676756, 7261980.0 ], [ 533686.700938943075016, 7261989.999553894624114 ], [ 533680.088040409144014, 7261999.993520701304078 ], [ 533673.768501089187339, 7262009.944359513930976 ], [ 533668.329482780769467, 7262019.677239574491978 ], [ 533664.20531080244109, 7262028.683442020788789 ], [ 533661.638825803645886, 7262036.078100949525833 ], [ 533660.45915806631092, 7262041.078100949525833 ] ] } },
{ "type": "Feature", "properties": { "id": 14, "reference_id": 6, "dune_id": 6, "dune_name": "The Star Dune", "acquisition_date": "2018-04-20", "length_m": 896.08480051948209 }, "geometry": { "type": "LineString", "coordinates": [ [ 533658.460388781968504, 7262048.921899050474167 ], [ 533656.340995462262072, 7262053.921899050474167 ], [ 533653.757326912600547, 7262061.316557979211211 ], [ 533651.987595107988454, 7262070.322760425508022 ], [ 533651.987595107988454, 7262080.055640487000346 ], [ 533653.757326912600547, 7262090.006479298695922 ], [ 533656.340995462262072, 7262100.000446105375886 ], [ 533658.460388781968504, 7262110.0 ], [ 533659.552908320911229, 7262120.0 ], [ 533659.912851801607758, 7262130.0 ], [ 533659.988825823529623, 7262140.0 ], [ 533659.999107789248228, 7262150.0 ], [ 533660.0, 7262160.0 ], [ 533660.0, 7262170.0 ], [ 533660.000892210751772, 7262180.0 ], [ 533660.011174176470377, 7262190.0 ], [ 533660.087148198392242, 7262200.0 ], [ 533660.447091679088771, 7262210.0 ], [ 533661.540503428783268, 7262220.0 ], [ 533663.670178714208305, 7262230.0 ], [ 533666.330713496543467, 7262240.0 ], [ 533668.470670747803524, 7262250.0 ], [ 533669.640056519303471, 7262260.0 ], [ 533670.359943480696529, 7262270.0 ], [ 533671.529329252196476, 7262280.0 ], [ 533673.669286503456533, 7262290.0 ], [ 533676.329821285791695, 7262300.0 ], [ 533678.458604360697791, 7262310.0 ], [ 533679.541734144324437, 7262320.0 ], [ 533679.825703603215516, 7262330.0 ], [ 533679.541734144324437, 7262340.000000000931323 ], [ 533678.458604360697791, 7262350.0 ], [ 533676.328929075156339, 7262360.0 ], [ 533673.659004537737928, 7262370.0 ], [ 533671.453355230391026, 7262380.0 ], [ 533669.999107789364643, 7262390.0 ], [ 533668.535470593255013, 7262400.0 ], [ 533666.253847263869829, 7262410.0 ], [ 533663.223979245638475, 7262420.0 ], [ 533659.999107789248228, 7262430.0 ], [ 533656.765738788526505, 7262440.0 ], [ 533653.670178714208305, 7262450.0 ], [ 533651.103693715413101, 7262460.0 ], [ 533648.896306284703314, 7262470.0 ], [ 533646.329821285791695, 7262480.0 ], [ 533643.234261211473495, 7262490.0 ], [ 533640.000000000116415, 7262500.0 ], [ 533636.765738788526505, 7262510.0 ], [ 533633.670178714208305, 7262520.0 ], [ 533631.104585926048458, 7262530.0 ], [ 533628.906588250421919, 7262540.0 ], [ 533626.405795307713561, 7262550.0 ], [ 533623.594204692170024, 7262560.0 ], [ 533621.094303960213438, 7262570.0 ], [ 533618.906588250421919, 7262580.0 ], [ 533616.416969484183937, 7262590.0 ], [ 533613.680460680043325, 7262600.000000000931323 ], [ 533611.530221462948248, 7262610.0 ], [ 533610.359943480696529, 7262620.0 ], [ 533609.640056519303471, 7262630.0 ], [ 533608.470670747803524, 7262640.0 ], [ 533606.330713496543467, 7262650.0 ], [ 533603.670178714208305, 7262660.0 ], [ 533601.540503428783268, 7262670.0 ], [ 533600.447091679205187, 7262680.0 ], [ 533600.086255987756886, 7262690.0 ], [ 533600.0, 7262700.0 ], [ 533599.913744012243114, 7262710.0 ], [ 533599.552908320794813, 7262720.0 ], [ 533598.458604360581376, 7262730.0 ], [ 533596.318647109321319, 7262740.0 ], [ 533593.583030515816063, 7262750.0 ], [ 533591.092519538942724, 7262760.0 ], [ 533588.895414073951542, 7262770.0 ], [ 533586.328929075156339, 7262780.0 ], [ 533583.223087035119534, 7262790.0 ], [ 533579.91374401235953, 7262800.0 ], [ 533576.32982128590811, 7262810.0 ], [ 533572.215931273298338, 7262820.0 ], [ 533567.870324714574963, 7262830.0 ], [ 533564.031014405656606, 7262840.0 ], [ 533561.180559947970323, 7262850.0 ], [ 533558.917762426892295, 7262860.0 ], [ 533556.417861694935709, 7262870.000000000931323 ], [ 533553.681352890795097, 7262879.999107789248228 ], [ 533551.54139563953504, 7262889.987933613359928 ], [ 533550.447091679205187, 7262899.900785414502025 ], [ 533550.087148198392242, 7262909.453693736344576 ], [ 533550.011174176470377, 7262917.913190307095647 ], [ 533550.000892210751772, 7262924.243011591956019 ] ] } },
{ "type": "Feature", "properties": { "id": 15, "reference_id": 2, "dune_id": 2, "dune_name": "Big Mommy Dune", "acquisition_date": "2018-04-20", "length_m": 511.62709765384443 }, "geometry": { "type": "LineString", "coordinates": [ [ 528605.756988407694735, 7260774.20441859215498 ], [ 528612.08680969348643, 7260778.318308604881167 ], [ 528620.546306264703162, 7260783.682245101779699 ], [ 528630.099214585614391, 7260789.651230696588755 ], [ 528640.012066387105733, 7260795.237301746383309 ], [ 528650.000892210751772, 7260800.0 ], [ 528660.0, 7260804.762698253616691 ], [ 528670.0, 7260810.34966151509434 ], [ 528680.0, 7260816.328929075971246 ], [ 528690.0, 7260821.769731804728508 ], [ 528700.0, 7260826.253847263753414 ], [ 528710.0, 7260829.9888258241117 ], [ 528720.0, 7260833.659004537388682 ], [ 528730.0, 7260837.793458482250571 ], [ 528740.0, 7260842.205649307928979 ], [ 528750.0, 7260846.329821285791695 ], [ 528760.0, 7260849.924025977961719 ], [ 528770.0, 7260853.299953267909586 ], [ 528780.0, 7260856.700046732090414 ], [ 528790.0, 7260860.075974022969604 ], [ 528800.0, 7260863.669286504387856 ], [ 528810.0, 7260867.784068727865815 ], [ 528820.0, 7260872.129675285890698 ], [ 528830.0, 7260875.968985594809055 ], [ 528840.0, 7260878.820332262665033 ], [ 528850.0, 7260881.093411750160158 ], [ 528860.0, 7260883.669286504387856 ], [ 528870.0, 7260886.765738788992167 ], [ 528880.0, 7260890.0 ], [ 528890.0, 7260893.234261211939156 ], [ 528900.0, 7260896.329821285791695 ], [ 528910.0, 7260898.895414073951542 ], [ 528920.0, 7260901.093411750160158 ], [ 528930.0, 7260903.594204693101346 ], [ 528940.0, 7260906.405795308761299 ], [ 528950.0, 7260908.905696040019393 ], [ 528960.0, 7260911.094303959980607 ], [ 528970.0, 7260913.594204692170024 ], [ 528980.0, 7260916.405795307829976 ], [ 528990.0, 7260918.906588250771165 ], [ 529000.0, 7260921.104585926048458 ], [ 529010.0, 7260923.670178715139627 ], [ 529020.0, 7260926.766630999743938 ], [ 529030.0, 7260930.010281965136528 ], [ 529039.999107789248228, 7260933.310235233977437 ], [ 529049.987933612894267, 7260936.689764766953886 ], [ 529059.900785414385609, 7260939.9888258241117 ], [ 529069.453693735296838, 7260943.222194824367762 ], [ 529077.913190306629986, 7260946.242673086933792 ], [ 529084.243011592421681, 7260948.448322394862771 ] ] } },
{ "type": "Feature", "properties": { "id": 16, "reference_id": 7, "dune_id": 7, "dune_name": "Inverted Y Dune", "acquisition_date": "2018-04-20", "length_m": 475.17334111955523 }, "geometry": { "type": "LineString", "coordinates": [ [ 530584.330159790813923, 7261405.756988408043981 ], [ 530578.361174196470529, 7261412.086809693835676 ], [ 530571.005371340434067, 7261420.546306264586747 ], [ 530563.658112327102572, 7261430.099214585497975 ], [ 530556.765738788526505, 7261440.012066387571394 ], [ 530550.01028196583502, 7261450.000892210751772 ], [ 530543.31023523339536, 7261460.0 ], [ 530536.689764766488224, 7261470.000000000931323 ], [ 530529.988825823529623, 7261480.0 ], [ 530523.222194824367762, 7261490.0 ], [ 530516.242673087399453, 7261500.0 ], [ 530508.448322394862771, 7261510.0 ], [ 530499.552016110159457, 7261520.0 ], [ 530489.912851801607758, 7261530.0 ], [ 530479.988825823529623, 7261539.999107789248228 ], [ 530469.999107789364643, 7261549.9888258241117 ], [ 530460.0, 7261559.911959591321647 ], [ 530450.0, 7261569.541734145022929 ], [ 530440.0, 7261578.371456162072718 ], [ 530430.000000000116415, 7261585.871555430814624 ], [ 530420.0, 7261592.041634876281023 ], [ 530410.0, 7261597.411166648380458 ], [ 530400.0, 7261602.478444590233266 ], [ 530390.0, 7261607.422340825200081 ], [ 530380.0, 7261612.128783075138927 ], [ 530370.0, 7261616.319539319723845 ], [ 530360.0, 7261619.92313376814127 ], [ 530350.0, 7261623.299061057157815 ], [ 530340.0, 7261626.689764766022563 ], [ 530330.0, 7261630.0 ], [ 530320.0, 7261633.309343023225665 ], [ 530310.0, 7261636.689764766953886 ], [ 530300.0, 7261639.9888258241117 ], [ 530290.0, 7261643.222194824367762 ], [ 530280.0, 7261646.242673087865114 ], [ 530270.0, 7261648.448322394862771 ], [ 530260.0, 7261649.552016111090779 ], [ 530250.000892210635357, 7261649.912851802073419 ], [ 530240.012066387222148, 7261649.9888258241117 ], [ 530230.099214585614391, 7261649.999107790179551 ], [ 530220.546306264819577, 7261650.0 ], [ 530212.08680969348643, 7261650.0 ], [ 530205.756988407694735, 7261650.0 ] ] } }
]
}
