{
"type": "FeatureCollection",
"name": "crests_2019_04_2019-04-05",
"crs": { "type": "name", "properties": { "name": "urn:ogc:def:crs:EPSG::32733" } },
"features": [
{ "type": "Feature", "properties": { "id": 0, "reference_id": 4, "dune_id": 4, "dune_name": "The Star Dune", "acquisition_date": "2019-04-05", "length_m": 607.45612788443339 }, "geometry": { "type": "LineString", "coordinates": [ [ 533584.243011592305265, 7262049.541734144091606 ], [ 533577.91319030651357, 7262048.371456163004041 ], [ 533569.453693735180423, 7262045.871555430814624 ], [ 533559.900785414385609, 7262042.041634876281023 ], [ 533549.987933612894267, 7262037.41205885913223 ], [ 533539.999107789364643, 7262032.489618767052889 ], [ 533530.0, 7262027.509489023126662 ], [ 533520.0, 7262022.57676696497947 ], [ 533510.0, 7262017.870324715040624 ], [ 533500.0, 7262013.670178714208305 ], [ 533490.0, 7262010.000892210751772 ], [ 533480.0, 7262006.340103251859546 ], [ 533470.0, 7262002.206541518680751 ], [ 533460.0, 7261997.793458482250571 ], [ 533450.0, 7261993.659896748140454 ], [ 533440.0, 7261990.0 ], [ 533430.0, 7261986.340995462611318 ], [ 533420.0, 7261982.216823483817279 ], [ 533410.0, 7261977.870324715040624 ], [ 533400.000000000116415, 7261974.031014406122267 ], [ 533390.0, 7261971.180559948086739 ], [ 533380.000000000116415, 7261968.916870215907693 ], [ 533370.0, 7261966.406687518581748 ], [ 533360.0, 7261963.594204693101346 ], [ 533350.0, 7261961.093411749228835 ], [ 533340.0, 7261958.895414074882865 ], [ 533330.0, 7261956.329821286723018 ], [ 533320.0, 7261953.234261211007833 ], [ 533310.0, 7261950.0 ], [ 533300.0, 7261946.765738788992167 ], [ 533290.0, 7261943.670178713276982 ], [ 533280.0, 7261941.103693715296686 ], [ 533270.0, 7261938.896306284703314 ], [ 533260.0, 7261936.329821286723018 ], [ 533250.0, 7261933.234261211007833 ], [ 533240.0, 7261930.0 ], [ 533230.0, 7261926.765738788992167 ], [ 533220.0, 7261923.670178715139627 ], [ 533210.0, 7261921.103693716228008 ], [ 533200.0, 7261918.896306284703314 ], [ 533190.0, 7261916.329821286723018 ], [ 533180.0, 7261913.234261212870479 ], [ 533170.0, 7261910.0 ], [ 533160.0, 7261906.765738788992167 ], [ 533150.0, 7261903.670178715139627 ], [ 533140.0, 7261901.104585926048458 ], [ 533130.0, 7261898.906588250771165 ], [ 533120.0, 7261896.405795307829976 ], [ 533110.0, 7261893.594204692170024 ], [ 533100.0, 7261891.094303959980607 ], [ 533090.0, 7261888.906588250771165 ], [ 533080.0, 7261886.416077273897827 ], [ 533070.0, 7261883.670178714208305 ], [ 533060.0, 7261881.454247441142797 ], [ 533050.000892210751772, 7261880.0 ], [ 533040.012066387105733, 7261878.546644769608974 ], [ 533030.099214585614391, 7261876.340995462611318 ], [ 533020.546306264819577, 7261873.671070925891399 ], [ 533012.08680969348643, 7261871.540503429248929 ], [ 533005.756988407694735, 7261870.447091680020094 ] ] } },
{ "type": "Feature", "properties": { "id": 1, "reference_id": 3, "dune_id": 3, "dune_name": "Big Mommy Dune", "acquisition_date": "2019-04-05", "length_m": 332.4611253294787 }, "geometry": { "type": "LineString", "coordinates": [ [ 529374.243011592305265, 7260695.756988408043981 ], [ 529367.91319030651357, 7260702.086809693835676 ], [ 529359.453693735180423, 7260710.546306265518069 ], [ 529349.900785414502025, 7260720.099214585497975 ], [ 529339.988825823529623, 7260730.012066388502717 ], [ 529330.01028196583502, 7260740.000892210751772 ], [ 529320.088040409144014, 7260750.0 ], [ 529310.458265855675563, 7260760.0 ], [ 529301.62765162717551, 7260770.0 ], [ 529294.118162604048848, 7260780.000000000931323 ], [ 529287.881498890928924, 7260790.0 ], [ 529282.216823483933695, 7260800.0 ], [ 529276.330713496543467, 7260810.0 ], [ 529269.924025978078134, 7260820.0 ], [ 529263.299061057041399, 7260830.0 ], [ 529256.68976476660464, 7260840.0 ], [ 529250.0, 7260850.0 ], [ 529243.310235233511776, 7260860.0 ], [ 529236.700938942958601, 7260870.0 ], [ 529230.075974021921866, 7260880.0 ], [ 529223.670178714208305, 7260890.0 ], [ 529217.794350692536682, 7260900.0 ], [ 529212.206541518098675, 7260910.0 ], [ 529206.340995462262072, 7260919.999107789248228 ], [ 529200.012066387105733, 7260929.987933613359928 ], [ 529193.758219123352319, 7260939.900785414502025 ], [ 529188.328590570250526, 7260949.453693735413253 ], [ 529184.205310802557506, 7260957.913190307095647 ], [ 529181.638825803645886, 7260964.243011592887342 ] ] } },
{ "type": "Feature", "properties": { "id": 2, "reference_id": 3, "dune_id": 3, "dune_name": "Big Mommy Dune", "acquisition_date": "2019-04-05", "length_m": 214.99929676925939 }, "geometry": { "type": "LineString", "coordinates": [ [ 529405.756988407694735, 7260679.552016109228134 ], [ 529412.08680969348643, 7260678.448322394862771 ], [ 529420.546306264819577, 7260676.242673087865114 ], [ 529430.099214585614391, 7260673.223087035119534 ], [ 529440.012066387222148, 7260669.999107789248228 ], [ 529450.000892210751772, 7260666.765738788992167 ], [ 529460.0, 7260663.670178714208305 ], [ 529470.0, 7260661.103693716228008 ], [ 529480.0, 7260658.896306285634637 ], [ 529490.0, 7260656.329821285791695 ], [ 529500.000000000116415, 7260653.234261211939156 ], [ 529510.0, 7260650.000892210751772 ], [ 529520.0, 7260646.776020754128695 ], [ 529530.0, 7260643.746152736246586 ], [ 529540.0, 7260641.464529407210648 ], [ 529550.0, 7260640.000892210751772 ], [ 529560.0, 7260638.546644769608974 ], [ 529569.999107789248228, 7260636.340995462611318 ], [ 529579.987933612894267, 7260633.671070925891399 ], [ 529589.900785414502025, 7260631.540503429248929 ], [ 529599.453693735180423, 7260630.447091680020094 ], [ 529607.91319030651357, 7260630.087148198857903 ], [ 529614.243011592421681, 7260630.011174176819623 ] ] } },
{ "type": "Feature", "properties": { "id": 3, "reference_id": 3, "dune_id": 3, "dune_name": "Big Mommy Dune", "acquisition_date": "2019-04-05", "length_m": 58.486023184610531 }, "geometry": { "type": "LineString", "coordinates": [ [ 529704.243011592305265, 7260620.0 ], [ 529697.91319030651357, 7260620.0 ], [ 529689.454585945932195, 7260620.0 ], [ 529679.912851801607758, 7260620.0 ], [ 529670.087148198508658, 7260620.0 ], [ 529660.545414054067805, 7260620.0 ], [ 529652.08680969348643, 7260620.0 ], [ 529645.756988407694735, 7260620.0 ] ] } },
{ "type": "Feature", "properties": { "id": 4, "reference_id": 3, "dune_id": 3, "dune_name": "Big Mommy Dune", "acquisition_date": "2019-04-05", "length_m": 308.48602318461053 }, "geometry": { "type": "LineString", "coordinates": [ [ 529735.756988407694735, 7260610.0 ], [ 529742.08680969348643, 7260610.0 ], [ 529750.546306264819577, 7260610.0 ], [ 529760.099214585614391, 7260610.0 ], [ 529770.012066387222148, 7260610.0 ], [ 529780.000892210751772, 7260610.0 ], [ 529790.0, 7260610.0 ], [ 529800.0, 7260610.0 ], [ 529810.0, 7260610.0 ], [ 529820.0, 7260610.0 ], [ 529830.0, 7260610.0 ], [ 529840.0, 7260610.0 ], [ 529850.0, 7260610.0 ], [ 529860.0, 7260610.0 ], [ 529870.0, 7260610.0 ], [ 529880.0, 7260610.0 ], [ 529890.0, 7260610.0 ], [ 529900.0, 7260610.0 ], [ 529910.0, 7260610.0 ], [ 529920.0, 7260610.0 ], [ 529930.0, 7260610.0 ], [ 529940.0, 7260610.0 ], [ 529950.0, 7260610.0 ], [ 529960.0, 7260610.0 ], [ 529970.0, 7260610.0 ], [ 529980.0, 7260610.0 ], [ 529990.0, 7260610.0 ], [ 529999.999107789364643, 7260610.0 ], [ 530009.987933612894267, 7260610.0 ], [ 530019.900785414502025, 7260610.0 ], [ 530029.453693735180423, 7260610.0 ], [ 530037.91319030651357, 7260610.0 ], [ 530044.243011592305265, 7260610.0 ] ] } },
{ "type": "Feature", "properties": { "id": 5, "reference_id": 3, "dune_id": 3, "dune_name": "Big Mommy Dune", "acquisition_date": "2019-04-05", "length_m": 130.4879536368467 }, "geometry": { "type": "LineString", "coordinates": [ [ 530204.243011592305265, 7260580.087148198857903 ], [ 530197.91319030651357, 7260580.447091679088771 ], [ 530189.453693735180423, 7260581.540503429248929 ], [ 530179.900785414385609, 7260583.671070924960077 ], [ 530169.987933612894267, 7260586.340995462611318 ], [ 530159.999107789364643, 7260588.546644769608974 ], [ 530150.0, 7260590.0 ], [ 530140.0, 7260591.453355230391026 ], [ 530130.0, 7260593.659004537388682 ], [ 530120.000892210751772, 7260596.328929075039923 ], [ 530110.012066387222148, 7260598.459496571682394 ], [ 530100.099214585614391, 7260599.552908321842551 ], [ 530090.546306264819577, 7260599.912851802073419 ], [ 530082.08680969348643, 7260599.9888258241117 ], [ 530075.756988407694735, 7260599.999107789248228 ] ] } },
{ "type": "Feature", "properties": { "id": 6, "reference_id": 1, "dune_id": 1, "dune_name": "Big Mommy Dune", "acquisition_date": "2019-04-05", "length_m": 119.35523700252557 }, "geometry": { "type": "LineString", "coordinates": [ [ 529020.0, 7261555.756988408043981 ], [ 529020.0, 7261562.086809693835676 ], [ 529020.0, 7261570.546306264586747 ], [ 529020.0, 7261580.099214585497975 ], [ 529020.0, 7261590.012066387571394 ], [ 529020.0, 7261600.000892210751772 ], [ 529020.0, 7261610.0 ], [ 529020.000892210751772, 7261620.0 ], [ 529020.011174176470377, 7261629.999107789248228 ], [ 529020.087148198508658, 7261639.987933613359928 ], [ 529020.447091679205187, 7261649.900785414502025 ], [ 529021.540503428783268, 7261659.453693736344576 ], [ 529023.670178714208305, 7261667.913190306164324 ], [ 529026.329821285791695, 7261674.243011591956019 ] ] } },
{ "type": "Feature", "properties": { "id": 7, "reference_id": 1, "dune_id": 1, "dune_name": "Big Mommy Dune", "acquisition_date": "2019-04-05", "length_m": 507.6420484553521 }, "geometry": { "type": "LineString", "coordinates": [ [ 529183.659004537737928, 7261045.756988408043981 ], [ 529186.242673087399453, 7261052.086809693835676 ], [ 529188.012404892127961, 7261060.546306265518069 ], [ 529188.012404892127961, 7261070.099214585497975 ], [ 529186.241780876764096, 7261080.012066387571394 ], [ 529183.647830361267552, 7261090.000892210751772 ], [ 529181.452463019639254, 7261100.0 ], [ 529179.999107789364643, 7261110.0 ], [ 529178.535470593255013, 7261120.000000000931323 ], [ 529176.252955053118058, 7261130.0 ], [ 529173.212805069284514, 7261140.0 ], [ 529169.912851801607758, 7261150.0 ], [ 529166.328929075156339, 7261160.0 ], [ 529162.205649307463318, 7261170.0 ], [ 529157.793458481901325, 7261180.0 ], [ 529153.6598967484897, 7261190.0 ], [ 529149.999107789364643, 7261200.0 ], [ 529146.329821285791695, 7261210.000000000931323 ], [ 529142.130567496176809, 7261220.0 ], [ 529137.433515001088381, 7261230.0 ], [ 529132.566484998911619, 7261240.0 ], [ 529127.870324714574963, 7261250.0 ], [ 529123.680460680043325, 7261260.0 ], [ 529120.076866232673638, 7261270.0 ], [ 529116.700046732323244, 7261280.0 ], [ 529113.299953267676756, 7261290.0 ], [ 529109.923133767326362, 7261300.0 ], [ 529106.319539319956675, 7261310.000000000931323 ], [ 529102.129675285541452, 7261320.0 ], [ 529097.433515001204796, 7261330.0 ], [ 529092.566484998911619, 7261340.0 ], [ 529087.869432503823191, 7261350.0 ], [ 529083.670178714208305, 7261360.0 ], [ 529080.000892210751772, 7261370.0 ], [ 529076.340103251626715, 7261380.0 ], [ 529072.20654151821509, 7261390.0 ], [ 529067.794350692536682, 7261400.0 ], [ 529063.670178714208305, 7261410.0 ], [ 529060.075974022038281, 7261420.0 ], [ 529056.700938943075016, 7261430.0 ], [ 529053.310235233511776, 7261440.0 ], [ 529050.0, 7261450.0 ], [ 529046.690656977239996, 7261460.0 ], [ 529043.31023523339536, 7261470.000000000931323 ], [ 529040.011174176470377, 7261479.999107789248228 ], [ 529036.777805175632238, 7261489.987933613359928 ], [ 529033.757326912600547, 7261499.900785414502025 ], [ 529031.551677605253644, 7261509.453693735413253 ], [ 529030.447983889840543, 7261517.913190307095647 ], [ 529030.087148198508658, 7261524.243011592887342 ] ] } },
{ "type": "Feature", "properties": { "id": 8, "reference_id": 1, "dune_id": 1, "dune_name": "Big Mommy Dune", "acquisition_date": "2019-04-05", "length_m": 512.19269557848691 }, "geometry": { "type": "LineString", "coordinates": [ [ 529109.988825823529623, 7261825.756988408043981 ], [ 529109.912851801607758, 7261832.086809693835676 ], [ 529109.552016110159457, 7261840.546306265518069 ], [ 529108.447430184110999, 7261850.099214585497975 ], [ 529106.231498910929076, 7261860.012066387571394 ], [ 529103.135046625859104, 7261870.000892210751772 ], [ 529099.540841933805496, 7261880.0 ], [ 529095.137194950715639, 7261890.0 ], [ 529089.541734144324437, 7261900.0 ], [ 529083.146220802329481, 7261910.0 ], [ 529076.318647109321319, 7261920.0 ], [ 529068.895414073951542, 7261930.0 ], [ 529061.103693715296686, 7261940.0 ], [ 529053.671070924960077, 7261950.0 ], [ 529046.776912964880466, 7261960.0 ], [ 529040.087148198392242, 7261970.0 ], [ 529033.682245101314038, 7261980.0 ], [ 529027.881498891045339, 7261990.0 ], [ 529022.653633197303861, 7262000.0 ], [ 529017.881498890928924, 7262010.0 ], [ 529013.681352890795097, 7262020.0 ], [ 529010.076866232673638, 7262030.0 ], [ 529006.700046732323244, 7262040.0 ], [ 529003.299953267676756, 7262050.0 ], [ 528999.923133767442778, 7262060.0 ], [ 528996.31953932007309, 7262070.0 ], [ 528992.128783074789681, 7262080.0 ], [ 528987.42234082473442, 7262090.0 ], [ 528982.478444589767605, 7262100.0 ], [ 528977.411166648264043, 7262110.0 ], [ 528972.041634876397438, 7262120.0 ], [ 528965.871555430116132, 7262130.0 ], [ 528958.371456162189133, 7262140.0 ], [ 528949.541734144324437, 7262150.0 ], [ 528939.911959590972401, 7262160.0 ], [ 528929.988825823529623, 7262169.999107789248228 ], [ 528919.999107789364643, 7262179.9888258241117 ], [ 528910.0, 7262189.911959591321647 ], [ 528900.0, 7262199.541734144091606 ], [ 528890.0, 7262208.371456163004041 ], [ 528880.000892210751772, 7262215.870663220062852 ], [ 528870.012066387105733, 7262222.030460700392723 ], [ 528860.099214585614391, 7262227.324018450453877 ], [ 528850.546306264819577, 7262232.030460700392723 ], [ 528842.086809693370014, 7262235.870663220062852 ], [ 528835.756988407694735, 7262238.371456163004041 ] ] } },
{ "type": "Feature", "properties": { "id": 9, "reference_id": 8, "dune_id": 8, "dune_name": "Inverted Y Dune", "acquisition_date": "2019-04-05", "length_m": 425.78818695901833 }, "geometry": { "type": "LineString", "coordinates": [ [ 530264.243011592421681, 7261221.639718014746904 ], [ 530257.913190306629986, 7261224.216484978795052 ], [ 530249.453693735180423, 7261228.416630979627371 ], [ 530239.900785414502025, 7261234.216484978795052 ], [ 530229.987933612777852, 7261241.639718014746904 ], [ 530219.999107789248228, 7261250.459158066660166 ], [ 530210.000892210751772, 7261260.088040409609675 ], [ 530200.011174176586792, 7261270.011174176819623 ], [ 530190.088040409144014, 7261280.000892210751772 ], [ 530180.458265855675563, 7261290.0 ], [ 530171.628543837927282, 7261300.0 ], [ 530164.129336780519225, 7261310.000000000931323 ], [ 530157.969539300072938, 7261320.0 ], [ 530152.675089339609258, 7261330.0 ], [ 530147.958365123718977, 7261340.0 ], [ 530144.042188582126983, 7261350.0 ], [ 530141.181452158722095, 7261360.0 ], [ 530138.916870216256939, 7261370.0 ], [ 530136.406687518465333, 7261380.0 ], [ 530133.594204692170024, 7261390.0 ], [ 530131.094303960213438, 7261400.0 ], [ 530128.906588250538334, 7261410.0 ], [ 530126.416969484183937, 7261420.0 ], [ 530123.680460680043325, 7261430.0 ], [ 530121.530221462948248, 7261440.0 ], [ 530120.359943480812944, 7261450.0 ], [ 530119.640056519303471, 7261460.0 ], [ 530118.470670747803524, 7261470.000000000931323 ], [ 530116.330713496543467, 7261480.0 ], [ 530113.670178714208305, 7261490.0 ], [ 530111.540503428666852, 7261500.0 ], [ 530110.447091679205187, 7261510.0 ], [ 530110.086255987756886, 7261520.0 ], [ 530110.0, 7261530.0 ], [ 530109.913744012243114, 7261539.999553894624114 ], [ 530109.552908320911229, 7261549.993520701304078 ], [ 530108.459496571333148, 7261559.944359513930976 ], [ 530106.329821285791695, 7261569.6772395754233 ], [ 530103.670178714208305, 7261578.683442020788789 ], [ 530101.540503428783268, 7261586.078100949525833 ], [ 530100.447091679205187, 7261591.078100949525833 ] ] } },
{ "type": "Feature", "properties": { "id": 10, "reference_id": 8, "dune_id": 8, "dune_name": "Inverted Y Dune", "acquisition_date": "2019-04-05", "length_m": 58.486023184726946 }, "geometry": { "type": "LineString", "coordinates": [ [ 530454.243011592421681, 7261210.000000000931323 ], [ 530447.913190306629986, 7261210.000000000931323 ], [ 530439.454585945932195, 7261210.000000000931323 ], [ 530429.912851801607758, 7261210.000000000931323 ], [ 530420.087148198508658, 7261210.000000000931323 ], [ 530410.545414054067805, 7261210.000000000931323 ], [ 530402.08680969348643, 7261210.000000000931323 ], [ 530395.756988407694735, 7261210.000000000931323 ] ] } },
{ "type": "Feature", "properties": { "id": 11, "reference_id": 8, "dune_id": 8, "dune_name": "Inverted Y Dune", "acquisition_date": "2019-04-05", "length_m": 60.433255638092646 }, "geometry": { "type": "LineString", "coordinates": [ [ 530505.756988407694735, 7261207.914082517847419 ], [ 530512.085917482851073, 7261204.255077979527414 ], [ 530520.534239877597429, 7261198.012404892593622 ], [ 530530.0, 7261190.0 ], [ 530539.465760122402571, 7261181.987595107406378 ], [ 530547.914082517265342, 7261175.744922020472586 ], [ 530554.243011592305265, 7261172.085917483083904 ] ] } },
{ "type": "Feature", "properties": { "id": 12, "reference_id": 9, "dune_id": 9, "dune_name": "Inverted Y Dune", "acquisition_date": "2019-04-05", "length_m": 742.81171876156895 }, "geometry": { "type": "LineString", "coordinates": [ [ 530097.91319030651357, 7261598.834750852547586 ], [ 530094.243011592421681, 7261603.473915160633624 ], [ 530087.913190306629986, 7261609.764880374073982 ], [ 530079.453693735180423, 7261616.564541302621365 ], [ 530069.900785414502025, 7261623.267553345300257 ], [ 530059.987933612894267, 7261629.919331100769341 ], [ 530049.999107789364643, 7261636.329375180415809 ], [ 530040.0, 7261642.205649307928979 ], [ 530030.0, 7261647.793458482250571 ], [ 530020.0, 7261653.659896748140454 ], [ 530010.0, 7261660.0 ], [ 530000.0, 7261666.340995462611318 ], [ 529990.0, 7261672.216823484748602 ], [ 529980.0, 7261677.870324714109302 ], [ 529970.0, 7261684.031014405190945 ], [ 529960.0, 7261691.180559948086739 ], [ 529950.0, 7261698.917762426659465 ], [ 529940.0, 7261706.417861695401371 ], [ 529930.0, 7261713.681352891027927 ], [ 529920.0, 7261721.541395640000701 ], [ 529910.0, 7261730.447091680020094 ], [ 529900.0, 7261740.087148198857903 ], [ 529890.0, 7261750.011174176819623 ], [ 529880.0, 7261760.000892210751772 ], [ 529870.000892210751772, 7261770.0 ], [ 529860.011174176470377, 7261780.0 ], [ 529850.087148198392242, 7261790.0 ], [ 529840.447091679205187, 7261800.0 ], [ 529831.541395639418624, 7261810.0 ], [ 529823.682245101314038, 7261820.0 ], [ 529816.428143660770729, 7261830.0 ], [ 529808.994628659682348, 7261840.000000000931323 ], [ 529801.552569815889001, 7261850.0 ], [ 529795.222748530097306, 7261860.0 ], [ 529790.534239877597429, 7261870.0 ], [ 529786.864061163389124, 7261880.0 ], [ 529783.682245101314038, 7261890.0 ], [ 529781.104585926048458, 7261900.0 ], [ 529778.896306284703314, 7261910.0 ], [ 529776.328929075039923, 7261920.0 ], [ 529773.223087035119534, 7261930.0 ], [ 529769.913744012243114, 7261940.0 ], [ 529766.328929075156339, 7261950.0 ], [ 529762.204757096711546, 7261960.0 ], [ 529757.783176516182721, 7261970.0 ], [ 529753.583922726451419, 7261980.0 ], [ 529749.639164308668114, 7261990.0 ], [ 529745.236409536330029, 7262000.0 ], [ 529740.0, 7262010.0 ], [ 529734.763590463786386, 7262020.0 ], [ 529730.360835691448301, 7262030.0 ], [ 529726.416077273548581, 7262040.0 ], [ 529722.216823483933695, 7262050.0 ], [ 529717.794350692536682, 7262060.0 ], [ 529713.659896748373285, 7262070.0 ], [ 529709.999107789248228, 7262080.0 ], [ 529706.329821285791695, 7262090.0 ], [ 529702.129675285425037, 7262100.0 ], [ 529697.423233035369776, 7262110.0 ], [ 529692.490510976873338, 7262120.0 ], [ 529687.510381233762018, 7262129.999107789248228 ], [ 529682.5879411411006, 7262139.987933613359928 ], [ 529677.958365123602562, 7262149.900785414502025 ], [ 529674.128444569883868, 7262159.453693735413253 ], [ 529671.628543837810867, 7262167.913190307095647 ], [ 529670.458265855675563, 7262174.243011591956019 ] ] } },
{ "type": "Feature", "properties": { "id": 13, "reference_id": 7, "dune_id": 7, "dune_name": "Inverted Y Dune", "acquisition_date": "2019-04-05", "length_m": 541.18220559434883 }, "geometry": { "type": "LineString", "coordinates": [ [ 530135.756988407694735, 7261646.776912964880466 ], [ 530142.08680969348643, 7261645.210682142525911 ], [ 530150.546306264819577, 7261645.210682142525911 ], [ 530160.099214585614391, 7261646.776912964880466 ], [ 530170.012066387222148, 7261648.546644769608974 ], [ 530180.000892210751772, 7261649.564082497730851 ], [ 530190.0, 7261649.913744012825191 ], [ 530200.0, 7261649.9888258241117 ], [ 530210.0, 7261649.999107790179551 ], [ 530220.0, 7261649.999107790179551 ], [ 530230.0, 7261649.9888258241117 ], [ 530240.0, 7261649.912851802073419 ], [ 530250.0, 7261649.552908321842551 ], [ 530260.0, 7261648.458604361861944 ], [ 530270.0, 7261646.318647109903395 ], [ 530280.0, 7261643.583030516281724 ], [ 530290.0, 7261641.092519538477063 ], [ 530300.0, 7261638.895414074882865 ], [ 530310.0, 7261636.328929075971246 ], [ 530320.0, 7261633.223087035119534 ], [ 530330.0, 7261629.913744011893868 ], [ 530340.0, 7261626.328929075039923 ], [ 530350.0, 7261622.204757097177207 ], [ 530360.0, 7261617.783176516182721 ], [ 530370.0, 7261613.583922727033496 ], [ 530380.0, 7261609.639164308086038 ], [ 530390.0, 7261605.235517325811088 ], [ 530400.0, 7261599.9888258241117 ], [ 530410.0, 7261594.675550054758787 ], [ 530420.0, 7261589.901677625253797 ], [ 530430.000000000116415, 7261584.777251470834017 ], [ 530440.0, 7261578.01151268184185 ], [ 530450.0, 7261569.465760122984648 ], [ 530460.0, 7261559.901677626185119 ], [ 530469.999107789364643, 7261549.987933613359928 ], [ 530479.988825823529623, 7261539.999107789248228 ], [ 530489.911959590855986, 7261530.0 ], [ 530499.541734144324437, 7261520.0 ], [ 530508.37234837282449, 7261510.0 ], [ 530515.881837395951152, 7261500.0 ], [ 530522.118501109071076, 7261490.0 ], [ 530527.783176516182721, 7261480.0 ], [ 530533.670178714208305, 7261470.000000000931323 ], [ 530540.086255987756886, 7261460.0 ], [ 530546.776020754361525, 7261450.000892210751772 ], [ 530553.659004537737928, 7261440.012066387571394 ], [ 530561.005371340550482, 7261430.099214585497975 ], [ 530568.361174196470529, 7261420.546306264586747 ], [ 530574.330159790813923, 7261412.086809693835676 ], [ 530577.924364482983947, 7261405.756988408043981 ] ] } },
{ "type": "Feature", "properties": { "id": 14, "reference_id": 2, "dune_id": 2, "dune_name": "Big Mommy Dune", "acquisition_date": "2019-04-05", "length_m": 607.71597706363798 }, "geometry": { "type": "LineString", "coordinates": [ [ 529151.078100949409418, 7260978.372348373755813 ], [ 529146.078100949409418, 7260975.881837395951152 ], [ 529138.683442020905204, 7260972.118501109071076 ], [ 529129.677239574841224, 7260967.782284305430949 ], [ 529119.944359513698146, 7260963.659004537388682 ], [ 529109.993520701071247, 7260959.999107790179551 ], [ 529099.999553894624114, 7260956.329821286723018 ], [ 529090.0, 7260952.13056749664247 ], [ 529080.0, 7260947.434407211840153 ], [ 529070.0, 7260942.576766964048147 ], [ 529060.0, 7260937.946298737078905 ], [ 529050.0, 7260934.041296371258795 ], [ 529040.0, 7260931.181452158838511 ], [ 529030.0, 7260928.916870215907693 ], [ 529020.0, 7260926.406687518581748 ], [ 529010.0, 7260923.594204692170024 ], [ 529000.0, 7260921.094303959980607 ], [ 528990.0, 7260918.905696040019393 ], [ 528980.0, 7260916.405795307829976 ], [ 528970.0, 7260913.594204692170024 ], [ 528960.0, 7260911.094303959980607 ], [ 528950.0, 7260908.905696040019393 ], [ 528940.0, 7260906.405795308761299 ], [ 528930.0, 7260903.594204693101346 ], [ 528920.0, 7260901.093411750160158 ], [ 528910.0, 7260898.895414073951542 ], [ 528900.0, 7260896.329821285791695 ], [ 528890.0, 7260893.234261211939156 ], [ 528880.0, 7260890.0 ], [ 528870.0, 7260886.765738788992167 ], [ 528860.0, 7260883.670178715139627 ], [ 528850.0, 7260881.103693716228008 ], [ 528840.0, 7260878.896306285634637 ], [ 528830.0, 7260876.328929075971246 ], [ 528820.0, 7260873.223087035119534 ], [ 528810.0, 7260869.913744012825191 ], [ 528800.0, 7260866.328929075971246 ], [ 528790.0, 7260862.205649307928979 ], [ 528780.0, 7260857.794350693002343 ], [ 528770.0, 7260853.670178714208305 ], [ 528760.0, 7260850.075974022038281 ], [ 528750.0, 7260846.700046733021736 ], [ 528740.0, 7260843.299953267909586 ], [ 528730.0, 7260839.92313376814127 ], [ 528720.0, 7260836.319539319723845 ], [ 528710.0, 7260832.128783075138927 ], [ 528700.0, 7260827.422340825200081 ], [ 528690.0, 7260822.479336800985038 ], [ 528680.0, 7260817.422340825200081 ], [ 528670.0, 7260812.129675285890698 ], [ 528660.0, 7260806.329821284860373 ], [ 528650.0, 7260800.0 ], [ 528640.0, 7260793.670178715139627 ], [ 528630.000892210751772, 7260787.870324714109302 ], [ 528620.012066387105733, 7260782.577659176662564 ], [ 528610.099214585614391, 7260777.521555410698056 ], [ 528600.546306264819577, 7260772.588833352550864 ], [ 528592.086809693602845, 7260767.958365123718977 ], [ 528585.756988407578319, 7260764.128444570116699 ] ] } },
{ "type": "Feature", "properties": { "id": 15, "reference_id": 5, "dune_id": 5, "dune_name": "The Star Dune", "acquisition_date": "2019-04-05", "length_m": 1141.4569027339317 }, "geometry": { "type": "LineString", "coordinates": [ [ 534334.788425646489486, 7261305.756988408043981 ], [ 534329.988825823529623, 7261312.086809693835676 ], [ 534325.124426155234687, 7261320.546306264586747 ], [ 534321.551677605137229, 7261330.099214585497975 ], [ 534319.080884647322819, 7261340.012066386640072 ], [ 534316.875235339859501, 7261350.000892210751772 ], [ 534315.222748530097306, 7261360.0 ], [ 534315.211574353626929, 7261370.0 ], [ 534316.776912964996882, 7261380.0 ], [ 534318.547536980360746, 7261390.0 ], [ 534319.575256673735566, 7261400.0 ], [ 534320.000892210751772, 7261410.0 ], [ 534320.43591750273481, 7261420.0 ], [ 534321.539611218031496, 7261430.0 ], [ 534323.670178714208305, 7261440.0 ], [ 534326.329821285791695, 7261450.0 ], [ 534328.459496571333148, 7261460.0 ], [ 534329.552908320794813, 7261470.000000000931323 ], [ 534329.912851801607758, 7261480.0 ], [ 534329.987933612894267, 7261490.0 ], [ 534329.987933612894267, 7261500.0 ], [ 534329.911959590855986, 7261510.0 ], [ 534329.54084193368908, 7261520.0 ], [ 534328.360281985718757, 7261530.0 ], [ 534325.783515021088533, 7261540.0 ], [ 534321.583369020721875, 7261550.0 ], [ 534315.783515021088533, 7261560.000000000931323 ], [ 534308.360281985718757, 7261569.999107789248228 ], [ 534299.54084193368908, 7261579.9888258241117 ], [ 534289.911959590855986, 7261589.912851802073419 ], [ 534279.988825823529623, 7261599.552016111090779 ], [ 534269.999107789248228, 7261608.448322394862771 ], [ 534260.0, 7261616.242673087865114 ], [ 534250.0, 7261623.222194824367762 ], [ 534240.0, 7261629.9888258241117 ], [ 534230.0, 7261636.688872556202114 ], [ 534220.0, 7261643.298168847337365 ], [ 534210.0, 7261649.911959591321647 ], [ 534200.0, 7261656.231498911976814 ], [ 534190.0, 7261661.670517219230533 ], [ 534180.0, 7261665.79558140784502 ], [ 534170.0, 7261668.37234837282449 ], [ 534160.0, 7261669.627990132197738 ], [ 534150.0, 7261670.359051270410419 ], [ 534140.0, 7261671.529329252429307 ], [ 534130.0, 7261673.669286503456533 ], [ 534120.0, 7261676.329821285791695 ], [ 534110.0, 7261678.460388781502843 ], [ 534100.0, 7261679.564082497730851 ], [ 534090.0, 7261680.0 ], [ 534080.0, 7261680.435917503200471 ], [ 534070.0, 7261681.539611218497157 ], [ 534060.0, 7261683.671070925891399 ], [ 534050.0, 7261686.340995462611318 ], [ 534040.0, 7261688.546644769608974 ], [ 534030.0, 7261690.0 ], [ 534020.0, 7261691.453355230391026 ], [ 534010.0, 7261693.659896749071777 ], [ 534000.0, 7261696.340103251859546 ], [ 533990.0, 7261698.546644769608974 ], [ 533980.0, 7261700.000892210751772 ], [ 533970.0, 7261701.464529407210648 ], [ 533960.0, 7261703.747044946998358 ], [ 533950.0, 7261706.787194930948317 ], [ 533940.0, 7261710.087148198857903 ], [ 533930.0, 7261713.671070924960077 ], [ 533920.0, 7261717.794350693002343 ], [ 533910.0, 7261722.206541517749429 ], [ 533900.0, 7261726.340103251859546 ], [ 533890.0, 7261730.000892211683095 ], [ 533880.0, 7261733.670178715139627 ], [ 533870.0, 7261737.870324715040624 ], [ 533860.0, 7261742.577659175731242 ], [ 533850.0, 7261747.521555410698056 ], [ 533840.0, 7261752.588833351619542 ], [ 533830.0, 7261757.958365123718977 ], [ 533820.0, 7261764.128444569185376 ], [ 533810.000892210635357, 7261771.628543837927282 ], [ 533800.011174176470377, 7261780.458265855908394 ], [ 533790.088040409144014, 7261790.088040409609675 ], [ 533780.45915806631092, 7261800.011174176819623 ], [ 533771.638825803645886, 7261810.000892210751772 ], [ 533764.205310802557506, 7261820.0 ], [ 533758.329482780885883, 7261830.0 ], [ 533753.768501089187339, 7261840.000000000931323 ], [ 533750.088040409144014, 7261850.0 ], [ 533746.701831153710373, 7261860.0 ], [ 533743.31023523339536, 7261870.0 ], [ 533739.999107789364643, 7261880.0 ], [ 533736.679482800886035, 7261890.0 ], [ 533733.222194824367762, 7261900.0 ], [ 533729.552908320794813, 7261910.0 ], [ 533725.149261337937787, 7261920.0 ], [ 533719.628882342833094, 7261930.0 ], [ 533713.593312481534667, 7261940.0 ], [ 533707.859150538104586, 7261950.0 ], [ 533702.565592788276263, 7261960.0 ], [ 533697.433515001204796, 7261970.0 ], [ 533692.129675285541452, 7261980.0 ], [ 533686.31953932007309, 7261989.999553894624114 ], [ 533679.924025978078134, 7261999.993520701304078 ], [ 533673.311127444263548, 7262009.944359513930976 ], [ 533666.788087141467258, 7262019.677239574491978 ], [ 533660.535132088232785, 7262028.683442020788789 ], [ 533655.309004517737776, 7262036.078100949525833 ], [ 533651.999661495094188, 7262041.078100949525833 ] ] } },
{ "type": "Feature", "properties": { "id": 16, "reference_id": 6, "dune_id": 6, "dune_name": "The Star Dune", "acquisition_date": "2019-04-05", "length_m": 814.46445470039862 }, "geometry": { "type": "LineString", "coordinates": [ [ 533650.000892210751772, 7262048.921899050474167 ], [ 533650.011174176470377, 7262053.921899050474167 ], [ 533650.087148198508658, 7262061.316557979211211 ], [ 533650.447091679205187, 7262070.322760425508022 ], [ 533651.540503428783268, 7262080.055640487000346 ], [ 533653.670178714208305, 7262090.006479298695922 ], [ 533656.329821285791695, 7262100.000446105375886 ], [ 533658.459496571216732, 7262110.0 ], [ 533659.552908320911229, 7262120.0 ], [ 533659.912851801607758, 7262130.0 ], [ 533659.988825823529623, 7262140.0 ], [ 533659.999107789248228, 7262150.0 ], [ 533660.0, 7262160.0 ], [ 533660.0, 7262170.0 ], [ 533660.0, 7262180.0 ], [ 533660.000892210751772, 7262190.0 ], [ 533660.011174176470377, 7262200.0 ], [ 533660.087148198392242, 7262210.0 ], [ 533660.447091679088771, 7262220.0 ], [ 533661.540503428783268, 7262230.0 ], [ 533663.671070924960077, 7262240.0 ], [ 533666.340995462378487, 7262250.0 ], [ 533668.546644769841805, 7262260.0 ], [ 533670.0, 7262270.0 ], [ 533671.453355230391026, 7262280.0 ], [ 533673.659004537737928, 7262290.0 ], [ 533676.328036864520982, 7262300.0 ], [ 533678.448322394862771, 7262310.0 ], [ 533679.465760122518986, 7262320.0 ], [ 533679.465760122518986, 7262330.0 ], [ 533678.448322394862771, 7262340.000000000931323 ], [ 533676.328036864520982, 7262350.0 ], [ 533673.659004537737928, 7262360.0 ], [ 533671.453355230391026, 7262370.0 ], [ 533670.0, 7262380.0 ], [ 533668.545752559090033, 7262390.0 ], [ 533666.329821285791695, 7262400.0 ], [ 533663.583922726451419, 7262410.0 ], [ 533661.092519538942724, 7262420.0 ], [ 533658.895414073951542, 7262430.0 ], [ 533656.329821285791695, 7262440.0 ], [ 533653.233369000838138, 7262450.0 ], [ 533649.989718034281395, 7262460.0 ], [ 533646.689764766488224, 7262470.0 ], [ 533643.310235233511776, 7262480.0 ], [ 533640.01028196583502, 7262490.0 ], [ 533636.766630999278277, 7262500.0 ], [ 533633.670178714208305, 7262510.0 ], [ 533631.104585926048458, 7262520.0 ], [ 533628.907480461173691, 7262530.0 ], [ 533626.416077273548581, 7262540.0 ], [ 533623.670178714208305, 7262550.0 ], [ 533621.454247440909967, 7262560.0 ], [ 533620.0, 7262570.0 ], [ 533618.54664476972539, 7262580.0 ], [ 533616.340103251626715, 7262590.0 ], [ 533613.659896748373285, 7262600.000000000931323 ], [ 533611.45335523027461, 7262610.0 ], [ 533610.0, 7262620.0 ], [ 533608.54664476972539, 7262630.0 ], [ 533606.340995462378487, 7262640.0 ], [ 533603.671070924960077, 7262650.0 ], [ 533601.540503428783268, 7262660.0 ], [ 533600.447091679205187, 7262670.0 ], [ 533600.086255987756886, 7262680.0 ], [ 533600.0, 7262690.0 ], [ 533599.913744012243114, 7262700.0 ], [ 533599.552908320794813, 7262710.0 ], [ 533598.459496571216732, 7262720.0 ], [ 533596.328929075039923, 7262730.0 ], [ 533593.659004537737928, 7262740.0 ], [ 533591.452463019639254, 7262750.0 ], [ 533589.988825823529623, 7262760.0 ], [ 533588.458604360697791, 7262770.0 ], [ 533585.882729606702924, 7262780.0 ], [ 533582.043419297784567, 7262790.0 ], [ 533577.423233035369776, 7262799.999107789248228 ], [ 533572.576766964746639, 7262809.987933613359928 ], [ 533567.957472912967205, 7262819.900785414502025 ], [ 533564.128444569883868, 7262829.453693736344576 ], [ 533561.628543837810867, 7262837.913190307095647 ], [ 533560.458265855675563, 7262844.243011592887342 ] ] } }
]
}
