{
"type": "FeatureCollection",
"name": "crests_2021_09_2021-09-01",
"crs": { "type": "name", "properties": { "name": "urn:ogc:def:crs:EPSG::32733" } },
"features": [
{ "type": "Feature", "properties": { "id": 0, "reference_id": 5, "dune_id": 5, "dune_name": "The Star Dune", "acquisition_date": "2021-09-01", "length_m": 986.96328225881621 }, "geometry": { "type": "LineString", "coordinates": [ [ 533651.638825803645886, 7262041.078100949525833 ], [ 533654.20531080244109, 7262036.078100949525833 ], [ 533658.329482780769467, 7262028.683442020788789 ], [ 533663.768501089187339, 7262019.677239574491978 ], [ 533670.088040409144014, 7262009.944359513930976 ], [ 533676.700938943075016, 7261999.993520701304078 ], [ 533683.299953267676756, 7261989.999553894624114 ], [ 533689.923133767326362, 7261980.0 ], [ 533696.31953932007309, 7261970.0 ], [ 533702.128783074789681, 7261960.0 ], [ 533707.423233035369776, 7261950.0 ], [ 533712.489618766237982, 7261940.0 ], [ 533717.49831484653987, 7261930.0 ], [ 533722.488726555602625, 7261920.0 ], [ 533727.412951069651172, 7261910.0 ], [ 533732.052809052867815, 7261900.0 ], [ 533735.959595839260146, 7261890.0 ], [ 533738.829722017864697, 7261880.0 ], [ 533741.170277982251719, 7261870.0 ], [ 533744.040404160739854, 7261860.0 ], [ 533747.947190947132185, 7261850.0 ], [ 533752.5879411411006, 7261840.000000000931323 ], [ 533757.522447620984167, 7261830.0 ], [ 533762.588833351852372, 7261820.000892210751772 ], [ 533767.958365123602562, 7261810.011174177750945 ], [ 533774.128444569767453, 7261800.088040409609675 ], [ 533781.628543837927282, 7261790.458265855908394 ], [ 533790.458265855675563, 7261781.627651628106833 ], [ 533800.088040409144014, 7261774.118162604048848 ], [ 533810.011174176470377, 7261767.881498890928924 ], [ 533820.000892210635357, 7261762.217715695500374 ], [ 533830.0, 7261756.34188767336309 ], [ 533840.0, 7261750.011174176819623 ], [ 533850.0, 7261743.747044946998358 ], [ 533860.0, 7261738.240550161339343 ], [ 533870.0, 7261733.747044946998358 ], [ 533880.0, 7261730.011174176819623 ], [ 533890.0, 7261726.340995462611318 ], [ 533900.0, 7261722.206541517749429 ], [ 533910.0, 7261717.794350693002343 ], [ 533920.0, 7261713.671070924960077 ], [ 533930.0, 7261710.086255988106132 ], [ 533940.0, 7261706.776912964880466 ], [ 533950.0, 7261703.671070924960077 ], [ 533960.0, 7261701.10458592697978 ], [ 533970.0, 7261698.907480461522937 ], [ 533980.0, 7261696.416969484649599 ], [ 533990.0, 7261693.681352891027927 ], [ 534000.0, 7261691.540503429248929 ], [ 534010.0, 7261690.435917503200471 ], [ 534020.0, 7261690.0 ], [ 534030.0, 7261689.564082497730851 ], [ 534040.0, 7261688.460388783365488 ], [ 534050.0, 7261686.329821286723018 ], [ 534060.0, 7261683.669286504387856 ], [ 534070.0, 7261681.529329252429307 ], [ 534080.0, 7261680.35994348116219 ], [ 534090.0, 7261679.640056519769132 ], [ 534100.0, 7261678.470670748502016 ], [ 534110.0, 7261676.330713496543467 ], [ 534120.0, 7261673.669286503456533 ], [ 534130.0, 7261671.529329252429307 ], [ 534140.0, 7261670.359051270410419 ], [ 534150.0, 7261669.627990132197738 ], [ 534160.0, 7261668.37234837282449 ], [ 534170.0, 7261665.79558140784502 ], [ 534180.0, 7261661.671409429982305 ], [ 534190.0, 7261656.241780877113342 ], [ 534200.0, 7261649.987933613359928 ], [ 534210.0, 7261643.659004538320005 ], [ 534220.0, 7261637.793458482250571 ], [ 534230.0, 7261632.205649307928979 ], [ 534240.0, 7261626.328929075039923 ], [ 534250.0, 7261619.912851801142097 ], [ 534260.0, 7261613.211912859231234 ], [ 534269.999107789248228, 7261606.241780877113342 ], [ 534279.987933612894267, 7261598.448322394862771 ], [ 534289.900785414502025, 7261589.552016110159457 ], [ 534299.454585945932195, 7261579.912851802073419 ], [ 534307.924364482983947, 7261569.9888258241117 ], [ 534314.330159790813923, 7261559.999107790179551 ], [ 534318.360281985718757, 7261550.0 ], [ 534320.99419716396369, 7261540.0 ], [ 534323.570964128593914, 7261530.0 ], [ 534326.317754898685962, 7261520.0 ], [ 534328.457712149946019, 7261510.0 ], [ 534329.541734144324437, 7261500.000892210751772 ], [ 534329.825703603215516, 7261490.012066387571394 ], [ 534329.541734144324437, 7261480.099214586429298 ], [ 534328.458604360581376, 7261470.546306265518069 ], [ 534326.329821285791695, 7261462.086809694766998 ], [ 534323.670178714208305, 7261455.756988408043981 ] ] } },
{ "type": "Feature", "properties": { "id": 1, "reference_id": 5, "dune_id": 5, "dune_name": "The Star Dune", "acquisition_date": "2021-09-01", "length_m": 74.511204027390548 }, "geometry": { "type": "LineString", "coordinates": [ [ 534334.353400354390033, 7261305.756988408043981 ], [ 534328.54664476972539, 7261312.086809693835676 ], [ 534321.987595107872039, 7261320.546306264586747 ], [ 534317.198277250863612, 7261330.098322374746203 ], [ 534315.744922020589001, 7261340.0 ], [ 534316.875235339859501, 7261349.901677625253797 ], [ 534318.558711156831123, 7261359.453693735413253 ], [ 534319.564974708016962, 7261367.913190307095647 ], [ 534319.913744012243114, 7261374.243011592887342 ] ] } },
{ "type": "Feature", "properties": { "id": 2, "reference_id": 1, "dune_id": 1, "dune_name": "Big Mommy Dune", "acquisition_date": "2021-09-01", "length_m": 474.76925506301552 }, "geometry": { "type": "LineString", "coordinates": [ [ 528835.756988407694735, 7262229.540841933339834 ], [ 528842.086809693370014, 7262228.361174196004868 ], [ 528850.546306264819577, 7262225.794689198024571 ], [ 528860.099214585614391, 7262221.670517219230533 ], [ 528870.012066387105733, 7262216.23060670029372 ], [ 528880.000892210751772, 7262209.900785414502025 ], [ 528890.0, 7262203.211020648479462 ], [ 528900.0, 7262196.241780877113342 ], [ 528910.0, 7262188.448322394862771 ], [ 528919.999107789364643, 7262179.552016110159457 ], [ 528929.988825823529623, 7262169.912851802073419 ], [ 528939.911959590972401, 7262159.9888258241117 ], [ 528949.541734144324437, 7262149.999107789248228 ], [ 528958.371456162189133, 7262140.0 ], [ 528965.871555430116132, 7262130.0 ], [ 528972.041634876397438, 7262120.0 ], [ 528977.411166648264043, 7262110.0 ], [ 528982.477552379132248, 7262100.0 ], [ 528987.4120588588994, 7262090.0 ], [ 528992.052809052867815, 7262080.0 ], [ 528995.959595839376561, 7262070.0 ], [ 528998.829722017864697, 7262060.0 ], [ 529001.170277982251719, 7262050.0 ], [ 529004.041296371491626, 7262040.0 ], [ 529007.957472912967205, 7262030.0 ], [ 529012.663915163138881, 7262020.0 ], [ 529017.881498890928924, 7262010.0 ], [ 529023.671070924960077, 7262000.0 ], [ 529030.000892210751772, 7261990.0 ], [ 529036.340995462378487, 7261980.0 ], [ 529042.216823483933695, 7261970.0 ], [ 529047.870324714458548, 7261960.0 ], [ 529054.030122194904834, 7261950.0 ], [ 529061.169385771499947, 7261940.0 ], [ 529068.829722017864697, 7261930.0 ], [ 529075.958703628624789, 7261920.0 ], [ 529082.041634876281023, 7261910.0 ], [ 529087.324910660507157, 7261900.000892210751772 ], [ 529092.030460699927062, 7261890.012066386640072 ], [ 529095.870663219597191, 7261880.099214585497975 ], [ 529098.371456162305549, 7261870.546306265518069 ], [ 529099.541734144324437, 7261862.086809693835676 ], [ 529099.911959590855986, 7261855.756988408043981 ] ] } },
{ "type": "Feature", "properties": { "id": 3, "reference_id": 1, "dune_id": 1, "dune_name": "Big Mommy Dune", "acquisition_date": "2021-09-01", "length_m": 701.96273722708543 }, "geometry": { "type": "LineString", "coordinates": [ [ 529034.789317857124843, 7261704.243011592887342 ], [ 529030.0, 7261697.913190307095647 ], [ 529025.210682142991573, 7261689.453693735413253 ], [ 529021.987595107872039, 7261679.900785414502025 ], [ 529020.534239877597429, 7261669.987933613359928 ], [ 529020.098322374979034, 7261659.999107789248228 ], [ 529020.012066387222148, 7261650.0 ], [ 529020.000892210751772, 7261640.0 ], [ 529020.0, 7261630.0 ], [ 529020.0, 7261620.0 ], [ 529020.0, 7261610.0 ], [ 529020.0, 7261600.0 ], [ 529020.000892210751772, 7261590.0 ], [ 529020.011174176470377, 7261580.0 ], [ 529020.087148198508658, 7261570.0 ], [ 529020.447091679205187, 7261560.000000000931323 ], [ 529021.540503428783268, 7261550.0 ], [ 529023.671070924960077, 7261540.0 ], [ 529026.340995462378487, 7261530.0 ], [ 529028.54664476972539, 7261520.0 ], [ 529030.000892210751772, 7261510.0 ], [ 529031.464529406744987, 7261500.0 ], [ 529033.746152736246586, 7261490.0 ], [ 529036.776912964996882, 7261480.0 ], [ 529040.011174176470377, 7261470.000000000931323 ], [ 529043.311127444147132, 7261460.0 ], [ 529046.700938942958601, 7261450.0 ], [ 529050.075974021921866, 7261440.0 ], [ 529053.670178714208305, 7261430.0 ], [ 529057.794350692536682, 7261420.0 ], [ 529062.205649307463318, 7261410.0 ], [ 529066.329821285791695, 7261400.0 ], [ 529069.924025978078134, 7261390.0 ], [ 529073.299953267676756, 7261380.0 ], [ 529076.700046732323244, 7261370.0 ], [ 529080.076866232557222, 7261360.0 ], [ 529083.680460680043325, 7261350.0 ], [ 529087.870324714574963, 7261340.0 ], [ 529092.566484998911619, 7261330.0 ], [ 529097.433515001204796, 7261320.0 ], [ 529102.130567496176809, 7261310.000000000931323 ], [ 529106.329821285791695, 7261300.0 ], [ 529110.0, 7261290.0 ], [ 529113.670178714208305, 7261280.0 ], [ 529117.870324714574963, 7261270.0 ], [ 529122.576766964630224, 7261260.0 ], [ 529127.509489023126662, 7261250.0 ], [ 529132.490510976873338, 7261240.0 ], [ 529137.423233035369776, 7261230.0 ], [ 529142.129675285425037, 7261220.0 ], [ 529146.329821285791695, 7261210.000000000931323 ], [ 529149.999107789364643, 7261200.0 ], [ 529153.659004537854344, 7261190.0 ], [ 529157.783176516182721, 7261180.0 ], [ 529162.129675285541452, 7261170.0 ], [ 529165.968985594343394, 7261160.0 ], [ 529168.819440052029677, 7261150.0 ], [ 529171.082237573107705, 7261140.0 ], [ 529173.582138305064291, 7261130.0 ], [ 529176.318647109321319, 7261120.000000000931323 ], [ 529178.458604360581376, 7261110.0 ], [ 529179.553800531546585, 7261100.0 ], [ 529179.924025978078134, 7261090.0 ], [ 529180.075974022038281, 7261080.000892210751772 ], [ 529180.44619946856983, 7261070.012066387571394 ], [ 529181.540503428783268, 7261060.099214585497975 ], [ 529183.670178714208305, 7261050.546306265518069 ], [ 529186.329821285791695, 7261042.086809693835676 ], [ 529188.459496571333148, 7261035.756988408043981 ] ] } },
{ "type": "Feature", "properties": { "id": 4, "reference_id": 4, "dune_id": 4, "dune_name": "The Star Dune", "acquisition_date": "2021-09-01", "length_m": 655.66391769369716 }, "geometry": { "type": "LineString", "coordinates": [ [ 533005.756988407694735, 7261870.011174177750945 ], [ 533012.08680969348643, 7261870.087148198857903 ], [ 533020.546306264819577, 7261870.447091680020094 ], [ 533030.099214585614391, 7261871.541395640000701 ], [ 533040.012066387105733, 7261873.681352891027927 ], [ 533050.000892210751772, 7261876.416969484649599 ], [ 533060.0, 7261878.906588250771165 ], [ 533070.0, 7261881.094303959980607 ], [ 533080.0, 7261883.594204692170024 ], [ 533090.0, 7261886.405795307829976 ], [ 533100.0, 7261888.906588250771165 ], [ 533110.0, 7261891.10458592697978 ], [ 533120.0, 7261893.670178715139627 ], [ 533130.0, 7261896.765738788992167 ], [ 533140.0, 7261900.0 ], [ 533150.0, 7261903.234261211939156 ], [ 533160.0, 7261906.329821286723018 ], [ 533170.0, 7261908.895414074882865 ], [ 533180.0, 7261911.093411750160158 ], [ 533190.0, 7261913.594204692170024 ], [ 533200.0, 7261916.405795307829976 ], [ 533210.0, 7261918.906588250771165 ], [ 533220.0, 7261921.10458592697978 ], [ 533230.0, 7261923.670178715139627 ], [ 533240.0, 7261926.766630999743938 ], [ 533250.0, 7261930.010281966067851 ], [ 533260.0, 7261933.310235233977437 ], [ 533270.0, 7261936.690656976774335 ], [ 533280.0, 7261940.0 ], [ 533290.0, 7261943.309343023225665 ], [ 533300.0, 7261946.689764766022563 ], [ 533310.0, 7261949.989718034863472 ], [ 533320.0, 7261953.233369001187384 ], [ 533330.0, 7261956.329821286723018 ], [ 533340.0, 7261958.895414074882865 ], [ 533350.0, 7261961.093411749228835 ], [ 533360.0, 7261963.594204693101346 ], [ 533370.0, 7261966.406687518581748 ], [ 533380.000000000116415, 7261968.916870215907693 ], [ 533390.0, 7261971.180559948086739 ], [ 533400.000000000116415, 7261974.031014406122267 ], [ 533410.0, 7261977.870324715040624 ], [ 533420.0, 7261982.215931273065507 ], [ 533430.0, 7261986.330713496543467 ], [ 533440.0, 7261989.924025978893042 ], [ 533450.0, 7261993.299061058089137 ], [ 533460.0, 7261996.689764766022563 ], [ 533470.0, 7262000.0 ], [ 533480.0, 7262003.310235233977437 ], [ 533490.0, 7262006.700938943773508 ], [ 533500.0, 7262010.076866232790053 ], [ 533510.0, 7262013.680460680276155 ], [ 533520.0, 7262017.870324715040624 ], [ 533530.0, 7262022.565592788159847 ], [ 533540.0, 7262027.422340825200081 ], [ 533550.0, 7262032.043419297784567 ], [ 533560.0, 7262035.883621817454696 ], [ 533570.0, 7262038.469778537750244 ], [ 533579.999553894740529, 7262040.075974022969604 ], [ 533589.993520701071247, 7262041.899554699659348 ], [ 533599.94435951358173, 7262045.199507966637611 ], [ 533609.677239574841224, 7262049.999107789248228 ], [ 533618.683442020905204, 7262054.789317857474089 ], [ 533626.078100949409418, 7262058.012404892593622 ], [ 533631.078100949525833, 7262059.465760122984648 ] ] } },
{ "type": "Feature", "properties": { "id": 5, "reference_id": 3, "dune_id": 3, "dune_name": "Big Mommy Dune", "acquisition_date": "2021-09-01", "length_m": 222.77102761687036 }, "geometry": { "type": "LineString", "coordinates": [ [ 530244.243011592421681, 7260570.000892210751772 ], [ 530237.91319030651357, 7260570.011174176819623 ], [ 530229.453693735180423, 7260570.087148198857903 ], [ 530219.900785414385609, 7260570.447091680020094 ], [ 530209.987933612894267, 7260571.540503429248929 ], [ 530199.999107789248228, 7260573.671070925891399 ], [ 530190.0, 7260576.340995462611318 ], [ 530180.0, 7260578.546644769608974 ], [ 530170.000000000116415, 7260580.0 ], [ 530160.0, 7260581.454247441142797 ], [ 530150.0, 7260583.670178714208305 ], [ 530140.0, 7260586.416077273897827 ], [ 530130.0, 7260588.906588250771165 ], [ 530120.0, 7260591.093411749228835 ], [ 530110.0, 7260593.583922727033496 ], [ 530100.0, 7260596.329821285791695 ], [ 530090.0, 7260598.545752558857203 ], [ 530080.0, 7260600.0 ], [ 530070.000892210751772, 7260601.453355230391026 ], [ 530060.012066387222148, 7260603.659004537388682 ], [ 530050.099214585614391, 7260606.328929075971246 ], [ 530040.546306264703162, 7260608.459496571682394 ], [ 530032.08680969348643, 7260609.552908320911229 ], [ 530025.756988407694735, 7260609.912851802073419 ] ] } },
{ "type": "Feature", "properties": { "id": 6, "reference_id": 3, "dune_id": 3, "dune_name": "Big Mommy Dune", "acquisition_date": "2021-09-01", "length_m": 892.56515691897539 }, "geometry": { "type": "LineString", "coordinates": [ [ 529175.298722552019171, 7260964.243011592887342 ], [ 529180.45915806631092, 7260957.913190307095647 ], [ 529186.428143660770729, 7260949.453693735413253 ], [ 529192.217715694685467, 7260939.900785414502025 ], [ 529197.794350692536682, 7260929.987933613359928 ], [ 529203.659896748373285, 7260919.999107789248228 ], [ 529210.0, 7260910.0 ], [ 529216.340103251626715, 7260900.0 ], [ 529222.206541518098675, 7260890.0 ], [ 529227.794350692536682, 7260880.0 ], [ 529233.670178714208305, 7260870.0 ], [ 529240.075974021921866, 7260860.0 ], [ 529246.700938943075016, 7260850.0 ], [ 529253.310235233511776, 7260840.0 ], [ 529260.0, 7260830.0 ], [ 529266.690656977239996, 7260820.0 ], [ 529273.309343022760004, 7260810.0 ], [ 529280.0, 7260800.0 ], [ 529286.690656977239996, 7260790.0 ], [ 529293.310235233511776, 7260780.000000000931323 ], [ 529300.011174176470377, 7260770.0 ], [ 529306.777805175748654, 7260760.0 ], [ 529313.757326912716962, 7260750.000892210751772 ], [ 529321.551677605253644, 7260740.011174176819623 ], [ 529330.447983889840543, 7260730.087148198857903 ], [ 529340.087148198392242, 7260720.447983889840543 ], [ 529350.011174176586792, 7260711.552569815889001 ], [ 529360.000892210635357, 7260703.768501089885831 ], [ 529370.0, 7260696.864953374490142 ], [ 529380.0, 7260690.459158066660166 ], [ 529390.0, 7260684.861912839114666 ], [ 529400.0, 7260680.447983888909221 ], [ 529410.0, 7260676.777805175632238 ], [ 529420.0, 7260673.320517199113965 ], [ 529430.0, 7260670.000892210751772 ], [ 529440.000000000116415, 7260666.690656977705657 ], [ 529450.0, 7260663.310235233977437 ], [ 529460.0, 7260660.010281966067851 ], [ 529470.0, 7260656.766630999743938 ], [ 529480.0, 7260653.670178714208305 ], [ 529490.0, 7260651.10458592697978 ], [ 529500.000000000116415, 7260648.906588250771165 ], [ 529510.0, 7260646.405795307829976 ], [ 529520.0, 7260643.594204693101346 ], [ 529530.0, 7260641.094303959980607 ], [ 529540.0, 7260638.906588250771165 ], [ 529550.0, 7260636.416077274829149 ], [ 529560.0, 7260633.670178715139627 ], [ 529570.0, 7260631.454247441142797 ], [ 529580.0, 7260630.0 ], [ 529590.0, 7260628.546644769608974 ], [ 529600.0, 7260626.340995462611318 ], [ 529610.0, 7260623.670178714208305 ], [ 529620.0, 7260621.529329252429307 ], [ 529630.0, 7260620.35994348116219 ], [ 529640.0, 7260619.640056519769132 ], [ 529650.0, 7260618.470670748502016 ], [ 529660.0, 7260616.33071349747479 ], [ 529670.0, 7260613.670178715139627 ], [ 529680.0, 7260611.540503429248929 ], [ 529690.0, 7260610.447091680020094 ], [ 529700.0, 7260610.086255988106132 ], [ 529710.0, 7260610.0 ], [ 529720.0, 7260609.913744012825191 ], [ 529730.0, 7260609.552908320911229 ], [ 529740.0, 7260608.459496571682394 ], [ 529750.0, 7260606.329821286723018 ], [ 529760.0, 7260603.670178715139627 ], [ 529770.0, 7260601.540503429248929 ], [ 529780.0, 7260600.447091680020094 ], [ 529790.0, 7260600.087148198857903 ], [ 529800.0, 7260600.011174176819623 ], [ 529810.0, 7260600.000892210751772 ], [ 529820.0, 7260600.0 ], [ 529830.0, 7260600.000892210751772 ], [ 529840.0, 7260600.011174176819623 ], [ 529850.0, 7260600.087148198857903 ], [ 529860.0, 7260600.447091680020094 ], [ 529869.999107789364643, 7260601.540503429248929 ], [ 529879.987933612894267, 7260603.670178715139627 ], [ 529889.900785414385609, 7260606.329821286723018 ], [ 529899.453693735296838, 7260608.459496571682394 ], [ 529907.91319030651357, 7260609.552908320911229 ], [ 529914.243011592305265, 7260609.912851802073419 ] ] } },
{ "type": "Feature", "properties": { "id": 7, "reference_id": 6, "dune_id": 6, "dune_name": "The Star Dune", "acquisition_date": "2021-09-01", "length_m": 651.10046416084163 }, "geometry": { "type": "LineString", "coordinates": [ [ 533659.56408249726519, 7262135.756988408043981 ], [ 533658.546644769841805, 7262142.086809693835676 ], [ 533656.776912964996882, 7262150.546306265518069 ], [ 533655.210682142991573, 7262160.099214585497975 ], [ 533655.210682142991573, 7262170.012066387571394 ], [ 533656.777805175632238, 7262180.000892210751772 ], [ 533658.557818946195766, 7262190.0 ], [ 533659.651230695773847, 7262200.0 ], [ 533660.360835691448301, 7262210.0 ], [ 533661.529329252196476, 7262220.0 ], [ 533663.669286503572948, 7262230.0 ], [ 533666.329821285791695, 7262240.0 ], [ 533668.459496571333148, 7262250.0 ], [ 533669.552908320911229, 7262260.0 ], [ 533669.912851801607758, 7262270.0 ], [ 533669.988825823646039, 7262280.0 ], [ 533669.999107789364643, 7262290.0 ], [ 533670.0, 7262300.0 ], [ 533670.0, 7262310.0 ], [ 533670.0, 7262320.0 ], [ 533670.0, 7262330.0 ], [ 533669.999107789364643, 7262340.000000000931323 ], [ 533669.988825823646039, 7262350.0 ], [ 533669.912851801607758, 7262360.0 ], [ 533669.552908320911229, 7262370.0 ], [ 533668.458604360697791, 7262380.0 ], [ 533666.318647109437734, 7262390.0 ], [ 533663.583030515816063, 7262400.0 ], [ 533661.092519538942724, 7262410.0 ], [ 533658.895414073951542, 7262420.0 ], [ 533656.329821285791695, 7262430.0 ], [ 533653.234261211473495, 7262440.0 ], [ 533650.0, 7262450.0 ], [ 533646.765738788526505, 7262460.0 ], [ 533643.670178714208305, 7262470.0 ], [ 533641.103693715413101, 7262480.0 ], [ 533638.896306284703314, 7262490.0 ], [ 533636.329821285791695, 7262500.0 ], [ 533633.234261211473495, 7262510.0 ], [ 533630.0, 7262520.0 ], [ 533626.765738788526505, 7262530.0 ], [ 533623.670178714208305, 7262540.0 ], [ 533621.104585925932042, 7262550.0 ], [ 533618.907480461173691, 7262560.0 ], [ 533616.416077273664996, 7262570.0 ], [ 533613.670178714208305, 7262580.0 ], [ 533611.454247441026382, 7262590.0 ], [ 533610.0, 7262600.000000000931323 ], [ 533608.54664476972539, 7262610.0 ], [ 533606.340995462378487, 7262620.0 ], [ 533603.671070924960077, 7262630.0 ], [ 533601.540503428783268, 7262640.0 ], [ 533600.44619946856983, 7262650.0 ], [ 533600.075974022038281, 7262660.0 ], [ 533599.924025978078134, 7262670.0 ], [ 533599.553800531546585, 7262680.0 ], [ 533598.459496571216732, 7262690.0 ], [ 533596.329821285791695, 7262700.0 ], [ 533593.669286503456533, 7262710.0 ], [ 533591.529329252196476, 7262720.0 ], [ 533590.359943480696529, 7262729.999107789248228 ], [ 533589.640056519303471, 7262739.987933613359928 ], [ 533588.470670747803524, 7262749.900785414502025 ], [ 533586.330713496543467, 7262759.453693734481931 ], [ 533583.670178714208305, 7262767.913190307095647 ], [ 533581.540503428783268, 7262774.243011592887342 ] ] } },
{ "type": "Feature", "properties": { "id": 8, "reference_id": 7, "dune_id": 7, "dune_name": "Inverted Y Dune", "acquisition_date": "2021-09-01", "length_m": 598.30393156679611 }, "geometry": { "type": "LineString", "coordinates": [ [ 530637.924364482983947, 7261325.756988408043981 ], [ 530634.330159790813923, 7261332.086809693835676 ], [ 530628.360281985718757, 7261340.546306265518069 ], [ 530620.99419716396369, 7261350.099214585497975 ], [ 530613.570964128593914, 7261360.012066386640072 ], [ 530606.318647109437734, 7261370.000892210751772 ], [ 530598.469778537051752, 7261380.0 ], [ 530589.640056519303471, 7261390.0 ], [ 530580.360835691448301, 7261400.0 ], [ 530571.540503428783268, 7261410.0 ], [ 530563.757326912600547, 7261420.0 ], [ 530556.788087141467258, 7261430.0 ], [ 530550.087148198508658, 7261440.0 ], [ 530543.671070924843661, 7261450.0 ], [ 530537.794350692536682, 7261460.0 ], [ 530532.205649307463318, 7261470.000000000931323 ], [ 530526.328929075039923, 7261480.0 ], [ 530519.912851801607758, 7261490.0 ], [ 530513.211912858532742, 7261500.0 ], [ 530506.241780876647681, 7261510.0 ], [ 530498.448322394862771, 7261519.999107789248228 ], [ 530489.552016110159457, 7261529.9888258241117 ], [ 530479.912851801607758, 7261539.912851801142097 ], [ 530469.988825823529623, 7261549.552016110159457 ], [ 530459.999107789364643, 7261558.448322394862771 ], [ 530450.0, 7261566.241780877113342 ], [ 530440.0, 7261573.211912859231234 ], [ 530430.000000000116415, 7261579.911959591321647 ], [ 530420.0, 7261586.317754898220301 ], [ 530410.0, 7261592.118501108139753 ], [ 530400.0, 7261597.346366802230477 ], [ 530390.0, 7261602.11939332075417 ], [ 530380.0, 7261606.328929075039923 ], [ 530370.0, 7261609.999107789248228 ], [ 530360.0, 7261613.659004538320005 ], [ 530350.0, 7261617.783176516182721 ], [ 530340.0, 7261622.129675285890698 ], [ 530330.0, 7261625.968985594809055 ], [ 530320.0, 7261628.819440051913261 ], [ 530310.0, 7261631.082237573340535 ], [ 530300.0, 7261633.582138305529952 ], [ 530290.0, 7261636.318647109903395 ], [ 530280.0, 7261638.458604361861944 ], [ 530270.0, 7261639.552908320911229 ], [ 530260.0, 7261639.912851801142097 ], [ 530250.0, 7261639.9888258241117 ], [ 530240.0, 7261640.0 ], [ 530230.0, 7261640.0111741758883 ], [ 530220.000892210635357, 7261640.087148198857903 ], [ 530210.012066387105733, 7261640.447091680020094 ], [ 530200.099214585497975, 7261641.540503429248929 ], [ 530190.546306264819577, 7261643.670178715139627 ], [ 530182.08680969348643, 7261646.329821286723018 ], [ 530175.756988407694735, 7261648.459496572613716 ] ] } },
{ "type": "Feature", "properties": { "id": 9, "reference_id": 2, "dune_id": 2, "dune_name": "Big Mommy Dune", "acquisition_date": "2021-09-01", "length_m": 801.39402386231723 }, "geometry": { "type": "LineString", "coordinates": [ [ 529151.078100949409418, 7260978.448322394862771 ], [ 529146.078100949409418, 7260976.241780877113342 ], [ 529138.683442020905204, 7260973.211912859231234 ], [ 529129.677239574841224, 7260969.911959590390325 ], [ 529119.944359513698146, 7260966.318647108972073 ], [ 529109.993520701071247, 7260962.128783075138927 ], [ 529099.999553894624114, 7260957.423233035951853 ], [ 529090.0, 7260952.490510977804661 ], [ 529080.0, 7260947.510381233878434 ], [ 529070.0, 7260942.58704893104732 ], [ 529060.0, 7260937.947190947830677 ], [ 529050.0, 7260934.041296371258795 ], [ 529040.0, 7260931.181452158838511 ], [ 529030.0, 7260928.916870215907693 ], [ 529020.0, 7260926.406687518581748 ], [ 529010.0, 7260923.594204692170024 ], [ 529000.0, 7260921.094303959980607 ], [ 528990.0, 7260918.905696040019393 ], [ 528980.0, 7260916.405795307829976 ], [ 528970.0, 7260913.594204692170024 ], [ 528960.0, 7260911.094303959980607 ], [ 528950.0, 7260908.905696040019393 ], [ 528940.0, 7260906.405795308761299 ], [ 528930.0, 7260903.594204693101346 ], [ 528920.0, 7260901.093411750160158 ], [ 528910.0, 7260898.895414073951542 ], [ 528900.0, 7260896.329821285791695 ], [ 528890.0, 7260893.233369001187384 ], [ 528880.0, 7260889.989718034863472 ], [ 528870.0, 7260886.689764766022563 ], [ 528860.0, 7260883.309343023225665 ], [ 528850.0, 7260880.0 ], [ 528840.0, 7260876.690656977705657 ], [ 528830.0, 7260873.309343023225665 ], [ 528820.0, 7260870.0 ], [ 528810.0, 7260866.690656977705657 ], [ 528800.0, 7260863.309343023225665 ], [ 528790.0, 7260860.0 ], [ 528780.0, 7260856.690656977705657 ], [ 528770.0, 7260853.309343022294343 ], [ 528760.0, 7260850.0 ], [ 528750.0, 7260846.689764766022563 ], [ 528740.0, 7260843.299061057157815 ], [ 528730.0, 7260839.92313376814127 ], [ 528720.0, 7260836.319539319723845 ], [ 528710.0, 7260832.128783075138927 ], [ 528700.0, 7260827.423233035951853 ], [ 528690.0, 7260822.489618766121566 ], [ 528680.0, 7260817.499207057058811 ], [ 528670.0, 7260812.499900732189417 ], [ 528660.0, 7260807.500099267810583 ], [ 528650.0, 7260802.499900732189417 ], [ 528640.0, 7260797.499207057990134 ], [ 528630.0, 7260792.489618767052889 ], [ 528620.0, 7260787.423233035951853 ], [ 528610.0, 7260782.128783075138927 ], [ 528600.0, 7260776.319539319723845 ], [ 528590.0, 7260769.923133767209947 ], [ 528580.0, 7260763.299061057157815 ], [ 528570.0, 7260756.689764766953886 ], [ 528560.0, 7260750.0 ], [ 528550.0, 7260743.309343023225665 ], [ 528540.0, 7260736.689764766953886 ], [ 528530.0, 7260729.989718034863472 ], [ 528520.0, 7260723.233369001187384 ], [ 528510.0, 7260716.329821286723018 ], [ 528500.0, 7260708.896306284703314 ], [ 528490.0, 7260701.103693716228008 ], [ 528480.0, 7260693.670178715139627 ], [ 528470.000892210751772, 7260686.766630999743938 ], [ 528460.012066387105733, 7260680.0111741758883 ], [ 528450.099214585614391, 7260673.322301620617509 ], [ 528440.546306264819577, 7260666.788979352451861 ], [ 528432.08680969348643, 7260660.535132088698447 ], [ 528425.756988407694735, 7260655.309004518203437 ] ] } },
{ "type": "Feature", "properties": { "id": 10, "reference_id": 8, "dune_id": 8, "dune_name": "Inverted Y Dune", "acquisition_date": "2021-09-01", "length_m": 739.50961938942373 }, "geometry": { "type": "LineString", "coordinates": [ [ 530554.243011592305265, 7261165.745814232155681 ], [ 530547.91319030651357, 7261171.998769285157323 ], [ 530539.453693735296838, 7261180.087148198857903 ], [ 530529.900785414385609, 7261188.459496572613716 ], [ 530519.987933612894267, 7261195.795581408776343 ], [ 530509.999107789248228, 7261201.584261231124401 ], [ 530500.0, 7261205.783515021204948 ], [ 530490.0, 7261208.360281986184418 ], [ 530480.0, 7261209.540841934271157 ], [ 530470.0, 7261209.911067380569875 ], [ 530460.0, 7261209.977651647292078 ], [ 530450.0, 7261209.911959591321647 ], [ 530440.0, 7261209.552908320911229 ], [ 530430.000000000116415, 7261208.459496571682394 ], [ 530420.0, 7261206.329821285791695 ], [ 530410.0, 7261203.670178713276982 ], [ 530400.0, 7261201.540503428317606 ], [ 530390.0, 7261200.447091678157449 ], [ 530380.0, 7261200.087148198857903 ], [ 530370.0, 7261200.012066386640072 ], [ 530360.0, 7261200.012066386640072 ], [ 530350.0, 7261200.087148198857903 ], [ 530340.0, 7261200.447091678157449 ], [ 530330.0, 7261201.541395639069378 ], [ 530320.0, 7261203.681352891027927 ], [ 530310.0, 7261206.416969483718276 ], [ 530300.0, 7261208.907480461522937 ], [ 530290.0, 7261211.10547813680023 ], [ 530280.0, 7261213.681352891027927 ], [ 530270.0, 7261216.853779198601842 ], [ 530260.0, 7261220.458265855908394 ], [ 530250.0, 7261224.862805049866438 ], [ 530240.0, 7261230.459158066660166 ], [ 530230.0, 7261236.864953374490142 ], [ 530220.0, 7261243.768501089885831 ], [ 530210.000892210751772, 7261251.552569815889001 ], [ 530200.011174176586792, 7261260.447983890771866 ], [ 530190.088040409144014, 7261270.087148198857903 ], [ 530180.458265855675563, 7261280.0111741758883 ], [ 530171.628543837927282, 7261290.000892210751772 ], [ 530164.129336780519225, 7261300.0 ], [ 530157.968647089553997, 7261310.000000000931323 ], [ 530152.664807373890653, 7261320.0 ], [ 530147.882391101680696, 7261330.0 ], [ 530143.682245101314038, 7261340.0 ], [ 530140.087148198392242, 7261350.0 ], [ 530136.776912964996882, 7261360.0 ], [ 530133.671070924960077, 7261370.0 ], [ 530131.104585926048458, 7261380.0 ], [ 530128.907480461173691, 7261390.0 ], [ 530126.416077273664996, 7261400.0 ], [ 530123.670178714208305, 7261410.0 ], [ 530121.454247441026382, 7261420.0 ], [ 530120.0, 7261430.0 ], [ 530118.54664476972539, 7261440.0 ], [ 530116.340995462262072, 7261450.0 ], [ 530113.671070924960077, 7261460.0 ], [ 530111.540503428666852, 7261470.000000000931323 ], [ 530110.447091679205187, 7261480.0 ], [ 530110.086255987756886, 7261490.0 ], [ 530110.0, 7261500.0 ], [ 530109.913744012243114, 7261510.0 ], [ 530109.552908320911229, 7261520.0 ], [ 530108.459496571333148, 7261530.0 ], [ 530106.329375180532224, 7261539.999553894624114 ], [ 530103.664591626031324, 7261549.993520701304078 ], [ 530101.496929329470731, 7261559.944359513930976 ], [ 530100.223545839544386, 7261569.6772395754233 ], [ 530099.316896484117024, 7261578.683442020788789 ], [ 530098.176084819366224, 7261586.078100949525833 ], [ 530096.835981567739509, 7261591.078100949525833 ] ] } },
{ "type": "Feature", "properties": { "id": 11, "reference_id": 9, "dune_id": 9, "dune_name": "Inverted Y Dune", "acquisition_date": "2021-09-01", "length_m": 800.95074852867845 }, "geometry": { "type": "LineString", "coordinates": [ [ 530091.078100949525833, 7261598.921006839722395 ], [ 530086.078100949409418, 7261603.910724874585867 ], [ 530078.683442020905204, 7261611.228517569601536 ], [ 530069.677239574841224, 7261619.864494569599628 ], [ 530059.944359513698146, 7261628.427988858893514 ], [ 530049.993520701071247, 7261635.888316694647074 ], [ 530039.999553894624114, 7261642.118947215378284 ], [ 530030.0, 7261647.783176517114043 ], [ 530020.0, 7261653.669286503456533 ], [ 530010.0, 7261660.075974022969604 ], [ 530000.0, 7261666.700938943773508 ], [ 529990.0, 7261673.310235233977437 ], [ 529980.0, 7261680.0 ], [ 529970.0, 7261686.690656976774335 ], [ 529960.0, 7261693.310235233977437 ], [ 529950.0, 7261700.011174177750945 ], [ 529940.0, 7261706.777805175632238 ], [ 529930.0, 7261713.757326913066208 ], [ 529920.0, 7261721.551677605137229 ], [ 529910.0, 7261730.447983890771866 ], [ 529900.0, 7261740.087148198857903 ], [ 529890.0, 7261750.011174176819623 ], [ 529880.0, 7261760.000892210751772 ], [ 529870.0, 7261770.0 ], [ 529860.000892210751772, 7261780.0 ], [ 529850.011174176470377, 7261790.0 ], [ 529840.087148198392242, 7261800.0 ], [ 529830.447983889840543, 7261810.0 ], [ 529821.552569815889001, 7261820.0 ], [ 529813.768501089187339, 7261830.0 ], [ 529806.864953374140896, 7261840.000000000931323 ], [ 529800.458265855675563, 7261850.0 ], [ 529794.8516308729304, 7261860.0 ], [ 529790.372009867918678, 7261870.0 ], [ 529786.416969484300353, 7261880.0 ], [ 529782.216823483933695, 7261890.0 ], [ 529777.795242903288454, 7261900.0 ], [ 529773.670178714208305, 7261910.0 ], [ 529770.075974022038281, 7261920.0 ], [ 529766.700046732323244, 7261930.0 ], [ 529763.299953267676756, 7261940.0 ], [ 529759.923133767326362, 7261950.0 ], [ 529756.319539319956675, 7261960.0 ], [ 529752.128783074789681, 7261970.0 ], [ 529747.423233035369776, 7261980.0 ], [ 529742.490510976989754, 7261990.0 ], [ 529737.509489023126662, 7262000.0 ], [ 529732.576766964630224, 7262010.0 ], [ 529727.870324714574963, 7262020.0 ], [ 529723.670178714208305, 7262030.0 ], [ 529720.0, 7262040.0 ], [ 529716.329821285791695, 7262050.0 ], [ 529712.130567496176809, 7262060.0 ], [ 529707.433515001088381, 7262070.0 ], [ 529702.566484998911619, 7262080.0 ], [ 529697.869432503823191, 7262090.0 ], [ 529693.670178714208305, 7262100.0 ], [ 529690.000892210751772, 7262110.0 ], [ 529686.340103251626715, 7262120.0 ], [ 529682.20654151821509, 7262130.0 ], [ 529677.794350692536682, 7262140.0 ], [ 529673.670178714208305, 7262150.0 ], [ 529670.075974022038281, 7262160.0 ], [ 529666.700938943075016, 7262170.0 ], [ 529663.311127444147132, 7262180.0 ], [ 529660.011174176586792, 7262189.999107789248228 ], [ 529656.777805175632238, 7262199.987933613359928 ], [ 529653.757326912600547, 7262209.900785414502025 ], [ 529651.551677605253644, 7262219.453693735413253 ], [ 529650.447983889840543, 7262227.913190307095647 ], [ 529650.087148198392242, 7262234.243011592887342 ] ] } }
]
}
