{
"type": "FeatureCollection",
"name": "crests_2018_05_2018-05-22",
"crs": { "type": "name", "properties": { "name": "urn:ogc:def:crs:EPSG::32733" } },
"features": [
{ "type": "Feature", "properties": { "id": 0, "reference_id": 1, "dune_id": 1, "dune_name": "Big Mommy Dune", "acquisition_date": "2018-05-22", "length_m": 88.486023183912039 }, "geometry": { "type": "LineString", "coordinates": [ [ 529020.0, 7261555.756988408043981 ], [ 529020.0, 7261562.086809693835676 ], [ 529020.0, 7261570.546306264586747 ], [ 529020.0, 7261580.099214585497975 ], [ 529020.0, 7261590.012066387571394 ], [ 529020.0, 7261600.0 ], [ 529020.0, 7261609.987933613359928 ], [ 529020.0, 7261619.900785414502025 ], [ 529020.0, 7261629.453693736344576 ], [ 529020.0, 7261637.913190307095647 ], [ 529020.0, 7261644.243011591956019 ] ] } },
{ "type": "Feature", "properties": { "id": 1, "reference_id": 1, "dune_id": 1, "dune_name": "Big Mommy Dune", "acquisition_date": "2018-05-22", "length_m": 535.06238616698363 }, "geometry": { "type": "LineString", "coordinates": [ [ 529180.0, 7261015.756988408043981 ], [ 529180.0, 7261022.086809692904353 ], [ 529180.0, 7261030.546306265518069 ], [ 529180.0, 7261040.099214586429298 ], [ 529180.0, 7261050.012066387571394 ], [ 529179.999107789364643, 7261060.000892210751772 ], [ 529179.988825823529623, 7261070.0 ], [ 529179.912851801607758, 7261080.0 ], [ 529179.552908320794813, 7261090.0 ], [ 529178.458604360581376, 7261100.0 ], [ 529176.318647109321319, 7261110.0 ], [ 529173.583030515816063, 7261120.000000000931323 ], [ 529171.092519538942724, 7261130.0 ], [ 529168.895414074067958, 7261140.0 ], [ 529166.329821285791695, 7261150.0 ], [ 529163.233369000954553, 7261160.0 ], [ 529159.989718034281395, 7261170.0 ], [ 529156.688872555969283, 7261180.0 ], [ 529153.299061057041399, 7261190.0 ], [ 529149.923133767442778, 7261200.0 ], [ 529146.319539319956675, 7261210.000000000931323 ], [ 529142.129675285425037, 7261220.0 ], [ 529137.433515001088381, 7261230.0 ], [ 529132.566484998911619, 7261240.0 ], [ 529127.869432503939606, 7261250.0 ], [ 529123.670178714208305, 7261260.0 ], [ 529120.000000000116415, 7261270.0 ], [ 529116.329821285791695, 7261280.0 ], [ 529112.130567496176809, 7261290.0 ], [ 529107.433515001088381, 7261300.0 ], [ 529102.566484998911619, 7261310.000000000931323 ], [ 529097.870324714574963, 7261320.0 ], [ 529093.680460680043325, 7261330.0 ], [ 529090.076866232673638, 7261340.0 ], [ 529086.700046732323244, 7261350.0 ], [ 529083.299953267676756, 7261360.0 ], [ 529079.924025977961719, 7261370.0 ], [ 529076.329821285791695, 7261380.0 ], [ 529072.205649307463318, 7261390.0 ], [ 529067.794350692536682, 7261400.0 ], [ 529063.670178714208305, 7261410.0 ], [ 529060.075974022038281, 7261420.0 ], [ 529056.700938943075016, 7261430.0 ], [ 529053.310235233511776, 7261440.0 ], [ 529050.0, 7261450.0 ], [ 529046.690656977239996, 7261460.0 ], [ 529043.31023523339536, 7261470.000000000931323 ], [ 529040.011174176470377, 7261479.999107789248228 ], [ 529036.777805175632238, 7261489.987933613359928 ], [ 529033.757326912600547, 7261499.900785414502025 ], [ 529031.551677605253644, 7261509.453693735413253 ], [ 529030.447983889840543, 7261517.913190307095647 ], [ 529030.087148198508658, 7261524.243011592887342 ] ] } },
{ "type": "Feature", "properties": { "id": 2, "reference_id": 1, "dune_id": 1, "dune_name": "Big Mommy Dune", "acquisition_date": "2018-05-22", "length_m": 512.30052057712783 }, "geometry": { "type": "LineString", "coordinates": [ [ 529109.912851801607758, 7261825.756988408043981 ], [ 529109.552908320794813, 7261832.086809693835676 ], [ 529108.458604360581376, 7261840.546306265518069 ], [ 529106.317754898685962, 7261850.099214585497975 ], [ 529103.571856339345686, 7261860.012066387571394 ], [ 529101.005371340434067, 7261870.000892210751772 ], [ 529098.447430184110999, 7261880.0 ], [ 529094.778143680654466, 7261890.0 ], [ 529089.476042088121176, 7261900.0 ], [ 529083.212805069284514, 7261910.0 ], [ 529076.688872555852868, 7261920.0 ], [ 529070.075081811286509, 7261930.0 ], [ 529063.670178714208305, 7261940.0 ], [ 529057.794350692536682, 7261950.0 ], [ 529052.206541518098675, 7261960.0 ], [ 529046.3401032515103, 7261970.0 ], [ 529040.000892210751772, 7261980.0 ], [ 529033.671070924960077, 7261990.0 ], [ 529027.880606680409983, 7262000.0 ], [ 529022.653633197303861, 7262010.0 ], [ 529017.881498890928924, 7262020.0 ], [ 529013.681352890795097, 7262030.0 ], [ 529010.076866232673638, 7262040.0 ], [ 529006.700046732323244, 7262050.0 ], [ 529003.299061057041399, 7262060.0 ], [ 528999.912851801607758, 7262070.0 ], [ 528996.242673087399453, 7262080.0 ], [ 528991.758557628258131, 7262090.0 ], [ 528986.252955053118058, 7262100.0 ], [ 528979.988825823646039, 7262110.0 ], [ 528973.658112327102572, 7262120.0 ], [ 528967.782284305430949, 7262129.999107789248228 ], [ 528962.118501109071076, 7262139.9888258241117 ], [ 528955.881837395951152, 7262149.912851801142097 ], [ 528948.37234837282449, 7262159.552908320911229 ], [ 528939.541734144440852, 7262168.458604360930622 ], [ 528929.911959590972401, 7262176.318647108972073 ], [ 528919.988825823529623, 7262183.583030516281724 ], [ 528909.999107789248228, 7262191.092519538477063 ], [ 528900.0, 7262198.895414073951542 ], [ 528890.0, 7262206.328929075039923 ], [ 528880.000892210751772, 7262213.222194824367762 ], [ 528870.012066387105733, 7262219.901677625253797 ], [ 528860.099214585614391, 7262226.23060670029372 ], [ 528850.546306264819577, 7262231.670517219230533 ], [ 528842.086809693370014, 7262235.794689197093248 ], [ 528835.756988407694735, 7262238.361174196004868 ] ] } },
{ "type": "Feature", "properties": { "id": 3, "reference_id": 8, "dune_id": 8, "dune_name": "Inverted Y Dune", "acquisition_date": "2018-05-22", "length_m": 429.27949068706027 }, "geometry": { "type": "LineString", "coordinates": [ [ 530264.243011592421681, 7261221.638825803995132 ], [ 530257.913190306629986, 7261224.205310802906752 ], [ 530249.453693735180423, 7261228.329482780769467 ], [ 530239.900785414502025, 7261233.76939329970628 ], [ 530229.987933612777852, 7261240.099214585497975 ], [ 530220.0, 7261246.788979351520538 ], [ 530210.011174176470377, 7261253.75821912381798 ], [ 530200.087148198392242, 7261261.551677605137229 ], [ 530190.447983889840543, 7261270.447983890771866 ], [ 530181.552569815889001, 7261280.087148198857903 ], [ 530173.768501089187339, 7261290.0111741758883 ], [ 530166.864953374140896, 7261300.000892210751772 ], [ 530160.45915806631092, 7261310.000000000931323 ], [ 530154.861912838649005, 7261320.0 ], [ 530150.447983889840543, 7261330.0 ], [ 530146.777805175632238, 7261340.0 ], [ 530143.320517199346796, 7261350.0 ], [ 530140.000892210751772, 7261360.0 ], [ 530136.690656977239996, 7261370.0 ], [ 530133.310235233511776, 7261380.0 ], [ 530130.01028196583502, 7261390.0 ], [ 530126.766630999278277, 7261400.0 ], [ 530123.670178714208305, 7261410.0 ], [ 530121.104585926048458, 7261420.0 ], [ 530118.907480461173691, 7261430.0 ], [ 530116.416969484300353, 7261440.0 ], [ 530113.680460680043325, 7261450.0 ], [ 530111.530221462948248, 7261460.0 ], [ 530110.359943480812944, 7261470.000000000931323 ], [ 530109.640056519303471, 7261480.0 ], [ 530108.470670747803524, 7261490.0 ], [ 530106.330713496543467, 7261500.0 ], [ 530103.670178714208305, 7261510.0 ], [ 530101.540503428783268, 7261520.0 ], [ 530100.447091679205187, 7261530.0 ], [ 530100.086702093132772, 7261539.999553894624114 ], [ 530100.005587088293396, 7261549.993520701304078 ], [ 530099.957318111439236, 7261559.944359513930976 ], [ 530099.776454160455614, 7261569.6772395754233 ], [ 530099.229748285608366, 7261578.683442020788789 ], [ 530098.164910642895848, 7261586.078100949525833 ], [ 530096.835089357104152, 7261591.078100949525833 ] ] } },
{ "type": "Feature", "properties": { "id": 4, "reference_id": 8, "dune_id": 8, "dune_name": "Inverted Y Dune", "acquisition_date": "2018-05-22", "length_m": 58.578493066226351 }, "geometry": { "type": "LineString", "coordinates": [ [ 530505.756988407694735, 7261208.00033850595355 ], [ 530512.085917482851073, 7261204.690995481796563 ], [ 530520.534239877597429, 7261199.465760122984648 ], [ 530530.0, 7261193.223087035119534 ], [ 530539.465760122402571, 7261186.776912964880466 ], [ 530547.914082517265342, 7261180.534239877015352 ], [ 530554.243011592305265, 7261175.309004518203437 ] ] } },
{ "type": "Feature", "properties": { "id": 5, "reference_id": 9, "dune_id": 9, "dune_name": "Inverted Y Dune", "acquisition_date": "2018-05-22", "length_m": 181.54010435974308 }, "geometry": { "type": "LineString", "coordinates": [ [ 529671.551677605253644, 7262174.243011591956019 ], [ 529673.758219123352319, 7262167.913190307095647 ], [ 529676.788087141467258, 7262159.453693735413253 ], [ 529680.088040409144014, 7262149.900785414502025 ], [ 529683.681352890678681, 7262139.987933613359928 ], [ 529687.871216925210319, 7262129.999107789248228 ], [ 529692.576766964630224, 7262120.0 ], [ 529697.509489023126662, 7262110.0 ], [ 529702.490510976873338, 7262100.0 ], [ 529707.423233035369776, 7262090.0 ], [ 529712.128783074789681, 7262080.0 ], [ 529716.31953932007309, 7262070.0 ], [ 529719.923133767442778, 7262060.0 ], [ 529723.299061057041399, 7262050.000892210751772 ], [ 529726.688872555852868, 7262040.012066386640072 ], [ 529729.988825823529623, 7262030.099214585497975 ], [ 529733.222194824367762, 7262020.546306265518069 ], [ 529736.242673087399453, 7262012.086809693835676 ], [ 529738.448322394862771, 7262005.756988408043981 ] ] } },
{ "type": "Feature", "properties": { "id": 6, "reference_id": 9, "dune_id": 9, "dune_name": "Inverted Y Dune", "acquisition_date": "2018-05-22", "length_m": 507.53842648750896 }, "geometry": { "type": "LineString", "coordinates": [ [ 530091.078100949525833, 7261598.921006839722395 ], [ 530086.078100949409418, 7261603.910724874585867 ], [ 530078.683442020905204, 7261611.228517569601536 ], [ 530069.677239574841224, 7261619.864494569599628 ], [ 530059.944359513698146, 7261628.427096649073064 ], [ 530049.993520701071247, 7261635.878034729510546 ], [ 530039.999553894624114, 7261642.042973192408681 ], [ 530030.0, 7261647.422340825200081 ], [ 530020.0, 7261652.565592788159847 ], [ 530010.0, 7261657.870324715040624 ], [ 530000.0, 7261663.681352891027927 ], [ 529990.0, 7261670.087148198857903 ], [ 529980.0, 7261676.776912964880466 ], [ 529970.0, 7261683.671070925891399 ], [ 529960.0, 7261691.10458592697978 ], [ 529950.0, 7261698.907480461522937 ], [ 529940.0, 7261706.416969484649599 ], [ 529930.0, 7261713.681352891027927 ], [ 529920.0, 7261721.541395640000701 ], [ 529910.0, 7261730.447091680020094 ], [ 529900.0, 7261740.087148198857903 ], [ 529890.0, 7261750.011174176819623 ], [ 529880.0, 7261760.000892210751772 ], [ 529870.000892210751772, 7261770.0 ], [ 529860.011174176470377, 7261780.0 ], [ 529850.087148198392242, 7261790.0 ], [ 529840.447983889840543, 7261800.0 ], [ 529831.551677605137229, 7261810.0 ], [ 529823.758219123352319, 7261820.0 ], [ 529816.788087141467258, 7261830.0 ], [ 529810.088040409144014, 7261840.000000000931323 ], [ 529803.682245101314038, 7261850.0 ], [ 529797.882391101680696, 7261860.0 ], [ 529792.663915163138881, 7261870.0 ], [ 529787.957472912967205, 7261880.0 ], [ 529784.042188582126983, 7261890.0 ], [ 529781.180559948086739, 7261900.0 ], [ 529778.906588250538334, 7261910.0 ], [ 529776.330713496543467, 7261919.999107790179551 ], [ 529773.234261211473495, 7261929.987933613359928 ], [ 529770.000892210751772, 7261939.900785414502025 ], [ 529766.776912964996882, 7261949.453693736344576 ], [ 529763.757326912600547, 7261957.913190307095647 ], [ 529761.551677605137229, 7261964.243011592887342 ] ] } },
{ "type": "Feature", "properties": { "id": 7, "reference_id": 3, "dune_id": 3, "dune_name": "Big Mommy Dune", "acquisition_date": "2018-05-22", "length_m": 357.03057218599156 }, "geometry": { "type": "LineString", "coordinates": [ [ 529374.243011592305265, 7260695.756988408043981 ], [ 529367.91319030651357, 7260702.086809693835676 ], [ 529359.453693735180423, 7260710.546306265518069 ], [ 529349.900785414502025, 7260720.099214585497975 ], [ 529339.988825823529623, 7260730.012066388502717 ], [ 529330.01028196583502, 7260740.000892210751772 ], [ 529320.087148198508658, 7260750.0 ], [ 529310.447983889956959, 7260760.0 ], [ 529301.551677605253644, 7260770.0 ], [ 529293.757326912600547, 7260780.000000000931323 ], [ 529286.777805175632238, 7260790.0 ], [ 529280.011174176470377, 7260800.0 ], [ 529273.310235233511776, 7260810.0 ], [ 529266.690656977239996, 7260820.0 ], [ 529260.0, 7260830.0 ], [ 529253.310235233511776, 7260840.0 ], [ 529246.700938943075016, 7260850.0 ], [ 529240.075974021921866, 7260860.0 ], [ 529233.670178714208305, 7260870.0 ], [ 529227.794350692536682, 7260880.0 ], [ 529222.206541518098675, 7260890.0 ], [ 529216.340103251626715, 7260900.0 ], [ 529210.0, 7260910.0 ], [ 529203.659004537737928, 7260920.0 ], [ 529197.782730410690419, 7260929.999107789248228 ], [ 529192.124980407999828, 7260939.987933613359928 ], [ 529185.937477882369421, 7260949.900785415433347 ], [ 529178.695108798099682, 7260959.453693736344576 ], [ 529170.858292123419233, 7260967.913190307095647 ], [ 529163.833858641446568, 7260974.243011591956019 ], [ 529158.910724874120206, 7260977.913190307095647 ] ] } },
{ "type": "Feature", "properties": { "id": 8, "reference_id": 3, "dune_id": 3, "dune_name": "Big Mommy Dune", "acquisition_date": "2018-05-22", "length_m": 214.99929676925939 }, "geometry": { "type": "LineString", "coordinates": [ [ 529405.756988407694735, 7260679.552016109228134 ], [ 529412.08680969348643, 7260678.448322394862771 ], [ 529420.546306264819577, 7260676.242673087865114 ], [ 529430.099214585614391, 7260673.223087035119534 ], [ 529440.012066387222148, 7260669.999107789248228 ], [ 529450.000892210751772, 7260666.765738788992167 ], [ 529460.0, 7260663.670178714208305 ], [ 529470.0, 7260661.103693716228008 ], [ 529480.0, 7260658.896306285634637 ], [ 529490.0, 7260656.329821285791695 ], [ 529500.000000000116415, 7260653.234261211939156 ], [ 529510.0, 7260650.000892210751772 ], [ 529520.0, 7260646.776020754128695 ], [ 529530.0, 7260643.746152736246586 ], [ 529540.0, 7260641.464529407210648 ], [ 529550.0, 7260640.000892210751772 ], [ 529560.0, 7260638.546644769608974 ], [ 529569.999107789248228, 7260636.340995462611318 ], [ 529579.987933612894267, 7260633.671070925891399 ], [ 529589.900785414502025, 7260631.540503429248929 ], [ 529599.453693735180423, 7260630.447091680020094 ], [ 529607.91319030651357, 7260630.087148198857903 ], [ 529614.243011592421681, 7260630.011174176819623 ] ] } },
{ "type": "Feature", "properties": { "id": 9, "reference_id": 3, "dune_id": 3, "dune_name": "Big Mommy Dune", "acquisition_date": "2018-05-22", "length_m": 58.486023184610531 }, "geometry": { "type": "LineString", "coordinates": [ [ 529704.243011592305265, 7260620.0 ], [ 529697.91319030651357, 7260620.0 ], [ 529689.454585945932195, 7260620.0 ], [ 529679.912851801607758, 7260620.0 ], [ 529670.087148198508658, 7260620.0 ], [ 529660.545414054067805, 7260620.0 ], [ 529652.08680969348643, 7260620.0 ], [ 529645.756988407694735, 7260620.0 ] ] } },
{ "type": "Feature", "properties": { "id": 10, "reference_id": 3, "dune_id": 3, "dune_name": "Big Mommy Dune", "acquisition_date": "2018-05-22", "length_m": 168.48602318461053 }, "geometry": { "type": "LineString", "coordinates": [ [ 529745.756988407694735, 7260610.0 ], [ 529752.08680969348643, 7260610.0 ], [ 529760.546306264819577, 7260610.0 ], [ 529770.099214585614391, 7260610.0 ], [ 529780.012066387105733, 7260610.0 ], [ 529790.000892210751772, 7260610.0 ], [ 529800.0, 7260610.0 ], [ 529810.0, 7260610.0 ], [ 529820.0, 7260610.0 ], [ 529830.0, 7260610.0 ], [ 529840.0, 7260610.0 ], [ 529850.0, 7260610.0 ], [ 529860.0, 7260610.0 ], [ 529869.999107789364643, 7260610.0 ], [ 529879.987933612894267, 7260610.0 ], [ 529889.900785414385609, 7260610.0 ], [ 529899.453693735296838, 7260610.0 ], [ 529907.91319030651357, 7260610.0 ], [ 529914.243011592305265, 7260610.0 ] ] } },
{ "type": "Feature", "properties": { "id": 11, "reference_id": 3, "dune_id": 3, "dune_name": "Big Mommy Dune", "acquisition_date": "2018-05-22", "length_m": 88.486023184610531 }, "geometry": { "type": "LineString", "coordinates": [ [ 530044.243011592305265, 7260610.0 ], [ 530037.91319030651357, 7260610.0 ], [ 530029.453693735180423, 7260610.0 ], [ 530019.900785414502025, 7260610.0 ], [ 530009.987933612894267, 7260610.0 ], [ 530000.0, 7260610.0 ], [ 529990.012066387222148, 7260610.0 ], [ 529980.099214585614391, 7260610.0 ], [ 529970.546306264703162, 7260610.0 ], [ 529962.086809693602845, 7260610.0 ], [ 529955.756988407694735, 7260610.0 ] ] } },
{ "type": "Feature", "properties": { "id": 12, "reference_id": 3, "dune_id": 3, "dune_name": "Big Mommy Dune", "acquisition_date": "2018-05-22", "length_m": 171.72700753012251 }, "geometry": { "type": "LineString", "coordinates": [ [ 530244.243011592421681, 7260570.087148198857903 ], [ 530237.91319030651357, 7260570.447091680020094 ], [ 530229.453693735180423, 7260571.541395640000701 ], [ 530219.900785414385609, 7260573.681352891027927 ], [ 530209.987933612894267, 7260576.416969484649599 ], [ 530199.999107789248228, 7260578.906588250771165 ], [ 530190.0, 7260581.093411750160158 ], [ 530180.0, 7260583.583922727033496 ], [ 530170.000000000116415, 7260586.329821285791695 ], [ 530160.0, 7260588.545752558857203 ], [ 530150.0, 7260590.0 ], [ 530140.0, 7260591.453355230391026 ], [ 530130.0, 7260593.659004537388682 ], [ 530120.000892210751772, 7260596.328929075039923 ], [ 530110.012066387222148, 7260598.459496571682394 ], [ 530100.099214585614391, 7260599.552908321842551 ], [ 530090.546306264819577, 7260599.912851802073419 ], [ 530082.08680969348643, 7260599.9888258241117 ], [ 530075.756988407694735, 7260599.999107789248228 ] ] } },
{ "type": "Feature", "properties": { "id": 13, "reference_id": 2, "dune_id": 2, "dune_name": "Big Mommy Dune", "acquisition_date": "2018-05-22", "length_m": 801.26287568000021 }, "geometry": { "type": "LineString", "coordinates": [ [ 529151.078100949409418, 7260978.448322394862771 ], [ 529146.078100949409418, 7260976.241780877113342 ], [ 529138.683442020905204, 7260973.211912859231234 ], [ 529129.677239574841224, 7260969.911959590390325 ], [ 529119.944359513698146, 7260966.318647108972073 ], [ 529109.993520701071247, 7260962.129675285890698 ], [ 529099.999553894624114, 7260957.433515002019703 ], [ 529090.0, 7260952.566484998911619 ], [ 529080.0, 7260947.870324715040624 ], [ 529070.0, 7260943.680460680276155 ], [ 529060.0, 7260940.076866232790053 ], [ 529050.0, 7260936.700938942842185 ], [ 529040.0, 7260933.311127443797886 ], [ 529030.0, 7260930.010281965136528 ], [ 529020.0, 7260926.766630999743938 ], [ 529010.0, 7260923.670178715139627 ], [ 529000.0, 7260921.104585926048458 ], [ 528990.0, 7260918.906588250771165 ], [ 528980.0, 7260916.405795307829976 ], [ 528970.0, 7260913.594204692170024 ], [ 528960.0, 7260911.094303959980607 ], [ 528950.0, 7260908.905696040019393 ], [ 528940.0, 7260906.405795308761299 ], [ 528930.0, 7260903.594204693101346 ], [ 528920.0, 7260901.093411750160158 ], [ 528910.0, 7260898.895414073951542 ], [ 528900.0, 7260896.329821285791695 ], [ 528890.0, 7260893.234261211939156 ], [ 528880.0, 7260890.0 ], [ 528870.0, 7260886.765738788992167 ], [ 528860.0, 7260883.669286504387856 ], [ 528850.0, 7260881.093411750160158 ], [ 528840.0, 7260878.820332262665033 ], [ 528830.0, 7260875.968985594809055 ], [ 528820.0, 7260872.129675285890698 ], [ 528810.0, 7260867.784068727865815 ], [ 528800.0, 7260863.669286504387856 ], [ 528790.0, 7260860.075974022969604 ], [ 528780.0, 7260856.700938942842185 ], [ 528770.0, 7260853.310235233046114 ], [ 528760.0, 7260850.0 ], [ 528750.0, 7260846.689764766022563 ], [ 528740.0, 7260843.299061057157815 ], [ 528730.0, 7260839.92313376814127 ], [ 528720.0, 7260836.319539319723845 ], [ 528710.0, 7260832.128783075138927 ], [ 528700.0, 7260827.423233035951853 ], [ 528690.0, 7260822.489618766121566 ], [ 528680.0, 7260817.499207057058811 ], [ 528670.0, 7260812.499900732189417 ], [ 528660.0, 7260807.500099267810583 ], [ 528650.0, 7260802.499900732189417 ], [ 528640.0, 7260797.499207057990134 ], [ 528630.0, 7260792.489618767052889 ], [ 528620.0, 7260787.423233035951853 ], [ 528610.0, 7260782.128783075138927 ], [ 528600.0, 7260776.319539319723845 ], [ 528590.0, 7260769.923133767209947 ], [ 528580.0, 7260763.299061057157815 ], [ 528570.0, 7260756.689764766953886 ], [ 528560.0, 7260750.0 ], [ 528550.0, 7260743.309343023225665 ], [ 528540.0, 7260736.689764766953886 ], [ 528530.0, 7260729.989718034863472 ], [ 528520.0, 7260723.233369001187384 ], [ 528510.0, 7260716.329821286723018 ], [ 528500.0, 7260708.896306284703314 ], [ 528490.0, 7260701.103693716228008 ], [ 528480.0, 7260693.670178715139627 ], [ 528470.000892210751772, 7260686.766630999743938 ], [ 528460.012066387105733, 7260680.0111741758883 ], [ 528450.099214585614391, 7260673.322301620617509 ], [ 528440.546306264819577, 7260666.788979352451861 ], [ 528432.08680969348643, 7260660.535132088698447 ], [ 528425.756988407694735, 7260655.309004518203437 ] ] } },
{ "type": "Feature", "properties": { "id": 14, "reference_id": 7, "dune_id": 7, "dune_name": "Inverted Y Dune", "acquisition_date": "2018-05-22", "length_m": 544.23591503393163 }, "geometry": { "type": "LineString", "coordinates": [ [ 530135.756988407694735, 7261650.0 ], [ 530142.08680969348643, 7261650.0 ], [ 530150.546306264819577, 7261650.0 ], [ 530160.099214585614391, 7261650.0 ], [ 530170.012066387222148, 7261650.0 ], [ 530180.000892210751772, 7261650.0 ], [ 530190.0, 7261650.0 ], [ 530200.0, 7261650.0 ], [ 530210.0, 7261650.0 ], [ 530220.0, 7261649.999107790179551 ], [ 530230.0, 7261649.9888258241117 ], [ 530240.0, 7261649.912851802073419 ], [ 530250.0, 7261649.552908321842551 ], [ 530260.0, 7261648.458604361861944 ], [ 530270.0, 7261646.318647109903395 ], [ 530280.0, 7261643.583030516281724 ], [ 530290.0, 7261641.092519538477063 ], [ 530300.0, 7261638.895414074882865 ], [ 530310.0, 7261636.328929075971246 ], [ 530320.0, 7261633.223087035119534 ], [ 530330.0, 7261629.913744011893868 ], [ 530340.0, 7261626.328929075039923 ], [ 530350.0, 7261622.205649307928979 ], [ 530360.0, 7261617.793458482250571 ], [ 530370.0, 7261613.659004538320005 ], [ 530380.0, 7261609.9888258241117 ], [ 530390.0, 7261606.252955053001642 ], [ 530400.0, 7261601.758557628840208 ], [ 530410.0, 7261596.241780877113342 ], [ 530420.0, 7261589.901677625253797 ], [ 530430.000000000116415, 7261583.211020648479462 ], [ 530440.0, 7261576.241780877113342 ], [ 530450.0, 7261568.448322394862771 ], [ 530460.0, 7261559.552016111090779 ], [ 530469.999107789364643, 7261549.912851801142097 ], [ 530479.988825823529623, 7261539.9888258241117 ], [ 530489.912851801607758, 7261529.999107789248228 ], [ 530499.552016110159457, 7261520.0 ], [ 530508.448322394862771, 7261510.0 ], [ 530516.242673087399453, 7261500.0 ], [ 530523.222194824367762, 7261490.0 ], [ 530529.988825823529623, 7261480.0 ], [ 530536.689764766488224, 7261470.000000000931323 ], [ 530543.31023523339536, 7261460.0 ], [ 530550.01028196583502, 7261450.000892210751772 ], [ 530556.765738788526505, 7261440.012066387571394 ], [ 530563.658112327102572, 7261430.099214585497975 ], [ 530571.005371340434067, 7261420.546306264586747 ], [ 530578.361174196470529, 7261412.086809693835676 ], [ 530584.330159790813923, 7261405.756988408043981 ] ] } }
]
}
