{
"type": "FeatureCollection",
"name": "crests_2019_10_2019-10-02",
"crs": { "type": "name", "properties": { "name": "urn:ogc:def:crs:EPSG::32733" } },
"features": [
{ "type": "Feature", "properties": { "id": 0, "reference_id": 5, "dune_id": 5, "dune_name": "The Star Dune", "acquisition_date": "2019-10-02", "length_m": 611.61602767756085 }, "geometry": { "type": "LineString", "coordinates": [ [ 533657.293355212779716, 7262041.078100949525833 ], [ 533659.793454480706714, 7262036.078100949525833 ], [ 533663.359085066244006, 7262028.683442020788789 ], [ 533667.745101249776781, 7262019.677239574491978 ], [ 533672.621233274578117, 7262009.944359513930976 ], [ 533677.875911802751943, 7261999.993520701304078 ], [ 533683.670624819584191, 7261989.999553894624114 ], [ 533690.0, 7261980.0 ], [ 533696.32982128590811, 7261970.0 ], [ 533702.129675285541452, 7261960.0 ], [ 533707.423233035369776, 7261950.0 ], [ 533712.489618766237982, 7261940.0 ], [ 533717.49831484653987, 7261930.0 ], [ 533722.489618766237982, 7261920.0 ], [ 533727.423233035253361, 7261910.0 ], [ 533732.128783074906096, 7261900.0 ], [ 533736.318647109437734, 7261890.0 ], [ 533739.912851801607758, 7261880.0 ], [ 533743.223087035003118, 7261870.0 ], [ 533746.329821285791695, 7261860.0 ], [ 533748.907480461173691, 7261850.0 ], [ 533751.1917341244407, 7261840.000000000931323 ], [ 533754.129336780519225, 7261830.0 ], [ 533758.405456802807748, 7261820.000892210751772 ], [ 533764.21559276827611, 7261810.011174177750945 ], [ 533771.639718014281243, 7261800.087148198857903 ], [ 533780.45915806631092, 7261790.447983890771866 ], [ 533790.088040409144014, 7261781.552569815889001 ], [ 533800.011174176470377, 7261773.768501089885831 ], [ 533810.000892210635357, 7261766.864953374490142 ], [ 533820.0, 7261760.458265855908394 ], [ 533830.0, 7261754.851630872115493 ], [ 533840.0, 7261750.37111765705049 ], [ 533850.0, 7261746.406687518581748 ], [ 533860.0, 7261742.139957251027226 ], [ 533870.0, 7261737.424125246703625 ], [ 533880.0, 7261732.489618767052889 ], [ 533890.0, 7261727.499207057058811 ], [ 533900.0, 7261722.500792942941189 ], [ 533910.0, 7261717.511273444630206 ], [ 533920.0, 7261712.587048930115998 ], [ 533930.0, 7261707.947190947830677 ], [ 533940.0, 7261704.041296372190118 ], [ 533950.0, 7261701.181452158838511 ], [ 533960.0, 7261698.916870215907693 ], [ 533970.0, 7261696.406687518581748 ], [ 533980.0, 7261693.594204692170024 ], [ 533990.0, 7261691.094303959980607 ], [ 534000.0, 7261688.906588250771165 ], [ 534010.0, 7261686.416969483718276 ], [ 534020.0, 7261683.681352891027927 ], [ 534030.0, 7261681.540503429248929 ], [ 534039.999107789248228, 7261680.435917503200471 ], [ 534049.987933612894267, 7261680.0 ], [ 534059.900785414385609, 7261679.564082497730851 ], [ 534069.453693735296838, 7261678.460388781502843 ], [ 534077.91319030651357, 7261676.329821285791695 ], [ 534084.243011592421681, 7261673.670178714208305 ] ] } },
{ "type": "Feature", "properties": { "id": 1, "reference_id": 5, "dune_id": 5, "dune_name": "The Star Dune", "acquisition_date": "2019-10-02", "length_m": 212.84555957536767 }, "geometry": { "type": "LineString", "coordinates": [ [ 534115.756988407578319, 7261676.329821285791695 ], [ 534122.08680969348643, 7261673.669286503456533 ], [ 534130.546306264819577, 7261671.529329252429307 ], [ 534140.099214585614391, 7261670.359051270410419 ], [ 534150.012066387105733, 7261669.627990132197738 ], [ 534160.000892210751772, 7261668.37234837282449 ], [ 534170.0, 7261665.79558140784502 ], [ 534180.0, 7261661.671409429982305 ], [ 534190.0, 7261656.241780877113342 ], [ 534200.0, 7261649.987933613359928 ], [ 534210.0, 7261643.659004538320005 ], [ 534220.0, 7261637.793458482250571 ], [ 534230.0, 7261632.205649307928979 ], [ 534240.0, 7261626.329821285791695 ], [ 534250.0, 7261619.924025978893042 ], [ 534259.999107789248228, 7261613.299953267909586 ], [ 534269.987933612894267, 7261606.700938943773508 ], [ 534279.900785414502025, 7261600.088040409609675 ], [ 534289.453693735180423, 7261593.768501088954508 ], [ 534297.913190306629986, 7261588.329482780769467 ], [ 534304.243011592305265, 7261584.205310802906752 ] ] } },
{ "type": "Feature", "properties": { "id": 2, "reference_id": 5, "dune_id": 5, "dune_name": "The Star Dune", "acquisition_date": "2019-10-02", "length_m": 142.95685819486118 }, "geometry": { "type": "LineString", "coordinates": [ [ 534334.789317857124843, 7261305.756988408043981 ], [ 534330.0, 7261312.086809693835676 ], [ 534325.210682142991573, 7261320.546306264586747 ], [ 534321.987595107872039, 7261330.099214585497975 ], [ 534320.534239877597429, 7261340.012066386640072 ], [ 534320.098322374862619, 7261350.000892210751772 ], [ 534320.012958597857505, 7261360.0 ], [ 534320.012066387105733, 7261370.0 ], [ 534320.087148198392242, 7261380.0 ], [ 534320.447091679205187, 7261390.0 ], [ 534321.540503428666852, 7261399.999107789248228 ], [ 534323.670178714208305, 7261409.987933613359928 ], [ 534326.329821285791695, 7261419.900785414502025 ], [ 534328.459496571333148, 7261429.453693736344576 ], [ 534329.552908320794813, 7261437.913190307095647 ], [ 534329.912851801607758, 7261444.243011591956019 ] ] } },
{ "type": "Feature", "properties": { "id": 3, "reference_id": 1, "dune_id": 1, "dune_name": "Big Mommy Dune", "acquisition_date": "2019-10-02", "length_m": 68.486023184843361 }, "geometry": { "type": "LineString", "coordinates": [ [ 529020.0, 7261555.756988408043981 ], [ 529020.0, 7261562.086809693835676 ], [ 529020.0, 7261570.546306264586747 ], [ 529020.0, 7261580.098322374746203 ], [ 529020.0, 7261590.0 ], [ 529020.0, 7261599.901677625253797 ], [ 529020.0, 7261609.453693735413253 ], [ 529020.0, 7261617.913190307095647 ], [ 529020.0, 7261624.243011592887342 ] ] } },
{ "type": "Feature", "properties": { "id": 4, "reference_id": 1, "dune_id": 1, "dune_name": "Big Mommy Dune", "acquisition_date": "2019-10-02", "length_m": 135.57074771773856 }, "geometry": { "type": "LineString", "coordinates": [ [ 529088.448322394862771, 7261345.756988408043981 ], [ 529086.241780876647681, 7261352.086809692904353 ], [ 529083.211912858532742, 7261360.546306265518069 ], [ 529079.912851801607758, 7261370.099214585497975 ], [ 529076.328929075039923, 7261380.012066387571394 ], [ 529072.205649307463318, 7261390.000892210751772 ], [ 529067.794350692536682, 7261400.0 ], [ 529063.670178714208305, 7261410.0 ], [ 529060.076866232673638, 7261420.0 ], [ 529056.712113119428977, 7261429.999107789248228 ], [ 529053.398275642539375, 7261439.987933613359928 ], [ 529050.458265855675563, 7261449.900785414502025 ], [ 529048.318308604415506, 7261459.453693734481931 ], [ 529047.427505626808852, 7261467.913190307095647 ], [ 529047.881498890928924, 7261474.243011592887342 ] ] } },
{ "type": "Feature", "properties": { "id": 5, "reference_id": 1, "dune_id": 1, "dune_name": "Big Mommy Dune", "acquisition_date": "2019-10-02", "length_m": 261.68130296955098 }, "geometry": { "type": "LineString", "coordinates": [ [ 529111.551677605253644, 7261304.243011591956019 ], [ 529113.758219123352319, 7261297.913190307095647 ], [ 529116.788087141467258, 7261289.453693736344576 ], [ 529120.088040409144014, 7261279.900785414502025 ], [ 529123.681352890678681, 7261269.987933613359928 ], [ 529127.870324714574963, 7261259.999107789248228 ], [ 529132.566484998911619, 7261250.0 ], [ 529137.433515001088381, 7261240.0 ], [ 529142.129675285425037, 7261230.0 ], [ 529146.319539319956675, 7261220.0 ], [ 529149.923133767442778, 7261210.000000000931323 ], [ 529153.299061057041399, 7261200.0 ], [ 529156.68976476660464, 7261190.0 ], [ 529160.0, 7261180.0 ], [ 529163.309343022760004, 7261170.0 ], [ 529166.689764766488224, 7261160.0 ], [ 529169.988825823529623, 7261150.0 ], [ 529173.222194824367762, 7261140.0 ], [ 529176.24356529803481, 7261130.0 ], [ 529178.459496571333148, 7261120.000000000931323 ], [ 529179.639164308668114, 7261110.0 ], [ 529180.359943480812944, 7261100.000892210751772 ], [ 529181.529329252312891, 7261090.012066388502717 ], [ 529183.669286503572948, 7261080.099214585497975 ], [ 529186.329821285791695, 7261070.546306264586747 ], [ 529188.459496571333148, 7261062.086809693835676 ], [ 529189.552908320911229, 7261055.756988408043981 ] ] } },
{ "type": "Feature", "properties": { "id": 6, "reference_id": 1, "dune_id": 1, "dune_name": "Big Mommy Dune", "acquisition_date": "2019-10-02", "length_m": 484.45303906770459 }, "geometry": { "type": "LineString", "coordinates": [ [ 529109.54084193368908, 7261855.756988408043981 ], [ 529108.361174196354114, 7261862.086809693835676 ], [ 529105.79468919755891, 7261870.546306265518069 ], [ 529101.670517219230533, 7261880.099214585497975 ], [ 529096.23060670029372, 7261890.012066386640072 ], [ 529089.901677625020966, 7261900.000892210751772 ], [ 529083.222194824367762, 7261910.0 ], [ 529076.329821285791695, 7261920.0 ], [ 529068.906588250421919, 7261930.0 ], [ 529061.179667737334967, 7261940.0 ], [ 529054.031014405656606, 7261950.0 ], [ 529047.871216925210319, 7261960.0 ], [ 529042.227105449652299, 7261970.0 ], [ 529036.417861694935709, 7261980.0 ], [ 529030.372009867918678, 7261990.0 ], [ 529024.850738662178628, 7262000.0 ], [ 529020.447091679205187, 7262010.0 ], [ 529016.777805175632238, 7262020.0 ], [ 529013.320517199346796, 7262030.0 ], [ 529010.000892210751772, 7262040.0 ], [ 529006.68976476660464, 7262050.0 ], [ 529003.299061057041399, 7262060.0 ], [ 528999.923133767442778, 7262070.0 ], [ 528996.318647109437734, 7262080.0 ], [ 528992.118501108954661, 7262090.0 ], [ 528987.346366802696139, 7262100.0 ], [ 528982.118501109071076, 7262110.0 ], [ 528976.317754898685962, 7262120.0 ], [ 528969.911959590855986, 7262130.0 ], [ 528963.211912858532742, 7262139.999107789248228 ], [ 528956.241780876647681, 7262149.9888258241117 ], [ 528948.448322394862771, 7262159.911959590390325 ], [ 528939.552016110159457, 7262169.541734145022929 ], [ 528929.912851801607758, 7262178.37234837282449 ], [ 528919.988825823529623, 7262185.881837395951152 ], [ 528909.999107789248228, 7262192.118501109071076 ], [ 528900.0, 7262197.783176517114043 ], [ 528890.0, 7262203.669286503456533 ], [ 528880.000892210751772, 7262210.075081812217832 ], [ 528870.012066387105733, 7262216.688872556202114 ], [ 528860.099214585614391, 7262223.211912858299911 ], [ 528850.546306264819577, 7262229.464867912232876 ], [ 528842.086809693370014, 7262234.690995482727885 ], [ 528835.756988407694735, 7262238.000338505022228 ] ] } },
{ "type": "Feature", "properties": { "id": 7, "reference_id": 4, "dune_id": 4, "dune_name": "The Star Dune", "acquisition_date": "2019-10-02", "length_m": 655.78153907606963 }, "geometry": { "type": "LineString", "coordinates": [ [ 533005.756988407694735, 7261870.447091680020094 ], [ 533012.08680969348643, 7261871.540503429248929 ], [ 533020.546306264819577, 7261873.671070925891399 ], [ 533030.099214585614391, 7261876.340995462611318 ], [ 533040.012066387105733, 7261878.546644769608974 ], [ 533050.000892210751772, 7261880.0 ], [ 533060.0, 7261881.453355230391026 ], [ 533070.0, 7261883.659896748140454 ], [ 533080.0, 7261886.340103251859546 ], [ 533090.0, 7261888.546644769608974 ], [ 533100.0, 7261890.000892210751772 ], [ 533110.0, 7261891.464529407210648 ], [ 533120.0, 7261893.746152736246586 ], [ 533130.0, 7261896.776912964880466 ], [ 533140.0, 7261900.0111741758883 ], [ 533150.0, 7261903.310235233977437 ], [ 533160.0, 7261906.689764766953886 ], [ 533170.0, 7261909.989718034863472 ], [ 533180.0, 7261913.233369002118707 ], [ 533190.0, 7261916.329821286723018 ], [ 533200.0, 7261918.896306284703314 ], [ 533210.0, 7261921.103693716228008 ], [ 533220.0, 7261923.670178715139627 ], [ 533230.0, 7261926.766630999743938 ], [ 533240.0, 7261930.010281966067851 ], [ 533250.0, 7261933.310235233977437 ], [ 533260.0, 7261936.690656976774335 ], [ 533270.0, 7261940.0 ], [ 533280.0, 7261943.309343023225665 ], [ 533290.0, 7261946.689764766022563 ], [ 533300.0, 7261949.9888258241117 ], [ 533310.0, 7261953.223087035119534 ], [ 533320.0, 7261956.253847263753414 ], [ 533330.0, 7261958.535470593720675 ], [ 533340.0, 7261960.0 ], [ 533350.0, 7261961.464529408141971 ], [ 533360.0, 7261963.746152736246586 ], [ 533370.0, 7261966.776912965811789 ], [ 533380.000000000116415, 7261970.011174176819623 ], [ 533390.0, 7261973.310235233977437 ], [ 533400.000000000116415, 7261976.690656977705657 ], [ 533410.0, 7261980.0 ], [ 533420.0, 7261983.309343023225665 ], [ 533430.0, 7261986.690656976774335 ], [ 533440.0, 7261990.0 ], [ 533450.0, 7261993.310235233977437 ], [ 533460.0, 7261996.700938943773508 ], [ 533470.0, 7262000.075974022969604 ], [ 533480.0, 7262003.670178715139627 ], [ 533490.0, 7262007.795242903754115 ], [ 533500.0, 7262012.216823484748602 ], [ 533510.0, 7262016.416969484649599 ], [ 533520.0, 7262020.37111765705049 ], [ 533530.0, 7262024.839564485475421 ], [ 533540.0, 7262030.359051270410419 ], [ 533550.0, 7262036.318647109903395 ], [ 533560.0, 7262041.682583606801927 ], [ 533570.0, 7262045.806755585595965 ], [ 533579.999553894740529, 7262048.448322394862771 ], [ 533589.993520701071247, 7262049.987933613359928 ], [ 533599.94435951358173, 7262051.452463019639254 ], [ 533609.677239574841224, 7262053.659004538320005 ], [ 533618.683442020905204, 7262056.328929075971246 ], [ 533626.078100949409418, 7262058.459496572613716 ], [ 533631.078100949525833, 7262059.552908321842551 ] ] } },
{ "type": "Feature", "properties": { "id": 8, "reference_id": 6, "dune_id": 6, "dune_name": "The Star Dune", "acquisition_date": "2019-10-02", "length_m": 54.916103573326325 }, "geometry": { "type": "LineString", "coordinates": [ [ 533550.459158066427335, 7262884.243011591956019 ], [ 533551.638825803645886, 7262877.914082517847419 ], [ 533554.204418591805734, 7262869.465760122984648 ], [ 533558.317416393663734, 7262860.0 ], [ 533563.670178714208305, 7262850.534239877015352 ], [ 533569.552908320794813, 7262842.085917483083904 ], [ 533574.702169658732601, 7262835.756988408043981 ] ] } },
{ "type": "Feature", "properties": { "id": 9, "reference_id": 6, "dune_id": 6, "dune_name": "The Star Dune", "acquisition_date": "2019-10-02", "length_m": 451.39377663237178 }, "geometry": { "type": "LineString", "coordinates": [ [ 533679.912851801607758, 7262345.756988408043981 ], [ 533679.552908320911229, 7262352.086809693835676 ], [ 533678.458604360697791, 7262360.546306265518069 ], [ 533676.318647109437734, 7262370.099214585497975 ], [ 533673.583030515816063, 7262380.012066386640072 ], [ 533671.092519538942724, 7262390.000892210751772 ], [ 533668.895414073951542, 7262400.0 ], [ 533666.329821285791695, 7262410.0 ], [ 533663.234261211473495, 7262420.0 ], [ 533660.0, 7262430.0 ], [ 533656.765738788526505, 7262440.0 ], [ 533653.670178714208305, 7262450.0 ], [ 533651.103693715413101, 7262460.0 ], [ 533648.896306284703314, 7262470.0 ], [ 533646.329821285791695, 7262480.0 ], [ 533643.234261211473495, 7262490.0 ], [ 533640.000892210751772, 7262500.0 ], [ 533636.776020754361525, 7262510.0 ], [ 533633.746152736246586, 7262520.0 ], [ 533631.464529406744987, 7262530.0 ], [ 533630.0, 7262540.0 ], [ 533628.535470593255013, 7262550.0 ], [ 533626.253847263753414, 7262560.0 ], [ 533623.223979245638475, 7262570.0 ], [ 533620.0, 7262580.0 ], [ 533616.776912964996882, 7262590.0 ], [ 533613.757326912600547, 7262600.000000000931323 ], [ 533611.551677605253644, 7262610.0 ], [ 533610.447091679205187, 7262620.0 ], [ 533610.075974022038281, 7262630.0 ], [ 533609.924025978078134, 7262640.0 ], [ 533609.553800531546585, 7262650.0 ], [ 533608.459496571333148, 7262660.0 ], [ 533606.329821285791695, 7262670.0 ], [ 533603.670178714208305, 7262680.0 ], [ 533601.539611218031496, 7262690.0 ], [ 533600.43591750273481, 7262700.0 ], [ 533600.0, 7262710.0 ], [ 533599.563190286629833, 7262720.0 ], [ 533598.449214605498128, 7262730.0 ], [ 533596.242673087399453, 7262739.999107789248228 ], [ 533593.223087035119534, 7262749.987933613359928 ], [ 533590.0, 7262759.900785414502025 ], [ 533586.776912964996882, 7262769.453693735413253 ], [ 533583.757326912600547, 7262777.913190307095647 ], [ 533581.551677605253644, 7262784.243011591956019 ] ] } },
{ "type": "Feature", "properties": { "id": 10, "reference_id": 2, "dune_id": 2, "dune_name": "Big Mommy Dune", "acquisition_date": "2019-10-02", "length_m": 786.87357920924705 }, "geometry": { "type": "LineString", "coordinates": [ [ 529151.078100949409418, 7260975.283411752432585 ], [ 529146.078100949409418, 7260974.406691519543529 ], [ 529138.683442020905204, 7260972.441661143675447 ], [ 529129.677239574841224, 7260969.689305962063372 ], [ 529119.944359513698146, 7260966.285354975610971 ], [ 529109.993520701071247, 7260962.200062219053507 ], [ 529099.999553894624114, 7260957.793012376874685 ], [ 529090.0, 7260953.659896749071777 ], [ 529080.0, 7260950.000000000931323 ], [ 529070.0, 7260946.340995462611318 ], [ 529060.0, 7260942.216823483817279 ], [ 529050.0, 7260937.870324714109302 ], [ 529040.0, 7260934.031014405190945 ], [ 529030.0, 7260931.180559948086739 ], [ 529020.0, 7260928.916870215907693 ], [ 529010.0, 7260926.406687518581748 ], [ 529000.0, 7260923.594204692170024 ], [ 528990.0, 7260921.094303959980607 ], [ 528980.0, 7260918.905696040019393 ], [ 528970.0, 7260916.405795307829976 ], [ 528960.0, 7260913.594204692170024 ], [ 528950.0, 7260911.093411749228835 ], [ 528940.0, 7260908.895414074882865 ], [ 528930.0, 7260906.329821286723018 ], [ 528920.0, 7260903.234261211939156 ], [ 528910.0, 7260900.0 ], [ 528900.0, 7260896.765738788992167 ], [ 528890.0, 7260893.670178714208305 ], [ 528880.0, 7260891.103693716228008 ], [ 528870.0, 7260888.896306284703314 ], [ 528860.0, 7260886.329821286723018 ], [ 528850.0, 7260883.233369002118707 ], [ 528840.0, 7260879.989718034863472 ], [ 528830.0, 7260876.688872556202114 ], [ 528820.0, 7260873.299061057157815 ], [ 528810.0, 7260869.924025978893042 ], [ 528800.0, 7260866.329821286723018 ], [ 528790.0, 7260862.205649307928979 ], [ 528780.0, 7260857.794350693002343 ], [ 528770.0, 7260853.670178714208305 ], [ 528760.0, 7260850.075974022038281 ], [ 528750.0, 7260846.700046733021736 ], [ 528740.0, 7260843.299953267909586 ], [ 528730.0, 7260839.92313376814127 ], [ 528720.0, 7260836.319539319723845 ], [ 528710.0, 7260832.128783075138927 ], [ 528700.0, 7260827.423233035951853 ], [ 528690.0, 7260822.489618766121566 ], [ 528680.0, 7260817.499207057058811 ], [ 528670.0, 7260812.499900732189417 ], [ 528660.0, 7260807.500099267810583 ], [ 528650.0, 7260802.499900732189417 ], [ 528640.0, 7260797.499207057990134 ], [ 528630.0, 7260792.489618767052889 ], [ 528620.0, 7260787.423233035951853 ], [ 528610.0, 7260782.128783075138927 ], [ 528600.0, 7260776.319539319723845 ], [ 528590.0, 7260769.923133767209947 ], [ 528580.0, 7260763.299061057157815 ], [ 528570.0, 7260756.689764766953886 ], [ 528560.0, 7260750.0 ], [ 528550.0, 7260743.309343023225665 ], [ 528540.0, 7260736.689764766953886 ], [ 528530.0, 7260729.989718034863472 ], [ 528520.0, 7260723.233369001187384 ], [ 528510.0, 7260716.329821286723018 ], [ 528500.0, 7260708.896306284703314 ], [ 528490.0, 7260701.103693716228008 ], [ 528480.000892210751772, 7260693.671070925891399 ], [ 528470.012066387105733, 7260686.777805175632238 ], [ 528460.099214585614391, 7260680.098322374746203 ], [ 528450.546306264819577, 7260673.76939329970628 ], [ 528442.08680969348643, 7260668.329482780769467 ], [ 528435.756988407694735, 7260664.205310802906752 ] ] } },
{ "type": "Feature", "properties": { "id": 11, "reference_id": 9, "dune_id": 9, "dune_name": "Inverted Y Dune", "acquisition_date": "2019-10-02", "length_m": 743.64243167860241 }, "geometry": { "type": "LineString", "coordinates": [ [ 529670.447983889840543, 7262174.243011591956019 ], [ 529671.552569815889001, 7262167.913190307095647 ], [ 529673.768501089070924, 7262159.453693735413253 ], [ 529676.864953374140896, 7262149.900785414502025 ], [ 529680.458265855675563, 7262139.987933613359928 ], [ 529684.850738662178628, 7262129.999107789248228 ], [ 529690.360835691448301, 7262120.0 ], [ 529696.329821285791695, 7262110.0 ], [ 529701.769731804728508, 7262100.0 ], [ 529706.253847263869829, 7262090.0 ], [ 529709.988825823529623, 7262080.0 ], [ 529713.659004537737928, 7262070.0 ], [ 529717.794350692536682, 7262060.0 ], [ 529722.216823483933695, 7262050.0 ], [ 529726.416077273548581, 7262040.0 ], [ 529730.360835691448301, 7262030.0 ], [ 529734.763590463786386, 7262020.0 ], [ 529740.0, 7262010.0 ], [ 529745.236409536330029, 7262000.0 ], [ 529749.639164308668114, 7261990.0 ], [ 529753.583030515816063, 7261980.0 ], [ 529757.772894550347701, 7261970.0 ], [ 529762.128783074906096, 7261960.0 ], [ 529765.968985594343394, 7261950.0 ], [ 529768.820332262665033, 7261940.0 ], [ 529771.093411749578081, 7261930.0 ], [ 529773.669286503456533, 7261920.0 ], [ 529776.766630999278277, 7261910.0 ], [ 529780.011174176586792, 7261900.0 ], [ 529783.321409409982152, 7261890.0 ], [ 529786.777805175632238, 7261880.0 ], [ 529790.447983889840543, 7261870.0 ], [ 529794.861912838649005, 7261860.0 ], [ 529800.45915806631092, 7261850.0 ], [ 529806.864953374140896, 7261840.000000000931323 ], [ 529813.768501089187339, 7261830.0 ], [ 529821.552569815889001, 7261820.0 ], [ 529830.447983889840543, 7261810.0 ], [ 529840.087148198392242, 7261800.0 ], [ 529850.011174176470377, 7261790.0 ], [ 529860.000892210751772, 7261780.0 ], [ 529870.0, 7261770.0 ], [ 529880.0, 7261760.0 ], [ 529890.0, 7261750.000892210751772 ], [ 529900.0, 7261740.011174176819623 ], [ 529910.0, 7261730.087148198857903 ], [ 529920.0, 7261720.447983889840543 ], [ 529930.0, 7261711.551677605137229 ], [ 529940.0, 7261703.75821912381798 ], [ 529950.0, 7261696.788087141700089 ], [ 529960.0, 7261690.088040409609675 ], [ 529970.0, 7261683.681352891027927 ], [ 529980.0, 7261677.870324714109302 ], [ 529990.0, 7261672.566484998911619 ], [ 530000.0, 7261667.433515001088381 ], [ 530010.0, 7261662.129675285890698 ], [ 530020.0, 7261656.319539319723845 ], [ 530030.0, 7261649.92313376814127 ], [ 530040.0, 7261643.299061058089137 ], [ 530049.999107789364643, 7261636.689318661578 ], [ 530059.987933612894267, 7261629.995305122807622 ], [ 530069.900785414502025, 7261623.277835311368108 ], [ 530079.453693735180423, 7261616.565433513373137 ], [ 530087.913190306629986, 7261609.764880374073982 ], [ 530094.243011592421681, 7261603.473915160633624 ], [ 530097.91319030651357, 7261598.834750852547586 ] ] } },
{ "type": "Feature", "properties": { "id": 12, "reference_id": 8, "dune_id": 8, "dune_name": "Inverted Y Dune", "acquisition_date": "2019-10-02", "length_m": 733.90650088872815 }, "geometry": { "type": "LineString", "coordinates": [ [ 530100.447091679205187, 7261591.078100949525833 ], [ 530101.540503428783268, 7261586.078100949525833 ], [ 530103.670178714208305, 7261578.683442020788789 ], [ 530106.329821285791695, 7261569.6772395754233 ], [ 530108.459496571333148, 7261559.944359513930976 ], [ 530109.552908320911229, 7261549.993520701304078 ], [ 530109.912851801607758, 7261539.999553894624114 ], [ 530109.988825823529623, 7261530.0 ], [ 530110.0, 7261520.0 ], [ 530110.011174176470377, 7261510.0 ], [ 530110.087148198392242, 7261500.0 ], [ 530110.447091679205187, 7261490.0 ], [ 530111.540503428666852, 7261480.0 ], [ 530113.671070924960077, 7261470.000000000931323 ], [ 530116.340995462262072, 7261460.0 ], [ 530118.54664476972539, 7261450.0 ], [ 530120.0, 7261440.0 ], [ 530121.454247441026382, 7261430.0 ], [ 530123.670178714208305, 7261420.0 ], [ 530126.416077273664996, 7261410.0 ], [ 530128.907480461173691, 7261400.0 ], [ 530131.104585926048458, 7261390.0 ], [ 530133.670178714208305, 7261380.0 ], [ 530136.766630999278277, 7261370.0 ], [ 530140.011174176586792, 7261360.0 ], [ 530143.321409409982152, 7261350.0 ], [ 530146.777805175632238, 7261340.0 ], [ 530150.447983889840543, 7261330.0 ], [ 530154.861912838649005, 7261320.0 ], [ 530160.45915806631092, 7261310.000000000931323 ], [ 530166.864953374140896, 7261300.000892210751772 ], [ 530173.768501089187339, 7261290.0111741758883 ], [ 530181.552569815889001, 7261280.087148198857903 ], [ 530190.447983889840543, 7261270.447983890771866 ], [ 530200.087148198392242, 7261261.551677605137229 ], [ 530210.011174176470377, 7261253.75821912381798 ], [ 530220.000892210635357, 7261246.788087140768766 ], [ 530230.0, 7261240.088040409609675 ], [ 530240.0, 7261233.682245101779699 ], [ 530250.0, 7261227.882391102612019 ], [ 530260.0, 7261222.663915162906051 ], [ 530270.0, 7261217.957472912967205 ], [ 530280.0, 7261214.04218858294189 ], [ 530290.0, 7261211.181452158838511 ], [ 530300.0, 7261208.917762426659465 ], [ 530310.0, 7261206.417861694470048 ], [ 530320.0, 7261203.681352891027927 ], [ 530330.0, 7261201.541395639069378 ], [ 530340.0, 7261200.447091678157449 ], [ 530350.0, 7261200.088040409609675 ], [ 530360.0, 7261200.022348353639245 ], [ 530370.0, 7261200.088040409609675 ], [ 530380.0, 7261200.447091678157449 ], [ 530390.0, 7261201.540503428317606 ], [ 530400.0, 7261203.670178713276982 ], [ 530410.0, 7261206.329821285791695 ], [ 530420.0, 7261208.459496571682394 ], [ 530430.000000000116415, 7261209.552908320911229 ], [ 530440.0, 7261209.912851802073419 ], [ 530450.0, 7261209.987933613359928 ], [ 530460.0, 7261209.987041402608156 ], [ 530470.0, 7261209.900785414502025 ], [ 530480.0, 7261209.453693735413253 ], [ 530490.0, 7261207.914082517847419 ], [ 530500.0, 7261204.255077979527414 ], [ 530509.999107789248228, 7261198.012404892593622 ], [ 530519.987933612894267, 7261190.0 ], [ 530529.900785414385609, 7261181.987595107406378 ], [ 530539.453693735296838, 7261175.744922020472586 ], [ 530547.91319030651357, 7261172.085917483083904 ], [ 530554.243011592305265, 7261170.546306265518069 ] ] } },
{ "type": "Feature", "properties": { "id": 13, "reference_id": 3, "dune_id": 3, "dune_name": "Big Mommy Dune", "acquisition_date": "2019-10-02", "length_m": 867.24834993779109 }, "geometry": { "type": "LineString", "coordinates": [ [ 529181.638825803645886, 7260964.243011592887342 ], [ 529184.205310802557506, 7260957.913190307095647 ], [ 529188.328590570250526, 7260949.453693735413253 ], [ 529193.758219123352319, 7260939.900785414502025 ], [ 529200.012066387105733, 7260929.987933613359928 ], [ 529206.340995462262072, 7260919.999107789248228 ], [ 529212.206541518098675, 7260910.0 ], [ 529217.794350692536682, 7260900.0 ], [ 529223.670178714208305, 7260890.0 ], [ 529230.075974021921866, 7260880.0 ], [ 529236.700046732323244, 7260870.0 ], [ 529243.299953267676756, 7260860.0 ], [ 529249.924025978078134, 7260850.0 ], [ 529256.32982128590811, 7260840.0 ], [ 529262.205649307463318, 7260830.0 ], [ 529267.794350692536682, 7260820.0 ], [ 529273.670178714208305, 7260810.0 ], [ 529280.075974022038281, 7260800.0 ], [ 529286.700938943075016, 7260790.0 ], [ 529293.311127444147132, 7260780.000000000931323 ], [ 529300.011174176470377, 7260770.0 ], [ 529306.777805175748654, 7260760.0 ], [ 529313.757326912716962, 7260750.000892210751772 ], [ 529321.551677605253644, 7260740.011174176819623 ], [ 529330.447983889840543, 7260730.087148198857903 ], [ 529340.087148198392242, 7260720.447983889840543 ], [ 529350.011174176586792, 7260711.552569815889001 ], [ 529360.000892210635357, 7260703.768501089885831 ], [ 529370.0, 7260696.864953374490142 ], [ 529380.0, 7260690.459158066660166 ], [ 529390.0, 7260684.861912839114666 ], [ 529400.0, 7260680.447983888909221 ], [ 529410.0, 7260676.777805175632238 ], [ 529420.0, 7260673.320517199113965 ], [ 529430.0, 7260670.000892210751772 ], [ 529440.000000000116415, 7260666.690656977705657 ], [ 529450.0, 7260663.310235233977437 ], [ 529460.0, 7260660.010281966067851 ], [ 529470.0, 7260656.766630999743938 ], [ 529480.0, 7260653.670178714208305 ], [ 529490.0, 7260651.10458592697978 ], [ 529500.000000000116415, 7260648.906588250771165 ], [ 529510.0, 7260646.405795307829976 ], [ 529520.0, 7260643.594204693101346 ], [ 529530.0, 7260641.094303959980607 ], [ 529540.0, 7260638.906588250771165 ], [ 529550.0, 7260636.416969483718276 ], [ 529560.0, 7260633.681352891027927 ], [ 529570.0, 7260631.540503429248929 ], [ 529580.0, 7260630.435917502269149 ], [ 529590.0, 7260630.0 ], [ 529600.0, 7260629.564082497730851 ], [ 529610.0, 7260628.460388781502843 ], [ 529620.0, 7260626.329821285791695 ], [ 529630.0, 7260623.670178714208305 ], [ 529640.0, 7260621.540503429248929 ], [ 529650.0, 7260620.447091679088771 ], [ 529660.0, 7260620.086255988106132 ], [ 529670.0, 7260620.0 ], [ 529680.0, 7260619.913744012825191 ], [ 529690.0, 7260619.552908320911229 ], [ 529700.0, 7260618.459496571682394 ], [ 529710.0, 7260616.329821286723018 ], [ 529720.0, 7260613.670178715139627 ], [ 529730.0, 7260611.540503429248929 ], [ 529740.0, 7260610.447091680020094 ], [ 529750.0, 7260610.087148198857903 ], [ 529760.0, 7260610.011174176819623 ], [ 529770.0, 7260610.000892210751772 ], [ 529780.0, 7260610.0 ], [ 529790.0, 7260610.0 ], [ 529800.0, 7260610.0 ], [ 529810.0, 7260610.0 ], [ 529820.0, 7260610.0 ], [ 529830.0, 7260610.0 ], [ 529840.0, 7260610.0 ], [ 529849.999107789364643, 7260610.0 ], [ 529859.987933612894267, 7260610.0 ], [ 529869.900785414385609, 7260610.0 ], [ 529879.453693735180423, 7260610.0 ], [ 529887.91319030651357, 7260610.0 ], [ 529894.243011592421681, 7260610.0 ] ] } },
{ "type": "Feature", "properties": { "id": 14, "reference_id": 3, "dune_id": 3, "dune_name": "Big Mommy Dune", "acquisition_date": "2019-10-02", "length_m": 253.73375098877531 }, "geometry": { "type": "LineString", "coordinates": [ [ 529995.756988407694735, 7260610.0 ], [ 530002.08680969348643, 7260609.999107789248228 ], [ 530010.546306264819577, 7260609.9888258241117 ], [ 530020.099214585497975, 7260609.912851802073419 ], [ 530030.012066387105733, 7260609.552908320911229 ], [ 530040.000892210751772, 7260608.458604360930622 ], [ 530050.0, 7260606.318647110834718 ], [ 530060.0, 7260603.583030516281724 ], [ 530070.0, 7260601.093411750160158 ], [ 530080.0, 7260598.906588250771165 ], [ 530090.0, 7260596.416077272966504 ], [ 530100.0, 7260593.670178714208305 ], [ 530110.0, 7260591.454247441142797 ], [ 530120.0, 7260590.0 ], [ 530130.0, 7260588.546644769608974 ], [ 530140.0, 7260586.340103251859546 ], [ 530150.0, 7260583.659896748140454 ], [ 530160.0, 7260581.453355230391026 ], [ 530170.000000000116415, 7260580.0 ], [ 530180.0, 7260578.546644769608974 ], [ 530190.0, 7260576.340103251859546 ], [ 530199.999107789248228, 7260573.659896749071777 ], [ 530209.987933612894267, 7260571.453355230391026 ], [ 530219.900785414385609, 7260570.0 ], [ 530229.453693735180423, 7260568.546644769608974 ], [ 530237.91319030651357, 7260566.340995462611318 ], [ 530244.243011592421681, 7260563.671070924960077 ] ] } },
{ "type": "Feature", "properties": { "id": 15, "reference_id": 7, "dune_id": 7, "dune_name": "Inverted Y Dune", "acquisition_date": "2019-10-02", "length_m": 640.41901347600037 }, "geometry": { "type": "LineString", "coordinates": [ [ 530145.75698840781115, 7261640.087148198857903 ], [ 530152.08680969348643, 7261640.447091680020094 ], [ 530160.546306264819577, 7261641.540503429248929 ], [ 530170.099214585614391, 7261643.670178715139627 ], [ 530180.012066387222148, 7261646.329821286723018 ], [ 530190.000892210751772, 7261648.458604361861944 ], [ 530200.0, 7261649.541734145022929 ], [ 530210.0, 7261649.825703603215516 ], [ 530220.0, 7261649.541734145022929 ], [ 530230.0, 7261648.457712151110172 ], [ 530240.0, 7261646.318647109903395 ], [ 530250.0, 7261643.583030516281724 ], [ 530260.0, 7261641.093411749228835 ], [ 530270.0, 7261638.906588250771165 ], [ 530280.0, 7261636.416077273897827 ], [ 530290.0, 7261633.670178714208305 ], [ 530300.0, 7261631.454247441142797 ], [ 530310.0, 7261629.999107789248228 ], [ 530320.0, 7261628.535470593720675 ], [ 530330.0, 7261626.252955053001642 ], [ 530340.0, 7261623.212805069983006 ], [ 530350.0, 7261619.911959590390325 ], [ 530360.0, 7261616.318647109903395 ], [ 530370.0, 7261612.128783075138927 ], [ 530380.0, 7261607.423233035951853 ], [ 530390.0, 7261602.489618767052889 ], [ 530400.0, 7261597.498314846307039 ], [ 530410.0, 7261592.488726556301117 ], [ 530420.0, 7261587.412058860063553 ], [ 530430.000000000116415, 7261582.041634876281023 ], [ 530440.0, 7261575.871555430814624 ], [ 530450.0, 7261568.371456163004041 ], [ 530460.0, 7261559.541734145022929 ], [ 530469.999107789364643, 7261549.911959590390325 ], [ 530479.988825823529623, 7261539.9888258241117 ], [ 530489.912851801607758, 7261529.999107789248228 ], [ 530499.552016110159457, 7261520.0 ], [ 530508.448322394862771, 7261510.0 ], [ 530516.241780876647681, 7261500.0 ], [ 530523.211912858532742, 7261490.0 ], [ 530529.912851801607758, 7261480.0 ], [ 530536.328929075156339, 7261470.000000000931323 ], [ 530542.205649307463318, 7261460.0 ], [ 530547.794350692536682, 7261450.0 ], [ 530553.671070924960077, 7261440.0 ], [ 530560.087148198392242, 7261430.0 ], [ 530566.788087141467258, 7261420.0 ], [ 530573.758219123352319, 7261410.0 ], [ 530581.551677605253644, 7261400.0 ], [ 530590.447983889840543, 7261390.0 ], [ 530600.087148198392242, 7261380.0 ], [ 530610.01028196583502, 7261370.000892210751772 ], [ 530619.988825823646039, 7261360.012066386640072 ], [ 530629.900785414502025, 7261350.099214585497975 ], [ 530639.453693735296838, 7261340.546306265518069 ], [ 530647.913190306629986, 7261332.086809693835676 ], [ 530654.243011592305265, 7261325.756988408043981 ] ] } }
]
}
