{
"type": "FeatureCollection",
"name": "crests_2018_01_2018-01-22",
"crs": { "type": "name", "properties": { "name": "urn:ogc:def:crs:EPSG::32733" } },
"features": [
{ "type": "Feature", "properties": { "id": 0, "reference_id": 8, "dune_id": 8, "dune_name": "Inverted Y Dune", "acquisition_date": "2018-01-22", "length_m": 405.60779546027999 }, "geometry": { "type": "LineString", "coordinates": [ [ 530244.243011592421681, 7261232.086809693835676 ], [ 530237.91319030651357, 7261235.756988408043981 ], [ 530229.453693735180423, 7261242.086809693835676 ], [ 530219.900785414385609, 7261250.546306264586747 ], [ 530209.987933612894267, 7261260.099214585497975 ], [ 530200.0, 7261270.012066387571394 ], [ 530190.011174176470377, 7261280.000892210751772 ], [ 530180.088040409144014, 7261290.0 ], [ 530170.459158066427335, 7261300.0 ], [ 530161.639718014397658, 7261310.000000000931323 ], [ 530154.21559276827611, 7261320.0 ], [ 530148.405456802807748, 7261330.0 ], [ 530144.12933678063564, 7261340.0 ], [ 530141.1917341244407, 7261350.0 ], [ 530138.907480461173691, 7261360.0 ], [ 530136.330713496543467, 7261370.0 ], [ 530133.234261211473495, 7261380.0 ], [ 530130.0, 7261390.0 ], [ 530126.765738788526505, 7261400.0 ], [ 530123.670178714208305, 7261410.0 ], [ 530121.104585926048458, 7261420.0 ], [ 530118.907480461173691, 7261430.0 ], [ 530116.416969484300353, 7261440.0 ], [ 530113.680460680043325, 7261450.0 ], [ 530111.530221462948248, 7261460.0 ], [ 530110.359943480812944, 7261470.000000000931323 ], [ 530109.640056519303471, 7261480.0 ], [ 530108.470670747803524, 7261490.0 ], [ 530106.330713496543467, 7261500.0 ], [ 530103.670178714208305, 7261510.0 ], [ 530101.540503428783268, 7261520.0 ], [ 530100.447091679205187, 7261530.0 ], [ 530100.086702093132772, 7261539.999553894624114 ], [ 530100.005587088293396, 7261549.993520701304078 ], [ 530099.957318111439236, 7261559.944359513930976 ], [ 530099.776454160455614, 7261569.6772395754233 ], [ 530099.229748285608366, 7261578.683442020788789 ], [ 530098.164910642895848, 7261586.078100949525833 ], [ 530096.835089357104152, 7261591.078100949525833 ] ] } },
{ "type": "Feature", "properties": { "id": 1, "reference_id": 9, "dune_id": 9, "dune_name": "Inverted Y Dune", "acquisition_date": "2018-01-22", "length_m": 490.27713205631443 }, "geometry": { "type": "LineString", "coordinates": [ [ 529670.458265855675563, 7262174.243011591956019 ], [ 529671.628543837810867, 7262167.913190307095647 ], [ 529674.128444569883868, 7262159.453693735413253 ], [ 529677.957472912967205, 7262149.900785414502025 ], [ 529682.577659175381996, 7262139.987933613359928 ], [ 529687.434407211840153, 7262129.999107789248228 ], [ 529692.130567496176809, 7262120.0 ], [ 529696.329821285791695, 7262110.0 ], [ 529700.0, 7262100.0 ], [ 529703.670178714208305, 7262090.0 ], [ 529707.869432503823191, 7262080.0 ], [ 529712.566484998911619, 7262070.0 ], [ 529717.433515001088381, 7262060.0 ], [ 529722.130567496176809, 7262050.0 ], [ 529726.329821285791695, 7262040.0 ], [ 529730.0, 7262030.0 ], [ 529733.670178714208305, 7262020.0 ], [ 529737.869432503823191, 7262010.0 ], [ 529742.566484998911619, 7262000.0 ], [ 529747.433515001204796, 7261990.0 ], [ 529752.129675285425037, 7261980.0 ], [ 529756.319539319956675, 7261970.0 ], [ 529759.923133767326362, 7261960.0 ], [ 529763.299061056924984, 7261950.0 ], [ 529766.689764766488224, 7261940.0 ], [ 529770.0, 7261930.0 ], [ 529773.309343022760004, 7261920.0 ], [ 529776.690656977239996, 7261910.0 ], [ 529780.000892210751772, 7261900.0 ], [ 529783.321409409982152, 7261890.0 ], [ 529786.788087141467258, 7261880.0 ], [ 529790.523957911878824, 7261870.0 ], [ 529795.221856319345534, 7261860.0 ], [ 529801.552569815889001, 7261850.0 ], [ 529808.994628659682348, 7261840.000000000931323 ], [ 529816.428143660770729, 7261830.0 ], [ 529823.682245101314038, 7261820.0 ], [ 529831.541395639418624, 7261810.0 ], [ 529840.447091679205187, 7261800.0 ], [ 529850.086255987756886, 7261790.000892210751772 ], [ 529859.999107789364643, 7261780.012066387571394 ], [ 529869.901677625137381, 7261770.099214585497975 ], [ 529879.453693735180423, 7261760.546306264586747 ], [ 529887.91319030651357, 7261752.086809693835676 ], [ 529894.243011592421681, 7261745.756988408043981 ] ] } },
{ "type": "Feature", "properties": { "id": 2, "reference_id": 9, "dune_id": 9, "dune_name": "Inverted Y Dune", "acquisition_date": "2018-01-22", "length_m": 216.53397801612238 }, "geometry": { "type": "LineString", "coordinates": [ [ 530091.078100949525833, 7261598.921006839722395 ], [ 530086.078100949409418, 7261603.910724874585867 ], [ 530078.683442020905204, 7261611.228517569601536 ], [ 530069.677239574841224, 7261619.864494569599628 ], [ 530059.944359513698146, 7261628.427988858893514 ], [ 530049.993520701071247, 7261635.888316694647074 ], [ 530039.999553894624114, 7261642.118947215378284 ], [ 530030.0, 7261647.782284306362271 ], [ 530020.0, 7261653.659004537388682 ], [ 530010.0, 7261660.0 ], [ 530000.0, 7261666.340995462611318 ], [ 529990.0, 7261672.216823484748602 ], [ 529980.0, 7261677.870324714109302 ], [ 529970.0, 7261684.031014405190945 ], [ 529960.000892210751772, 7261691.179667737334967 ], [ 529950.012066387105733, 7261698.905696040019393 ], [ 529940.099214585614391, 7261706.318647108972073 ], [ 529930.546306264819577, 7261713.135046626441181 ], [ 529922.08680969348643, 7261719.454585946165025 ], [ 529915.756988407694735, 7261724.690103271976113 ] ] } },
{ "type": "Feature", "properties": { "id": 3, "reference_id": 3, "dune_id": 3, "dune_name": "Big Mommy Dune", "acquisition_date": "2018-01-22", "length_m": 362.51257094926689 }, "geometry": { "type": "LineString", "coordinates": [ [ 529374.243011592305265, 7260695.756988408043981 ], [ 529367.91319030651357, 7260702.086809693835676 ], [ 529359.453693735180423, 7260710.546306265518069 ], [ 529349.900785414502025, 7260720.099214585497975 ], [ 529339.988825823529623, 7260730.012066388502717 ], [ 529330.01028196583502, 7260740.000892210751772 ], [ 529320.087148198508658, 7260750.0 ], [ 529310.447983889956959, 7260760.0 ], [ 529301.551677605253644, 7260770.0 ], [ 529293.757326912600547, 7260780.000000000931323 ], [ 529286.777805175632238, 7260790.0 ], [ 529280.011174176470377, 7260800.0 ], [ 529273.310235233511776, 7260810.0 ], [ 529266.690656977239996, 7260820.0 ], [ 529260.0, 7260830.0 ], [ 529253.310235233511776, 7260840.0 ], [ 529246.700938943075016, 7260850.0 ], [ 529240.075974021921866, 7260860.0 ], [ 529233.670178714208305, 7260870.0 ], [ 529227.794350692536682, 7260880.0 ], [ 529222.206541518098675, 7260890.0 ], [ 529216.340103251626715, 7260900.0 ], [ 529210.0, 7260910.0 ], [ 529203.659896748373285, 7260920.0 ], [ 529197.794350692536682, 7260930.0 ], [ 529192.217715694685467, 7260939.999553894624114 ], [ 529186.428143660770729, 7260949.993520701304078 ], [ 529180.45915806631092, 7260959.944359514862299 ], [ 529175.298722552019171, 7260969.6772395754233 ], [ 529171.998769284342416, 7260978.683442020788789 ], [ 529170.535132088349201, 7260986.078100949525833 ], [ 529170.098322374979034, 7260991.078100949525833 ] ] } },
{ "type": "Feature", "properties": { "id": 4, "reference_id": 3, "dune_id": 3, "dune_name": "Big Mommy Dune", "acquisition_date": "2018-01-22", "length_m": 158.48602318472695 }, "geometry": { "type": "LineString", "coordinates": [ [ 529904.243011592421681, 7260610.0 ], [ 529897.91319030651357, 7260610.0 ], [ 529889.453693735180423, 7260610.0 ], [ 529879.900785414385609, 7260610.0 ], [ 529869.987933612894267, 7260610.0 ], [ 529859.999107789364643, 7260610.0 ], [ 529850.0, 7260610.0 ], [ 529840.0, 7260610.0 ], [ 529830.0, 7260610.0 ], [ 529820.0, 7260610.0 ], [ 529810.0, 7260610.0 ], [ 529800.0, 7260610.0 ], [ 529790.000892210751772, 7260610.0 ], [ 529780.012066387105733, 7260610.0 ], [ 529770.099214585614391, 7260610.0 ], [ 529760.546306264819577, 7260610.0 ], [ 529752.08680969348643, 7260610.0 ], [ 529745.756988407694735, 7260610.0 ] ] } },
{ "type": "Feature", "properties": { "id": 5, "reference_id": 3, "dune_id": 3, "dune_name": "Big Mommy Dune", "acquisition_date": "2018-01-22", "length_m": 152.0868898661947 }, "geometry": { "type": "LineString", "coordinates": [ [ 530244.243011592421681, 7260570.087148198857903 ], [ 530237.91319030651357, 7260570.447091680020094 ], [ 530229.453693735180423, 7260571.540503429248929 ], [ 530219.900785414385609, 7260573.671070925891399 ], [ 530209.987933612894267, 7260576.340995462611318 ], [ 530199.999107789248228, 7260578.546644769608974 ], [ 530190.0, 7260580.000892210751772 ], [ 530180.0, 7260581.464529406279325 ], [ 530170.000000000116415, 7260583.746152736246586 ], [ 530160.0, 7260586.776020754128695 ], [ 530150.0, 7260590.0 ], [ 530140.000892210751772, 7260593.223087035119534 ], [ 530130.012066387222148, 7260596.242673087865114 ], [ 530120.099214585614391, 7260598.448322394862771 ], [ 530110.546306264819577, 7260599.552016111090779 ], [ 530102.08680969348643, 7260599.912851802073419 ], [ 530095.756988407694735, 7260599.9888258241117 ] ] } },
{ "type": "Feature", "properties": { "id": 6, "reference_id": 3, "dune_id": 3, "dune_name": "Big Mommy Dune", "acquisition_date": "2018-01-22", "length_m": 141.9867758019243 }, "geometry": { "type": "LineString", "coordinates": [ [ 529614.243011592421681, 7260630.011174176819623 ], [ 529607.91319030651357, 7260630.087148198857903 ], [ 529599.453693735180423, 7260630.447091680020094 ], [ 529589.900785414502025, 7260631.541395640000701 ], [ 529579.987933612894267, 7260633.681352891027927 ], [ 529569.999107789248228, 7260636.416969483718276 ], [ 529560.0, 7260638.906588250771165 ], [ 529550.0, 7260641.094303959980607 ], [ 529540.0, 7260643.594204693101346 ], [ 529530.0, 7260646.405795307829976 ], [ 529520.000892210751772, 7260648.905696040019393 ], [ 529510.012066387105733, 7260651.093411749228835 ], [ 529500.099214585614391, 7260653.583030516281724 ], [ 529490.546306264819577, 7260656.318647109903395 ], [ 529482.08680969348643, 7260658.458604361861944 ], [ 529475.756988407694735, 7260659.552908320911229 ] ] } },
{ "type": "Feature", "properties": { "id": 7, "reference_id": 7, "dune_id": 7, "dune_name": "Inverted Y Dune", "acquisition_date": "2018-01-22", "length_m": 536.23579469134302 }, "geometry": { "type": "LineString", "coordinates": [ [ 530165.756988407694735, 7261650.0 ], [ 530172.08680969348643, 7261650.0 ], [ 530180.546306264703162, 7261650.0 ], [ 530190.099214585614391, 7261650.0 ], [ 530200.012066387105733, 7261650.0 ], [ 530210.000892210751772, 7261649.999107790179551 ], [ 530220.0, 7261649.9888258241117 ], [ 530230.0, 7261649.912851802073419 ], [ 530240.0, 7261649.552908321842551 ], [ 530250.0, 7261648.459496572613716 ], [ 530260.0, 7261646.328929075971246 ], [ 530270.0, 7261643.659004538320005 ], [ 530280.0, 7261641.453355230391026 ], [ 530290.0, 7261639.999107789248228 ], [ 530300.0, 7261638.535470593720675 ], [ 530310.0, 7261636.252955053932965 ], [ 530320.0, 7261633.212805069051683 ], [ 530330.0, 7261629.912851801142097 ], [ 530340.0, 7261626.328929075039923 ], [ 530350.0, 7261622.205649307928979 ], [ 530360.0, 7261617.793458482250571 ], [ 530370.0, 7261613.659004538320005 ], [ 530380.0, 7261609.9888258241117 ], [ 530390.0, 7261606.252955053001642 ], [ 530400.0, 7261601.758557628840208 ], [ 530410.0, 7261596.241780877113342 ], [ 530420.0, 7261589.901677625253797 ], [ 530430.000000000116415, 7261583.211020648479462 ], [ 530440.0, 7261576.241780877113342 ], [ 530450.0, 7261568.448322394862771 ], [ 530460.0, 7261559.552016111090779 ], [ 530469.999107789364643, 7261549.912851801142097 ], [ 530479.988825823529623, 7261539.9888258241117 ], [ 530489.912851801607758, 7261529.999107789248228 ], [ 530499.552016110159457, 7261520.0 ], [ 530508.448322394862771, 7261510.0 ], [ 530516.242673087399453, 7261500.0 ], [ 530523.222194824367762, 7261490.0 ], [ 530529.988825823529623, 7261480.0 ], [ 530536.689764766488224, 7261470.000000000931323 ], [ 530543.309343022760004, 7261460.0 ], [ 530550.0, 7261450.0 ], [ 530556.690656977239996, 7261440.0 ], [ 530563.309343022760004, 7261430.000892210751772 ], [ 530569.999107789248228, 7261420.012066387571394 ], [ 530576.678590590134263, 7261410.099214585497975 ], [ 530583.211020647897385, 7261400.546306264586747 ], [ 530589.464867911650799, 7261392.086809693835676 ], [ 530594.690995482262224, 7261385.756988408043981 ] ] } },
{ "type": "Feature", "properties": { "id": 8, "reference_id": 5, "dune_id": 5, "dune_name": "The Star Dune", "acquisition_date": "2018-01-22", "length_m": 1143.0811643605343 }, "geometry": { "type": "LineString", "coordinates": [ [ 534334.342226177919656, 7261305.756988408043981 ], [ 534328.459496571333148, 7261312.086809693835676 ], [ 534321.540503428666852, 7261320.546306264586747 ], [ 534315.657773822080344, 7261330.099214585497975 ], [ 534312.074743306264281, 7261340.012066386640072 ], [ 534310.546306264703162, 7261350.000892210751772 ], [ 534310.110388762084767, 7261360.0 ], [ 534310.099214585614391, 7261370.0 ], [ 534310.447983889840543, 7261380.0 ], [ 534311.540503428666852, 7261390.0 ], [ 534313.670178714208305, 7261400.0 ], [ 534316.329821285791695, 7261410.0 ], [ 534318.459496571216732, 7261420.0 ], [ 534319.553800531546585, 7261430.0 ], [ 534319.924025978078134, 7261440.0 ], [ 534320.075974021921866, 7261450.0 ], [ 534320.446199468453415, 7261460.0 ], [ 534321.540503428666852, 7261470.000000000931323 ], [ 534323.670178714208305, 7261480.0 ], [ 534326.328929075156339, 7261490.0 ], [ 534328.448322394862771, 7261500.0 ], [ 534329.464867911767215, 7261510.0 ], [ 534329.453693735296838, 7261520.0 ], [ 534328.34910780924838, 7261530.0 ], [ 534325.782622810453176, 7261540.0 ], [ 534321.583369020721875, 7261550.0 ], [ 534315.783515021088533, 7261559.999107790179551 ], [ 534308.360281985718757, 7261569.9888258241117 ], [ 534299.54084193368908, 7261579.912851802073419 ], [ 534289.911959590855986, 7261589.552016110159457 ], [ 534279.988825823529623, 7261598.448322394862771 ], [ 534269.999107789248228, 7261606.242673087865114 ], [ 534260.0, 7261613.222194824367762 ], [ 534250.0, 7261619.9888258241117 ], [ 534240.0, 7261626.689764766022563 ], [ 534230.0, 7261633.309343023225665 ], [ 534220.0, 7261639.999107789248228 ], [ 534210.0, 7261646.678590590134263 ], [ 534200.0, 7261653.211020648479462 ], [ 534190.0, 7261659.465760122984648 ], [ 534180.0, 7261664.702169658616185 ], [ 534170.0, 7261668.087486703880131 ], [ 534160.0, 7261669.911959591321647 ], [ 534150.0, 7261671.442181054502726 ], [ 534140.0, 7261673.65811232663691 ], [ 534130.0, 7261676.329821285791695 ], [ 534120.0, 7261678.470670748502016 ], [ 534110.0, 7261679.640056519769132 ], [ 534100.0, 7261680.35994348116219 ], [ 534090.0, 7261681.529329252429307 ], [ 534080.0, 7261683.669286504387856 ], [ 534070.0, 7261686.33071349747479 ], [ 534060.0, 7261688.470670748502016 ], [ 534050.0, 7261689.64005651883781 ], [ 534040.0, 7261690.35994348116219 ], [ 534030.0, 7261691.529329253360629 ], [ 534020.0, 7261693.670178714208305 ], [ 534010.0, 7261696.340995462611318 ], [ 534000.0, 7261698.546644769608974 ], [ 533990.0, 7261700.0 ], [ 533980.0, 7261701.454247441142797 ], [ 533970.0, 7261703.670178714208305 ], [ 533960.0, 7261706.416969484649599 ], [ 533950.0, 7261708.917762426659465 ], [ 533940.0, 7261711.181452158838511 ], [ 533930.0, 7261714.041296371258795 ], [ 533920.0, 7261717.947190947830677 ], [ 533910.0, 7261722.58704893104732 ], [ 533900.0, 7261727.510381233878434 ], [ 533890.0, 7261732.490510977804661 ], [ 533880.0, 7261737.424125246703625 ], [ 533870.0, 7261742.139957251027226 ], [ 533860.0, 7261746.406687518581748 ], [ 533850.0, 7261750.37111765705049 ], [ 533840.0, 7261754.851630872115493 ], [ 533830.0, 7261760.458265855908394 ], [ 533820.0, 7261766.864953374490142 ], [ 533810.0, 7261773.768501089885831 ], [ 533800.000892210751772, 7261781.552569815889001 ], [ 533790.012066387105733, 7261790.447983890771866 ], [ 533780.098322374979034, 7261800.087148198857903 ], [ 533770.535132088349201, 7261810.011174177750945 ], [ 533761.999661495094188, 7261820.000892210751772 ], [ 533755.309004517854191, 7261830.0 ], [ 533750.535132088349201, 7261840.000000000931323 ], [ 533746.788087141467258, 7261850.0 ], [ 533743.311127444147132, 7261860.0 ], [ 533739.924025978078134, 7261870.0 ], [ 533736.31953932007309, 7261880.0 ], [ 533732.128783074906096, 7261890.0 ], [ 533727.423233035253361, 7261900.0 ], [ 533722.489618766237982, 7261910.0 ], [ 533717.499207057291642, 7261920.0 ], [ 533712.499900731956586, 7261930.0 ], [ 533707.500099268043414, 7261940.0 ], [ 533702.499900732073002, 7261950.0 ], [ 533697.499207057408057, 7261960.0 ], [ 533692.489618766237982, 7261970.0 ], [ 533687.423233035369776, 7261980.0 ], [ 533682.129675285541452, 7261989.999553894624114 ], [ 533676.330713496543467, 7261999.993520701304078 ], [ 533670.011174176586792, 7262009.944359513930976 ], [ 533663.758219123352319, 7262019.677239574491978 ], [ 533658.328590570134111, 7262028.683442020788789 ], [ 533654.20531080244109, 7262036.078100949525833 ], [ 533651.638825803645886, 7262041.078100949525833 ] ] } },
{ "type": "Feature", "properties": { "id": 9, "reference_id": 6, "dune_id": 6, "dune_name": "The Star Dune", "acquisition_date": "2018-01-22", "length_m": 892.79429950741132 }, "geometry": { "type": "LineString", "coordinates": [ [ 533650.0, 7262048.921899050474167 ], [ 533650.0, 7262053.921899050474167 ], [ 533650.0, 7262061.316557979211211 ], [ 533650.0, 7262070.322760425508022 ], [ 533650.0, 7262080.055640487000346 ], [ 533650.0, 7262090.006479298695922 ], [ 533650.0, 7262100.000446105375886 ], [ 533650.0, 7262110.0 ], [ 533650.0, 7262120.0 ], [ 533650.000892210751772, 7262130.0 ], [ 533650.011174176470377, 7262140.0 ], [ 533650.087148198508658, 7262150.0 ], [ 533650.447091679205187, 7262160.0 ], [ 533651.540503428783268, 7262170.0 ], [ 533653.670178714208305, 7262180.0 ], [ 533656.329821285791695, 7262190.0 ], [ 533658.460388781968504, 7262200.0 ], [ 533659.56408249726519, 7262210.0 ], [ 533660.0, 7262220.0 ], [ 533660.43591750273481, 7262230.0 ], [ 533661.539611218031496, 7262240.0 ], [ 533663.670178714208305, 7262250.0 ], [ 533666.329821285791695, 7262260.0 ], [ 533668.459496571333148, 7262270.0 ], [ 533669.552908320911229, 7262280.0 ], [ 533669.912851801607758, 7262290.0 ], [ 533669.988825823646039, 7262300.0 ], [ 533669.999107789364643, 7262310.0 ], [ 533670.0, 7262320.0 ], [ 533670.0, 7262330.0 ], [ 533669.999107789364643, 7262340.000000000931323 ], [ 533669.988825823646039, 7262350.0 ], [ 533669.912851801607758, 7262360.0 ], [ 533669.552016110159457, 7262370.0 ], [ 533668.448322394862771, 7262380.0 ], [ 533666.242673087399453, 7262390.0 ], [ 533663.223087035119534, 7262400.0 ], [ 533659.999107789248228, 7262410.0 ], [ 533656.765738788526505, 7262420.0 ], [ 533653.670178714208305, 7262430.0 ], [ 533651.103693715413101, 7262440.0 ], [ 533648.896306284703314, 7262450.0 ], [ 533646.329821285791695, 7262460.0 ], [ 533643.233369000838138, 7262470.0 ], [ 533639.989718034281395, 7262480.0 ], [ 533636.68976476660464, 7262490.0 ], [ 533633.310235233511776, 7262500.0 ], [ 533630.01028196583502, 7262510.0 ], [ 533626.766630999161862, 7262520.0 ], [ 533623.670178714208305, 7262530.0 ], [ 533621.104585925932042, 7262540.0 ], [ 533618.907480461173691, 7262550.0 ], [ 533616.416077273664996, 7262560.0 ], [ 533613.670178714208305, 7262570.0 ], [ 533611.454247441026382, 7262580.0 ], [ 533610.0, 7262590.0 ], [ 533608.54664476972539, 7262600.000000000931323 ], [ 533606.340995462378487, 7262610.0 ], [ 533603.671070924960077, 7262620.0 ], [ 533601.540503428783268, 7262630.0 ], [ 533600.44619946856983, 7262640.0 ], [ 533600.075974022038281, 7262650.0 ], [ 533599.924025978078134, 7262660.0 ], [ 533599.553800531546585, 7262670.0 ], [ 533598.459496571216732, 7262680.0 ], [ 533596.329821285791695, 7262690.0 ], [ 533593.670178714208305, 7262700.0 ], [ 533591.539611218031496, 7262710.0 ], [ 533590.43591750273481, 7262720.0 ], [ 533590.0, 7262730.0 ], [ 533589.56408249726519, 7262740.0 ], [ 533588.459496571216732, 7262750.0 ], [ 533586.318647109437734, 7262760.0 ], [ 533583.583030515816063, 7262770.0 ], [ 533581.092519538942724, 7262780.0 ], [ 533578.895414074067958, 7262790.0 ], [ 533576.32982128590811, 7262800.0 ], [ 533573.233369000838138, 7262810.0 ], [ 533569.98971803416498, 7262820.0 ], [ 533566.68976476660464, 7262830.0 ], [ 533563.310235233511776, 7262840.0 ], [ 533560.011174176470377, 7262850.0 ], [ 533556.777805175632238, 7262860.0 ], [ 533553.757326912600547, 7262870.000000000931323 ], [ 533551.551677605253644, 7262879.999107789248228 ], [ 533550.447983889840543, 7262889.987933613359928 ], [ 533550.087148198392242, 7262899.900785414502025 ], [ 533550.011174176470377, 7262909.453693736344576 ], [ 533550.000892210751772, 7262917.913190307095647 ], [ 533550.0, 7262924.243011591956019 ] ] } },
{ "type": "Feature", "properties": { "id": 10, "reference_id": 1, "dune_id": 1, "dune_name": "Big Mommy Dune", "acquisition_date": "2018-01-22", "length_m": 1214.0968990322549 }, "geometry": { "type": "LineString", "coordinates": [ [ 529180.0, 7261035.756988408043981 ], [ 529180.0, 7261042.086809693835676 ], [ 529180.0, 7261050.546306265518069 ], [ 529179.999107789364643, 7261060.099214585497975 ], [ 529179.988825823529623, 7261070.012066387571394 ], [ 529179.912851801607758, 7261080.000892210751772 ], [ 529179.552908320794813, 7261090.0 ], [ 529178.458604360581376, 7261100.0 ], [ 529176.318647109321319, 7261110.0 ], [ 529173.583030515816063, 7261120.000000000931323 ], [ 529171.092519538942724, 7261130.0 ], [ 529168.895414074067958, 7261140.0 ], [ 529166.329821285791695, 7261150.0 ], [ 529163.233369000954553, 7261160.0 ], [ 529159.989718034281395, 7261170.0 ], [ 529156.688872555969283, 7261180.0 ], [ 529153.299061057041399, 7261190.0 ], [ 529149.923133767442778, 7261200.0 ], [ 529146.319539319956675, 7261210.000000000931323 ], [ 529142.129675285425037, 7261220.0 ], [ 529137.433515001088381, 7261230.0 ], [ 529132.566484998911619, 7261240.0 ], [ 529127.869432503939606, 7261250.0 ], [ 529123.670178714208305, 7261260.0 ], [ 529120.000892210751772, 7261270.0 ], [ 529116.340103251626715, 7261280.0 ], [ 529112.206541518098675, 7261290.0 ], [ 529107.793458481901325, 7261300.0 ], [ 529103.659896748373285, 7261310.000000000931323 ], [ 529100.0, 7261320.0 ], [ 529096.340103251626715, 7261330.0 ], [ 529092.20654151821509, 7261340.0 ], [ 529087.793458481901325, 7261350.0 ], [ 529083.659896748373285, 7261360.0 ], [ 529080.0, 7261370.0 ], [ 529076.340103251626715, 7261380.0 ], [ 529072.20654151821509, 7261390.0 ], [ 529067.794350692536682, 7261400.0 ], [ 529063.670178714208305, 7261410.0 ], [ 529060.075974022038281, 7261420.0 ], [ 529056.700938943075016, 7261430.0 ], [ 529053.310235233511776, 7261440.0 ], [ 529050.0, 7261450.0 ], [ 529046.690656977239996, 7261460.0 ], [ 529043.31023523339536, 7261470.000000000931323 ], [ 529040.01028196583502, 7261480.0 ], [ 529036.766630999278277, 7261490.0 ], [ 529033.670178714208305, 7261500.0 ], [ 529031.104585926048458, 7261510.0 ], [ 529028.907480461173691, 7261520.0 ], [ 529026.416969484183937, 7261530.0 ], [ 529023.680460680043325, 7261540.0 ], [ 529021.530221462948248, 7261550.0 ], [ 529020.359943480812944, 7261560.000000000931323 ], [ 529019.640056519303471, 7261570.0 ], [ 529018.470670747803524, 7261580.0 ], [ 529016.330713496543467, 7261590.0 ], [ 529013.671070924960077, 7261600.0 ], [ 529011.551677605253644, 7261610.0 ], [ 529010.534239877597429, 7261620.0 ], [ 529010.534239877597429, 7261630.0 ], [ 529011.552569815889001, 7261640.0 ], [ 529013.682245101314038, 7261650.0 ], [ 529016.417861694935709, 7261660.0 ], [ 529018.917762426892295, 7261670.0 ], [ 529021.180559948086739, 7261680.0 ], [ 529024.031014405656606, 7261690.0 ], [ 529027.871216925326735, 7261700.0 ], [ 529032.227997660404071, 7261710.0 ], [ 529036.428143660770729, 7261720.0 ], [ 529040.447983889840543, 7261730.000000000931323 ], [ 529045.210682142875157, 7261740.0 ], [ 529051.540503428783268, 7261750.0 ], [ 529058.907480461173691, 7261760.0 ], [ 529065.980159770813771, 7261770.0 ], [ 529072.129675285425037, 7261780.0 ], [ 529077.772002339595929, 7261790.0 ], [ 529083.570964128593914, 7261800.0 ], [ 529089.54084193368908, 7261810.0 ], [ 529094.701277447980829, 7261820.0 ], [ 529098.000338505022228, 7261830.0 ], [ 529099.453693735413253, 7261840.000000000931323 ], [ 529099.813637216109782, 7261850.0 ], [ 529099.528775546583347, 7261860.0 ], [ 529098.360281985718757, 7261870.0 ], [ 529095.79468919755891, 7261880.0 ], [ 529091.671409429865889, 7261890.0 ], [ 529086.241780876647681, 7261900.0 ], [ 529079.987933612894267, 7261910.0 ], [ 529073.659004537737928, 7261920.0 ], [ 529067.793458481901325, 7261930.0 ], [ 529062.205649307463318, 7261940.0 ], [ 529056.329821285791695, 7261950.0 ], [ 529049.924918188713491, 7261960.0 ], [ 529043.31023523339536, 7261970.0 ], [ 529036.776912964996882, 7261980.0 ], [ 529030.447983889840543, 7261990.0 ], [ 529024.861020627897233, 7262000.0 ], [ 529020.447983889840543, 7262010.0 ], [ 529016.777805175632238, 7262020.0 ], [ 529013.320517199346796, 7262030.0 ], [ 529010.000892210751772, 7262040.0 ], [ 529006.68976476660464, 7262050.0 ], [ 529003.298168846406043, 7262060.0 ], [ 528999.912851801607758, 7262070.0 ], [ 528996.242673087399453, 7262080.0 ], [ 528991.758557628258131, 7262090.0 ], [ 528986.252955053118058, 7262100.0 ], [ 528979.98971803416498, 7262110.0 ], [ 528973.670178714208305, 7262119.999107789248228 ], [ 528967.881498891045339, 7262129.987933613359928 ], [ 528962.664807373890653, 7262139.900785414502025 ], [ 528957.968647089437582, 7262149.453693734481931 ], [ 528954.129336780519225, 7262157.913190307095647 ], [ 528951.628543837927282, 7262164.243011592887342 ] ] } },
{ "type": "Feature", "properties": { "id": 11, "reference_id": 2, "dune_id": 2, "dune_name": "Big Mommy Dune", "acquisition_date": "2018-01-22", "length_m": 382.77917249115609 }, "geometry": { "type": "LineString", "coordinates": [ [ 528754.243011592305265, 7260848.448322394862771 ], [ 528747.91319030651357, 7260846.241780877113342 ], [ 528739.453693735180423, 7260843.211912859231234 ], [ 528729.900785414502025, 7260839.911959590390325 ], [ 528719.987933612894267, 7260836.318647108972073 ], [ 528709.999107789248228, 7260832.128783075138927 ], [ 528700.0, 7260827.423233035951853 ], [ 528690.0, 7260822.489618766121566 ], [ 528680.0, 7260817.499207057058811 ], [ 528670.0, 7260812.499900732189417 ], [ 528660.0, 7260807.500099267810583 ], [ 528650.0, 7260802.499900732189417 ], [ 528640.0, 7260797.499207057990134 ], [ 528630.0, 7260792.489618767052889 ], [ 528620.0, 7260787.423233035951853 ], [ 528610.0, 7260782.128783075138927 ], [ 528600.0, 7260776.319539319723845 ], [ 528590.0, 7260769.923133767209947 ], [ 528580.0, 7260763.299061057157815 ], [ 528570.0, 7260756.689764766953886 ], [ 528560.0, 7260750.0 ], [ 528550.0, 7260743.309343023225665 ], [ 528540.0, 7260736.689764766953886 ], [ 528530.0, 7260729.989718034863472 ], [ 528520.0, 7260723.233369001187384 ], [ 528510.0, 7260716.329821286723018 ], [ 528500.0, 7260708.896306284703314 ], [ 528490.0, 7260701.103693716228008 ], [ 528480.0, 7260693.670178715139627 ], [ 528470.000892210751772, 7260686.766630999743938 ], [ 528460.012066387105733, 7260680.0111741758883 ], [ 528450.099214585614391, 7260673.322301620617509 ], [ 528440.546306264819577, 7260666.788979352451861 ], [ 528432.08680969348643, 7260660.535132088698447 ], [ 528425.756988407694735, 7260655.309004518203437 ] ] } },
{ "type": "Feature", "properties": { "id": 12, "reference_id": 2, "dune_id": 2, "dune_name": "Big Mommy Dune", "acquisition_date": "2018-01-22", "length_m": 184.98903204527858 }, "geometry": { "type": "LineString", "coordinates": [ [ 528805.756988407694735, 7260871.551677605137229 ], [ 528812.08680969348643, 7260873.757326913066208 ], [ 528820.546306264819577, 7260876.776912964880466 ], [ 528830.099214585614391, 7260880.000892210751772 ], [ 528840.012066387105733, 7260883.234261211007833 ], [ 528850.000892210751772, 7260886.329821286723018 ], [ 528860.0, 7260888.895414073951542 ], [ 528870.0, 7260891.093411749228835 ], [ 528880.0, 7260893.594204692170024 ], [ 528890.0, 7260896.405795307829976 ], [ 528900.0, 7260898.905696040019393 ], [ 528910.0, 7260901.094303959980607 ], [ 528920.0, 7260903.594204693101346 ], [ 528930.0, 7260906.405795308761299 ], [ 528939.999107789364643, 7260908.905696040019393 ], [ 528949.987933612894267, 7260911.093411749228835 ], [ 528959.900785414502025, 7260913.583030516281724 ], [ 528969.453693735180423, 7260916.318647108972073 ], [ 528977.913190306629986, 7260918.458604359999299 ], [ 528984.243011592421681, 7260919.552908321842551 ] ] } }
]
}
