{
"type": "FeatureCollection",
"name": "crests_2020_03_2020-03-15",
"crs": { "type": "name", "properties": { "name": "urn:ogc:def:crs:EPSG::32733" } },
"features": [
{ "type": "Feature", "properties": { "id": 0, "reference_id": 1, "dune_id": 1, "dune_name": "Big Mommy Dune", "acquisition_date": "2020-03-15", "length_m": 717.35030034293561 }, "geometry": { "type": "LineString", "coordinates": [ [ 529020.0, 7261555.756988408043981 ], [ 529020.0, 7261562.086809693835676 ], [ 529020.0, 7261570.546306264586747 ], [ 529020.0, 7261580.099214585497975 ], [ 529020.0, 7261590.012066387571394 ], [ 529020.0, 7261600.000892210751772 ], [ 529020.0, 7261610.0 ], [ 529020.0, 7261620.0 ], [ 529020.000892210751772, 7261630.0 ], [ 529020.011174176470377, 7261640.0 ], [ 529020.088040409144014, 7261650.0 ], [ 529020.458265855675563, 7261660.0 ], [ 529021.628543837927282, 7261670.0 ], [ 529024.128444569883868, 7261680.0 ], [ 529027.958365123718977, 7261690.0 ], [ 529032.588833351852372, 7261700.0 ], [ 529037.521555410232395, 7261710.0 ], [ 529042.577659175381996, 7261720.0 ], [ 529047.870324714458548, 7261730.000000000931323 ], [ 529053.670178714208305, 7261740.0 ], [ 529060.0, 7261750.0 ], [ 529066.329821285791695, 7261760.0 ], [ 529072.129675285425037, 7261770.0 ], [ 529077.42234082473442, 7261780.0 ], [ 529082.479336800519377, 7261790.0 ], [ 529087.421448613982648, 7261800.0 ], [ 529092.117608898319304, 7261810.0 ], [ 529096.231498910929076, 7261820.0 ], [ 529099.463975701015443, 7261830.0 ], [ 529101.660235253395513, 7261840.000000000931323 ], [ 529102.483561753528193, 7261850.0 ], [ 529101.660235253395513, 7261860.0 ], [ 529099.463975701015443, 7261870.0 ], [ 529096.23060670029372, 7261880.0 ], [ 529092.107326932600699, 7261890.0 ], [ 529087.345474592060782, 7261900.0 ], [ 529082.118501109071076, 7261910.0 ], [ 529076.317754898685962, 7261920.0 ], [ 529069.912851801607758, 7261930.0 ], [ 529063.223087035003118, 7261940.0 ], [ 529056.329821285791695, 7261950.0 ], [ 529048.907480461173691, 7261960.0 ], [ 529041.190841913688928, 7261970.0 ], [ 529034.118162604048848, 7261980.0 ], [ 529028.318308604415506, 7261990.0 ], [ 529023.767608878435567, 7262000.0 ], [ 529020.088040409144014, 7262010.0 ], [ 529016.701831153826788, 7262020.0 ], [ 529013.310235233511776, 7262030.0 ], [ 529009.999107789364643, 7262040.0 ], [ 529006.67948280076962, 7262050.0 ], [ 529003.222194824367762, 7262060.0 ], [ 528999.552908320911229, 7262070.0 ], [ 528995.149261337821372, 7262080.0 ], [ 528989.628882342833094, 7262090.0 ], [ 528983.593312481534667, 7262100.0 ], [ 528977.859150538104586, 7262110.0 ], [ 528972.564700577524491, 7262120.0 ], [ 528967.42234082473442, 7262129.999107789248228 ], [ 528962.042527087032795, 7262139.9888258241117 ], [ 528955.871555430116132, 7262149.912851801142097 ], [ 528948.37234837282449, 7262159.552016110159457 ], [ 528939.553800531546585, 7262168.447430185042322 ], [ 528930.011174176470377, 7262176.230606701225042 ], [ 528920.535132088349201, 7262183.123872449621558 ], [ 528912.085917482851073, 7262189.453693735413253 ], [ 528905.756988407694735, 7262194.690103271976113 ] ] } },
{ "type": "Feature", "properties": { "id": 1, "reference_id": 1, "dune_id": 1, "dune_name": "Big Mommy Dune", "acquisition_date": "2020-03-15", "length_m": 445.85532043662135 }, "geometry": { "type": "LineString", "coordinates": [ [ 529179.912851801607758, 7261105.756988408043981 ], [ 529179.552016110159457, 7261112.086809692904353 ], [ 529178.448322394862771, 7261120.546306265518069 ], [ 529176.242673087399453, 7261130.099214586429298 ], [ 529173.222194824367762, 7261140.012066387571394 ], [ 529169.988825823529623, 7261150.000892210751772 ], [ 529166.688872555969283, 7261160.0 ], [ 529163.299061057041399, 7261170.0 ], [ 529159.924025978078134, 7261180.0 ], [ 529156.329821285791695, 7261190.0 ], [ 529152.204757096711546, 7261200.0 ], [ 529147.783176516066305, 7261210.000000000931323 ], [ 529143.583922726451419, 7261220.0 ], [ 529139.639164308551699, 7261230.0 ], [ 529135.236409536330029, 7261240.0 ], [ 529130.000892210751772, 7261250.0 ], [ 529124.773872429504991, 7261260.0 ], [ 529120.436809713370167, 7261270.0 ], [ 529116.776020754361525, 7261280.0 ], [ 529113.310235233511776, 7261290.0 ], [ 529109.924918188713491, 7261300.0 ], [ 529106.329821285791695, 7261310.000000000931323 ], [ 529102.205649307463318, 7261320.0 ], [ 529097.793458481901325, 7261330.0 ], [ 529093.6598967484897, 7261340.0 ], [ 529089.999107789248228, 7261350.0 ], [ 529086.329821285791695, 7261360.0 ], [ 529082.130567496176809, 7261370.0 ], [ 529077.433515001088381, 7261380.0 ], [ 529072.566484998911619, 7261390.0 ], [ 529067.870324714574963, 7261400.0 ], [ 529063.68046067992691, 7261410.0 ], [ 529060.076866232673638, 7261420.0 ], [ 529056.700938943075016, 7261430.0 ], [ 529053.311127444147132, 7261440.0 ], [ 529050.01028196583502, 7261450.0 ], [ 529046.766630999161862, 7261460.0 ], [ 529043.670178714208305, 7261470.000000000931323 ], [ 529041.104585926048458, 7261479.999107789248228 ], [ 529038.907480461057276, 7261489.987933613359928 ], [ 529036.416969484183937, 7261499.900785414502025 ], [ 529033.681352890795097, 7261509.453693735413253 ], [ 529031.54139563953504, 7261517.913190307095647 ], [ 529030.447091679205187, 7261524.243011592887342 ] ] } },
{ "type": "Feature", "properties": { "id": 2, "reference_id": 1, "dune_id": 1, "dune_name": "Big Mommy Dune", "acquisition_date": "2020-03-15", "length_m": 76.969332027381398 }, "geometry": { "type": "LineString", "coordinates": [ [ 529174.706306282314472, 7260998.921899050474167 ], [ 529175.516442247782834, 7261003.921899050474167 ], [ 529177.187221198691987, 7261011.316557979211211 ], [ 529179.13013409008272, 7261020.322760425508022 ], [ 529181.136985848774202, 7261030.054748276248574 ], [ 529183.588617603993043, 7261039.99441291205585 ], [ 529186.319093214697205, 7261049.901231519877911 ], [ 529188.458604360697791, 7261059.453693735413253 ], [ 529189.552908320911229, 7261067.913190307095647 ], [ 529189.912851801607758, 7261074.243011591956019 ] ] } },
{ "type": "Feature", "properties": { "id": 3, "reference_id": 8, "dune_id": 8, "dune_name": "Inverted Y Dune", "acquisition_date": "2020-03-15", "length_m": 425.4261179194155 }, "geometry": { "type": "LineString", "coordinates": [ [ 530264.243011592421681, 7261221.639718014746904 ], [ 530257.913190306629986, 7261224.216484978795052 ], [ 530249.453693735180423, 7261228.416630979627371 ], [ 530239.900785414502025, 7261234.216484978795052 ], [ 530229.987933612777852, 7261241.639718014746904 ], [ 530219.999107789248228, 7261250.459158066660166 ], [ 530210.000892210751772, 7261260.088040409609675 ], [ 530200.011174176586792, 7261270.011174176819623 ], [ 530190.088040409144014, 7261280.000892210751772 ], [ 530180.45915806631092, 7261290.0 ], [ 530171.638825803645886, 7261300.0 ], [ 530164.20531080244109, 7261310.000000000931323 ], [ 530158.329482780885883, 7261320.0 ], [ 530153.768501089187339, 7261330.0 ], [ 530150.088040409144014, 7261340.0 ], [ 530146.701831153710373, 7261350.0 ], [ 530143.311127444263548, 7261360.0 ], [ 530140.01028196583502, 7261370.0 ], [ 530136.766630999278277, 7261380.0 ], [ 530133.670178714208305, 7261390.0 ], [ 530131.104585926048458, 7261400.0 ], [ 530128.907480461173691, 7261410.0 ], [ 530126.416969484183937, 7261420.0 ], [ 530123.680460680043325, 7261430.0 ], [ 530121.530221462948248, 7261440.0 ], [ 530120.359943480812944, 7261450.0 ], [ 530119.640056519303471, 7261460.0 ], [ 530118.470670747803524, 7261470.000000000931323 ], [ 530116.330713496543467, 7261480.0 ], [ 530113.670178714208305, 7261490.0 ], [ 530111.540503428666852, 7261500.0 ], [ 530110.447091679205187, 7261510.0 ], [ 530110.086255987756886, 7261520.0 ], [ 530110.0, 7261530.0 ], [ 530109.913744012243114, 7261539.999553894624114 ], [ 530109.552908320911229, 7261549.993520701304078 ], [ 530108.459496571333148, 7261559.944359513930976 ], [ 530106.329821285791695, 7261569.6772395754233 ], [ 530103.670178714208305, 7261578.683442020788789 ], [ 530101.540503428783268, 7261586.078100949525833 ], [ 530100.447091679205187, 7261591.078100949525833 ] ] } },
{ "type": "Feature", "properties": { "id": 4, "reference_id": 8, "dune_id": 8, "dune_name": "Inverted Y Dune", "acquisition_date": "2020-03-15", "length_m": 169.83702942795287 }, "geometry": { "type": "LineString", "coordinates": [ [ 530554.243011592305265, 7261172.085917483083904 ], [ 530547.91319030651357, 7261175.744922020472586 ], [ 530539.453693735296838, 7261181.987595107406378 ], [ 530529.900785414385609, 7261190.0 ], [ 530519.987933612894267, 7261198.012404892593622 ], [ 530509.999107789248228, 7261204.255077979527414 ], [ 530500.0, 7261207.914082517847419 ], [ 530490.0, 7261209.453693735413253 ], [ 530480.0, 7261209.900785414502025 ], [ 530470.0, 7261209.987933613359928 ], [ 530460.0, 7261209.999107790179551 ], [ 530450.0, 7261210.000000000931323 ], [ 530440.000892210751772, 7261210.000000000931323 ], [ 530430.012066387222148, 7261210.000000000931323 ], [ 530420.099214585614391, 7261210.000000000931323 ], [ 530410.546306264819577, 7261210.000000000931323 ], [ 530402.08680969348643, 7261210.000000000931323 ], [ 530395.756988407694735, 7261210.000000000931323 ] ] } },
{ "type": "Feature", "properties": { "id": 5, "reference_id": 9, "dune_id": 9, "dune_name": "Inverted Y Dune", "acquisition_date": "2020-03-15", "length_m": 742.8051165690315 }, "geometry": { "type": "LineString", "coordinates": [ [ 530097.91319030651357, 7261598.834750852547586 ], [ 530094.243011592421681, 7261603.473915160633624 ], [ 530087.913190306629986, 7261609.764880374073982 ], [ 530079.453693735180423, 7261616.564541302621365 ], [ 530069.900785414502025, 7261623.267553345300257 ], [ 530059.987933612894267, 7261629.919331100769341 ], [ 530049.999107789364643, 7261636.329375180415809 ], [ 530040.0, 7261642.205649307928979 ], [ 530030.0, 7261647.794350693002343 ], [ 530020.0, 7261653.670178714208305 ], [ 530010.0, 7261660.075974022969604 ], [ 530000.0, 7261666.700938943773508 ], [ 529990.0, 7261673.310235233977437 ], [ 529980.0, 7261680.0 ], [ 529970.0, 7261686.690656976774335 ], [ 529960.0, 7261693.310235233977437 ], [ 529950.0, 7261700.011174177750945 ], [ 529940.0, 7261706.777805175632238 ], [ 529930.0, 7261713.757326913066208 ], [ 529920.0, 7261721.551677605137229 ], [ 529910.0, 7261730.447983890771866 ], [ 529900.0, 7261740.087148198857903 ], [ 529890.0, 7261750.011174176819623 ], [ 529880.0, 7261760.000892210751772 ], [ 529870.000892210751772, 7261770.0 ], [ 529860.011174176470377, 7261780.0 ], [ 529850.087148198392242, 7261790.0 ], [ 529840.447091679205187, 7261800.0 ], [ 529831.541395639418624, 7261810.0 ], [ 529823.682245101314038, 7261820.0 ], [ 529816.428143660770729, 7261830.0 ], [ 529808.994628659682348, 7261840.000000000931323 ], [ 529801.552569815889001, 7261850.0 ], [ 529795.222748530097306, 7261860.0 ], [ 529790.534239877597429, 7261870.0 ], [ 529786.864061163389124, 7261880.0 ], [ 529783.682245101314038, 7261890.0 ], [ 529781.104585926048458, 7261900.0 ], [ 529778.896306284703314, 7261910.0 ], [ 529776.328929075039923, 7261920.0 ], [ 529773.223087035119534, 7261930.0 ], [ 529769.912851801607758, 7261940.0 ], [ 529766.318647109437734, 7261950.0 ], [ 529762.128783074906096, 7261960.0 ], [ 529757.423233035253361, 7261970.0 ], [ 529752.489618766237982, 7261980.0 ], [ 529747.499207057408057, 7261990.0 ], [ 529742.500792942708358, 7262000.0 ], [ 529737.510381233762018, 7262010.0 ], [ 529732.576766964630224, 7262020.0 ], [ 529727.871216925210319, 7262030.0 ], [ 529723.680460680043325, 7262040.0 ], [ 529720.076866232790053, 7262050.0 ], [ 529716.700046732323244, 7262060.0 ], [ 529713.299953267676756, 7262070.0 ], [ 529709.923133767442778, 7262080.0 ], [ 529706.31953932007309, 7262090.0 ], [ 529702.128783074789681, 7262100.0 ], [ 529697.423233035369776, 7262110.0 ], [ 529692.490510976873338, 7262120.0 ], [ 529687.510381233762018, 7262129.999107789248228 ], [ 529682.5879411411006, 7262139.987933613359928 ], [ 529677.958365123602562, 7262149.900785414502025 ], [ 529674.128444569883868, 7262159.453693735413253 ], [ 529671.628543837810867, 7262167.913190307095647 ], [ 529670.458265855675563, 7262174.243011591956019 ] ] } },
{ "type": "Feature", "properties": { "id": 6, "reference_id": 3, "dune_id": 3, "dune_name": "Big Mommy Dune", "acquisition_date": "2020-03-15", "length_m": 358.78041851782319 }, "geometry": { "type": "LineString", "coordinates": [ [ 529374.243011592305265, 7260695.756988408043981 ], [ 529367.91319030651357, 7260702.086809693835676 ], [ 529359.453693735180423, 7260710.546306265518069 ], [ 529349.901677625253797, 7260720.099214585497975 ], [ 529339.999107789364643, 7260730.012066388502717 ], [ 529330.086255987756886, 7260740.000892210751772 ], [ 529320.447983889956959, 7260750.0 ], [ 529311.551677605253644, 7260760.0 ], [ 529303.757326912600547, 7260770.0 ], [ 529296.777805175632238, 7260780.000000000931323 ], [ 529290.011174176470377, 7260790.0 ], [ 529283.311127444263548, 7260800.0 ], [ 529276.700938943075016, 7260810.0 ], [ 529270.075974022038281, 7260820.0 ], [ 529263.670178714208305, 7260830.0 ], [ 529257.794350692653097, 7260840.0 ], [ 529252.205649307463318, 7260850.0 ], [ 529246.32982128590811, 7260860.0 ], [ 529239.924025977961719, 7260870.0 ], [ 529233.299953267676756, 7260880.0 ], [ 529226.700046732323244, 7260890.0 ], [ 529220.075974022038281, 7260900.0 ], [ 529213.670178714208305, 7260910.0 ], [ 529207.795242903288454, 7260920.0 ], [ 529202.217715694569051, 7260930.0 ], [ 529196.427697555394843, 7260939.999553894624114 ], [ 529190.453570978133939, 7260949.993520701304078 ], [ 529185.25514845282305, 7260959.944359514862299 ], [ 529181.77522344479803, 7260969.6772395754233 ], [ 529179.764880373957567, 7260978.683442020788789 ], [ 529178.263233017874882, 7260986.078100949525833 ], [ 529176.847155744209886, 7260991.078100949525833 ] ] } },
{ "type": "Feature", "properties": { "id": 7, "reference_id": 3, "dune_id": 3, "dune_name": "Big Mommy Dune", "acquisition_date": "2020-03-15", "length_m": 215.0215565901816 }, "geometry": { "type": "LineString", "coordinates": [ [ 529405.756988407694735, 7260679.552016109228134 ], [ 529412.08680969348643, 7260678.448322394862771 ], [ 529420.546306264819577, 7260676.242673087865114 ], [ 529430.099214585614391, 7260673.222194824367762 ], [ 529440.012066387222148, 7260669.9888258241117 ], [ 529450.000892210751772, 7260666.689764766953886 ], [ 529460.0, 7260663.310235233977437 ], [ 529470.0, 7260660.010281966067851 ], [ 529480.0, 7260656.766630999743938 ], [ 529490.0, 7260653.670178714208305 ], [ 529500.000000000116415, 7260651.10458592697978 ], [ 529510.0, 7260648.907480461522937 ], [ 529520.0, 7260646.416077273897827 ], [ 529530.0, 7260643.670178715139627 ], [ 529540.0, 7260641.454247441142797 ], [ 529550.0, 7260640.0 ], [ 529560.0, 7260638.546644769608974 ], [ 529569.999107789248228, 7260636.340995462611318 ], [ 529579.987933612894267, 7260633.671070925891399 ], [ 529589.900785414502025, 7260631.540503429248929 ], [ 529599.453693735180423, 7260630.447091680020094 ], [ 529607.91319030651357, 7260630.087148198857903 ], [ 529614.243011592421681, 7260630.011174176819623 ] ] } },
{ "type": "Feature", "properties": { "id": 8, "reference_id": 3, "dune_id": 3, "dune_name": "Big Mommy Dune", "acquisition_date": "2020-03-15", "length_m": 399.41494234965887 }, "geometry": { "type": "LineString", "coordinates": [ [ 529645.756988407694735, 7260620.0 ], [ 529652.08680969348643, 7260620.0 ], [ 529660.546306264819577, 7260619.999107790179551 ], [ 529670.099214585614391, 7260619.9888258241117 ], [ 529680.012066387222148, 7260619.912851802073419 ], [ 529690.000892210751772, 7260619.552908320911229 ], [ 529700.0, 7260618.459496571682394 ], [ 529710.0, 7260616.329821286723018 ], [ 529720.0, 7260613.670178715139627 ], [ 529730.0, 7260611.540503429248929 ], [ 529740.0, 7260610.447091680020094 ], [ 529750.0, 7260610.087148198857903 ], [ 529760.0, 7260610.011174176819623 ], [ 529770.0, 7260610.000892210751772 ], [ 529780.0, 7260610.0 ], [ 529790.0, 7260610.0 ], [ 529800.0, 7260610.0 ], [ 529810.0, 7260610.0 ], [ 529820.0, 7260610.0 ], [ 529830.0, 7260610.0 ], [ 529840.0, 7260610.0 ], [ 529850.0, 7260610.0 ], [ 529860.0, 7260610.0 ], [ 529870.0, 7260610.0 ], [ 529880.0, 7260610.0 ], [ 529890.0, 7260610.0 ], [ 529900.0, 7260610.0 ], [ 529910.0, 7260610.0 ], [ 529920.0, 7260610.0 ], [ 529930.0, 7260610.0 ], [ 529940.0, 7260610.0 ], [ 529950.0, 7260610.0 ], [ 529960.0, 7260610.0 ], [ 529970.0, 7260610.0 ], [ 529980.0, 7260610.0 ], [ 529990.0, 7260610.0 ], [ 529999.999107789364643, 7260610.0 ], [ 530009.987933612894267, 7260610.0 ], [ 530019.900785414502025, 7260610.0 ], [ 530029.453693735180423, 7260610.0 ], [ 530037.91319030651357, 7260610.0 ], [ 530044.243011592305265, 7260610.0 ] ] } },
{ "type": "Feature", "properties": { "id": 9, "reference_id": 3, "dune_id": 3, "dune_name": "Big Mommy Dune", "acquisition_date": "2020-03-15", "length_m": 171.72668659567651 }, "geometry": { "type": "LineString", "coordinates": [ [ 530244.243011592421681, 7260570.087148198857903 ], [ 530237.91319030651357, 7260570.447091680020094 ], [ 530229.453693735180423, 7260571.540503429248929 ], [ 530219.900785414385609, 7260573.671070925891399 ], [ 530209.987933612894267, 7260576.340995462611318 ], [ 530199.999107789248228, 7260578.546644769608974 ], [ 530190.0, 7260580.0 ], [ 530180.0, 7260581.454247441142797 ], [ 530170.000000000116415, 7260583.670178714208305 ], [ 530160.0, 7260586.416077273897827 ], [ 530150.0, 7260588.906588250771165 ], [ 530140.0, 7260591.093411749228835 ], [ 530130.0, 7260593.583030516281724 ], [ 530120.000892210751772, 7260596.318647108972073 ], [ 530110.012066387222148, 7260598.458604360930622 ], [ 530100.099214585614391, 7260599.552908321842551 ], [ 530090.546306264819577, 7260599.912851802073419 ], [ 530082.08680969348643, 7260599.9888258241117 ], [ 530075.756988407694735, 7260599.999107789248228 ] ] } },
{ "type": "Feature", "properties": { "id": 10, "reference_id": 7, "dune_id": 7, "dune_name": "Inverted Y Dune", "acquisition_date": "2020-03-15", "length_m": 651.61631101096498 }, "geometry": { "type": "LineString", "coordinates": [ [ 530135.756988407694735, 7261648.459496572613716 ], [ 530142.08680969348643, 7261646.329821286723018 ], [ 530150.546306264819577, 7261643.671070925891399 ], [ 530160.099214585614391, 7261641.551677605137229 ], [ 530170.012066387222148, 7261640.534239877015352 ], [ 530180.000892210751772, 7261640.534239877015352 ], [ 530190.0, 7261641.551677605137229 ], [ 530200.0, 7261643.670178715139627 ], [ 530210.0, 7261646.318647109903395 ], [ 530220.0, 7261648.372348373755813 ], [ 530230.0, 7261649.105816641822457 ], [ 530240.0, 7261648.372348373755813 ], [ 530250.0, 7261646.317754899151623 ], [ 530260.0, 7261643.658112327568233 ], [ 530270.0, 7261641.453355230391026 ], [ 530280.0, 7261639.999107789248228 ], [ 530290.0, 7261638.535470593720675 ], [ 530300.0, 7261636.253847263753414 ], [ 530310.0, 7261633.223087035119534 ], [ 530320.0, 7261629.9888258241117 ], [ 530330.0, 7261626.689764766022563 ], [ 530340.0, 7261623.309343023225665 ], [ 530350.0, 7261619.999107789248228 ], [ 530360.0, 7261616.679482800886035 ], [ 530370.0, 7261613.222194824367762 ], [ 530380.0, 7261609.552908320911229 ], [ 530390.0, 7261605.149261338636279 ], [ 530400.0, 7261599.627990132197738 ], [ 530410.0, 7261593.582138305529952 ], [ 530420.0, 7261587.772002339363098 ], [ 530430.000000000116415, 7261582.117608899250627 ], [ 530440.0, 7261575.881837395951152 ], [ 530450.0, 7261568.372348373755813 ], [ 530460.0, 7261559.541734145022929 ], [ 530469.999107789364643, 7261549.911959590390325 ], [ 530479.988825823529623, 7261539.9888258241117 ], [ 530489.912851801607758, 7261529.999107789248228 ], [ 530499.552016110159457, 7261520.0 ], [ 530508.448322394862771, 7261510.0 ], [ 530516.242673087399453, 7261500.0 ], [ 530523.222194824367762, 7261490.0 ], [ 530529.988825823529623, 7261480.0 ], [ 530536.689764766488224, 7261470.000000000931323 ], [ 530543.309343022760004, 7261460.0 ], [ 530550.0, 7261450.0 ], [ 530556.690656977239996, 7261440.0 ], [ 530563.310235233511776, 7261430.0 ], [ 530570.011174176470377, 7261420.0 ], [ 530576.777805175632238, 7261410.0 ], [ 530583.757326912600547, 7261400.0 ], [ 530591.551677605137229, 7261390.0 ], [ 530600.447983889840543, 7261380.0 ], [ 530610.086255987756886, 7261370.000892210751772 ], [ 530619.999107789364643, 7261360.012066386640072 ], [ 530629.901677625137381, 7261350.099214585497975 ], [ 530639.453693735296838, 7261340.546306265518069 ], [ 530647.913190306629986, 7261332.086809693835676 ], [ 530654.243011592305265, 7261325.756988408043981 ] ] } },
{ "type": "Feature", "properties": { "id": 11, "reference_id": 5, "dune_id": 5, "dune_name": "The Star Dune", "acquisition_date": "2020-03-15", "length_m": 1137.3078669905615 }, "geometry": { "type": "LineString", "coordinates": [ [ 534334.789317857124843, 7261305.756988408043981 ], [ 534330.0, 7261312.086809693835676 ], [ 534325.210682142991573, 7261320.546306264586747 ], [ 534321.987595107872039, 7261330.099214585497975 ], [ 534320.534239877597429, 7261340.012066386640072 ], [ 534320.098322374862619, 7261350.000892210751772 ], [ 534320.012066387105733, 7261360.0 ], [ 534320.000892210751772, 7261370.0 ], [ 534320.000892210751772, 7261380.0 ], [ 534320.011174176470377, 7261390.0 ], [ 534320.087148198392242, 7261400.0 ], [ 534320.447091679205187, 7261410.0 ], [ 534321.540503428666852, 7261420.0 ], [ 534323.670178714208305, 7261430.0 ], [ 534326.329821285791695, 7261440.0 ], [ 534328.459496571333148, 7261450.0 ], [ 534329.552908320794813, 7261460.0 ], [ 534329.912851801607758, 7261470.000000000931323 ], [ 534329.988825823529623, 7261480.0 ], [ 534329.999107789364643, 7261490.0 ], [ 534329.999107789364643, 7261500.0 ], [ 534329.987933612894267, 7261510.0 ], [ 534329.900785414385609, 7261520.0 ], [ 534329.453693735296838, 7261530.0 ], [ 534327.91319030651357, 7261540.0 ], [ 534324.243011592421681, 7261550.0 ], [ 534317.91319030651357, 7261560.000000000931323 ], [ 534309.453693735296838, 7261569.999107789248228 ], [ 534299.900785414502025, 7261579.9888258241117 ], [ 534289.987933612894267, 7261589.912851802073419 ], [ 534279.999107789248228, 7261599.552016111090779 ], [ 534270.0, 7261608.448322394862771 ], [ 534260.0, 7261616.242673087865114 ], [ 534250.0, 7261623.222194824367762 ], [ 534240.0, 7261629.9888258241117 ], [ 534230.0, 7261636.688872556202114 ], [ 534220.0, 7261643.298168847337365 ], [ 534210.0, 7261649.911959591321647 ], [ 534200.0, 7261656.231498911976814 ], [ 534190.0, 7261661.670517219230533 ], [ 534180.0, 7261665.79558140784502 ], [ 534170.0, 7261668.37234837282449 ], [ 534160.0, 7261669.627990132197738 ], [ 534150.0, 7261670.359051270410419 ], [ 534140.0, 7261671.529329252429307 ], [ 534130.0, 7261673.669286503456533 ], [ 534120.0, 7261676.329821285791695 ], [ 534110.0, 7261678.460388781502843 ], [ 534100.0, 7261679.564082497730851 ], [ 534090.0, 7261680.0 ], [ 534080.0, 7261680.435917503200471 ], [ 534070.0, 7261681.539611218497157 ], [ 534060.0, 7261683.671070925891399 ], [ 534050.0, 7261686.340995462611318 ], [ 534040.0, 7261688.546644769608974 ], [ 534030.0, 7261690.0 ], [ 534020.0, 7261691.453355230391026 ], [ 534010.0, 7261693.659896749071777 ], [ 534000.0, 7261696.340103251859546 ], [ 533990.0, 7261698.546644769608974 ], [ 533980.0, 7261700.000892210751772 ], [ 533970.0, 7261701.464529407210648 ], [ 533960.0, 7261703.747044946998358 ], [ 533950.0, 7261706.787194930948317 ], [ 533940.0, 7261710.087148198857903 ], [ 533930.0, 7261713.671070924960077 ], [ 533920.0, 7261717.794350693002343 ], [ 533910.0, 7261722.206541517749429 ], [ 533900.0, 7261726.340103251859546 ], [ 533890.0, 7261730.000892211683095 ], [ 533880.0, 7261733.670178715139627 ], [ 533870.0, 7261737.870324715040624 ], [ 533860.0, 7261742.577659175731242 ], [ 533850.0, 7261747.521555410698056 ], [ 533840.0, 7261752.588833351619542 ], [ 533830.0, 7261757.958365123718977 ], [ 533820.0, 7261764.128444569185376 ], [ 533810.000892210635357, 7261771.628543837927282 ], [ 533800.012066387105733, 7261780.458265855908394 ], [ 533790.098322374979034, 7261790.088040409609675 ], [ 533780.535132088232785, 7261800.011174176819623 ], [ 533771.999661495094188, 7261810.000892210751772 ], [ 533765.309004517854191, 7261820.0 ], [ 533760.535132088349201, 7261830.0 ], [ 533756.78897935221903, 7261840.000000000931323 ], [ 533753.321409409982152, 7261850.0 ], [ 533750.0, 7261860.0 ], [ 533746.67948280076962, 7261870.0 ], [ 533743.222194824367762, 7261880.0 ], [ 533739.552908320911229, 7261890.0 ], [ 533735.149261337937787, 7261900.0 ], [ 533729.628882342833094, 7261910.0 ], [ 533723.593312481651083, 7261920.0 ], [ 533717.860042748739943, 7261930.0 ], [ 533712.575874753994867, 7261940.0 ], [ 533707.509489023126662, 7261950.0 ], [ 533702.490510976989754, 7261960.0 ], [ 533697.423233035369776, 7261970.0 ], [ 533692.129675285541452, 7261980.0 ], [ 533686.330713496543467, 7261989.999553894624114 ], [ 533680.011174176470377, 7261999.993520701304078 ], [ 533673.758219123352319, 7262009.944359513930976 ], [ 533668.328590570250526, 7262019.677239574491978 ], [ 533664.20531080244109, 7262028.683442020788789 ], [ 533661.638825803645886, 7262036.078100949525833 ], [ 533660.45915806631092, 7262041.078100949525833 ] ] } },
{ "type": "Feature", "properties": { "id": 12, "reference_id": 6, "dune_id": 6, "dune_name": "The Star Dune", "acquisition_date": "2020-03-15", "length_m": 896.15085162691162 }, "geometry": { "type": "LineString", "coordinates": [ [ 533658.470670747803524, 7262048.921899050474167 ], [ 533656.416969484300353, 7262053.921899050474167 ], [ 533654.117270393413492, 7262061.316557979211211 ], [ 533653.08100685745012, 7262070.322760425508022 ], [ 533654.117270393413492, 7262080.055640487000346 ], [ 533656.416969484300353, 7262090.006479298695922 ], [ 533658.470670747803524, 7262100.000446105375886 ], [ 533659.553800531546585, 7262110.0 ], [ 533659.912851801607758, 7262120.0 ], [ 533659.988825823529623, 7262130.0 ], [ 533659.999107789248228, 7262140.0 ], [ 533660.0, 7262150.0 ], [ 533660.0, 7262160.0 ], [ 533660.0, 7262170.0 ], [ 533660.000892210751772, 7262180.0 ], [ 533660.011174176470377, 7262190.0 ], [ 533660.087148198392242, 7262200.0 ], [ 533660.447091679088771, 7262210.0 ], [ 533661.540503428783268, 7262220.0 ], [ 533663.670178714208305, 7262230.0 ], [ 533666.330713496543467, 7262240.0 ], [ 533668.470670747803524, 7262250.0 ], [ 533669.640056519303471, 7262260.0 ], [ 533670.359943480696529, 7262270.0 ], [ 533671.529329252196476, 7262280.0 ], [ 533673.669286503456533, 7262290.0 ], [ 533676.329821285791695, 7262300.0 ], [ 533678.458604360697791, 7262310.0 ], [ 533679.541734144324437, 7262320.0 ], [ 533679.825703603215516, 7262330.0 ], [ 533679.541734144324437, 7262340.000000000931323 ], [ 533678.457712149946019, 7262350.0 ], [ 533676.318647109437734, 7262360.0 ], [ 533673.583030515816063, 7262370.0 ], [ 533671.093411749578081, 7262380.0 ], [ 533668.905696039786562, 7262390.0 ], [ 533666.405795307829976, 7262400.0 ], [ 533663.594204692286439, 7262410.0 ], [ 533661.093411749578081, 7262420.0 ], [ 533658.895414073951542, 7262430.0 ], [ 533656.329821285791695, 7262440.0 ], [ 533653.234261211473495, 7262450.0 ], [ 533650.0, 7262460.0 ], [ 533646.765738788526505, 7262470.0 ], [ 533643.670178714208305, 7262480.0 ], [ 533641.103693715413101, 7262490.0 ], [ 533638.896306284703314, 7262500.0 ], [ 533636.329821285791695, 7262510.0 ], [ 533633.234261211473495, 7262520.0 ], [ 533630.000892210751772, 7262530.0 ], [ 533626.77602075424511, 7262540.0 ], [ 533623.746152736130171, 7262550.0 ], [ 533621.464529406744987, 7262560.0 ], [ 533620.000892210635357, 7262570.0 ], [ 533618.54664476972539, 7262580.0 ], [ 533616.340995462378487, 7262590.0 ], [ 533613.670178714208305, 7262600.000000000931323 ], [ 533611.529329252312891, 7262610.0 ], [ 533610.359943480696529, 7262620.0 ], [ 533609.640056519303471, 7262630.0 ], [ 533608.470670747803524, 7262640.0 ], [ 533606.330713496543467, 7262650.0 ], [ 533603.670178714208305, 7262660.0 ], [ 533601.540503428783268, 7262670.0 ], [ 533600.44619946856983, 7262680.0 ], [ 533600.075974022038281, 7262690.0 ], [ 533599.924025978078134, 7262700.0 ], [ 533599.553800531546585, 7262710.0 ], [ 533598.459496571216732, 7262720.0 ], [ 533596.328929075039923, 7262730.0 ], [ 533593.659004537737928, 7262740.0 ], [ 533591.45335523027461, 7262750.0 ], [ 533589.999107789248228, 7262760.0 ], [ 533588.534578382503241, 7262770.0 ], [ 533586.242673087399453, 7262780.0 ], [ 533583.136831047362648, 7262790.0 ], [ 533579.552908320911229, 7262800.0 ], [ 533575.235517325578257, 7262810.0 ], [ 533570.075974022038281, 7262820.0 ], [ 533565.134708120953292, 7262830.0 ], [ 533561.541395639418624, 7262840.0 ], [ 533558.993736448930576, 7262850.0 ], [ 533556.428143660770729, 7262860.0 ], [ 533553.682245101314038, 7262870.000000000931323 ], [ 533551.54139563953504, 7262879.999107789248228 ], [ 533550.447091679205187, 7262889.987933613359928 ], [ 533550.087148198392242, 7262899.900785414502025 ], [ 533550.011174176470377, 7262909.453693736344576 ], [ 533550.000892210751772, 7262917.913190307095647 ], [ 533550.0, 7262924.243011591956019 ] ] } },
{ "type": "Feature", "properties": { "id": 13, "reference_id": 2, "dune_id": 2, "dune_name": "Big Mommy Dune", "acquisition_date": "2020-03-15", "length_m": 343.26170566158555 }, "geometry": { "type": "LineString", "coordinates": [ [ 528724.243011592421681, 7260838.372348373755813 ], [ 528717.91319030651357, 7260835.881837395951152 ], [ 528709.453693735180423, 7260832.118501109071076 ], [ 528699.900785414502025, 7260827.782284305430949 ], [ 528689.987933612894267, 7260823.658112327568233 ], [ 528679.999107789364643, 7260819.9888258241117 ], [ 528670.0, 7260816.252955053001642 ], [ 528660.0, 7260811.758557628840208 ], [ 528650.0, 7260806.242673087865114 ], [ 528640.0, 7260799.912851802073419 ], [ 528630.0, 7260793.299061058089137 ], [ 528620.0, 7260786.700046733021736 ], [ 528610.0, 7260780.075974022038281 ], [ 528600.0, 7260773.670178715139627 ], [ 528590.0, 7260767.794350693002343 ], [ 528580.0, 7260762.205649306997657 ], [ 528570.0, 7260756.328929075971246 ], [ 528560.0, 7260749.913744011893868 ], [ 528550.0, 7260743.223087035119534 ], [ 528540.0, 7260736.328929075971246 ], [ 528530.0, 7260728.895414074882865 ], [ 528520.0, 7260721.093411750160158 ], [ 528510.0, 7260713.594204692170024 ], [ 528500.0, 7260706.405795307829976 ], [ 528490.0, 7260698.905696040019393 ], [ 528480.000892210751772, 7260691.09430396091193 ], [ 528470.012066387105733, 7260683.595096902921796 ], [ 528460.099214585614391, 7260676.417861694470048 ], [ 528450.546306264819577, 7260669.004910625517368 ], [ 528442.08680969348643, 7260661.639718014746904 ], [ 528435.756988407694735, 7260655.669840209186077 ] ] } },
{ "type": "Feature", "properties": { "id": 14, "reference_id": 2, "dune_id": 2, "dune_name": "Big Mommy Dune", "acquisition_date": "2020-03-15", "length_m": 133.71789320982694 }, "geometry": { "type": "LineString", "coordinates": [ [ 528875.756988407694735, 7260883.671070925891399 ], [ 528882.08680969348643, 7260886.340995462611318 ], [ 528890.546306264819577, 7260888.546644769608974 ], [ 528900.099214585614391, 7260890.000892210751772 ], [ 528910.012066387105733, 7260891.464529406279325 ], [ 528920.000892210635357, 7260893.746152736246586 ], [ 528930.0, 7260896.776912964880466 ], [ 528940.0, 7260900.011174176819623 ], [ 528950.0, 7260903.310235233977437 ], [ 528959.999107789364643, 7260906.689764766953886 ], [ 528969.987933612894267, 7260909.9888258241117 ], [ 528979.900785414502025, 7260913.222194824367762 ], [ 528989.453693735296838, 7260916.242673087865114 ], [ 528997.913190306629986, 7260918.448322394862771 ], [ 529004.243011592421681, 7260919.552016111090779 ] ] } },
{ "type": "Feature", "properties": { "id": 15, "reference_id": 4, "dune_id": 4, "dune_name": "The Star Dune", "acquisition_date": "2020-03-15", "length_m": 590.61811658475995 }, "geometry": { "type": "LineString", "coordinates": [ [ 533574.243011592421681, 7262047.924364482983947 ], [ 533567.91319030651357, 7262044.331052001565695 ], [ 533559.453693735296838, 7262038.372348373755813 ], [ 533549.900785414502025, 7262031.092519538477063 ], [ 533539.987933612894267, 7262024.106096217408776 ], [ 533529.999107789248228, 7262018.317416394129395 ], [ 533520.0, 7262013.767608879134059 ], [ 533510.0, 7262010.088040409609675 ], [ 533500.0, 7262006.70183115452528 ], [ 533490.0, 7262003.310235233977437 ], [ 533480.0, 7262000.0 ], [ 533470.0, 7261996.690656976774335 ], [ 533460.0, 7261993.309343023225665 ], [ 533450.0, 7261990.0 ], [ 533440.0, 7261986.690656976774335 ], [ 533430.0, 7261983.309343023225665 ], [ 533420.0, 7261980.0 ], [ 533410.0, 7261976.690656977705657 ], [ 533400.000000000116415, 7261973.310235233977437 ], [ 533390.0, 7261970.010281966067851 ], [ 533380.000000000116415, 7261966.766630999743938 ], [ 533370.0, 7261963.670178714208305 ], [ 533360.0, 7261961.103693716228008 ], [ 533350.0, 7261958.896306285634637 ], [ 533340.0, 7261956.328929075971246 ], [ 533330.0, 7261953.223087035119534 ], [ 533320.0, 7261949.913744011893868 ], [ 533310.0, 7261946.329821284860373 ], [ 533300.0, 7261942.216823483817279 ], [ 533290.0, 7261937.880606681108475 ], [ 533280.0, 7261934.106988428160548 ], [ 533270.0, 7261931.539611218497157 ], [ 533260.0, 7261930.0 ], [ 533250.0, 7261928.460388782434165 ], [ 533240.0, 7261925.893011572770774 ], [ 533230.0, 7261922.11939332075417 ], [ 533220.0, 7261917.783176517114043 ], [ 533210.0, 7261913.670178715139627 ], [ 533200.0, 7261910.086255988106132 ], [ 533190.0, 7261906.776912964880466 ], [ 533180.0, 7261903.671070925891399 ], [ 533170.0, 7261901.103693715296686 ], [ 533160.0, 7261898.896306284703314 ], [ 533150.0, 7261896.329821286723018 ], [ 533140.0, 7261893.234261211939156 ], [ 533130.0, 7261890.000892210751772 ], [ 533120.0, 7261886.776912964880466 ], [ 533110.0, 7261883.756434702314436 ], [ 533100.0, 7261881.540503429248929 ], [ 533090.0, 7261880.360835691913962 ], [ 533080.0, 7261879.640056519769132 ], [ 533070.0, 7261878.470670748502016 ], [ 533060.000892210751772, 7261876.33071349747479 ], [ 533050.012066387105733, 7261873.670178715139627 ], [ 533040.099214585614391, 7261871.540503429248929 ], [ 533030.546306264819577, 7261870.447091680020094 ], [ 533022.08680969348643, 7261870.087148198857903 ], [ 533015.756988407694735, 7261870.011174177750945 ] ] } }
]
}
