{
"type": "FeatureCollection",
"name": "crests_2025_04_2025-04-13",
"crs": { "type": "name", "properties": { "name": "urn:ogc:def:crs:EPSG::32733" } },
"features": [
{ "type": "Feature", "properties": { "id": 0, "reference_id": 4, "dune_id": 4, "dune_name": "The Star Dune", "acquisition_date": "2025-04-13", "length_m": 340.99724201271277 }, "geometry": { "type": "LineString", "coordinates": [ [ 533334.243011592421681, 7261959.541734144091606 ], [ 533327.91319030651357, 7261958.37234837282449 ], [ 533319.453693735296838, 7261955.881837395951152 ], [ 533309.900785414502025, 7261952.118501109071076 ], [ 533299.987933612894267, 7261947.783176515251398 ], [ 533289.999107789248228, 7261943.670178713276982 ], [ 533280.0, 7261940.086255988106132 ], [ 533270.0, 7261936.776912964880466 ], [ 533260.0, 7261933.671070925891399 ], [ 533250.0, 7261931.104585926048458 ], [ 533240.0, 7261928.906588250771165 ], [ 533230.0, 7261926.405795307829976 ], [ 533220.0, 7261923.594204692170024 ], [ 533210.0, 7261921.093411749228835 ], [ 533200.0, 7261918.895414073951542 ], [ 533190.0, 7261916.329821286723018 ], [ 533180.0, 7261913.234261212870479 ], [ 533170.0, 7261910.0 ], [ 533160.0, 7261906.765738788992167 ], [ 533150.0, 7261903.670178715139627 ], [ 533140.0, 7261901.104585926048458 ], [ 533130.0, 7261898.906588250771165 ], [ 533120.0, 7261896.405795307829976 ], [ 533110.0, 7261893.594204692170024 ], [ 533100.0, 7261891.094303959980607 ], [ 533090.0, 7261888.906588250771165 ], [ 533080.0, 7261886.416077273897827 ], [ 533070.0, 7261883.670178714208305 ], [ 533060.0, 7261881.454247441142797 ], [ 533050.000892210751772, 7261880.0 ], [ 533040.012066387105733, 7261878.546644769608974 ], [ 533030.099214585614391, 7261876.340995462611318 ], [ 533020.546306264819577, 7261873.671070925891399 ], [ 533012.08680969348643, 7261871.540503429248929 ], [ 533005.756988407694735, 7261870.447091680020094 ] ] } },
{ "type": "Feature", "properties": { "id": 1, "reference_id": 4, "dune_id": 4, "dune_name": "The Star Dune", "acquisition_date": "2025-04-13", "length_m": 134.40914355006046 }, "geometry": { "type": "LineString", "coordinates": [ [ 533494.243011592421681, 7262003.211912859231234 ], [ 533487.91319030651357, 7262004.701277447864413 ], [ 533479.453693735296838, 7262004.331052001565695 ], [ 533469.900785414385609, 7262001.595435408875346 ], [ 533459.987933612894267, 7261997.336084837093949 ], [ 533449.999107789364643, 7261992.564700578339398 ], [ 533440.0, 7261987.945406526327133 ], [ 533430.0, 7261984.041296372190118 ], [ 533420.0, 7261981.181452158838511 ], [ 533410.000892210751772, 7261978.917762426659465 ], [ 533400.012066387222148, 7261976.417861695401371 ], [ 533390.099214585614391, 7261973.681352891027927 ], [ 533380.546306264819577, 7261971.541395640000701 ], [ 533372.08680969348643, 7261970.447091680020094 ], [ 533365.756988407694735, 7261970.087148198857903 ] ] } },
{ "type": "Feature", "properties": { "id": 2, "reference_id": 4, "dune_id": 4, "dune_name": "The Star Dune", "acquisition_date": "2025-04-13", "length_m": 63.61281126641817 }, "geometry": { "type": "LineString", "coordinates": [ [ 533515.756988407694735, 7262023.682245101779699 ], [ 533522.08680969348643, 7262026.428143661469221 ], [ 533530.545414054067805, 7262028.993736448697746 ], [ 533540.087148198392242, 7262031.540503429248929 ], [ 533549.912851801607758, 7262035.12353394459933 ], [ 533559.454585945932195, 7262039.9888258241117 ], [ 533567.91319030651357, 7262044.788425646722317 ], [ 533574.243011592421681, 7262048.012404892593622 ] ] } },
{ "type": "Feature", "properties": { "id": 3, "reference_id": 3, "dune_id": 3, "dune_name": "Big Mommy Dune", "acquisition_date": "2025-04-13", "length_m": 359.06023449396395 }, "geometry": { "type": "LineString", "coordinates": [ [ 529374.243011592305265, 7260695.756988408043981 ], [ 529367.91319030651357, 7260702.086809693835676 ], [ 529359.453693735180423, 7260710.546306265518069 ], [ 529349.900785414502025, 7260720.099214585497975 ], [ 529339.988825823529623, 7260730.012066388502717 ], [ 529330.01028196583502, 7260740.000892210751772 ], [ 529320.087148198508658, 7260750.0 ], [ 529310.447983889956959, 7260760.0 ], [ 529301.551677605253644, 7260770.0 ], [ 529293.758219123352319, 7260780.000000000931323 ], [ 529286.788087141467258, 7260790.0 ], [ 529280.087148198392242, 7260800.0 ], [ 529273.671070924960077, 7260810.0 ], [ 529267.794350692536682, 7260820.0 ], [ 529262.205649307463318, 7260830.0 ], [ 529256.32982128590811, 7260840.0 ], [ 529249.924025978078134, 7260850.0 ], [ 529243.299953267676756, 7260860.0 ], [ 529236.700046732323244, 7260870.0 ], [ 529230.075974021921866, 7260880.0 ], [ 529223.670178714208305, 7260890.0 ], [ 529217.794350692536682, 7260900.0 ], [ 529212.206541518098675, 7260910.0 ], [ 529206.340995462262072, 7260920.0 ], [ 529200.012066387105733, 7260930.0 ], [ 529193.758219123352319, 7260939.999553894624114 ], [ 529188.328590570250526, 7260949.993520701304078 ], [ 529184.205310802557506, 7260959.944359514862299 ], [ 529181.638825803645886, 7260969.6772395754233 ], [ 529180.45915806631092, 7260978.683442020788789 ], [ 529180.088040409144014, 7260986.078100949525833 ], [ 529180.011174176470377, 7260991.078100949525833 ] ] } },
{ "type": "Feature", "properties": { "id": 4, "reference_id": 3, "dune_id": 3, "dune_name": "Big Mommy Dune", "acquisition_date": "2025-04-13", "length_m": 649.02565534316477 }, "geometry": { "type": "LineString", "coordinates": [ [ 529405.756988407694735, 7260678.448322394862771 ], [ 529412.08680969348643, 7260676.242673087865114 ], [ 529420.546306264819577, 7260673.223087035119534 ], [ 529430.099214585614391, 7260669.999107789248228 ], [ 529440.012066387222148, 7260666.765738788992167 ], [ 529450.000892210751772, 7260663.670178714208305 ], [ 529460.0, 7260661.103693716228008 ], [ 529470.0, 7260658.896306285634637 ], [ 529480.0, 7260656.329821285791695 ], [ 529490.0, 7260653.234261211939156 ], [ 529500.000000000116415, 7260650.0 ], [ 529510.0, 7260646.765738788992167 ], [ 529520.0, 7260643.670178715139627 ], [ 529530.0, 7260641.10458592697978 ], [ 529540.0, 7260638.907480461522937 ], [ 529550.0, 7260636.416969483718276 ], [ 529560.0, 7260633.680460680276155 ], [ 529570.0, 7260631.530221463181078 ], [ 529580.0, 7260630.35994348116219 ], [ 529590.0, 7260629.64005651883781 ], [ 529600.0, 7260628.470670747570693 ], [ 529610.0, 7260626.330713496543467 ], [ 529620.0, 7260623.670178714208305 ], [ 529630.0, 7260621.539611218497157 ], [ 529640.0, 7260620.435917503200471 ], [ 529650.0, 7260620.0 ], [ 529660.0, 7260619.564082497730851 ], [ 529670.0, 7260618.460388782434165 ], [ 529680.0, 7260616.329821286723018 ], [ 529690.0, 7260613.670178715139627 ], [ 529700.0, 7260611.540503429248929 ], [ 529710.0, 7260610.447091680020094 ], [ 529720.0, 7260610.086255988106132 ], [ 529730.0, 7260610.0 ], [ 529740.0, 7260609.913744012825191 ], [ 529750.0, 7260609.552908320911229 ], [ 529760.0, 7260608.459496571682394 ], [ 529770.0, 7260606.329821286723018 ], [ 529780.0, 7260603.670178715139627 ], [ 529790.0, 7260601.540503429248929 ], [ 529800.0, 7260600.447091680020094 ], [ 529810.0, 7260600.087148198857903 ], [ 529820.0, 7260600.011174176819623 ], [ 529830.0, 7260600.000892210751772 ], [ 529840.0, 7260600.0 ], [ 529850.0, 7260600.0 ], [ 529860.0, 7260600.0 ], [ 529870.0, 7260600.000892210751772 ], [ 529880.0, 7260600.011174176819623 ], [ 529890.0, 7260600.087148198857903 ], [ 529900.0, 7260600.447091680020094 ], [ 529910.0, 7260601.540503429248929 ], [ 529920.0, 7260603.670178715139627 ], [ 529930.0, 7260606.329821286723018 ], [ 529940.0, 7260608.459496571682394 ], [ 529950.0, 7260609.552908320911229 ], [ 529960.0, 7260609.912851802073419 ], [ 529970.0, 7260609.9888258241117 ], [ 529980.0, 7260609.999107789248228 ], [ 529990.0, 7260610.0 ], [ 529999.999107789364643, 7260610.0 ], [ 530009.987933612894267, 7260610.0 ], [ 530019.900785414502025, 7260610.0 ], [ 530029.453693735180423, 7260610.0 ], [ 530037.91319030651357, 7260610.0 ], [ 530044.243011592305265, 7260610.0 ] ] } },
{ "type": "Feature", "properties": { "id": 5, "reference_id": 3, "dune_id": 3, "dune_name": "Big Mommy Dune", "acquisition_date": "2025-04-13", "length_m": 171.71072276667854 }, "geometry": { "type": "LineString", "coordinates": [ [ 530244.243011592421681, 7260570.011174176819623 ], [ 530237.91319030651357, 7260570.087148198857903 ], [ 530229.453693735180423, 7260570.447091680020094 ], [ 530219.900785414385609, 7260571.540503429248929 ], [ 530209.987933612894267, 7260573.671070925891399 ], [ 530199.999107789248228, 7260576.340995462611318 ], [ 530190.0, 7260578.546644769608974 ], [ 530180.0, 7260580.0 ], [ 530170.000000000116415, 7260581.454247441142797 ], [ 530160.0, 7260583.670178714208305 ], [ 530150.0, 7260586.416077273897827 ], [ 530140.0, 7260588.906588250771165 ], [ 530130.0, 7260591.093411749228835 ], [ 530120.000892210751772, 7260593.583030516281724 ], [ 530110.012066387222148, 7260596.318647108972073 ], [ 530100.099214585614391, 7260598.458604360930622 ], [ 530090.546306264819577, 7260599.552908321842551 ], [ 530082.08680969348643, 7260599.912851802073419 ], [ 530075.756988407694735, 7260599.9888258241117 ] ] } },
{ "type": "Feature", "properties": { "id": 6, "reference_id": 1, "dune_id": 1, "dune_name": "Big Mommy Dune", "acquisition_date": "2025-04-13", "length_m": 1387.8419167928671 }, "geometry": { "type": "LineString", "coordinates": [ [ 529180.000892210751772, 7260998.921899050474167 ], [ 529180.011174176470377, 7261003.921899050474167 ], [ 529180.087148198392242, 7261011.316557979211211 ], [ 529180.447091679205187, 7261020.322760425508022 ], [ 529181.539611218031496, 7261030.055640487000346 ], [ 529183.659004537737928, 7261040.006479299627244 ], [ 529186.242673087399453, 7261050.000446105375886 ], [ 529188.012404892127961, 7261060.0 ], [ 529188.012404892127961, 7261070.0 ], [ 529186.241780876764096, 7261080.0 ], [ 529183.647830361267552, 7261090.0 ], [ 529181.452463019639254, 7261100.0 ], [ 529179.999107789364643, 7261110.0 ], [ 529178.535470593255013, 7261120.000000000931323 ], [ 529176.253847263869829, 7261130.0 ], [ 529173.223087035003118, 7261140.0 ], [ 529169.988825823529623, 7261150.0 ], [ 529166.688872555969283, 7261160.0 ], [ 529163.299061057041399, 7261170.0 ], [ 529159.924025978078134, 7261180.0 ], [ 529156.329821285791695, 7261190.0 ], [ 529152.204757096711546, 7261200.0 ], [ 529147.783176516066305, 7261210.000000000931323 ], [ 529143.583922726451419, 7261220.0 ], [ 529139.639164308551699, 7261230.0 ], [ 529135.236409536330029, 7261240.0 ], [ 529130.000892210751772, 7261250.0 ], [ 529124.773872429504991, 7261260.0 ], [ 529120.436809713370167, 7261270.0 ], [ 529116.776020754361525, 7261280.0 ], [ 529113.310235233511776, 7261290.0 ], [ 529109.924025978078134, 7261300.0 ], [ 529106.319539319956675, 7261310.000000000931323 ], [ 529102.129675285541452, 7261320.0 ], [ 529097.433515001204796, 7261330.0 ], [ 529092.566484998911619, 7261340.0 ], [ 529087.869432503823191, 7261350.0 ], [ 529083.670178714208305, 7261360.0 ], [ 529080.0, 7261370.0 ], [ 529076.329821285791695, 7261380.0 ], [ 529072.130567496176809, 7261390.0 ], [ 529067.434407211840153, 7261400.0 ], [ 529062.576766964630224, 7261410.0 ], [ 529057.946298736496828, 7261420.0 ], [ 529054.041296371375211, 7261430.0 ], [ 529051.180559947970323, 7261440.0 ], [ 529048.906588250421919, 7261450.0 ], [ 529046.330713496427052, 7261460.0 ], [ 529043.234261211473495, 7261470.000000000931323 ], [ 529040.0, 7261480.0 ], [ 529036.765738788526505, 7261490.0 ], [ 529033.670178714208305, 7261500.0 ], [ 529031.104585926048458, 7261510.0 ], [ 529028.907480461173691, 7261520.0 ], [ 529026.416969484183937, 7261530.0 ], [ 529023.681352890678681, 7261540.0 ], [ 529021.541395639418624, 7261550.0 ], [ 529020.447091679205187, 7261560.000000000931323 ], [ 529020.087148198508658, 7261570.0 ], [ 529020.011174176470377, 7261580.0 ], [ 529020.000892210751772, 7261590.0 ], [ 529020.0, 7261600.0 ], [ 529020.0, 7261610.0 ], [ 529020.0, 7261620.0 ], [ 529020.000892210751772, 7261630.0 ], [ 529020.011174176470377, 7261640.0 ], [ 529020.088040409144014, 7261650.0 ], [ 529020.458265855675563, 7261660.0 ], [ 529021.628543837927282, 7261670.0 ], [ 529024.128444569883868, 7261680.0 ], [ 529027.958365123718977, 7261690.0 ], [ 529032.588833351852372, 7261700.0 ], [ 529037.521555410232395, 7261710.0 ], [ 529042.577659175381996, 7261720.0 ], [ 529047.870324714458548, 7261730.000000000931323 ], [ 529053.670178714208305, 7261740.0 ], [ 529060.0, 7261750.0 ], [ 529066.329821285791695, 7261760.0 ], [ 529072.129675285425037, 7261770.0 ], [ 529077.42234082473442, 7261780.0 ], [ 529082.479336800519377, 7261790.0 ], [ 529087.42234082473442, 7261800.0 ], [ 529092.128783074789681, 7261810.0 ], [ 529096.317754898685962, 7261820.0 ], [ 529099.900785414502025, 7261830.0 ], [ 529103.123872449388728, 7261840.000000000931323 ], [ 529105.782622810336761, 7261850.0 ], [ 529106.809496591216885, 7261860.0 ], [ 529105.346705307718366, 7261870.0 ], [ 529101.58336902083829, 7261880.0 ], [ 529096.2203247344587, 7261890.0 ], [ 529089.911067380220629, 7261900.0 ], [ 529083.299061057041399, 7261910.0 ], [ 529076.700046732323244, 7261920.0 ], [ 529070.075974022038281, 7261930.0 ], [ 529063.670178714208305, 7261940.0 ], [ 529057.794350692536682, 7261950.0 ], [ 529052.206541518098675, 7261960.0 ], [ 529046.3401032515103, 7261970.0 ], [ 529040.000892210751772, 7261980.0 ], [ 529033.671070924960077, 7261990.0 ], [ 529027.880606680409983, 7262000.0 ], [ 529022.653633197303861, 7262010.0 ], [ 529017.880606680409983, 7262020.0 ], [ 529013.671070924960077, 7262030.0 ], [ 529010.0, 7262040.0 ], [ 529006.32982128590811, 7262050.0 ], [ 529002.129675285541452, 7262060.0 ], [ 528997.423233035369776, 7262070.0 ], [ 528992.489618766237982, 7262080.0 ], [ 528987.498314846656285, 7262090.0 ], [ 528982.488726555602625, 7262100.0 ], [ 528977.4120588588994, 7262110.0 ], [ 528972.041634876397438, 7262120.0 ], [ 528965.871555430116132, 7262130.0 ], [ 528958.371456162189133, 7262140.0 ], [ 528949.541734144324437, 7262149.999107789248228 ], [ 528939.911959590972401, 7262159.9888258241117 ], [ 528929.988825823529623, 7262169.912851802073419 ], [ 528919.999107789364643, 7262179.552016110159457 ], [ 528910.0, 7262188.448322394862771 ], [ 528900.0, 7262196.242673087865114 ], [ 528890.0, 7262203.222194824367762 ], [ 528880.000892210751772, 7262209.987933613359928 ], [ 528870.012066387105733, 7262216.677698379382491 ], [ 528860.099214585614391, 7262223.211020647548139 ], [ 528850.546306264819577, 7262229.464867912232876 ], [ 528842.086809693370014, 7262234.690995482727885 ], [ 528835.756988407694735, 7262238.000338505022228 ] ] } },
{ "type": "Feature", "properties": { "id": 7, "reference_id": 5, "dune_id": 5, "dune_name": "The Star Dune", "acquisition_date": "2025-04-13", "length_m": 1139.1578444439817 }, "geometry": { "type": "LineString", "coordinates": [ [ 534334.789317857124843, 7261305.756988408043981 ], [ 534330.0, 7261312.086809693835676 ], [ 534325.210682142991573, 7261320.546306264586747 ], [ 534321.987595107872039, 7261330.099214585497975 ], [ 534320.534239877597429, 7261340.012066386640072 ], [ 534320.098322374862619, 7261350.000892210751772 ], [ 534320.012066387105733, 7261360.0 ], [ 534320.001784421387129, 7261370.0 ], [ 534320.011174176470377, 7261380.0 ], [ 534320.087148198392242, 7261390.0 ], [ 534320.447091679205187, 7261400.0 ], [ 534321.540503428666852, 7261410.0 ], [ 534323.670178714208305, 7261420.0 ], [ 534326.329821285791695, 7261430.0 ], [ 534328.459496571333148, 7261440.0 ], [ 534329.552908320794813, 7261450.0 ], [ 534329.912851801607758, 7261460.0 ], [ 534329.988825823529623, 7261470.000000000931323 ], [ 534329.999107789364643, 7261480.0 ], [ 534329.999107789364643, 7261490.0 ], [ 534329.988825823529623, 7261500.0 ], [ 534329.911959590855986, 7261510.0 ], [ 534329.54084193368908, 7261520.0 ], [ 534328.360281985718757, 7261530.0 ], [ 534325.783515021088533, 7261540.0 ], [ 534321.583369020721875, 7261550.0 ], [ 534315.783515021088533, 7261559.999107790179551 ], [ 534308.360281985718757, 7261569.9888258241117 ], [ 534299.54084193368908, 7261579.912851802073419 ], [ 534289.911959590855986, 7261589.552016110159457 ], [ 534279.988825823529623, 7261598.448322394862771 ], [ 534269.999107789248228, 7261606.242673087865114 ], [ 534260.0, 7261613.222194824367762 ], [ 534250.0, 7261619.9888258241117 ], [ 534240.0, 7261626.688872555270791 ], [ 534230.0, 7261633.299061057157815 ], [ 534220.0, 7261639.92313376814127 ], [ 534210.0, 7261646.318647109903395 ], [ 534200.0, 7261652.117608899250627 ], [ 534190.0, 7261657.335192626342177 ], [ 534180.0, 7261662.031352911144495 ], [ 534170.0, 7261665.870663220062852 ], [ 534160.0, 7261668.37234837282449 ], [ 534150.0, 7261669.552908320911229 ], [ 534140.0, 7261669.999107789248228 ], [ 534130.0, 7261670.435917503200471 ], [ 534120.0, 7261671.539611218497157 ], [ 534110.0, 7261673.670178714208305 ], [ 534100.0, 7261676.330713496543467 ], [ 534090.0, 7261678.470670748502016 ], [ 534080.0, 7261679.640056519769132 ], [ 534070.0, 7261680.35994348116219 ], [ 534060.0, 7261681.529329252429307 ], [ 534050.0, 7261683.670178715139627 ], [ 534040.0, 7261686.340995462611318 ], [ 534030.0, 7261688.546644769608974 ], [ 534020.0, 7261690.0 ], [ 534010.0, 7261691.453355230391026 ], [ 534000.0, 7261693.659896749071777 ], [ 533990.0, 7261696.340103251859546 ], [ 533980.0, 7261698.546644769608974 ], [ 533970.0, 7261700.000892210751772 ], [ 533960.0, 7261701.464529407210648 ], [ 533950.0, 7261703.747044946998358 ], [ 533940.0, 7261706.787194930948317 ], [ 533930.0, 7261710.088040409609675 ], [ 533920.0, 7261713.681352891027927 ], [ 533910.0, 7261717.871216924861073 ], [ 533900.0, 7261722.576766964048147 ], [ 533890.0, 7261727.510381233878434 ], [ 533880.0, 7261732.500792942941189 ], [ 533870.0, 7261737.500099267810583 ], [ 533860.0, 7261742.500792942941189 ], [ 533850.0, 7261747.511273445561528 ], [ 533840.0, 7261752.58794114086777 ], [ 533830.0, 7261757.958365123718977 ], [ 533820.0, 7261764.128444569185376 ], [ 533810.000892210635357, 7261771.628543837927282 ], [ 533800.011174176470377, 7261780.458265855908394 ], [ 533790.088040409144014, 7261790.088040409609675 ], [ 533780.45915806631092, 7261800.011174176819623 ], [ 533771.638825803645886, 7261810.000892210751772 ], [ 533764.205310802557506, 7261820.0 ], [ 533758.329482780885883, 7261830.0 ], [ 533753.768501089187339, 7261840.000000000931323 ], [ 533750.088040409144014, 7261850.0 ], [ 533746.700938942958601, 7261860.0 ], [ 533743.299953267676756, 7261870.0 ], [ 533739.923133767442778, 7261880.0 ], [ 533736.31953932007309, 7261890.0 ], [ 533732.128783074906096, 7261900.0 ], [ 533727.423233035253361, 7261910.0 ], [ 533722.489618766237982, 7261920.0 ], [ 533717.49831484653987, 7261930.0 ], [ 533712.489618766237982, 7261940.0 ], [ 533707.423233035369776, 7261950.0 ], [ 533702.129675285541452, 7261960.0 ], [ 533696.32982128590811, 7261970.0 ], [ 533689.999107789364643, 7261980.0 ], [ 533683.659896748373285, 7261989.999553894624114 ], [ 533677.794350692536682, 7261999.993520701304078 ], [ 533672.217715694569051, 7262009.944359513930976 ], [ 533666.428143660770729, 7262019.677239574491978 ], [ 533660.45915806631092, 7262028.683442020788789 ], [ 533655.298722552019171, 7262036.078100949525833 ], [ 533651.998769284458831, 7262041.078100949525833 ] ] } },
{ "type": "Feature", "properties": { "id": 8, "reference_id": 6, "dune_id": 6, "dune_name": "The Star Dune", "acquisition_date": "2025-04-13", "length_m": 895.7508783873019 }, "geometry": { "type": "LineString", "coordinates": [ [ 533650.011174176470377, 7262048.921899050474167 ], [ 533650.087148198508658, 7262053.921899050474167 ], [ 533650.447091679205187, 7262061.316557979211211 ], [ 533651.540503428783268, 7262070.322760425508022 ], [ 533653.670178714208305, 7262080.055640487000346 ], [ 533656.329821285791695, 7262090.006479298695922 ], [ 533658.459496571216732, 7262100.000446105375886 ], [ 533659.552908320911229, 7262110.0 ], [ 533659.912851801607758, 7262120.0 ], [ 533659.988825823529623, 7262130.0 ], [ 533659.999107789248228, 7262140.0 ], [ 533660.0, 7262150.0 ], [ 533660.0, 7262160.0 ], [ 533660.0, 7262170.0 ], [ 533660.000892210751772, 7262180.0 ], [ 533660.011174176470377, 7262190.0 ], [ 533660.087148198392242, 7262200.0 ], [ 533660.447091679088771, 7262210.0 ], [ 533661.540503428783268, 7262220.0 ], [ 533663.671070924960077, 7262230.0 ], [ 533666.340995462378487, 7262240.0 ], [ 533668.546644769841805, 7262250.0 ], [ 533670.0, 7262260.0 ], [ 533671.453355230391026, 7262270.0 ], [ 533673.659004537737928, 7262280.0 ], [ 533676.328929075156339, 7262290.0 ], [ 533678.459496571333148, 7262300.0 ], [ 533679.552016110159457, 7262310.0 ], [ 533679.901677625137381, 7262320.0 ], [ 533679.901677625137381, 7262330.0 ], [ 533679.552016110159457, 7262340.000000000931323 ], [ 533678.458604360697791, 7262350.0 ], [ 533676.318647109437734, 7262360.0 ], [ 533673.583030515816063, 7262370.0 ], [ 533671.093411749578081, 7262380.0 ], [ 533668.905696039786562, 7262390.0 ], [ 533666.405795307829976, 7262400.0 ], [ 533663.594204692286439, 7262410.0 ], [ 533661.093411749578081, 7262420.0 ], [ 533658.895414073951542, 7262430.0 ], [ 533656.329821285791695, 7262440.0 ], [ 533653.233369000838138, 7262450.0 ], [ 533649.989718034281395, 7262460.0 ], [ 533646.689764766488224, 7262470.0 ], [ 533643.310235233511776, 7262480.0 ], [ 533640.01028196583502, 7262490.0 ], [ 533636.766630999278277, 7262500.0 ], [ 533633.670178714208305, 7262510.0 ], [ 533631.104585926048458, 7262520.0 ], [ 533628.907480461173691, 7262530.0 ], [ 533626.416077273548581, 7262540.0 ], [ 533623.670178714208305, 7262550.0 ], [ 533621.454247440909967, 7262560.0 ], [ 533620.0, 7262570.0 ], [ 533618.54664476972539, 7262580.0 ], [ 533616.340995462378487, 7262590.0 ], [ 533613.670178714208305, 7262600.000000000931323 ], [ 533611.529329252312891, 7262610.0 ], [ 533610.359943480696529, 7262620.0 ], [ 533609.640056519303471, 7262630.0 ], [ 533608.470670747803524, 7262640.0 ], [ 533606.330713496543467, 7262650.0 ], [ 533603.670178714208305, 7262660.0 ], [ 533601.540503428783268, 7262670.0 ], [ 533600.447091679205187, 7262680.0 ], [ 533600.086255987756886, 7262690.0 ], [ 533600.0, 7262700.0 ], [ 533599.913744012243114, 7262710.0 ], [ 533599.552908320794813, 7262720.0 ], [ 533598.458604360581376, 7262730.0 ], [ 533596.318647109321319, 7262740.0 ], [ 533593.583030515816063, 7262750.0 ], [ 533591.092519538942724, 7262760.0 ], [ 533588.895414073951542, 7262770.0 ], [ 533586.328929075156339, 7262780.0 ], [ 533583.223087035119534, 7262790.0 ], [ 533579.91374401235953, 7262800.0 ], [ 533576.328929075156339, 7262810.0 ], [ 533572.205649307463318, 7262820.0 ], [ 533567.794350692653097, 7262830.0 ], [ 533563.671070924843661, 7262840.0 ], [ 533560.087148198392242, 7262850.0 ], [ 533556.788087141467258, 7262860.0 ], [ 533553.758219123352319, 7262870.000000000931323 ], [ 533551.551677605253644, 7262879.999107789248228 ], [ 533550.447983889840543, 7262889.987933613359928 ], [ 533550.087148198392242, 7262899.900785414502025 ], [ 533550.011174176470377, 7262909.453693736344576 ], [ 533550.000892210751772, 7262917.913190307095647 ], [ 533550.0, 7262924.243011591956019 ] ] } },
{ "type": "Feature", "properties": { "id": 9, "reference_id": 8, "dune_id": 8, "dune_name": "Inverted Y Dune", "acquisition_date": "2025-04-13", "length_m": 529.6161480698637 }, "geometry": { "type": "LineString", "coordinates": [ [ 530100.087148198508658, 7261591.078100949525833 ], [ 530100.447091679205187, 7261586.078100949525833 ], [ 530101.540503428783268, 7261578.683442020788789 ], [ 530103.670178714208305, 7261569.6772395754233 ], [ 530106.329821285791695, 7261559.944359513930976 ], [ 530108.459496571333148, 7261549.993520701304078 ], [ 530109.552908320911229, 7261539.999553894624114 ], [ 530109.913744012243114, 7261530.0 ], [ 530110.0, 7261520.0 ], [ 530110.086255987756886, 7261510.0 ], [ 530110.447091679205187, 7261500.0 ], [ 530111.540503428666852, 7261490.0 ], [ 530113.671070924960077, 7261480.0 ], [ 530116.340995462262072, 7261470.000000000931323 ], [ 530118.54664476972539, 7261460.0 ], [ 530120.0, 7261450.0 ], [ 530121.454247441026382, 7261440.0 ], [ 530123.670178714208305, 7261430.0 ], [ 530126.416077273664996, 7261420.0 ], [ 530128.906588250538334, 7261410.0 ], [ 530131.094303960213438, 7261400.0 ], [ 530133.594204692170024, 7261390.0 ], [ 530136.405795307829976, 7261380.0 ], [ 530138.906588250538334, 7261370.0 ], [ 530141.10547813680023, 7261360.0 ], [ 530143.682245101314038, 7261350.0 ], [ 530146.864953374140896, 7261340.0 ], [ 530150.545414054067805, 7261330.0 ], [ 530155.309896728489548, 7261320.0 ], [ 530161.999661495094188, 7261310.000000000931323 ], [ 530170.535132088349201, 7261300.0 ], [ 530180.098322374862619, 7261290.0 ], [ 530190.012066387105733, 7261280.000892210751772 ], [ 530200.000892210751772, 7261270.011174176819623 ], [ 530210.0, 7261260.088040409609675 ], [ 530220.0, 7261250.458265855908394 ], [ 530230.0, 7261241.628543837927282 ], [ 530240.0, 7261234.129336780868471 ], [ 530250.0, 7261227.969539299607277 ], [ 530260.0, 7261222.675981550477445 ], [ 530270.0, 7261217.969539300538599 ], [ 530280.0, 7261214.129336781799793 ], [ 530290.0, 7261211.627651628106833 ], [ 530300.0, 7261210.447091680020094 ], [ 530310.0, 7261210.000892211683095 ], [ 530319.999107789248228, 7261209.564082497730851 ], [ 530329.987933612894267, 7261208.460388782434165 ], [ 530339.900785414502025, 7261206.329821285791695 ], [ 530349.453693735180423, 7261203.670178713276982 ], [ 530357.91319030651357, 7261201.540503428317606 ], [ 530364.243011592305265, 7261200.447091678157449 ] ] } },
{ "type": "Feature", "properties": { "id": 10, "reference_id": 8, "dune_id": 8, "dune_name": "Inverted Y Dune", "acquisition_date": "2025-04-13", "length_m": 168.2762691802854 }, "geometry": { "type": "LineString", "coordinates": [ [ 530554.243011592305265, 7261171.999661495909095 ], [ 530547.91319030651357, 7261175.309004518203437 ], [ 530539.453693735296838, 7261180.534239877015352 ], [ 530529.900785414385609, 7261186.776912964880466 ], [ 530519.987933612894267, 7261193.223087035119534 ], [ 530509.999107789248228, 7261199.465760122984648 ], [ 530500.0, 7261204.690995481796563 ], [ 530490.0, 7261208.00033850595355 ], [ 530480.0, 7261209.464867912232876 ], [ 530470.0, 7261209.901677625253797 ], [ 530460.0, 7261209.987933613359928 ], [ 530450.0, 7261209.999107790179551 ], [ 530440.000892210751772, 7261210.000000000931323 ], [ 530430.012066387222148, 7261210.000000000931323 ], [ 530420.099214585614391, 7261210.000000000931323 ], [ 530410.546306264819577, 7261210.000000000931323 ], [ 530402.08680969348643, 7261210.000000000931323 ], [ 530395.756988407694735, 7261210.000000000931323 ] ] } },
{ "type": "Feature", "properties": { "id": 11, "reference_id": 2, "dune_id": 2, "dune_name": "Big Mommy Dune", "acquisition_date": "2025-04-13", "length_m": 565.50692987920297 }, "geometry": { "type": "LineString", "coordinates": [ [ 529104.243011592421681, 7260955.881837395951152 ], [ 529097.913190306629986, 7260952.118501110002398 ], [ 529089.453693735180423, 7260947.783176516182721 ], [ 529079.900785414385609, 7260943.670178714208305 ], [ 529069.987933612894267, 7260940.086255988106132 ], [ 529059.999107789364643, 7260936.776912964880466 ], [ 529050.0, 7260933.671070924960077 ], [ 529040.0, 7260931.103693716228008 ], [ 529030.0, 7260928.896306285634637 ], [ 529020.0, 7260926.329821286723018 ], [ 529010.0, 7260923.234261211007833 ], [ 529000.0, 7260920.0 ], [ 528990.0, 7260916.765738788992167 ], [ 528980.0, 7260913.670178714208305 ], [ 528970.0, 7260911.10458592697978 ], [ 528960.0, 7260908.907480461522937 ], [ 528950.0, 7260906.416077273897827 ], [ 528940.0, 7260903.670178715139627 ], [ 528930.0, 7260901.454247441142797 ], [ 528920.0, 7260899.999107789248228 ], [ 528910.0, 7260898.535470593720675 ], [ 528900.0, 7260896.253847263753414 ], [ 528890.0, 7260893.223979245871305 ], [ 528880.0, 7260889.999107789248228 ], [ 528870.0, 7260886.765738788992167 ], [ 528860.0, 7260883.669286504387856 ], [ 528850.0, 7260881.093411750160158 ], [ 528840.0, 7260878.819440051913261 ], [ 528830.0, 7260875.958703628741205 ], [ 528820.0, 7260872.05370126478374 ], [ 528810.0, 7260867.423233035951853 ], [ 528800.0, 7260862.565592788159847 ], [ 528790.0, 7260857.86943250335753 ], [ 528780.0, 7260853.670178714208305 ], [ 528770.0, 7260850.0 ], [ 528760.0, 7260846.329821285791695 ], [ 528750.0, 7260842.129675285890698 ], [ 528740.0, 7260837.423233035951853 ], [ 528730.0, 7260832.490510976873338 ], [ 528720.0, 7260827.509489024057984 ], [ 528710.0, 7260822.57676696497947 ], [ 528700.0, 7260817.870324714109302 ], [ 528690.0, 7260813.670178714208305 ], [ 528680.0, 7260810.0 ], [ 528670.0, 7260806.329821284860373 ], [ 528660.0, 7260802.129675285890698 ], [ 528650.0, 7260797.423233035951853 ], [ 528640.0, 7260792.489618767052889 ], [ 528630.0, 7260787.499207057058811 ], [ 528620.000892210635357, 7260782.500792942941189 ], [ 528610.012066387105733, 7260777.511273445561528 ], [ 528600.099214585730806, 7260772.587941141799092 ], [ 528590.546306264819577, 7260767.958365123718977 ], [ 528582.086809693370014, 7260764.128444570116699 ], [ 528575.756988407694735, 7260761.628543838858604 ] ] } },
{ "type": "Feature", "properties": { "id": 12, "reference_id": 7, "dune_id": 7, "dune_name": "Inverted Y Dune", "acquisition_date": "2025-04-13", "length_m": 464.23607255973917 }, "geometry": { "type": "LineString", "coordinates": [ [ 530215.756988407694735, 7261650.0 ], [ 530222.08680969348643, 7261649.999107790179551 ], [ 530230.546306264703162, 7261649.9888258241117 ], [ 530240.099214585614391, 7261649.912851802073419 ], [ 530250.012066387105733, 7261649.552908321842551 ], [ 530260.000892210751772, 7261648.458604361861944 ], [ 530270.0, 7261646.318647109903395 ], [ 530280.0, 7261643.583030516281724 ], [ 530290.0, 7261641.092519538477063 ], [ 530300.0, 7261638.895414074882865 ], [ 530310.0, 7261636.328929075971246 ], [ 530320.0, 7261633.223087035119534 ], [ 530330.0, 7261629.913744011893868 ], [ 530340.0, 7261626.328929075039923 ], [ 530350.0, 7261622.205649307928979 ], [ 530360.0, 7261617.793458482250571 ], [ 530370.0, 7261613.659004538320005 ], [ 530380.0, 7261609.9888258241117 ], [ 530390.0, 7261606.252955053001642 ], [ 530400.0, 7261601.758557628840208 ], [ 530410.0, 7261596.241780877113342 ], [ 530420.0, 7261589.901677625253797 ], [ 530430.000000000116415, 7261583.211020648479462 ], [ 530440.0, 7261576.241780877113342 ], [ 530450.0, 7261568.448322394862771 ], [ 530460.0, 7261559.552016111090779 ], [ 530469.999107789364643, 7261549.912851801142097 ], [ 530479.988825823529623, 7261539.9888258241117 ], [ 530489.912851801607758, 7261529.999107789248228 ], [ 530499.552016110159457, 7261520.0 ], [ 530508.448322394862771, 7261510.0 ], [ 530516.242673087399453, 7261500.0 ], [ 530523.222194824367762, 7261490.0 ], [ 530529.988825823529623, 7261480.0 ], [ 530536.689764766488224, 7261470.000000000931323 ], [ 530543.31023523339536, 7261460.0 ], [ 530550.01028196583502, 7261450.000892210751772 ], [ 530556.765738788526505, 7261440.012066387571394 ], [ 530563.658112327102572, 7261430.099214585497975 ], [ 530571.005371340434067, 7261420.546306264586747 ], [ 530578.361174196470529, 7261412.086809693835676 ], [ 530584.330159790813923, 7261405.756988408043981 ] ] } },
{ "type": "Feature", "properties": { "id": 13, "reference_id": 9, "dune_id": 9, "dune_name": "Inverted Y Dune", "acquisition_date": "2025-04-13", "length_m": 764.86893770408494 }, "geometry": { "type": "LineString", "coordinates": [ [ 529661.62765162717551, 7262194.243011591956019 ], [ 529664.118162604048848, 7262187.913190307095647 ], [ 529667.881498891045339, 7262179.453693735413253 ], [ 529672.216823483933695, 7262169.900785414502025 ], [ 529676.330713496543467, 7262159.987933613359928 ], [ 529679.924918188829906, 7262149.999107789248228 ], [ 529683.310235233511776, 7262140.0 ], [ 529686.776020754361525, 7262130.0 ], [ 529690.43591750273481, 7262120.0 ], [ 529694.763590463669971, 7262110.0 ], [ 529699.924025977961719, 7262100.0 ], [ 529704.86618408979848, 7262090.0 ], [ 529708.469778537051752, 7262080.0 ], [ 529711.094303960213438, 7262070.0 ], [ 529714.030122194904834, 7262060.0 ], [ 529717.946298736496828, 7262050.0 ], [ 529722.587048930465244, 7262040.0 ], [ 529727.51127344451379, 7262030.0 ], [ 529732.500792942708358, 7262020.0 ], [ 529737.499207057291642, 7262010.0 ], [ 529742.489618766237982, 7262000.0 ], [ 529747.423233035369776, 7261990.0 ], [ 529752.128783074789681, 7261980.0 ], [ 529756.319539319956675, 7261970.0 ], [ 529759.923133767326362, 7261960.0 ], [ 529763.299953267676756, 7261950.0 ], [ 529766.700046732323244, 7261940.0 ], [ 529770.075974022038281, 7261930.0 ], [ 529773.669286503456533, 7261920.0 ], [ 529777.784068726701662, 7261910.0 ], [ 529782.130567496176809, 7261900.0 ], [ 529785.980159770930186, 7261890.0 ], [ 529788.907480461173691, 7261880.0 ], [ 529791.541395639418624, 7261870.0 ], [ 529795.221856319345534, 7261860.0 ], [ 529800.535132088349201, 7261850.0 ], [ 529806.875235339859501, 7261840.000000000931323 ], [ 529813.769393299822696, 7261830.0 ], [ 529821.552569815889001, 7261820.0 ], [ 529830.447983889840543, 7261810.0 ], [ 529840.087148198392242, 7261800.0 ], [ 529850.011174176470377, 7261790.0 ], [ 529860.000892210751772, 7261780.0 ], [ 529870.0, 7261770.0 ], [ 529880.0, 7261760.000892210751772 ], [ 529890.0, 7261750.011174176819623 ], [ 529900.0, 7261740.087148198857903 ], [ 529910.0, 7261730.447091680020094 ], [ 529920.0, 7261721.541395640000701 ], [ 529930.0, 7261713.681352891027927 ], [ 529940.0, 7261706.416969484649599 ], [ 529950.0, 7261698.907480461522937 ], [ 529960.0, 7261691.10458592697978 ], [ 529970.0, 7261683.671070925891399 ], [ 529980.0, 7261676.776912964880466 ], [ 529990.0, 7261670.087148198857903 ], [ 530000.0, 7261663.681352891027927 ], [ 530010.0, 7261657.870324715040624 ], [ 530020.0, 7261652.566484998911619 ], [ 530030.0, 7261647.433515001088381 ], [ 530040.0, 7261642.129675285890698 ], [ 530049.999107789364643, 7261636.319093215279281 ], [ 530059.987933612894267, 7261629.918438890017569 ], [ 530069.900785414502025, 7261623.267553345300257 ], [ 530079.453693735180423, 7261616.564541302621365 ], [ 530087.913190306629986, 7261609.764880374073982 ], [ 530094.243011592421681, 7261603.473915160633624 ], [ 530097.91319030651357, 7261598.834750852547586 ] ] } }
]
}
