{
"type": "FeatureCollection",
"name": "crests_2019_02_2019-02-19",
"crs": { "type": "name", "properties": { "name": "urn:ogc:def:crs:EPSG::32733" } },
"features": [
{ "type": "Feature", "properties": { "id": 0, "reference_id": 1, "dune_id": 1, "dune_name": "Big Mommy Dune", "acquisition_date": "2019-02-19", "length_m": 713.64810723979576 }, "geometry": { "type": "LineString", "coordinates": [ [ 529020.0, 7261555.756988408043981 ], [ 529020.0, 7261562.086809693835676 ], [ 529020.0, 7261570.546306264586747 ], [ 529020.0, 7261580.099214585497975 ], [ 529020.0, 7261590.012066387571394 ], [ 529020.0, 7261600.000892210751772 ], [ 529020.0, 7261610.0 ], [ 529020.000892210751772, 7261620.0 ], [ 529020.011174176470377, 7261630.0 ], [ 529020.087148198508658, 7261640.0 ], [ 529020.447091679205187, 7261650.0 ], [ 529021.541395639418624, 7261660.0 ], [ 529023.681352890678681, 7261670.0 ], [ 529026.417861694935709, 7261680.0 ], [ 529028.918654637644067, 7261690.0 ], [ 529031.1917341244407, 7261700.0 ], [ 529034.118162604048848, 7261710.0 ], [ 529038.317416393663734, 7261720.0 ], [ 529043.757326912600547, 7261730.000000000931323 ], [ 529050.011174176470377, 7261740.0 ], [ 529056.330713496543467, 7261750.0 ], [ 529062.130567496176809, 7261760.0 ], [ 529067.433515001088381, 7261770.0 ], [ 529072.565592788159847, 7261780.0 ], [ 529077.858258327352814, 7261790.0 ], [ 529083.582138305064291, 7261800.0 ], [ 529089.541734144324437, 7261810.0 ], [ 529094.701277447980829, 7261820.0 ], [ 529098.000338505022228, 7261830.0 ], [ 529099.453693735413253, 7261840.000000000931323 ], [ 529099.813637216109782, 7261850.0 ], [ 529099.528775546583347, 7261860.0 ], [ 529098.360281985718757, 7261870.0 ], [ 529095.79468919755891, 7261880.0 ], [ 529091.670517219230533, 7261890.0 ], [ 529086.231498910929076, 7261900.0 ], [ 529079.911959590855986, 7261910.0 ], [ 529073.299061056924984, 7261920.0 ], [ 529066.700046732323244, 7261930.0 ], [ 529060.075974022038281, 7261940.0 ], [ 529053.670178714208305, 7261950.0 ], [ 529047.795242903172038, 7261960.0 ], [ 529042.216823483933695, 7261970.0 ], [ 529036.416969484183937, 7261980.0 ], [ 529030.372009867918678, 7261990.0 ], [ 529024.850738662178628, 7262000.0 ], [ 529020.447091679205187, 7262010.0 ], [ 529016.777805175632238, 7262020.0 ], [ 529013.320517199346796, 7262030.0 ], [ 529010.0, 7262040.0 ], [ 529006.67948280076962, 7262050.0 ], [ 529003.222194824367762, 7262060.0 ], [ 528999.552908320911229, 7262070.0 ], [ 528995.149261337821372, 7262080.0 ], [ 528989.627990132081322, 7262090.0 ], [ 528983.582138305064291, 7262100.0 ], [ 528977.772002339712344, 7262110.0 ], [ 528972.117608898319304, 7262120.0 ], [ 528965.881837395951152, 7262130.0 ], [ 528958.37234837282449, 7262140.0 ], [ 528949.542626355076209, 7262149.999107789248228 ], [ 528939.924025978078134, 7262159.987933613359928 ], [ 528930.088040409144014, 7262169.900785414502025 ], [ 528920.545414054067805, 7262179.453693735413253 ], [ 528912.086809693602845, 7262187.913190307095647 ], [ 528905.756988407694735, 7262194.243011591956019 ] ] } },
{ "type": "Feature", "properties": { "id": 1, "reference_id": 1, "dune_id": 1, "dune_name": "Big Mommy Dune", "acquisition_date": "2019-02-19", "length_m": 445.99839398145474 }, "geometry": { "type": "LineString", "coordinates": [ [ 529179.912851801607758, 7261105.756988408043981 ], [ 529179.552016110159457, 7261112.086809692904353 ], [ 529178.448322394862771, 7261120.546306265518069 ], [ 529176.242673087399453, 7261130.099214586429298 ], [ 529173.222194824367762, 7261140.012066387571394 ], [ 529169.988825823529623, 7261150.000892210751772 ], [ 529166.688872555969283, 7261160.0 ], [ 529163.299061057041399, 7261170.0 ], [ 529159.924025978078134, 7261180.0 ], [ 529156.329821285791695, 7261190.0 ], [ 529152.205649307463318, 7261200.0 ], [ 529147.793458481901325, 7261210.000000000931323 ], [ 529143.659896748373285, 7261220.0 ], [ 529140.0, 7261230.0 ], [ 529136.340103251626715, 7261240.0 ], [ 529132.20654151821509, 7261250.0 ], [ 529127.793458481901325, 7261260.0 ], [ 529123.6598967484897, 7261270.0 ], [ 529119.999107789364643, 7261280.0 ], [ 529116.329821285791695, 7261290.0 ], [ 529112.130567496176809, 7261300.0 ], [ 529107.433515001088381, 7261310.000000000931323 ], [ 529102.566484998911619, 7261320.0 ], [ 529097.869432503823191, 7261330.0 ], [ 529093.670178714208305, 7261340.0 ], [ 529090.000892210751772, 7261350.0 ], [ 529086.340103251626715, 7261360.0 ], [ 529082.206541518098675, 7261370.0 ], [ 529077.79345848178491, 7261380.0 ], [ 529073.659896748373285, 7261390.0 ], [ 529070.0, 7261400.0 ], [ 529066.340103251626715, 7261410.0 ], [ 529062.206541518098675, 7261420.0 ], [ 529057.794350692536682, 7261430.0 ], [ 529053.670178714208305, 7261440.0 ], [ 529050.075974021921866, 7261450.0 ], [ 529046.700938942958601, 7261460.0 ], [ 529043.311127444147132, 7261470.000000000931323 ], [ 529040.011174176470377, 7261479.999107789248228 ], [ 529036.777805175632238, 7261489.987933613359928 ], [ 529033.757326912600547, 7261499.900785414502025 ], [ 529031.551677605253644, 7261509.453693735413253 ], [ 529030.447983889840543, 7261517.913190307095647 ], [ 529030.087148198508658, 7261524.243011592887342 ] ] } },
{ "type": "Feature", "properties": { "id": 2, "reference_id": 8, "dune_id": 8, "dune_name": "Inverted Y Dune", "acquisition_date": "2019-02-19", "length_m": 403.78501597197823 }, "geometry": { "type": "LineString", "coordinates": [ [ 530244.243011592421681, 7261232.086809693835676 ], [ 530237.91319030651357, 7261235.756988408043981 ], [ 530229.453693735180423, 7261242.086809693835676 ], [ 530219.900785414385609, 7261250.546306264586747 ], [ 530209.988825823646039, 7261260.099214585497975 ], [ 530200.01028196583502, 7261270.012066387571394 ], [ 530190.088040409144014, 7261280.000892210751772 ], [ 530180.45915806631092, 7261290.0 ], [ 530171.638825803645886, 7261300.0 ], [ 530164.20531080244109, 7261310.000000000931323 ], [ 530158.329482780885883, 7261320.0 ], [ 530153.768501089187339, 7261330.0 ], [ 530150.088040409144014, 7261340.0 ], [ 530146.701831153710373, 7261350.0 ], [ 530143.311127444263548, 7261360.0 ], [ 530140.01028196583502, 7261370.0 ], [ 530136.766630999278277, 7261380.0 ], [ 530133.670178714208305, 7261390.0 ], [ 530131.104585926048458, 7261400.0 ], [ 530128.907480461173691, 7261410.0 ], [ 530126.416969484183937, 7261420.0 ], [ 530123.680460680043325, 7261430.0 ], [ 530121.530221462948248, 7261440.0 ], [ 530120.359943480812944, 7261450.0 ], [ 530119.640056519303471, 7261460.0 ], [ 530118.470670747803524, 7261470.000000000931323 ], [ 530116.330713496543467, 7261480.0 ], [ 530113.670178714208305, 7261490.0 ], [ 530111.540503428666852, 7261500.0 ], [ 530110.447091679205187, 7261510.0 ], [ 530110.086255987756886, 7261520.0 ], [ 530110.0, 7261530.0 ], [ 530109.913297906983644, 7261539.999553894624114 ], [ 530109.547321232617833, 7261549.993520701304078 ], [ 530108.415922472137026, 7261559.944359513930976 ], [ 530106.106275446247309, 7261569.6772395754233 ], [ 530102.899926999816671, 7261578.683442020788789 ], [ 530099.705414071679115, 7261586.078100949525833 ], [ 530097.282181036309339, 7261591.078100949525833 ] ] } },
{ "type": "Feature", "properties": { "id": 3, "reference_id": 8, "dune_id": 8, "dune_name": "Inverted Y Dune", "acquisition_date": "2019-02-19", "length_m": 60.433255638092646 }, "geometry": { "type": "LineString", "coordinates": [ [ 530505.756988407694735, 7261207.914082517847419 ], [ 530512.085917482851073, 7261204.255077979527414 ], [ 530520.534239877597429, 7261198.012404892593622 ], [ 530530.0, 7261190.0 ], [ 530539.465760122402571, 7261181.987595107406378 ], [ 530547.914082517265342, 7261175.744922020472586 ], [ 530554.243011592305265, 7261172.085917483083904 ] ] } },
{ "type": "Feature", "properties": { "id": 4, "reference_id": 9, "dune_id": 9, "dune_name": "Inverted Y Dune", "acquisition_date": "2019-02-19", "length_m": 737.1243154836767 }, "geometry": { "type": "LineString", "coordinates": [ [ 530091.078100949525833, 7261598.921006839722395 ], [ 530086.078100949409418, 7261603.910724874585867 ], [ 530078.683442020905204, 7261611.229409780353308 ], [ 530069.677239574841224, 7261619.874776534736156 ], [ 530059.944359513698146, 7261628.503962881863117 ], [ 530049.993520701071247, 7261636.248260175809264 ], [ 530039.999553894624114, 7261643.21235896460712 ], [ 530030.0, 7261649.912851802073419 ], [ 530020.0, 7261656.328929075039923 ], [ 530010.0, 7261662.205649307928979 ], [ 530000.0, 7261667.794350693002343 ], [ 529990.0, 7261673.670178714208305 ], [ 529980.0, 7261680.075974022038281 ], [ 529970.0, 7261686.700938943773508 ], [ 529960.0, 7261693.311127444729209 ], [ 529950.0, 7261700.011174177750945 ], [ 529940.0, 7261706.777805175632238 ], [ 529930.0, 7261713.757326913066208 ], [ 529920.0, 7261721.551677605137229 ], [ 529910.0, 7261730.447983890771866 ], [ 529900.0, 7261740.087148198857903 ], [ 529890.0, 7261750.011174176819623 ], [ 529880.0, 7261760.000892210751772 ], [ 529870.000892210751772, 7261770.0 ], [ 529860.011174176470377, 7261780.0 ], [ 529850.087148198392242, 7261790.0 ], [ 529840.447091679205187, 7261800.0 ], [ 529831.541395639418624, 7261810.0 ], [ 529823.682245101314038, 7261820.0 ], [ 529816.428143660770729, 7261830.0 ], [ 529808.994628659682348, 7261840.000000000931323 ], [ 529801.552569815889001, 7261850.0 ], [ 529795.222748530097306, 7261860.0 ], [ 529790.534239877597429, 7261870.0 ], [ 529786.864061163389124, 7261880.0 ], [ 529783.682245101314038, 7261890.0 ], [ 529781.104585926048458, 7261900.0 ], [ 529778.896306284703314, 7261910.0 ], [ 529776.328929075039923, 7261920.0 ], [ 529773.223087035119534, 7261930.0 ], [ 529769.912851801607758, 7261940.0 ], [ 529766.318647109437734, 7261950.0 ], [ 529762.128783074906096, 7261960.0 ], [ 529757.423233035253361, 7261970.0 ], [ 529752.490510976873338, 7261980.0 ], [ 529747.509489023126662, 7261990.0 ], [ 529742.576766964630224, 7262000.0 ], [ 529737.870324714574963, 7262010.0 ], [ 529733.670178714208305, 7262020.0 ], [ 529730.0, 7262030.0 ], [ 529726.329821285791695, 7262040.0 ], [ 529722.130567496176809, 7262050.0 ], [ 529717.433515001088381, 7262060.0 ], [ 529712.566484998911619, 7262070.0 ], [ 529707.869432503823191, 7262080.0 ], [ 529703.670178714208305, 7262090.0 ], [ 529700.0, 7262100.0 ], [ 529696.329821285791695, 7262110.0 ], [ 529692.130567496176809, 7262120.0 ], [ 529687.434407211840153, 7262129.999107789248228 ], [ 529682.577659175381996, 7262139.987933613359928 ], [ 529677.957472912967205, 7262149.900785414502025 ], [ 529674.128444569883868, 7262159.453693735413253 ], [ 529671.628543837810867, 7262167.913190307095647 ], [ 529670.458265855675563, 7262174.243011591956019 ] ] } },
{ "type": "Feature", "properties": { "id": 5, "reference_id": 3, "dune_id": 3, "dune_name": "Big Mommy Dune", "acquisition_date": "2019-02-19", "length_m": 344.42244968851401 }, "geometry": { "type": "LineString", "coordinates": [ [ 529374.243011592305265, 7260695.756988408043981 ], [ 529367.91319030651357, 7260702.086809693835676 ], [ 529359.453693735180423, 7260710.546306265518069 ], [ 529349.901677625253797, 7260720.099214585497975 ], [ 529339.999107789364643, 7260730.012066388502717 ], [ 529330.086255987756886, 7260740.000892210751772 ], [ 529320.447983889956959, 7260750.0 ], [ 529311.551677605253644, 7260760.0 ], [ 529303.757326912600547, 7260770.0 ], [ 529296.777805175632238, 7260780.000000000931323 ], [ 529290.011174176470377, 7260790.0 ], [ 529283.311127444263548, 7260800.0 ], [ 529276.700938943075016, 7260810.0 ], [ 529270.075974022038281, 7260820.0 ], [ 529263.670178714208305, 7260830.0 ], [ 529257.794350692653097, 7260840.0 ], [ 529252.205649307463318, 7260850.0 ], [ 529246.32982128590811, 7260860.0 ], [ 529239.924025977961719, 7260870.0 ], [ 529233.299953267676756, 7260880.0 ], [ 529226.700046732323244, 7260890.0 ], [ 529220.075974022038281, 7260900.0 ], [ 529213.670178714208305, 7260910.0 ], [ 529207.794350692536682, 7260920.0 ], [ 529202.206541518098675, 7260929.999107789248228 ], [ 529196.340995462262072, 7260939.987933613359928 ], [ 529190.012066387222148, 7260949.900785415433347 ], [ 529183.758219123352319, 7260959.453693736344576 ], [ 529178.328590570134111, 7260967.913190307095647 ], [ 529174.20531080244109, 7260974.243011591956019 ] ] } },
{ "type": "Feature", "properties": { "id": 6, "reference_id": 3, "dune_id": 3, "dune_name": "Big Mommy Dune", "acquisition_date": "2019-02-19", "length_m": 158.48602318472695 }, "geometry": { "type": "LineString", "coordinates": [ [ 529904.243011592421681, 7260610.0 ], [ 529897.91319030651357, 7260610.0 ], [ 529889.453693735180423, 7260610.0 ], [ 529879.900785414385609, 7260610.0 ], [ 529869.987933612894267, 7260610.0 ], [ 529859.999107789364643, 7260610.0 ], [ 529850.0, 7260610.0 ], [ 529840.0, 7260610.0 ], [ 529830.0, 7260610.0 ], [ 529820.0, 7260610.0 ], [ 529810.0, 7260610.0 ], [ 529800.0, 7260610.0 ], [ 529790.000892210751772, 7260610.0 ], [ 529780.012066387105733, 7260610.0 ], [ 529770.099214585614391, 7260610.0 ], [ 529760.546306264819577, 7260610.0 ], [ 529752.08680969348643, 7260610.0 ], [ 529745.756988407694735, 7260610.0 ] ] } },
{ "type": "Feature", "properties": { "id": 7, "reference_id": 3, "dune_id": 3, "dune_name": "Big Mommy Dune", "acquisition_date": "2019-02-19", "length_m": 172.08029690349937 }, "geometry": { "type": "LineString", "coordinates": [ [ 530244.243011592421681, 7260570.087148198857903 ], [ 530237.91319030651357, 7260570.447091680020094 ], [ 530229.453693735180423, 7260571.540503429248929 ], [ 530219.900785414385609, 7260573.671070925891399 ], [ 530209.987933612894267, 7260576.340995462611318 ], [ 530199.999107789248228, 7260578.546644769608974 ], [ 530190.0, 7260580.000892210751772 ], [ 530180.0, 7260581.464529406279325 ], [ 530170.000000000116415, 7260583.746152736246586 ], [ 530160.0, 7260586.776020754128695 ], [ 530150.0, 7260590.0 ], [ 530140.0, 7260593.223087035119534 ], [ 530130.0, 7260596.242673087865114 ], [ 530120.000892210751772, 7260598.448322394862771 ], [ 530110.012066387222148, 7260599.552016111090779 ], [ 530100.099214585614391, 7260599.912851802073419 ], [ 530090.546306264819577, 7260599.9888258241117 ], [ 530082.08680969348643, 7260599.999107789248228 ], [ 530075.756988407694735, 7260600.0 ] ] } },
{ "type": "Feature", "properties": { "id": 8, "reference_id": 3, "dune_id": 3, "dune_name": "Big Mommy Dune", "acquisition_date": "2019-02-19", "length_m": 141.81245207770343 }, "geometry": { "type": "LineString", "coordinates": [ [ 529614.243011592421681, 7260630.087148198857903 ], [ 529607.91319030651357, 7260630.447091680020094 ], [ 529599.453693735180423, 7260631.540503429248929 ], [ 529589.900785414502025, 7260633.671070925891399 ], [ 529579.987933612894267, 7260636.340995462611318 ], [ 529569.999107789248228, 7260638.546644769608974 ], [ 529560.0, 7260640.0 ], [ 529550.0, 7260641.454247441142797 ], [ 529540.0, 7260643.670178715139627 ], [ 529530.0, 7260646.416077273897827 ], [ 529520.000892210751772, 7260648.906588250771165 ], [ 529510.012066387105733, 7260651.093411749228835 ], [ 529500.099214585614391, 7260653.583030516281724 ], [ 529490.546306264819577, 7260656.318647109903395 ], [ 529482.08680969348643, 7260658.458604361861944 ], [ 529475.756988407694735, 7260659.552908320911229 ] ] } },
{ "type": "Feature", "properties": { "id": 9, "reference_id": 5, "dune_id": 5, "dune_name": "The Star Dune", "acquisition_date": "2019-02-19", "length_m": 1140.145129550104 }, "geometry": { "type": "LineString", "coordinates": [ [ 534334.789317857124843, 7261305.756988408043981 ], [ 534330.0, 7261312.086809693835676 ], [ 534325.210682142991573, 7261320.546306264586747 ], [ 534321.987595107872039, 7261330.099214585497975 ], [ 534320.534239877597429, 7261340.012066386640072 ], [ 534320.098322374862619, 7261350.000892210751772 ], [ 534320.012066387105733, 7261360.0 ], [ 534320.000892210751772, 7261370.0 ], [ 534320.000892210751772, 7261380.0 ], [ 534320.011174176470377, 7261390.0 ], [ 534320.087148198392242, 7261400.0 ], [ 534320.447091679205187, 7261410.0 ], [ 534321.540503428666852, 7261420.0 ], [ 534323.670178714208305, 7261430.0 ], [ 534326.329821285791695, 7261440.0 ], [ 534328.459496571333148, 7261450.0 ], [ 534329.552908320794813, 7261460.0 ], [ 534329.912851801607758, 7261470.000000000931323 ], [ 534329.988825823529623, 7261480.0 ], [ 534329.999107789364643, 7261490.0 ], [ 534329.999107789364643, 7261500.0 ], [ 534329.988825823529623, 7261510.0 ], [ 534329.911959590855986, 7261520.0 ], [ 534329.54084193368908, 7261530.0 ], [ 534328.360281985718757, 7261540.0 ], [ 534325.783515021088533, 7261549.999107789248228 ], [ 534321.583369020721875, 7261559.9888258241117 ], [ 534315.783515021088533, 7261569.912851802073419 ], [ 534308.360281985718757, 7261579.552016110159457 ], [ 534299.54084193368908, 7261588.448322394862771 ], [ 534289.911959590855986, 7261596.242673087865114 ], [ 534279.988825823529623, 7261603.222194825299084 ], [ 534269.999107789248228, 7261609.9888258241117 ], [ 534260.0, 7261616.689764766953886 ], [ 534250.0, 7261623.309343023225665 ], [ 534240.0, 7261630.0 ], [ 534230.0, 7261636.689764766953886 ], [ 534220.0, 7261643.298168847337365 ], [ 534210.0, 7261649.911959591321647 ], [ 534200.0, 7261656.231498911976814 ], [ 534190.0, 7261661.671409429982305 ], [ 534180.0, 7261665.805863374844193 ], [ 534170.0, 7261668.448322394862771 ], [ 534160.0, 7261669.987933613359928 ], [ 534150.0, 7261671.452463019639254 ], [ 534140.0, 7261673.659004537388682 ], [ 534130.0, 7261676.329821285791695 ], [ 534120.0, 7261678.470670748502016 ], [ 534110.0, 7261679.640056519769132 ], [ 534100.0, 7261680.35994348116219 ], [ 534090.0, 7261681.529329252429307 ], [ 534080.0, 7261683.669286504387856 ], [ 534070.0, 7261686.329821286723018 ], [ 534060.0, 7261688.460388783365488 ], [ 534050.0, 7261689.564082497730851 ], [ 534040.0, 7261690.0 ], [ 534030.0, 7261690.435917503200471 ], [ 534020.0, 7261691.540503429248929 ], [ 534010.0, 7261693.681352891027927 ], [ 534000.0, 7261696.416969484649599 ], [ 533990.0, 7261698.906588250771165 ], [ 533980.0, 7261701.094303959980607 ], [ 533970.0, 7261703.594204692170024 ], [ 533960.0, 7261706.406687518581748 ], [ 533950.0, 7261708.916870215907693 ], [ 533940.0, 7261711.181452158838511 ], [ 533930.0, 7261714.041296371258795 ], [ 533920.0, 7261717.947190947830677 ], [ 533910.0, 7261722.58704893104732 ], [ 533900.0, 7261727.510381233878434 ], [ 533890.0, 7261732.490510977804661 ], [ 533880.0, 7261737.424125246703625 ], [ 533870.0, 7261742.139957251027226 ], [ 533860.0, 7261746.406687518581748 ], [ 533850.0, 7261750.37111765705049 ], [ 533840.0, 7261754.851630872115493 ], [ 533830.0, 7261760.458265855908394 ], [ 533820.0, 7261766.864953374490142 ], [ 533810.000892210635357, 7261773.768501089885831 ], [ 533800.012066387105733, 7261781.552569815889001 ], [ 533790.098322374979034, 7261790.447983890771866 ], [ 533780.535132088232785, 7261800.087148198857903 ], [ 533771.999661495094188, 7261810.011174177750945 ], [ 533765.309004517854191, 7261820.000892210751772 ], [ 533760.535132088349201, 7261830.0 ], [ 533756.78897935221903, 7261840.000000000931323 ], [ 533753.321409409982152, 7261850.0 ], [ 533750.000892210751772, 7261860.0 ], [ 533746.689764766488224, 7261870.0 ], [ 533743.299061057041399, 7261880.0 ], [ 533739.923133767442778, 7261890.0 ], [ 533736.31953932007309, 7261900.0 ], [ 533732.128783074906096, 7261910.0 ], [ 533727.42234082473442, 7261920.0 ], [ 533722.479336800519377, 7261930.0 ], [ 533717.42234082473442, 7261940.0 ], [ 533712.129675285425037, 7261950.0 ], [ 533706.329821285791695, 7261960.0 ], [ 533699.999107789364643, 7261970.0 ], [ 533693.6598967484897, 7261980.0 ], [ 533687.793904587160796, 7261989.999553894624114 ], [ 533682.212128606392071, 7261999.993520701304078 ], [ 533676.384569561574608, 7262009.944359513930976 ], [ 533670.235612226766534, 7262019.677239574491978 ], [ 533664.528470837743953, 7262028.683442020788789 ], [ 533660.163679927238263, 7262036.078100949525833 ], [ 533657.370221445453353, 7262041.078100949525833 ] ] } },
{ "type": "Feature", "properties": { "id": 10, "reference_id": 6, "dune_id": 6, "dune_name": "The Star Dune", "acquisition_date": "2019-02-19", "length_m": 895.85214030484724 }, "geometry": { "type": "LineString", "coordinates": [ [ 533653.165802853647619, 7262048.921899050474167 ], [ 533651.846263533574529, 7262053.921899050474167 ], [ 533650.857399912783876, 7262061.316557979211211 ], [ 533650.670637518749572, 7262070.322760425508022 ], [ 533651.584077527979389, 7262080.055640487000346 ], [ 533653.675765802385285, 7262090.006479298695922 ], [ 533656.330267391167581, 7262100.000446105375886 ], [ 533658.459496571216732, 7262110.0 ], [ 533659.552908320911229, 7262120.0 ], [ 533659.912851801607758, 7262130.0 ], [ 533659.988825823529623, 7262140.0 ], [ 533659.999107789248228, 7262150.0 ], [ 533660.0, 7262160.0 ], [ 533660.0, 7262170.0 ], [ 533660.000892210751772, 7262180.0 ], [ 533660.011174176470377, 7262190.0 ], [ 533660.087148198392242, 7262200.0 ], [ 533660.447091679088771, 7262210.0 ], [ 533661.540503428783268, 7262220.0 ], [ 533663.670178714208305, 7262230.0 ], [ 533666.330713496543467, 7262240.0 ], [ 533668.470670747803524, 7262250.0 ], [ 533669.640056519303471, 7262260.0 ], [ 533670.359943480696529, 7262270.0 ], [ 533671.529329252196476, 7262280.0 ], [ 533673.669286503456533, 7262290.0 ], [ 533676.329821285791695, 7262300.0 ], [ 533678.458604360697791, 7262310.0 ], [ 533679.541734144324437, 7262320.0 ], [ 533679.825703603215516, 7262330.0 ], [ 533679.541734144324437, 7262340.000000000931323 ], [ 533678.457712149946019, 7262350.0 ], [ 533676.318647109437734, 7262360.0 ], [ 533673.583030515816063, 7262370.0 ], [ 533671.093411749578081, 7262380.0 ], [ 533668.905696039786562, 7262390.0 ], [ 533666.405795307829976, 7262400.0 ], [ 533663.594204692286439, 7262410.0 ], [ 533661.093411749578081, 7262420.0 ], [ 533658.895414073951542, 7262430.0 ], [ 533656.329821285791695, 7262440.0 ], [ 533653.234261211473495, 7262450.0 ], [ 533650.0, 7262460.0 ], [ 533646.765738788526505, 7262470.0 ], [ 533643.670178714208305, 7262480.0 ], [ 533641.103693715413101, 7262490.0 ], [ 533638.896306284703314, 7262500.0 ], [ 533636.329821285791695, 7262510.0 ], [ 533633.234261211473495, 7262520.0 ], [ 533630.000892210751772, 7262530.0 ], [ 533626.77602075424511, 7262540.0 ], [ 533623.746152736130171, 7262550.0 ], [ 533621.464529406744987, 7262560.0 ], [ 533620.000892210635357, 7262570.0 ], [ 533618.54664476972539, 7262580.0 ], [ 533616.340995462378487, 7262590.0 ], [ 533613.670178714208305, 7262600.000000000931323 ], [ 533611.529329252312891, 7262610.0 ], [ 533610.359943480696529, 7262620.0 ], [ 533609.640056519303471, 7262630.0 ], [ 533608.470670747803524, 7262640.0 ], [ 533606.330713496543467, 7262650.0 ], [ 533603.670178714208305, 7262660.0 ], [ 533601.540503428783268, 7262670.0 ], [ 533600.44619946856983, 7262680.0 ], [ 533600.075974022038281, 7262690.0 ], [ 533599.924025978078134, 7262700.0 ], [ 533599.553800531546585, 7262710.0 ], [ 533598.459496571216732, 7262720.0 ], [ 533596.328929075039923, 7262730.0 ], [ 533593.659004537737928, 7262740.0 ], [ 533591.452463019639254, 7262750.0 ], [ 533589.988825823529623, 7262760.0 ], [ 533588.458604360697791, 7262770.0 ], [ 533585.882729606702924, 7262780.0 ], [ 533582.043419297784567, 7262790.0 ], [ 533577.423233035369776, 7262800.0 ], [ 533572.575874753994867, 7262810.0 ], [ 533567.946298736496828, 7262820.0 ], [ 533564.041296371491626, 7262830.0 ], [ 533561.18145215860568, 7262840.0 ], [ 533558.917762426892295, 7262850.0 ], [ 533556.417861694935709, 7262860.0 ], [ 533553.681352890795097, 7262870.000000000931323 ], [ 533551.54139563953504, 7262879.999107789248228 ], [ 533550.447091679205187, 7262889.987933613359928 ], [ 533550.087148198392242, 7262899.900785414502025 ], [ 533550.011174176470377, 7262909.453693736344576 ], [ 533550.000892210751772, 7262917.913190307095647 ], [ 533550.0, 7262924.243011591956019 ] ] } },
{ "type": "Feature", "properties": { "id": 11, "reference_id": 2, "dune_id": 2, "dune_name": "Big Mommy Dune", "acquisition_date": "2019-02-19", "length_m": 400.88502918027672 }, "geometry": { "type": "LineString", "coordinates": [ [ 528784.243011592421681, 7260858.448322394862771 ], [ 528777.91319030651357, 7260856.24178087618202 ], [ 528769.453693735180423, 7260853.211912858299911 ], [ 528759.900785414385609, 7260849.912851801142097 ], [ 528749.987933612777852, 7260846.328929075039923 ], [ 528739.999107789364643, 7260842.205649307928979 ], [ 528730.0, 7260837.793458482250571 ], [ 528720.0, 7260833.659896748140454 ], [ 528710.0, 7260829.999107789248228 ], [ 528700.0, 7260826.329821285791695 ], [ 528690.0, 7260822.129675285890698 ], [ 528680.0, 7260817.423233035951853 ], [ 528670.0, 7260812.489618767052889 ], [ 528660.0, 7260807.498314846307039 ], [ 528650.0, 7260802.489618767052889 ], [ 528640.0, 7260797.423233035951853 ], [ 528630.0, 7260792.129675285890698 ], [ 528620.0, 7260786.329821286723018 ], [ 528610.0, 7260779.999107790179551 ], [ 528600.0, 7260773.659896748140454 ], [ 528590.0, 7260767.793458482250571 ], [ 528580.0, 7260762.205649306997657 ], [ 528570.0, 7260756.329821286723018 ], [ 528560.0, 7260749.924025977961719 ], [ 528550.0, 7260743.299061057157815 ], [ 528540.0, 7260736.688872556202114 ], [ 528530.0, 7260729.989718034863472 ], [ 528520.0, 7260723.233369001187384 ], [ 528510.0, 7260716.329821286723018 ], [ 528500.0, 7260708.896306284703314 ], [ 528490.0, 7260701.103693716228008 ], [ 528480.000892210751772, 7260693.671070925891399 ], [ 528470.012066387105733, 7260686.777805175632238 ], [ 528460.099214585614391, 7260680.098322374746203 ], [ 528450.546306264819577, 7260673.76939329970628 ], [ 528442.08680969348643, 7260668.329482780769467 ], [ 528435.756988407694735, 7260664.205310802906752 ] ] } },
{ "type": "Feature", "properties": { "id": 12, "reference_id": 7, "dune_id": 7, "dune_name": "Inverted Y Dune", "acquisition_date": "2019-02-19", "length_m": 570.30642123996688 }, "geometry": { "type": "LineString", "coordinates": [ [ 530215.756988407694735, 7261649.9888258241117 ], [ 530222.08680969348643, 7261649.912851802073419 ], [ 530230.546306264703162, 7261649.552908321842551 ], [ 530240.099214585614391, 7261648.459496572613716 ], [ 530250.012066387105733, 7261646.328929075971246 ], [ 530260.000892210751772, 7261643.659004538320005 ], [ 530270.0, 7261641.453355230391026 ], [ 530280.0, 7261640.0 ], [ 530290.0, 7261638.545752558857203 ], [ 530300.0, 7261636.329821285791695 ], [ 530310.0, 7261633.583030516281724 ], [ 530320.0, 7261631.082237573340535 ], [ 530330.0, 7261628.819440051913261 ], [ 530340.0, 7261625.968985594809055 ], [ 530350.0, 7261622.129675285890698 ], [ 530360.0, 7261617.783176516182721 ], [ 530370.0, 7261613.658112327568233 ], [ 530380.0, 7261609.9888258241117 ], [ 530390.0, 7261606.252955053001642 ], [ 530400.0, 7261601.758557628840208 ], [ 530410.0, 7261596.241780877113342 ], [ 530420.0, 7261589.901677625253797 ], [ 530430.000000000116415, 7261583.211020648479462 ], [ 530440.0, 7261576.241780877113342 ], [ 530450.0, 7261568.448322394862771 ], [ 530460.0, 7261559.552016111090779 ], [ 530469.999107789364643, 7261549.912851801142097 ], [ 530479.988825823529623, 7261539.9888258241117 ], [ 530489.912851801607758, 7261529.999107789248228 ], [ 530499.552016110159457, 7261520.0 ], [ 530508.448322394862771, 7261510.0 ], [ 530516.242673087399453, 7261500.0 ], [ 530523.222194824367762, 7261490.0 ], [ 530529.988825823529623, 7261480.0 ], [ 530536.689764766488224, 7261470.000000000931323 ], [ 530543.309343022760004, 7261460.0 ], [ 530550.0, 7261450.0 ], [ 530556.690656977239996, 7261440.0 ], [ 530563.310235233511776, 7261430.0 ], [ 530570.011174176470377, 7261420.0 ], [ 530576.777805175632238, 7261410.0 ], [ 530583.757326912600547, 7261400.0 ], [ 530591.551677605137229, 7261390.0 ], [ 530600.447983889840543, 7261380.0 ], [ 530610.086255987756886, 7261370.000892210751772 ], [ 530619.999107789364643, 7261360.012066386640072 ], [ 530629.901677625137381, 7261350.099214585497975 ], [ 530639.453693735296838, 7261340.546306265518069 ], [ 530647.913190306629986, 7261332.086809693835676 ], [ 530654.243011592305265, 7261325.756988408043981 ] ] } },
{ "type": "Feature", "properties": { "id": 13, "reference_id": 4, "dune_id": 4, "dune_name": "The Star Dune", "acquisition_date": "2019-02-19", "length_m": 134.1858167272797 }, "geometry": { "type": "LineString", "coordinates": [ [ 533005.756988407694735, 7261864.117270393297076 ], [ 533012.08680969348643, 7261867.870324715040624 ], [ 533020.546306264819577, 7261872.129675285890698 ], [ 533030.099214585614391, 7261875.882729606702924 ], [ 533040.012066387105733, 7261878.37234837282449 ], [ 533050.000892210751772, 7261879.542626354843378 ], [ 533060.0, 7261879.92313376814127 ], [ 533070.0, 7261880.075974022969604 ], [ 533080.0, 7261880.447091679088771 ], [ 533089.999107789364643, 7261881.551677605137229 ], [ 533099.987933612894267, 7261883.757326913066208 ], [ 533109.900785414502025, 7261886.776912964880466 ], [ 533119.453693735180423, 7261890.0 ], [ 533127.91319030651357, 7261893.223087035119534 ], [ 533134.243011592305265, 7261896.242673087865114 ] ] } }
]
}
