{
"type": "FeatureCollection",
"name": "crests_2017_09_2017-09-27",
"crs": { "type": "name", "properties": { "name": "urn:ogc:def:crs:EPSG::32733" } },
"features": [
{ "type": "Feature", "properties": { "id": 0, "reference_id": 7, "dune_id": 7, "dune_name": "Inverted Y Dune", "acquisition_date": "2017-09-27", "length_m": 267.15582152126859 }, "geometry": { "type": "LineString", "coordinates": [ [ 530375.756988407694735, 7261618.001230715774 ], [ 530382.08680969348643, 7261614.701277447864413 ], [ 530390.546306264819577, 7261609.540841934271157 ], [ 530400.099214585614391, 7261603.571856339462101 ], [ 530410.012066387105733, 7261597.782284305430949 ], [ 530420.000892210751772, 7261592.204757096245885 ], [ 530430.000000000116415, 7261586.328929075971246 ], [ 530440.0, 7261579.912851802073419 ], [ 530450.0, 7261573.211912859231234 ], [ 530459.999107789364643, 7261566.241780877113342 ], [ 530469.988825823529623, 7261558.448322394862771 ], [ 530479.911959590855986, 7261549.552016110159457 ], [ 530489.541734144324437, 7261539.912851801142097 ], [ 530498.37234837282449, 7261529.9888258241117 ], [ 530505.881837395951152, 7261519.999107789248228 ], [ 530512.118501109071076, 7261510.0 ], [ 530517.783176516182721, 7261500.0 ], [ 530523.670178714208305, 7261490.0 ], [ 530530.086255987756886, 7261480.000892210751772 ], [ 530536.77602075424511, 7261470.012066387571394 ], [ 530543.659004537737928, 7261460.099214585497975 ], [ 530551.005371340434067, 7261450.546306265518069 ], [ 530558.361174196354114, 7261442.086809692904353 ], [ 530564.330159790813923, 7261435.756988408043981 ] ] } },
{ "type": "Feature", "properties": { "id": 1, "reference_id": 3, "dune_id": 3, "dune_name": "Big Mommy Dune", "acquisition_date": "2017-09-27", "length_m": 66.278554130249859 }, "geometry": { "type": "LineString", "coordinates": [ [ 529375.756988407694735, 7260694.778143681585789 ], [ 529382.08680969348643, 7260689.911959591321647 ], [ 529390.545414054067805, 7260684.75241628754884 ], [ 529400.087148198392242, 7260680.35994348116219 ], [ 529409.912851801607758, 7260676.416969483718276 ], [ 529419.454585945932195, 7260672.227997660636902 ], [ 529427.91319030651357, 7260667.882391101680696 ], [ 529434.243011592421681, 7260664.118162604048848 ] ] } },
{ "type": "Feature", "properties": { "id": 2, "reference_id": 3, "dune_id": 3, "dune_name": "Big Mommy Dune", "acquisition_date": "2017-09-27", "length_m": 90.629247051024549 }, "geometry": { "type": "LineString", "coordinates": [ [ 529554.243011592305265, 7260630.447091680020094 ], [ 529547.91319030651357, 7260631.540503429248929 ], [ 529539.453693735180423, 7260633.671070925891399 ], [ 529529.900785414385609, 7260636.340995462611318 ], [ 529519.987933612894267, 7260638.546644769608974 ], [ 529510.0, 7260640.0 ], [ 529500.012066387222148, 7260641.453355230391026 ], [ 529490.099214585614391, 7260643.659004538320005 ], [ 529480.546306264703162, 7260646.328929075971246 ], [ 529472.08680969348643, 7260648.459496571682394 ], [ 529465.756988407694735, 7260649.552908321842551 ] ] } },
{ "type": "Feature", "properties": { "id": 3, "reference_id": 3, "dune_id": 3, "dune_name": "Big Mommy Dune", "acquisition_date": "2017-09-27", "length_m": 58.486023184610531 }, "geometry": { "type": "LineString", "coordinates": [ [ 529735.756988407694735, 7260610.0 ], [ 529742.08680969348643, 7260610.0 ], [ 529750.545414054184221, 7260610.0 ], [ 529760.087148198392242, 7260610.0 ], [ 529769.912851801607758, 7260610.0 ], [ 529779.454585945932195, 7260610.0 ], [ 529787.91319030651357, 7260610.0 ], [ 529794.243011592305265, 7260610.0 ] ] } },
{ "type": "Feature", "properties": { "id": 4, "reference_id": 3, "dune_id": 3, "dune_name": "Big Mommy Dune", "acquisition_date": "2017-09-27", "length_m": 232.85827094580873 }, "geometry": { "type": "LineString", "coordinates": [ [ 530244.243011592421681, 7260570.087148198857903 ], [ 530237.91319030651357, 7260570.447091680020094 ], [ 530229.453693735180423, 7260571.541395640000701 ], [ 530219.900785414385609, 7260573.681352891027927 ], [ 530209.987933612894267, 7260576.416969484649599 ], [ 530199.999107789248228, 7260578.906588250771165 ], [ 530190.0, 7260581.094303959980607 ], [ 530180.0, 7260583.594204692170024 ], [ 530170.000000000116415, 7260586.405795307829976 ], [ 530160.0, 7260588.905696040019393 ], [ 530150.0, 7260591.093411749228835 ], [ 530140.0, 7260593.583030516281724 ], [ 530130.0, 7260596.318647108972073 ], [ 530120.0, 7260598.458604360930622 ], [ 530110.0, 7260599.553800531663001 ], [ 530100.0, 7260599.924025978893042 ], [ 530090.0, 7260600.075974022969604 ], [ 530080.0, 7260600.446199469268322 ], [ 530070.0, 7260601.540503429248929 ], [ 530060.000892210751772, 7260603.670178715139627 ], [ 530050.012066387222148, 7260606.329821286723018 ], [ 530040.099214585614391, 7260608.459496571682394 ], [ 530030.546306264819577, 7260609.552908320911229 ], [ 530022.08680969348643, 7260609.912851802073419 ], [ 530015.756988407694735, 7260609.9888258241117 ] ] } },
{ "type": "Feature", "properties": { "id": 5, "reference_id": 3, "dune_id": 3, "dune_name": "Big Mommy Dune", "acquisition_date": "2017-09-27", "length_m": 165.32478983804066 }, "geometry": { "type": "LineString", "coordinates": [ [ 529158.833858641446568, 7260976.288783092051744 ], [ 529163.463633195031434, 7260976.078100949525833 ], [ 529169.688014141283929, 7260973.472759878262877 ], [ 529176.194315855274908, 7260967.6896444670856 ], [ 529182.098167573451065, 7260959.410119635984302 ], [ 529187.428820123663172, 7260949.895198326557875 ], [ 529192.566038893535733, 7260939.987487507984042 ], [ 529197.870324714574963, 7260929.999107789248228 ], [ 529203.68046067992691, 7260920.0 ], [ 529210.076866232557222, 7260910.0 ], [ 529216.700938943075016, 7260900.0 ], [ 529223.310235233511776, 7260890.000892210751772 ], [ 529229.999107789248228, 7260880.012066387571394 ], [ 529236.678590590017848, 7260870.099214586429298 ], [ 529243.211020647897385, 7260860.546306265518069 ], [ 529249.464867911767215, 7260852.086809692904353 ], [ 529254.690995482262224, 7260845.756988408043981 ] ] } },
{ "type": "Feature", "properties": { "id": 6, "reference_id": 8, "dune_id": 8, "dune_name": "Inverted Y Dune", "acquisition_date": "2017-09-27", "length_m": 306.89076493504257 }, "geometry": { "type": "LineString", "coordinates": [ [ 530264.243011592421681, 7261221.639718014746904 ], [ 530257.913190306629986, 7261224.216484978795052 ], [ 530249.453693735180423, 7261228.416630979627371 ], [ 530239.900785414502025, 7261234.216484978795052 ], [ 530229.987933612777852, 7261241.639718014746904 ], [ 530219.999107789248228, 7261250.459158066660166 ], [ 530210.000892210751772, 7261260.088040409609675 ], [ 530200.011174176586792, 7261270.011174176819623 ], [ 530190.088040409144014, 7261280.000892210751772 ], [ 530180.458265855675563, 7261290.0 ], [ 530171.628543837927282, 7261300.0 ], [ 530164.129336780519225, 7261310.000000000931323 ], [ 530157.969539300072938, 7261320.0 ], [ 530152.675089339609258, 7261330.0 ], [ 530147.958365123718977, 7261340.0 ], [ 530144.042188582126983, 7261350.0 ], [ 530141.181452158722095, 7261360.0 ], [ 530138.916870216256939, 7261370.0 ], [ 530136.406687518465333, 7261380.0 ], [ 530133.594204692170024, 7261390.0 ], [ 530131.094303960213438, 7261400.0 ], [ 530128.906588250538334, 7261410.0 ], [ 530126.416969484183937, 7261420.0 ], [ 530123.681352890678681, 7261429.999107789248228 ], [ 530121.541395639418624, 7261439.987933613359928 ], [ 530120.447091679205187, 7261449.900785414502025 ], [ 530120.087148198392242, 7261459.453693734481931 ], [ 530120.011174176470377, 7261467.913190307095647 ], [ 530120.000892210751772, 7261474.243011592887342 ] ] } },
{ "type": "Feature", "properties": { "id": 7, "reference_id": 4, "dune_id": 4, "dune_name": "The Star Dune", "acquisition_date": "2017-09-27", "length_m": 195.06970074378424 }, "geometry": { "type": "LineString", "coordinates": [ [ 533005.756988407694735, 7261870.447091680020094 ], [ 533012.08680969348643, 7261871.540503429248929 ], [ 533020.546306264819577, 7261873.670178715139627 ], [ 533030.099214585614391, 7261876.33071349747479 ], [ 533040.012066387105733, 7261878.470670748502016 ], [ 533050.000892210751772, 7261879.640056519769132 ], [ 533060.0, 7261880.360835691913962 ], [ 533070.0, 7261881.540503429248929 ], [ 533080.0, 7261883.756434702314436 ], [ 533090.0, 7261886.776912964880466 ], [ 533100.0, 7261890.000892210751772 ], [ 533110.0, 7261893.234261211939156 ], [ 533120.0, 7261896.329821286723018 ], [ 533130.0, 7261898.896306284703314 ], [ 533140.0, 7261901.103693715296686 ], [ 533149.999107789364643, 7261903.670178715139627 ], [ 533159.987933612894267, 7261906.765738788992167 ], [ 533169.900785414502025, 7261909.999107789248228 ], [ 533179.453693735180423, 7261913.223087035119534 ], [ 533187.91319030651357, 7261916.242673087865114 ], [ 533194.243011592305265, 7261918.448322394862771 ] ] } },
{ "type": "Feature", "properties": { "id": 8, "reference_id": 4, "dune_id": 4, "dune_name": "The Star Dune", "acquisition_date": "2017-09-27", "length_m": 348.09180851715968 }, "geometry": { "type": "LineString", "coordinates": [ [ 533554.243011592421681, 7262037.925256693735719 ], [ 533547.91319030651357, 7262034.342226178385317 ], [ 533539.453693735180423, 7262028.459496571682394 ], [ 533529.900785414502025, 7262021.539611218497157 ], [ 533519.987933612894267, 7262015.646599646657705 ], [ 533509.999107789364643, 7262011.9875951083377 ], [ 533500.0, 7262010.097430163994431 ], [ 533490.0, 7262008.547536980360746 ], [ 533480.0, 7262006.253847263753414 ], [ 533470.0, 7262003.212805069983006 ], [ 533460.0, 7261999.912851801142097 ], [ 533450.0, 7261996.329821286723018 ], [ 533440.0, 7261992.21593127399683 ], [ 533430.0, 7261987.870324715040624 ], [ 533420.0, 7261984.031014405190945 ], [ 533410.0, 7261981.179667737334967 ], [ 533400.000000000116415, 7261978.906588250771165 ], [ 533390.0, 7261976.330713496543467 ], [ 533380.000000000116415, 7261973.234261211939156 ], [ 533370.0, 7261970.0 ], [ 533360.0, 7261966.765738788992167 ], [ 533350.0, 7261963.670178714208305 ], [ 533340.0, 7261961.103693716228008 ], [ 533330.0, 7261958.896306285634637 ], [ 533320.0, 7261956.329821286723018 ], [ 533310.0, 7261953.233369001187384 ], [ 533300.0, 7261949.989718034863472 ], [ 533290.0, 7261946.689764766022563 ], [ 533280.0, 7261943.310235233977437 ], [ 533270.000892210751772, 7261940.011174176819623 ], [ 533260.012066387222148, 7261936.777805175632238 ], [ 533250.099214585614391, 7261933.757326912134886 ], [ 533240.546306264819577, 7261931.551677605137229 ], [ 533232.086809693602845, 7261930.447983889840543 ], [ 533225.756988407694735, 7261930.087148198857903 ] ] } },
{ "type": "Feature", "properties": { "id": 9, "reference_id": 9, "dune_id": 9, "dune_name": "Inverted Y Dune", "acquisition_date": "2017-09-27", "length_m": 195.2720399250359 }, "geometry": { "type": "LineString", "coordinates": [ [ 529748.012404892127961, 7261995.756988408043981 ], [ 529744.788425646489486, 7262002.086809693835676 ], [ 529739.988825823529623, 7262010.546306264586747 ], [ 529735.122641733847558, 7262020.099214585497975 ], [ 529731.529329252196476, 7262030.012066386640072 ], [ 529728.905696039786562, 7262040.000892210751772 ], [ 529725.969877805095166, 7262050.0 ], [ 529722.053701263503172, 7262060.0 ], [ 529717.412951069651172, 7262070.0 ], [ 529712.488726555602625, 7262080.0 ], [ 529707.499207057291642, 7262090.0 ], [ 529702.499900731956586, 7262100.0 ], [ 529697.500099268043414, 7262110.0 ], [ 529692.500792942708358, 7262120.0 ], [ 529687.51127344451379, 7262129.999107789248228 ], [ 529682.5879411411006, 7262139.987933613359928 ], [ 529677.958365123602562, 7262149.900785414502025 ], [ 529674.128444569883868, 7262159.453693735413253 ], [ 529671.628543837810867, 7262167.913190307095647 ], [ 529670.458265855675563, 7262174.243011591956019 ] ] } },
{ "type": "Feature", "properties": { "id": 10, "reference_id": 9, "dune_id": 9, "dune_name": "Inverted Y Dune", "acquisition_date": "2017-09-27", "length_m": 247.21315271457703 }, "geometry": { "type": "LineString", "coordinates": [ [ 529884.243011592421681, 7261755.756988408043981 ], [ 529877.91319030651357, 7261762.086809692904353 ], [ 529869.454585945932195, 7261770.546306265518069 ], [ 529859.911959590855986, 7261780.099214585497975 ], [ 529850.075081811286509, 7261790.012066386640072 ], [ 529840.44619946856983, 7261800.000892210751772 ], [ 529831.541395639418624, 7261810.0 ], [ 529823.682245101314038, 7261820.0 ], [ 529816.428143660770729, 7261830.0 ], [ 529808.994628659682348, 7261840.000000000931323 ], [ 529801.552569815889001, 7261850.0 ], [ 529795.222748530097306, 7261860.0 ], [ 529790.534239877597429, 7261870.0 ], [ 529786.864061163389124, 7261880.0 ], [ 529783.682245101314038, 7261890.0 ], [ 529781.104585926048458, 7261900.0 ], [ 529778.896306284703314, 7261910.0 ], [ 529776.329821285791695, 7261919.999107790179551 ], [ 529773.234261211473495, 7261929.987933613359928 ], [ 529770.000892210751772, 7261939.900785414502025 ], [ 529766.776912964996882, 7261949.453693736344576 ], [ 529763.757326912600547, 7261957.913190307095647 ], [ 529761.551677605137229, 7261964.243011592887342 ] ] } },
{ "type": "Feature", "properties": { "id": 11, "reference_id": 9, "dune_id": 9, "dune_name": "Inverted Y Dune", "acquisition_date": "2017-09-27", "length_m": 94.635223327573584 }, "geometry": { "type": "LineString", "coordinates": [ [ 530014.243011592305265, 7261661.999661495909095 ], [ 530007.913190306629986, 7261665.309004517272115 ], [ 529999.453693735296838, 7261670.535132088698447 ], [ 529989.900785414502025, 7261676.788979352451861 ], [ 529979.988825823529623, 7261683.321409409865737 ], [ 529970.011174176470377, 7261690.0 ], [ 529960.099214585614391, 7261696.678590590134263 ], [ 529950.546306264819577, 7261703.211020648479462 ], [ 529942.08680969348643, 7261709.464867912232876 ], [ 529935.756988407694735, 7261714.690995482727885 ] ] } },
{ "type": "Feature", "properties": { "id": 12, "reference_id": 1, "dune_id": 1, "dune_name": "Big Mommy Dune", "acquisition_date": "2017-09-27", "length_m": 51.851553388149 }, "geometry": { "type": "LineString", "coordinates": [ [ 529058.37234837282449, 7261435.756988408043981 ], [ 529055.882729606586508, 7261442.085917482152581 ], [ 529052.129675285425037, 7261450.534239877015352 ], [ 529047.870324714458548, 7261460.0 ], [ 529044.117270393297076, 7261469.465760122984648 ], [ 529041.62765162717551, 7261477.914082517847419 ], [ 529040.458265855675563, 7261484.243011591956019 ] ] } },
{ "type": "Feature", "properties": { "id": 13, "reference_id": 1, "dune_id": 1, "dune_name": "Big Mommy Dune", "acquisition_date": "2017-09-27", "length_m": 514.84940588721565 }, "geometry": { "type": "LineString", "coordinates": [ [ 529109.988825823529623, 7261825.756988408043981 ], [ 529109.912851801607758, 7261832.086809693835676 ], [ 529109.552016110159457, 7261840.546306265518069 ], [ 529108.448322394862771, 7261850.099214585497975 ], [ 529106.241780876647681, 7261860.012066387571394 ], [ 529103.211912858532742, 7261870.000892210751772 ], [ 529099.911959590855986, 7261880.0 ], [ 529096.317754898685962, 7261890.0 ], [ 529092.117608898319304, 7261900.0 ], [ 529087.336084836977534, 7261910.0 ], [ 529082.042527087032795, 7261920.0 ], [ 529075.957811417989433, 7261930.0 ], [ 529068.819440052029677, 7261940.0 ], [ 529061.093411749578081, 7261950.0 ], [ 529053.669286503572948, 7261960.0 ], [ 529046.766630999161862, 7261970.0 ], [ 529040.011174176470377, 7261980.0 ], [ 529033.322301620617509, 7261990.0 ], [ 529026.788087141467258, 7262000.0 ], [ 529020.523957911878824, 7262010.0 ], [ 529015.221856319345534, 7262020.0 ], [ 529011.551677605253644, 7262030.0 ], [ 529008.983454483095556, 7262040.0 ], [ 529006.340103251626715, 7262050.0 ], [ 529003.22397924575489, 7262060.0 ], [ 528999.912851801607758, 7262070.0 ], [ 528996.318647109437734, 7262080.0 ], [ 528992.128783074789681, 7262090.0 ], [ 528987.42234082473442, 7262100.0 ], [ 528982.478444589767605, 7262110.0 ], [ 528977.411166648264043, 7262120.0 ], [ 528972.041634876397438, 7262130.0 ], [ 528965.871555430116132, 7262140.0 ], [ 528958.371456162189133, 7262149.999107789248228 ], [ 528949.541734144324437, 7262159.9888258241117 ], [ 528939.911959590972401, 7262169.911959591321647 ], [ 528929.988825823529623, 7262179.541734144091606 ], [ 528919.999107789364643, 7262188.371456162072718 ], [ 528910.0, 7262195.871555430814624 ], [ 528900.0, 7262202.042527087032795 ], [ 528890.0, 7262207.422340825200081 ], [ 528880.000892210751772, 7262212.564700577408075 ], [ 528870.012066387105733, 7262217.85825832746923 ], [ 528860.099214585614391, 7262223.582138305529952 ], [ 528850.546306264819577, 7262229.541734144091606 ], [ 528842.086809693370014, 7262234.701277447864413 ], [ 528835.756988407694735, 7262238.001230715774 ] ] } },
{ "type": "Feature", "properties": { "id": 14, "reference_id": 5, "dune_id": 5, "dune_name": "The Star Dune", "acquisition_date": "2017-09-27", "length_m": 772.18492995382041 }, "geometry": { "type": "LineString", "coordinates": [ [ 533651.998769284458831, 7262041.078100949525833 ], [ 533655.298722552019171, 7262036.078100949525833 ], [ 533660.458265855675563, 7262028.683442020788789 ], [ 533666.417861694935709, 7262019.677239574491978 ], [ 533672.140849462011829, 7262009.944359513930976 ], [ 533677.424125246005133, 7261999.993520701304078 ], [ 533682.490510976873338, 7261989.999553894624114 ], [ 533687.509489023126662, 7261980.0 ], [ 533692.576766964746639, 7261970.0 ], [ 533697.870324714574963, 7261960.0 ], [ 533703.670178714208305, 7261950.0 ], [ 533710.0, 7261940.0 ], [ 533716.328929075039923, 7261930.0 ], [ 533722.118501109071076, 7261920.0 ], [ 533727.336084836861119, 7261910.0 ], [ 533732.042527087032795, 7261900.0 ], [ 533735.957811417989433, 7261890.0 ], [ 533738.819440052029677, 7261880.0 ], [ 533741.094303960213438, 7261870.0 ], [ 533743.68046067992691, 7261860.0 ], [ 533746.853779197670519, 7261850.0 ], [ 533750.458265855675563, 7261840.000000000931323 ], [ 533754.862805049400777, 7261830.0 ], [ 533760.45915806631092, 7261820.000892210751772 ], [ 533766.864953374140896, 7261810.011174177750945 ], [ 533773.768501089070924, 7261800.088040409609675 ], [ 533781.552569815889001, 7261790.458265855908394 ], [ 533790.447983889840543, 7261781.628543838858604 ], [ 533800.087148198392242, 7261774.128444570116699 ], [ 533810.011174176470377, 7261767.958365123718977 ], [ 533820.000892210635357, 7261762.587941141799092 ], [ 533830.0, 7261757.511273443698883 ], [ 533840.0, 7261752.500792942941189 ], [ 533850.0, 7261747.500099267810583 ], [ 533860.0, 7261742.499900732189417 ], [ 533870.0, 7261737.500099267810583 ], [ 533880.0, 7261732.500792942941189 ], [ 533890.0, 7261727.511273444630206 ], [ 533900.0, 7261722.58704893104732 ], [ 533910.0, 7261717.947190947830677 ], [ 533920.0, 7261714.041296371258795 ], [ 533930.0, 7261711.180559948086739 ], [ 533940.0, 7261708.906588250771165 ], [ 533950.0, 7261706.330713496543467 ], [ 533960.0, 7261703.234261211939156 ], [ 533970.0, 7261700.000892210751772 ], [ 533980.0, 7261696.776020755060017 ], [ 533990.0, 7261693.746152736246586 ], [ 534000.0, 7261691.464529406279325 ], [ 534010.0, 7261690.000892210751772 ], [ 534020.0, 7261688.546644769608974 ], [ 534030.0, 7261686.340995462611318 ], [ 534040.0, 7261683.671070925891399 ], [ 534050.0, 7261681.539611218497157 ], [ 534060.0, 7261680.435917503200471 ], [ 534070.0, 7261680.0 ], [ 534080.0, 7261679.564082497730851 ], [ 534090.0, 7261678.460388781502843 ], [ 534100.0, 7261676.329821285791695 ], [ 534110.0, 7261673.670178714208305 ], [ 534120.0, 7261671.540503429248929 ], [ 534130.0, 7261670.446199468336999 ], [ 534140.0, 7261670.075081811286509 ], [ 534150.0, 7261669.912851802073419 ], [ 534160.0, 7261669.465760122984648 ], [ 534170.0, 7261668.000338505022228 ], [ 534180.0, 7261664.690995482727885 ], [ 534189.999107789364643, 7261659.465760122984648 ], [ 534199.987933612777852, 7261653.223087035119534 ], [ 534209.900785414385609, 7261646.776912964880466 ], [ 534219.453693735296838, 7261640.534239877015352 ], [ 534227.913190306629986, 7261635.309004517272115 ], [ 534234.243011592421681, 7261631.999661495909095 ] ] } },
{ "type": "Feature", "properties": { "id": 15, "reference_id": 2, "dune_id": 2, "dune_name": "Big Mommy Dune", "acquisition_date": "2017-09-27", "length_m": 260.67391619121213 }, "geometry": { "type": "LineString", "coordinates": [ [ 528754.243011592305265, 7260848.448322394862771 ], [ 528747.91319030651357, 7260846.241780877113342 ], [ 528739.453693735180423, 7260843.211912859231234 ], [ 528729.900785414502025, 7260839.911959590390325 ], [ 528719.987933612894267, 7260836.318647108972073 ], [ 528709.999107789248228, 7260832.128783075138927 ], [ 528700.0, 7260827.423233035951853 ], [ 528690.0, 7260822.489618766121566 ], [ 528680.0, 7260817.499207057058811 ], [ 528670.0, 7260812.499900732189417 ], [ 528660.0, 7260807.500099267810583 ], [ 528650.0, 7260802.499900732189417 ], [ 528640.0, 7260797.499207057990134 ], [ 528630.0, 7260792.489618767052889 ], [ 528620.0, 7260787.423233035951853 ], [ 528610.0, 7260782.128783075138927 ], [ 528600.0, 7260776.319539319723845 ], [ 528590.0, 7260769.923133767209947 ], [ 528580.0, 7260763.299061057157815 ], [ 528570.000892210751772, 7260756.689764766953886 ], [ 528560.012066387222148, 7260750.000892210751772 ], [ 528550.099214585614391, 7260743.321409409865737 ], [ 528540.546306264819577, 7260736.788979352451861 ], [ 528532.08680969348643, 7260730.535132087767124 ], [ 528525.756988407694735, 7260725.309004517272115 ] ] } },
{ "type": "Feature", "properties": { "id": 16, "reference_id": 2, "dune_id": 2, "dune_name": "Big Mommy Dune", "acquisition_date": "2017-09-27", "length_m": 237.08406636337102 }, "geometry": { "type": "LineString", "coordinates": [ [ 529014.243011592421681, 7260919.999107789248228 ], [ 529007.91319030651357, 7260919.9888258241117 ], [ 528999.453693735296838, 7260919.912851801142097 ], [ 528989.900785414385609, 7260919.552908321842551 ], [ 528979.987933612894267, 7260918.458604359999299 ], [ 528969.999107789248228, 7260916.318647108972073 ], [ 528960.0, 7260913.583030516281724 ], [ 528950.0, 7260911.092519538477063 ], [ 528940.0, 7260908.895414074882865 ], [ 528930.0, 7260906.329821286723018 ], [ 528920.0, 7260903.234261211939156 ], [ 528910.0, 7260900.0 ], [ 528900.0, 7260896.765738788992167 ], [ 528890.0, 7260893.670178714208305 ], [ 528880.0, 7260891.10458592697978 ], [ 528870.0, 7260888.906588250771165 ], [ 528860.0, 7260886.405795307829976 ], [ 528850.0, 7260883.593312481418252 ], [ 528840.0, 7260881.083129784092307 ], [ 528830.000892210751772, 7260878.819440051913261 ], [ 528820.012066387222148, 7260875.969877805560827 ], [ 528810.099214585614391, 7260872.140849461778998 ], [ 528800.546306264819577, 7260867.871216924861073 ], [ 528792.08680969348643, 7260864.117270393297076 ], [ 528785.756988407694735, 7260861.627651628106833 ] ] } },
{ "type": "Feature", "properties": { "id": 17, "reference_id": 6, "dune_id": 6, "dune_name": "The Star Dune", "acquisition_date": "2017-09-27", "length_m": 212.61004755786996 }, "geometry": { "type": "LineString", "coordinates": [ [ 533619.552908320794813, 7262575.756988408043981 ], [ 533618.459496571333148, 7262582.086809694766998 ], [ 533616.329821285791695, 7262590.546306265518069 ], [ 533613.670178714208305, 7262600.099214585497975 ], [ 533611.539611218031496, 7262610.012066387571394 ], [ 533610.43591750273481, 7262620.000892210751772 ], [ 533610.0, 7262630.0 ], [ 533609.56408249726519, 7262640.0 ], [ 533608.460388781968504, 7262650.0 ], [ 533606.328929075156339, 7262660.0 ], [ 533603.659004537854344, 7262670.0 ], [ 533601.45335523027461, 7262680.0 ], [ 533600.0, 7262690.0 ], [ 533598.54664476972539, 7262700.0 ], [ 533596.340103251626715, 7262710.0 ], [ 533593.659896748373285, 7262720.0 ], [ 533591.45335523027461, 7262730.0 ], [ 533590.0, 7262739.999107789248228 ], [ 533588.54664476972539, 7262749.987933613359928 ], [ 533586.340995462262072, 7262759.900785414502025 ], [ 533583.671070924960077, 7262769.453693735413253 ], [ 533581.540503428783268, 7262777.913190307095647 ], [ 533580.447091679205187, 7262784.243011591956019 ] ] } },
{ "type": "Feature", "properties": { "id": 18, "reference_id": 6, "dune_id": 6, "dune_name": "The Star Dune", "acquisition_date": "2017-09-27", "length_m": 153.99221774749515 }, "geometry": { "type": "LineString", "coordinates": [ [ 533630.447091679205187, 7262524.243011592887342 ], [ 533631.541395639418624, 7262517.913190307095647 ], [ 533633.681352890678681, 7262509.453693734481931 ], [ 533636.416969484300353, 7262499.900785414502025 ], [ 533638.907480461173691, 7262489.987933613359928 ], [ 533641.104585926048458, 7262479.999107789248228 ], [ 533643.670178714208305, 7262470.0 ], [ 533646.766630999161862, 7262460.0 ], [ 533650.01028196583502, 7262450.0 ], [ 533653.310235233511776, 7262440.0 ], [ 533656.689764766488224, 7262430.0 ], [ 533659.988825823529623, 7262420.000892210751772 ], [ 533663.222194824367762, 7262410.012066387571394 ], [ 533666.242673087399453, 7262400.099214585497975 ], [ 533668.448322394862771, 7262390.546306265518069 ], [ 533669.552016110159457, 7262382.086809693835676 ], [ 533669.912851801607758, 7262375.756988408043981 ] ] } }
]
}
