{
"type": "FeatureCollection",
"name": "crests_2022_03_2022-03-07",
"crs": { "type": "name", "properties": { "name": "urn:ogc:def:crs:EPSG::32733" } },
"features": [
{ "type": "Feature", "properties": { "id": 0, "reference_id": 3, "dune_id": 3, "dune_name": "Big Mommy Dune", "acquisition_date": "2022-03-07", "length_m": 322.66278154433212 }, "geometry": { "type": "LineString", "coordinates": [ [ 529184.128444569883868, 7260954.243011591956019 ], [ 529187.958365123718977, 7260947.913190307095647 ], [ 529192.588833351852372, 7260939.453693735413253 ], [ 529197.521555410232395, 7260929.900785414502025 ], [ 529202.57765917526558, 7260919.987933613359928 ], [ 529207.871216925210319, 7260909.999107789248228 ], [ 529213.680460680043325, 7260900.0 ], [ 529220.076866232557222, 7260890.0 ], [ 529226.700938943075016, 7260880.0 ], [ 529233.31023523339536, 7260870.0 ], [ 529240.0, 7260860.0 ], [ 529246.690656977239996, 7260850.0 ], [ 529253.309343022876419, 7260840.0 ], [ 529260.0, 7260830.0 ], [ 529266.690656977239996, 7260820.0 ], [ 529273.310235233511776, 7260810.0 ], [ 529280.011174176470377, 7260800.0 ], [ 529286.777805175632238, 7260790.0 ], [ 529293.757326912600547, 7260780.000000000931323 ], [ 529301.551677605253644, 7260770.0 ], [ 529310.447983889956959, 7260760.0 ], [ 529320.087148198508658, 7260750.0 ], [ 529330.01028196583502, 7260740.000892210751772 ], [ 529339.988825823529623, 7260730.012066388502717 ], [ 529349.900785414502025, 7260720.099214585497975 ], [ 529359.453693735180423, 7260710.546306265518069 ], [ 529367.91319030651357, 7260702.086809693835676 ], [ 529374.243011592305265, 7260695.756988408043981 ] ] } },
{ "type": "Feature", "properties": { "id": 1, "reference_id": 3, "dune_id": 3, "dune_name": "Big Mommy Dune", "acquisition_date": "2022-03-07", "length_m": 646.96614356226974 }, "geometry": { "type": "LineString", "coordinates": [ [ 529405.756988407694735, 7260679.552016109228134 ], [ 529412.08680969348643, 7260678.448322394862771 ], [ 529420.546306264819577, 7260676.242673087865114 ], [ 529430.099214585614391, 7260673.223087035119534 ], [ 529440.012066387222148, 7260669.999107789248228 ], [ 529450.000892210751772, 7260666.765738788992167 ], [ 529460.0, 7260663.670178714208305 ], [ 529470.0, 7260661.103693716228008 ], [ 529480.0, 7260658.896306285634637 ], [ 529490.0, 7260656.329821285791695 ], [ 529500.000000000116415, 7260653.234261211939156 ], [ 529510.0, 7260650.000892210751772 ], [ 529520.0, 7260646.776020754128695 ], [ 529530.0, 7260643.746152736246586 ], [ 529540.0, 7260641.464529407210648 ], [ 529550.0, 7260640.000892210751772 ], [ 529560.0, 7260638.546644769608974 ], [ 529570.0, 7260636.340103251859546 ], [ 529580.0, 7260633.659896748140454 ], [ 529590.0, 7260631.453355230391026 ], [ 529600.0, 7260630.0 ], [ 529610.0, 7260628.546644769608974 ], [ 529620.0, 7260626.340995462611318 ], [ 529630.0, 7260623.671070924960077 ], [ 529640.0, 7260621.540503429248929 ], [ 529650.0, 7260620.447091679088771 ], [ 529660.0, 7260620.086255988106132 ], [ 529670.0, 7260620.0 ], [ 529680.0, 7260619.913744012825191 ], [ 529690.0, 7260619.552908320911229 ], [ 529700.0, 7260618.459496571682394 ], [ 529710.0, 7260616.329821286723018 ], [ 529720.0, 7260613.670178715139627 ], [ 529730.0, 7260611.540503429248929 ], [ 529740.0, 7260610.447091680020094 ], [ 529750.0, 7260610.087148198857903 ], [ 529760.0, 7260610.011174176819623 ], [ 529770.0, 7260610.000892210751772 ], [ 529780.0, 7260610.0 ], [ 529790.0, 7260610.0 ], [ 529800.0, 7260610.0 ], [ 529810.0, 7260610.0 ], [ 529820.0, 7260610.0 ], [ 529830.0, 7260610.0 ], [ 529840.0, 7260610.0 ], [ 529850.0, 7260610.0 ], [ 529860.0, 7260610.0 ], [ 529870.0, 7260610.0 ], [ 529880.0, 7260610.0 ], [ 529890.0, 7260610.0 ], [ 529900.0, 7260610.0 ], [ 529910.0, 7260610.0 ], [ 529920.0, 7260610.0 ], [ 529930.0, 7260610.0 ], [ 529940.0, 7260610.0 ], [ 529950.0, 7260610.0 ], [ 529960.0, 7260610.0 ], [ 529970.0, 7260610.0 ], [ 529980.0, 7260610.0 ], [ 529990.0, 7260610.0 ], [ 529999.999107789364643, 7260610.0 ], [ 530009.987933612894267, 7260610.0 ], [ 530019.900785414502025, 7260610.0 ], [ 530029.453693735180423, 7260610.0 ], [ 530037.91319030651357, 7260610.0 ], [ 530044.243011592305265, 7260610.0 ] ] } },
{ "type": "Feature", "properties": { "id": 2, "reference_id": 3, "dune_id": 3, "dune_name": "Big Mommy Dune", "acquisition_date": "2022-03-07", "length_m": 172.25942351471971 }, "geometry": { "type": "LineString", "coordinates": [ [ 530244.243011592421681, 7260570.011174176819623 ], [ 530237.91319030651357, 7260570.087148198857903 ], [ 530229.453693735180423, 7260570.447091680020094 ], [ 530219.900785414385609, 7260571.541395640000701 ], [ 530209.987933612894267, 7260573.681352891027927 ], [ 530199.999107789248228, 7260576.416969484649599 ], [ 530190.0, 7260578.907480461522937 ], [ 530180.0, 7260581.104585926048458 ], [ 530170.000000000116415, 7260583.670178714208305 ], [ 530160.0, 7260586.765738788992167 ], [ 530150.0, 7260589.999107789248228 ], [ 530140.0, 7260593.223087035119534 ], [ 530130.0, 7260596.242673087865114 ], [ 530120.000892210751772, 7260598.448322394862771 ], [ 530110.012066387222148, 7260599.552016111090779 ], [ 530100.099214585614391, 7260599.912851802073419 ], [ 530090.546306264819577, 7260599.9888258241117 ], [ 530082.08680969348643, 7260599.999107789248228 ], [ 530075.756988407694735, 7260600.0 ] ] } },
{ "type": "Feature", "properties": { "id": 3, "reference_id": 8, "dune_id": 8, "dune_name": "Inverted Y Dune", "acquisition_date": "2022-03-07", "length_m": 429.46158850345569 }, "geometry": { "type": "LineString", "coordinates": [ [ 530264.243011592421681, 7261221.638825803995132 ], [ 530257.913190306629986, 7261224.205310802906752 ], [ 530249.453693735180423, 7261228.329482780769467 ], [ 530239.900785414502025, 7261233.76939329970628 ], [ 530229.987933612777852, 7261240.099214585497975 ], [ 530220.0, 7261246.788979351520538 ], [ 530210.011174176470377, 7261253.75821912381798 ], [ 530200.087148198392242, 7261261.551677605137229 ], [ 530190.447983889840543, 7261270.447983890771866 ], [ 530181.552569815889001, 7261280.087148198857903 ], [ 530173.768501089187339, 7261290.0111741758883 ], [ 530166.864953374140896, 7261300.000892210751772 ], [ 530160.458265855675563, 7261310.000000000931323 ], [ 530154.851630872813985, 7261320.0 ], [ 530150.372009867918678, 7261330.0 ], [ 530146.417861694935709, 7261340.0 ], [ 530142.227105449652299, 7261350.0 ], [ 530137.871216925326735, 7261360.0 ], [ 530134.031014405656606, 7261370.0 ], [ 530131.180559947970323, 7261380.0 ], [ 530128.916870216256939, 7261390.0 ], [ 530126.406687518581748, 7261400.0 ], [ 530123.594204692170024, 7261410.0 ], [ 530121.094303960213438, 7261420.0 ], [ 530118.906588250421919, 7261430.0 ], [ 530116.416969484300353, 7261440.0 ], [ 530113.681352890678681, 7261450.0 ], [ 530111.540503428666852, 7261460.0 ], [ 530110.43591750273481, 7261470.000000000931323 ], [ 530110.0, 7261480.0 ], [ 530109.564082497381605, 7261490.0 ], [ 530108.460388781968504, 7261500.0 ], [ 530106.329821285791695, 7261510.0 ], [ 530103.670178714208305, 7261520.0 ], [ 530101.540503428783268, 7261530.0 ], [ 530100.446645573829301, 7261539.999553894624114 ], [ 530100.081561110215262, 7261549.993520701304078 ], [ 530099.967600077274255, 7261559.944359513930976 ], [ 530099.777346371090971, 7261569.6772395754233 ], [ 530099.229748285608366, 7261578.683442020788789 ], [ 530098.164910642895848, 7261586.078100949525833 ], [ 530096.835089357104152, 7261591.078100949525833 ] ] } },
{ "type": "Feature", "properties": { "id": 4, "reference_id": 8, "dune_id": 8, "dune_name": "Inverted Y Dune", "acquisition_date": "2022-03-07", "length_m": 158.12563819908357 }, "geometry": { "type": "LineString", "coordinates": [ [ 530395.756988407694735, 7261210.000000000931323 ], [ 530402.08680969348643, 7261210.000000000931323 ], [ 530410.546306264819577, 7261210.000000000931323 ], [ 530420.099214585614391, 7261210.000000000931323 ], [ 530430.012066387222148, 7261210.000000000931323 ], [ 530440.000892210751772, 7261210.000000000931323 ], [ 530450.0, 7261209.999107790179551 ], [ 530460.0, 7261209.987933613359928 ], [ 530470.0, 7261209.901677625253797 ], [ 530480.0, 7261209.464867912232876 ], [ 530490.0, 7261208.00033850595355 ], [ 530499.999107789248228, 7261204.690995481796563 ], [ 530509.987933612894267, 7261199.465760122984648 ], [ 530519.900785414385609, 7261193.223087035119534 ], [ 530529.453693735296838, 7261186.776912964880466 ], [ 530537.91319030651357, 7261180.534239877015352 ], [ 530544.243011592305265, 7261175.309004518203437 ] ] } },
{ "type": "Feature", "properties": { "id": 5, "reference_id": 9, "dune_id": 9, "dune_name": "Inverted Y Dune", "acquisition_date": "2022-03-07", "length_m": 734.96197973528945 }, "geometry": { "type": "LineString", "coordinates": [ [ 530074.243011592421681, 7261615.309004518203437 ], [ 530067.913190306629986, 7261620.535132087767124 ], [ 530059.453693735296838, 7261626.788979352451861 ], [ 530049.900785414502025, 7261633.321409409865737 ], [ 530039.987933612777852, 7261640.000892210751772 ], [ 530029.999107789248228, 7261646.690656977705657 ], [ 530020.0, 7261653.309343023225665 ], [ 530010.0, 7261660.0 ], [ 530000.0, 7261666.690656976774335 ], [ 529990.0, 7261673.309343023225665 ], [ 529980.0, 7261680.0 ], [ 529970.0, 7261686.690656976774335 ], [ 529960.0, 7261693.310235233977437 ], [ 529950.0, 7261700.011174177750945 ], [ 529940.0, 7261706.777805175632238 ], [ 529930.0, 7261713.757326913066208 ], [ 529920.0, 7261721.551677605137229 ], [ 529910.0, 7261730.447983890771866 ], [ 529900.0, 7261740.087148198857903 ], [ 529890.0, 7261750.011174176819623 ], [ 529880.0, 7261760.000892210751772 ], [ 529870.0, 7261770.0 ], [ 529860.000892210751772, 7261780.0 ], [ 529850.011174176470377, 7261790.0 ], [ 529840.087148198392242, 7261800.0 ], [ 529830.447983889840543, 7261810.0 ], [ 529821.552569815889001, 7261820.0 ], [ 529813.768501089187339, 7261830.0 ], [ 529806.864953374140896, 7261840.000000000931323 ], [ 529800.45915806631092, 7261850.0 ], [ 529794.861912838649005, 7261860.0 ], [ 529790.447983889840543, 7261870.0 ], [ 529786.777805175632238, 7261880.0 ], [ 529783.32051719923038, 7261890.0 ], [ 529780.000892210751772, 7261900.0 ], [ 529776.689764766488224, 7261910.0 ], [ 529773.299061056924984, 7261920.0 ], [ 529769.924025978078134, 7261930.0 ], [ 529766.329821285791695, 7261940.0 ], [ 529762.205649307463318, 7261950.0 ], [ 529757.79345848178491, 7261960.0 ], [ 529753.659896748373285, 7261970.0 ], [ 529749.999107789364643, 7261980.0 ], [ 529746.329821285791695, 7261990.0 ], [ 529742.130567496176809, 7262000.0 ], [ 529737.433515001088381, 7262010.0 ], [ 529732.566484998911619, 7262020.0 ], [ 529727.869432503939606, 7262030.0 ], [ 529723.670178714208305, 7262040.0 ], [ 529720.0, 7262050.0 ], [ 529716.329821285791695, 7262060.0 ], [ 529712.130567496176809, 7262070.0 ], [ 529707.433515001088381, 7262080.0 ], [ 529702.566484998911619, 7262090.0 ], [ 529697.869432503823191, 7262100.0 ], [ 529693.670178714208305, 7262110.0 ], [ 529690.000892210751772, 7262120.0 ], [ 529686.340103251626715, 7262130.0 ], [ 529682.20654151821509, 7262140.0 ], [ 529677.794350692536682, 7262149.999107789248228 ], [ 529673.671070924960077, 7262159.987933613359928 ], [ 529670.087148198508658, 7262169.900785414502025 ], [ 529666.788087141467258, 7262179.453693735413253 ], [ 529663.758219123352319, 7262187.913190307095647 ], [ 529661.551677605137229, 7262194.243011591956019 ] ] } },
{ "type": "Feature", "properties": { "id": 6, "reference_id": 5, "dune_id": 5, "dune_name": "The Star Dune", "acquisition_date": "2022-03-07", "length_m": 1147.6532159497433 }, "geometry": { "type": "LineString", "coordinates": [ [ 534334.342226177919656, 7261305.756988408043981 ], [ 534328.459496571333148, 7261312.086809693835676 ], [ 534321.540503428666852, 7261320.546306264586747 ], [ 534315.657773822080344, 7261330.099214585497975 ], [ 534312.075635517016053, 7261340.012066386640072 ], [ 534310.556588230538182, 7261350.000892210751772 ], [ 534310.186362784006633, 7261360.0 ], [ 534310.45915806631092, 7261370.0 ], [ 534311.541395639418624, 7261380.0 ], [ 534313.670178714208305, 7261390.0 ], [ 534316.329821285791695, 7261400.0 ], [ 534318.460388781968504, 7261410.0 ], [ 534319.56408249726519, 7261420.0 ], [ 534320.0, 7261430.0 ], [ 534320.43591750273481, 7261440.0 ], [ 534321.539611218031496, 7261450.0 ], [ 534323.670178714208305, 7261460.0 ], [ 534326.329821285791695, 7261470.000000000931323 ], [ 534328.459496571333148, 7261480.0 ], [ 534329.552016110159457, 7261490.0 ], [ 534329.901677625137381, 7261500.0 ], [ 534329.900785414385609, 7261510.0 ], [ 534329.539949722937308, 7261520.0 ], [ 534328.360281985718757, 7261530.0 ], [ 534325.783515021088533, 7261540.0 ], [ 534321.583369020721875, 7261550.0 ], [ 534315.783515021088533, 7261560.000000000931323 ], [ 534308.360281985718757, 7261569.999107789248228 ], [ 534299.54084193368908, 7261579.9888258241117 ], [ 534289.911959590855986, 7261589.912851802073419 ], [ 534279.988825823529623, 7261599.552016111090779 ], [ 534269.999107789248228, 7261608.448322394862771 ], [ 534260.0, 7261616.241780877113342 ], [ 534250.0, 7261623.211912859231234 ], [ 534240.0, 7261629.912851801142097 ], [ 534230.0, 7261636.328929075971246 ], [ 534220.0, 7261642.204757097177207 ], [ 534210.0, 7261647.782284306362271 ], [ 534200.0, 7261653.571856340393424 ], [ 534190.0, 7261659.541734144091606 ], [ 534180.0, 7261664.712451624684036 ], [ 534170.0, 7261668.088378914631903 ], [ 534160.0, 7261669.911959591321647 ], [ 534150.0, 7261671.442181054502726 ], [ 534140.0, 7261673.65811232663691 ], [ 534130.0, 7261676.328929075039923 ], [ 534120.0, 7261678.459496570751071 ], [ 534110.0, 7261679.553800531663001 ], [ 534100.0, 7261679.924025977961719 ], [ 534090.0, 7261680.075974022038281 ], [ 534080.0, 7261680.446199468336999 ], [ 534070.0, 7261681.540503429248929 ], [ 534060.0, 7261683.670178715139627 ], [ 534050.0, 7261686.33071349747479 ], [ 534040.0, 7261688.470670748502016 ], [ 534030.0, 7261689.64005651883781 ], [ 534020.0, 7261690.35994348116219 ], [ 534010.0, 7261691.530221464112401 ], [ 534000.0, 7261693.680460680276155 ], [ 533990.0, 7261696.416969484649599 ], [ 533980.0, 7261698.907480461522937 ], [ 533970.0, 7261701.10458592697978 ], [ 533960.0, 7261703.671070924960077 ], [ 533950.0, 7261706.776912964880466 ], [ 533940.0, 7261710.086255988106132 ], [ 533930.0, 7261713.671070924960077 ], [ 533920.0, 7261717.794350693002343 ], [ 533910.0, 7261722.206541517749429 ], [ 533900.0, 7261726.340103251859546 ], [ 533890.0, 7261730.000892211683095 ], [ 533880.0, 7261733.670178715139627 ], [ 533870.0, 7261737.870324715040624 ], [ 533860.0, 7261742.57676696497947 ], [ 533850.0, 7261747.510381234809756 ], [ 533840.0, 7261752.501685153692961 ], [ 533830.0, 7261757.511273443698883 ], [ 533820.0, 7261762.587941141799092 ], [ 533810.000892210635357, 7261767.958365123718977 ], [ 533800.011174176470377, 7261774.128444570116699 ], [ 533790.088040409144014, 7261781.628543838858604 ], [ 533780.45915806631092, 7261790.458265855908394 ], [ 533771.638825803645886, 7261800.088040409609675 ], [ 533764.205310802557506, 7261810.011174177750945 ], [ 533758.329482780885883, 7261820.000892210751772 ], [ 533753.768501089187339, 7261830.0 ], [ 533750.088040409144014, 7261840.000000000931323 ], [ 533746.700938942958601, 7261850.0 ], [ 533743.299953267676756, 7261860.0 ], [ 533739.924025978078134, 7261870.0 ], [ 533736.329821285791695, 7261880.0 ], [ 533732.205649307463318, 7261890.0 ], [ 533727.79345848178491, 7261900.0 ], [ 533723.659004537737928, 7261910.0 ], [ 533719.988825823529623, 7261920.0 ], [ 533716.252955053234473, 7261930.0 ], [ 533711.759449839009903, 7261940.0 ], [ 533706.252955053234473, 7261950.0 ], [ 533699.988825823529623, 7261960.0 ], [ 533693.659004537737928, 7261970.0 ], [ 533687.793458481901325, 7261980.0 ], [ 533682.206541518098675, 7261989.999553894624114 ], [ 533676.340995462378487, 7261999.993520701304078 ], [ 533670.012066387222148, 7262009.944359513930976 ], [ 533663.758219123352319, 7262019.677239574491978 ], [ 533658.328590570134111, 7262028.683442020788789 ], [ 533654.20531080244109, 7262036.078100949525833 ], [ 533651.638825803645886, 7262041.078100949525833 ] ] } },
{ "type": "Feature", "properties": { "id": 7, "reference_id": 6, "dune_id": 6, "dune_name": "The Star Dune", "acquisition_date": "2022-03-07", "length_m": 811.98050560193087 }, "geometry": { "type": "LineString", "coordinates": [ [ 533650.0, 7262048.921899050474167 ], [ 533650.0, 7262053.921899050474167 ], [ 533650.0, 7262061.316557979211211 ], [ 533650.0, 7262070.322760425508022 ], [ 533650.000892210751772, 7262080.055640487000346 ], [ 533650.011174176470377, 7262090.006479298695922 ], [ 533650.087148198508658, 7262100.000446105375886 ], [ 533650.447091679205187, 7262110.0 ], [ 533651.540503428783268, 7262120.0 ], [ 533653.670178714208305, 7262130.0 ], [ 533656.329821285791695, 7262140.0 ], [ 533658.459496571216732, 7262150.0 ], [ 533659.552908320911229, 7262160.0 ], [ 533659.912851801607758, 7262170.0 ], [ 533659.988825823529623, 7262180.0 ], [ 533659.999107789248228, 7262190.0 ], [ 533660.000892210751772, 7262200.0 ], [ 533660.011174176470377, 7262210.0 ], [ 533660.087148198392242, 7262220.0 ], [ 533660.447091679088771, 7262230.0 ], [ 533661.540503428783268, 7262240.0 ], [ 533663.670178714208305, 7262250.0 ], [ 533666.329821285791695, 7262260.0 ], [ 533668.460388781968504, 7262270.0 ], [ 533669.563190286629833, 7262280.0 ], [ 533669.988825823646039, 7262290.0 ], [ 533670.348769304342568, 7262300.0 ], [ 533671.092519538942724, 7262310.0 ], [ 533672.129675285541452, 7262320.0 ], [ 533672.65964257158339, 7262330.0 ], [ 533672.128783074906096, 7262340.000000000931323 ], [ 533671.082237573107705, 7262350.0 ], [ 533670.272795282304287, 7262360.0 ], [ 533669.628882342833094, 7262370.0 ], [ 533668.468886326416396, 7262380.0 ], [ 533666.319539319956675, 7262390.0 ], [ 533663.583030515816063, 7262400.0 ], [ 533661.092519538942724, 7262410.0 ], [ 533658.895414073951542, 7262420.0 ], [ 533656.329821285791695, 7262430.0 ], [ 533653.233369000838138, 7262440.0 ], [ 533649.989718034281395, 7262450.0 ], [ 533646.689764766488224, 7262460.0 ], [ 533643.309343022760004, 7262470.0 ], [ 533640.000000000116415, 7262480.0 ], [ 533636.690656977239996, 7262490.0 ], [ 533633.310235233511776, 7262500.0 ], [ 533630.01028196583502, 7262510.0 ], [ 533626.766630999161862, 7262520.0 ], [ 533623.670178714208305, 7262530.0 ], [ 533621.104585925932042, 7262540.0 ], [ 533618.907480461173691, 7262550.0 ], [ 533616.416969484183937, 7262560.0 ], [ 533613.680460680043325, 7262570.0 ], [ 533611.530221462948248, 7262580.0 ], [ 533610.359943480696529, 7262590.0 ], [ 533609.640056519303471, 7262600.000000000931323 ], [ 533608.470670747803524, 7262610.0 ], [ 533606.330713496543467, 7262620.0 ], [ 533603.670178714208305, 7262630.0 ], [ 533601.540503428783268, 7262640.0 ], [ 533600.44619946856983, 7262650.0 ], [ 533600.075974022038281, 7262660.0 ], [ 533599.924025978078134, 7262670.0 ], [ 533599.553800531546585, 7262680.0 ], [ 533598.459496571216732, 7262690.0 ], [ 533596.329821285791695, 7262700.0 ], [ 533593.669286503456533, 7262710.0 ], [ 533591.529329252196476, 7262720.0 ], [ 533590.359943480696529, 7262730.0 ], [ 533589.640056519303471, 7262740.0 ], [ 533588.469778537051752, 7262750.0 ], [ 533586.31953932007309, 7262760.0 ], [ 533583.582138305064291, 7262770.0 ], [ 533581.082237573107705, 7262780.0 ], [ 533578.819440052029677, 7262790.0 ], [ 533575.969877805095166, 7262799.999107789248228 ], [ 533572.140849462011829, 7262809.987933613359928 ], [ 533567.871216925210319, 7262819.900785414502025 ], [ 533564.117270393413492, 7262829.453693736344576 ], [ 533561.62765162717551, 7262837.913190307095647 ], [ 533560.458265855675563, 7262844.243011592887342 ] ] } },
{ "type": "Feature", "properties": { "id": 8, "reference_id": 7, "dune_id": 7, "dune_name": "Inverted Y Dune", "acquisition_date": "2022-03-07", "length_m": 591.23597303985514 }, "geometry": { "type": "LineString", "coordinates": [ [ 530195.756988407694735, 7261650.0 ], [ 530202.086809693370014, 7261650.0 ], [ 530210.546306264819577, 7261650.0 ], [ 530220.099214585614391, 7261650.0 ], [ 530230.012066387105733, 7261649.999107790179551 ], [ 530240.000892210751772, 7261649.9888258241117 ], [ 530250.0, 7261649.912851802073419 ], [ 530260.0, 7261649.552016111090779 ], [ 530270.0, 7261648.448322394862771 ], [ 530280.0, 7261646.242673087865114 ], [ 530290.0, 7261643.222194824367762 ], [ 530300.0, 7261639.9888258241117 ], [ 530310.0, 7261636.689764766953886 ], [ 530320.0, 7261633.309343023225665 ], [ 530330.0, 7261629.999107789248228 ], [ 530340.0, 7261626.679482800886035 ], [ 530350.0, 7261623.223087035119534 ], [ 530360.0, 7261619.563190286979079 ], [ 530370.0, 7261615.225235359743237 ], [ 530380.0, 7261609.9888258241117 ], [ 530390.0, 7261604.686724230647087 ], [ 530400.0, 7261599.9888258241117 ], [ 530410.0, 7261595.224343148991466 ], [ 530420.0, 7261589.552016110159457 ], [ 530430.000000000116415, 7261583.13593883626163 ], [ 530440.0, 7261576.231498911976814 ], [ 530450.0, 7261568.447430184110999 ], [ 530459.999107789364643, 7261559.552016111090779 ], [ 530469.988825823529623, 7261549.912851801142097 ], [ 530479.912851801607758, 7261539.9888258241117 ], [ 530489.552016110159457, 7261529.999107789248228 ], [ 530498.448322394862771, 7261520.0 ], [ 530506.242673087399453, 7261510.0 ], [ 530513.222194824367762, 7261500.0 ], [ 530519.988825823529623, 7261490.0 ], [ 530526.689764766488224, 7261480.0 ], [ 530533.309343022760004, 7261470.000000000931323 ], [ 530540.0, 7261460.0 ], [ 530546.690656977239996, 7261450.0 ], [ 530553.310235233511776, 7261440.0 ], [ 530560.011174176470377, 7261430.0 ], [ 530566.777805175632238, 7261420.0 ], [ 530573.757326912600547, 7261410.0 ], [ 530581.551677605253644, 7261400.0 ], [ 530590.447983889840543, 7261390.0 ], [ 530600.087148198392242, 7261380.0 ], [ 530610.01028196583502, 7261370.000892210751772 ], [ 530619.988825823646039, 7261360.012066386640072 ], [ 530629.900785414502025, 7261350.099214585497975 ], [ 530639.453693735296838, 7261340.546306265518069 ], [ 530647.913190306629986, 7261332.086809693835676 ], [ 530654.243011592305265, 7261325.756988408043981 ] ] } },
{ "type": "Feature", "properties": { "id": 9, "reference_id": 2, "dune_id": 2, "dune_name": "Big Mommy Dune", "acquisition_date": "2022-03-07", "length_m": 289.34046608864372 }, "geometry": { "type": "LineString", "coordinates": [ [ 528775.756988407578319, 7260853.757326913066208 ], [ 528782.08680969348643, 7260856.777805175632238 ], [ 528790.546306264819577, 7260860.011174176819623 ], [ 528800.099214585614391, 7260863.310235233977437 ], [ 528810.012066387222148, 7260866.690656977705657 ], [ 528820.000892210751772, 7260870.0 ], [ 528830.0, 7260873.309343023225665 ], [ 528840.0, 7260876.690656977705657 ], [ 528850.0, 7260880.0 ], [ 528860.0, 7260883.309343023225665 ], [ 528870.0, 7260886.689764766022563 ], [ 528880.0, 7260889.989718034863472 ], [ 528890.0, 7260893.233369001187384 ], [ 528900.0, 7260896.329821285791695 ], [ 528910.0, 7260898.895414073951542 ], [ 528920.0, 7260901.092519539408386 ], [ 528930.0, 7260903.583922727033496 ], [ 528940.0, 7260906.329821286723018 ], [ 528950.0, 7260908.545752558857203 ], [ 528960.0, 7260910.0 ], [ 528970.0, 7260911.453355230391026 ], [ 528980.0, 7260913.659896748140454 ], [ 528990.0, 7260916.340103251859546 ], [ 529000.0, 7260918.546644769608974 ], [ 529009.999107789364643, 7260920.0 ], [ 529019.987933612894267, 7260921.453355230391026 ], [ 529029.900785414502025, 7260923.659004537388682 ], [ 529039.453693735296838, 7260926.328929075971246 ], [ 529047.91319030651357, 7260928.459496571682394 ], [ 529054.243011592305265, 7260929.552908321842551 ] ] } },
{ "type": "Feature", "properties": { "id": 10, "reference_id": 2, "dune_id": 2, "dune_name": "Big Mommy Dune", "acquisition_date": "2022-03-07", "length_m": 188.6017211073376 }, "geometry": { "type": "LineString", "coordinates": [ [ 528594.243011592421681, 7260765.871555430814624 ], [ 528587.91319030651357, 7260762.041634876281023 ], [ 528579.453693735180423, 7260757.411166648380458 ], [ 528569.900785414385609, 7260752.478444589301944 ], [ 528559.987933612894267, 7260747.422340825200081 ], [ 528549.999107789364643, 7260742.128783075138927 ], [ 528540.0, 7260736.318647109903395 ], [ 528530.0, 7260729.912851801142097 ], [ 528520.0, 7260723.223087035119534 ], [ 528510.0, 7260716.328929075971246 ], [ 528500.0, 7260708.896306284703314 ], [ 528490.0, 7260701.103693716228008 ], [ 528480.000892210751772, 7260693.671070925891399 ], [ 528470.012066387105733, 7260686.777805175632238 ], [ 528460.099214585614391, 7260680.098322374746203 ], [ 528450.546306264819577, 7260673.76939329970628 ], [ 528442.08680969348643, 7260668.329482780769467 ], [ 528435.756988407694735, 7260664.205310802906752 ] ] } },
{ "type": "Feature", "properties": { "id": 11, "reference_id": 4, "dune_id": 4, "dune_name": "The Star Dune", "acquisition_date": "2022-03-07", "length_m": 598.99060488261819 }, "geometry": { "type": "LineString", "coordinates": [ [ 533574.243011592421681, 7262045.871555430814624 ], [ 533567.91319030651357, 7262042.042527087032795 ], [ 533559.453693735296838, 7262037.422340825200081 ], [ 533549.900785414502025, 7262032.565592788159847 ], [ 533539.987933612894267, 7262027.86943250335753 ], [ 533529.999107789248228, 7262023.670178715139627 ], [ 533520.0, 7262020.000892210751772 ], [ 533510.0, 7262016.340103251859546 ], [ 533500.0, 7262012.206541517749429 ], [ 533490.0, 7262007.793458482250571 ], [ 533480.0, 7262003.659896749071777 ], [ 533470.0, 7262000.0 ], [ 533460.0, 7261996.340103251859546 ], [ 533450.0, 7261992.206541518680751 ], [ 533440.0, 7261987.794350693002343 ], [ 533430.0, 7261983.670178715139627 ], [ 533420.0, 7261980.075974022969604 ], [ 533410.0, 7261976.700938943773508 ], [ 533400.000000000116415, 7261973.311127444729209 ], [ 533390.0, 7261970.011174176819623 ], [ 533380.000000000116415, 7261966.776912965811789 ], [ 533370.0, 7261963.746152736246586 ], [ 533360.0, 7261961.464529408141971 ], [ 533350.0, 7261960.0 ], [ 533340.0, 7261958.535470593720675 ], [ 533330.0, 7261956.253847263753414 ], [ 533320.0, 7261953.223087035119534 ], [ 533310.0, 7261949.9888258241117 ], [ 533300.0, 7261946.689764766022563 ], [ 533290.0, 7261943.309343023225665 ], [ 533280.0, 7261940.0 ], [ 533270.0, 7261936.690656976774335 ], [ 533260.0, 7261933.309343023225665 ], [ 533250.0, 7261930.0 ], [ 533240.0, 7261926.690656977705657 ], [ 533230.0, 7261923.310235233977437 ], [ 533220.0, 7261920.010281966067851 ], [ 533210.0, 7261916.766630999743938 ], [ 533200.0, 7261913.670178715139627 ], [ 533190.0, 7261911.10458592697978 ], [ 533180.0, 7261908.906588250771165 ], [ 533170.0, 7261906.405795307829976 ], [ 533160.0, 7261903.594204692170024 ], [ 533150.0, 7261901.094303959980607 ], [ 533140.0, 7261898.906588250771165 ], [ 533130.0, 7261896.416077273897827 ], [ 533120.0, 7261893.670178715139627 ], [ 533110.0, 7261891.454247441142797 ], [ 533100.0, 7261890.0 ], [ 533090.0, 7261888.545752558857203 ], [ 533080.0, 7261886.329821285791695 ], [ 533070.0, 7261883.583922726102173 ], [ 533060.0, 7261881.092519538477063 ], [ 533050.000892210751772, 7261878.895414073951542 ], [ 533040.012066387105733, 7261876.329821286723018 ], [ 533030.099214585614391, 7261873.234261211939156 ], [ 533020.546306264819577, 7261870.000892210751772 ], [ 533012.08680969348643, 7261866.776912964880466 ], [ 533005.756988407694735, 7261863.757326913066208 ] ] } },
{ "type": "Feature", "properties": { "id": 12, "reference_id": 1, "dune_id": 1, "dune_name": "Big Mommy Dune", "acquisition_date": "2022-03-07", "length_m": 1305.5821989320871 }, "geometry": { "type": "LineString", "coordinates": [ [ 528905.756988407694735, 7262194.690103271976113 ], [ 528912.085917482851073, 7262189.453693735413253 ], [ 528920.535132088349201, 7262183.123872449621558 ], [ 528930.011174176470377, 7262176.230606701225042 ], [ 528939.553800531546585, 7262168.447430185042322 ], [ 528948.37234837282449, 7262159.552016110159457 ], [ 528955.871555430116132, 7262149.912851801142097 ], [ 528962.042527087032795, 7262139.9888258241117 ], [ 528967.42234082473442, 7262129.999107789248228 ], [ 528972.564700577524491, 7262120.0 ], [ 528977.858258327352814, 7262110.0 ], [ 528983.583030515816063, 7262100.0 ], [ 528989.552908320794813, 7262090.0 ], [ 528994.789317857124843, 7262080.0 ], [ 528998.459496571333148, 7262070.0 ], [ 529001.092519538826309, 7262060.0 ], [ 529004.019840229186229, 7262050.0 ], [ 529007.869432503823191, 7262040.0 ], [ 529012.216823483933695, 7262030.0 ], [ 529016.341887672897428, 7262020.0 ], [ 529020.012066387222148, 7262010.0 ], [ 529023.757326912600547, 7262000.0 ], [ 529028.317416393663734, 7261990.0 ], [ 529034.118162604048848, 7261980.0 ], [ 529041.190841913688928, 7261970.0 ], [ 529048.907480461173691, 7261960.0 ], [ 529056.329821285791695, 7261950.0 ], [ 529063.223087035003118, 7261940.0 ], [ 529069.912851801607758, 7261930.0 ], [ 529076.318647109321319, 7261920.0 ], [ 529082.128783074789681, 7261910.0 ], [ 529087.42234082473442, 7261900.0 ], [ 529092.477552379132248, 7261890.0 ], [ 529097.399992471793666, 7261880.0 ], [ 529101.953594467253424, 7261870.0 ], [ 529105.412397363921627, 7261860.0 ], [ 529106.732630358543247, 7261850.0 ], [ 529105.336423341883346, 7261840.000000000931323 ], [ 529101.58336902083829, 7261830.0 ], [ 529096.23060670029372, 7261820.0 ], [ 529089.987041402142495, 7261810.0 ], [ 529083.659004537737928, 7261800.0 ], [ 529077.79345848178491, 7261790.0 ], [ 529072.20654151821509, 7261780.0 ], [ 529066.340103251626715, 7261770.0 ], [ 529060.000892210751772, 7261760.0 ], [ 529053.671070924960077, 7261750.0 ], [ 529047.880606680293567, 7261740.0 ], [ 529042.653633197303861, 7261730.000000000931323 ], [ 529037.881498890928924, 7261720.0 ], [ 529033.682245101314038, 7261710.0 ], [ 529030.088040409144014, 7261700.0 ], [ 529026.788087141467258, 7261690.0 ], [ 529023.758219123352319, 7261680.0 ], [ 529021.551677605137229, 7261670.0 ], [ 529020.447983889840543, 7261660.0 ], [ 529020.087148198508658, 7261650.0 ], [ 529020.011174176470377, 7261640.0 ], [ 529020.000892210751772, 7261630.0 ], [ 529020.0, 7261620.0 ], [ 529020.0, 7261610.0 ], [ 529020.0, 7261600.0 ], [ 529020.000892210751772, 7261590.0 ], [ 529020.011174176470377, 7261580.0 ], [ 529020.087148198508658, 7261570.0 ], [ 529020.447091679205187, 7261560.000000000931323 ], [ 529021.541395639418624, 7261550.0 ], [ 529023.681352890678681, 7261540.0 ], [ 529026.416969484183937, 7261530.0 ], [ 529028.907480461173691, 7261520.0 ], [ 529031.104585926048458, 7261510.0 ], [ 529033.670178714208305, 7261500.0 ], [ 529036.766630999278277, 7261490.0 ], [ 529040.01028196583502, 7261480.0 ], [ 529043.31023523339536, 7261470.000000000931323 ], [ 529046.690656977239996, 7261460.0 ], [ 529050.0, 7261450.0 ], [ 529053.310235233511776, 7261440.0 ], [ 529056.700938943075016, 7261430.0 ], [ 529060.075974022038281, 7261420.0 ], [ 529063.670178714208305, 7261410.0 ], [ 529067.794350692536682, 7261400.0 ], [ 529072.20654151821509, 7261390.0 ], [ 529076.340103251626715, 7261380.0 ], [ 529080.000892210751772, 7261370.0 ], [ 529083.670178714208305, 7261360.0 ], [ 529087.869432503823191, 7261350.0 ], [ 529092.566484998911619, 7261340.0 ], [ 529097.433515001204796, 7261330.0 ], [ 529102.129675285541452, 7261320.0 ], [ 529106.319539319956675, 7261310.000000000931323 ], [ 529109.923133767326362, 7261300.0 ], [ 529113.299953267676756, 7261290.0 ], [ 529116.700046732323244, 7261280.0 ], [ 529120.076866232673638, 7261270.0 ], [ 529123.680460680043325, 7261260.0 ], [ 529127.870324714574963, 7261250.0 ], [ 529132.566484998911619, 7261240.0 ], [ 529137.433515001088381, 7261230.0 ], [ 529142.129675285425037, 7261220.0 ], [ 529146.319539319956675, 7261210.000000000931323 ], [ 529149.923133767442778, 7261200.0 ], [ 529153.299061057041399, 7261190.0 ], [ 529156.68976476660464, 7261180.0 ], [ 529160.0, 7261170.0 ], [ 529163.309343022760004, 7261160.0 ], [ 529166.689764766488224, 7261150.0 ], [ 529169.988825823529623, 7261140.0 ], [ 529173.222194824367762, 7261130.0 ], [ 529176.242673087399453, 7261120.000000000931323 ], [ 529178.448322394862771, 7261110.0 ], [ 529179.552016110159457, 7261100.0 ], [ 529179.912851801607758, 7261090.0 ], [ 529179.988825823529623, 7261080.0 ], [ 529179.999107789364643, 7261070.0 ], [ 529180.0, 7261060.0 ], [ 529180.0, 7261050.000446105375886 ], [ 529180.0, 7261040.006479299627244 ], [ 529180.0, 7261030.055640487000346 ], [ 529180.0, 7261020.322760425508022 ], [ 529180.0, 7261011.316557979211211 ], [ 529180.0, 7261003.921899050474167 ], [ 529180.0, 7260998.921899050474167 ] ] } }
]
}
