{
"type": "FeatureCollection",
"name": "crests_2020_09_2020-09-11",
"crs": { "type": "name", "properties": { "name": "urn:ogc:def:crs:EPSG::32733" } },
"features": [
{ "type": "Feature", "properties": { "id": 0, "reference_id": 1, "dune_id": 1, "dune_name": "Big Mommy Dune", "acquisition_date": "2020-09-11", "length_m": 416.28774971091258 }, "geometry": { "type": "LineString", "coordinates": [ [ 529078.000338505022228, 7261915.756988408043981 ], [ 529074.690103271510452, 7261922.086809693835676 ], [ 529069.454585945932195, 7261930.546306265518069 ], [ 529063.135046625975519, 7261940.099214585497975 ], [ 529056.318647109321319, 7261950.012066386640072 ], [ 529048.906588250421919, 7261960.000892210751772 ], [ 529041.190841913688928, 7261970.0 ], [ 529034.118162604048848, 7261980.0 ], [ 529028.318308604415506, 7261990.0 ], [ 529023.767608878435567, 7262000.0 ], [ 529020.088040409144014, 7262010.0 ], [ 529016.701831153826788, 7262020.0 ], [ 529013.310235233511776, 7262030.0 ], [ 529010.0, 7262040.0 ], [ 529006.68976476660464, 7262050.0 ], [ 529003.299061057041399, 7262060.0 ], [ 528999.923133767442778, 7262070.0 ], [ 528996.318647109437734, 7262080.0 ], [ 528992.118501108954661, 7262090.0 ], [ 528987.346366802696139, 7262100.0 ], [ 528982.118501109071076, 7262110.0 ], [ 528976.317754898685962, 7262120.0 ], [ 528969.911959590855986, 7262130.0 ], [ 528963.211912858532742, 7262139.999107789248228 ], [ 528956.241780876647681, 7262149.9888258241117 ], [ 528948.448322394862771, 7262159.912851801142097 ], [ 528939.552016110159457, 7262169.552016111090779 ], [ 528929.912851801607758, 7262178.448322394862771 ], [ 528919.988825823529623, 7262186.241780877113342 ], [ 528909.999107789248228, 7262193.211912859231234 ], [ 528900.0, 7262199.912851802073419 ], [ 528890.0, 7262206.328929075039923 ], [ 528880.000892210751772, 7262212.204757097177207 ], [ 528870.012066387105733, 7262217.782284306362271 ], [ 528860.099214585614391, 7262223.571856339462101 ], [ 528850.546306264819577, 7262229.540841933339834 ], [ 528842.086809693370014, 7262234.701277447864413 ], [ 528835.756988407694735, 7262238.001230715774 ] ] } },
{ "type": "Feature", "properties": { "id": 1, "reference_id": 1, "dune_id": 1, "dune_name": "Big Mommy Dune", "acquisition_date": "2020-09-11", "length_m": 685.45613279168867 }, "geometry": { "type": "LineString", "coordinates": [ [ 529179.999107789364643, 7261075.756988408043981 ], [ 529179.988825823529623, 7261082.086809693835676 ], [ 529179.912851801607758, 7261090.546306265518069 ], [ 529179.552908320794813, 7261100.099214585497975 ], [ 529178.458604360581376, 7261110.012066386640072 ], [ 529176.318647109321319, 7261120.000892211683095 ], [ 529173.583030515816063, 7261130.0 ], [ 529171.092519538942724, 7261140.0 ], [ 529168.895414074067958, 7261150.0 ], [ 529166.329821285791695, 7261160.0 ], [ 529163.233369000954553, 7261170.0 ], [ 529159.989718034281395, 7261180.0 ], [ 529156.688872555969283, 7261190.0 ], [ 529153.299061057041399, 7261200.0 ], [ 529149.923133767442778, 7261210.000000000931323 ], [ 529146.319539319956675, 7261220.0 ], [ 529142.128783074906096, 7261230.0 ], [ 529137.423233035369776, 7261240.0 ], [ 529132.490510976873338, 7261250.0 ], [ 529127.509489023126662, 7261260.0 ], [ 529122.576766964630224, 7261270.0 ], [ 529117.870324714574963, 7261280.0 ], [ 529113.670178714208305, 7261290.0 ], [ 529110.0, 7261300.0 ], [ 529106.329821285791695, 7261310.000000000931323 ], [ 529102.130567496176809, 7261320.0 ], [ 529097.433515001204796, 7261330.0 ], [ 529092.566484998911619, 7261340.0 ], [ 529087.870324714574963, 7261350.0 ], [ 529083.680460680043325, 7261360.0 ], [ 529080.076866232557222, 7261370.0 ], [ 529076.700046732323244, 7261380.0 ], [ 529073.299953267676756, 7261390.0 ], [ 529069.924025978078134, 7261400.0 ], [ 529066.329821285791695, 7261410.0 ], [ 529062.205649307463318, 7261420.0 ], [ 529057.794350692536682, 7261430.0 ], [ 529053.670178714208305, 7261440.0 ], [ 529050.075974021921866, 7261450.0 ], [ 529046.700938942958601, 7261460.0 ], [ 529043.311127444147132, 7261470.000000000931323 ], [ 529040.01028196583502, 7261480.0 ], [ 529036.766630999278277, 7261490.0 ], [ 529033.670178714208305, 7261500.0 ], [ 529031.104585926048458, 7261510.0 ], [ 529028.907480461173691, 7261520.0 ], [ 529026.416969484183937, 7261530.0 ], [ 529023.681352890678681, 7261540.0 ], [ 529021.541395639418624, 7261550.0 ], [ 529020.44619946856983, 7261560.000000000931323 ], [ 529020.075974022038281, 7261570.0 ], [ 529019.924025978078134, 7261580.0 ], [ 529019.553800531546585, 7261590.0 ], [ 529018.459496571333148, 7261600.0 ], [ 529016.330713496543467, 7261610.0 ], [ 529013.681352890795097, 7261620.0 ], [ 529011.628543837810867, 7261630.0 ], [ 529010.90535753488075, 7261640.0 ], [ 529011.714799825567752, 7261650.0 ], [ 529014.12933678063564, 7261660.0 ], [ 529017.883283312432468, 7261670.0 ], [ 529022.227997660404071, 7261679.999107789248228 ], [ 529026.416969484183937, 7261689.987933613359928 ], [ 529030.359943480696529, 7261699.900785414502025 ], [ 529034.752416287316009, 7261709.453693734481931 ], [ 529039.911959590855986, 7261717.913190307095647 ], [ 529044.778143680654466, 7261724.243011591956019 ] ] } },
{ "type": "Feature", "properties": { "id": 2, "reference_id": 1, "dune_id": 1, "dune_name": "Big Mommy Dune", "acquisition_date": "2020-09-11", "length_m": 71.735271747083686 }, "geometry": { "type": "LineString", "coordinates": [ [ 529109.988825823529623, 7261864.243011591956019 ], [ 529109.911959590855986, 7261857.913190307095647 ], [ 529109.541734144440852, 7261849.453693735413253 ], [ 529108.37234837282449, 7261839.901677625253797 ], [ 529105.882729606702924, 7261830.0 ], [ 529102.129675285541452, 7261820.098322375677526 ], [ 529097.870324714574963, 7261810.546306265518069 ], [ 529094.117270393413492, 7261802.086809692904353 ], [ 529091.62765162717551, 7261795.756988408043981 ] ] } },
{ "type": "Feature", "properties": { "id": 3, "reference_id": 8, "dune_id": 8, "dune_name": "Inverted Y Dune", "acquisition_date": "2020-09-11", "length_m": 68.486023184610531 }, "geometry": { "type": "LineString", "coordinates": [ [ 530464.243011592305265, 7261210.000000000931323 ], [ 530457.91319030651357, 7261210.000000000931323 ], [ 530449.453693735296838, 7261210.000000000931323 ], [ 530439.901677625137381, 7261210.000000000931323 ], [ 530430.000000000116415, 7261210.000000000931323 ], [ 530420.098322374979034, 7261210.000000000931323 ], [ 530410.546306264819577, 7261210.000000000931323 ], [ 530402.08680969348643, 7261210.000000000931323 ], [ 530395.756988407694735, 7261210.000000000931323 ] ] } },
{ "type": "Feature", "properties": { "id": 4, "reference_id": 8, "dune_id": 8, "dune_name": "Inverted Y Dune", "acquisition_date": "2020-09-11", "length_m": 428.41529666241843 }, "geometry": { "type": "LineString", "coordinates": [ [ 530264.243011592421681, 7261221.638825803995132 ], [ 530257.913190306629986, 7261224.205310802906752 ], [ 530249.453693735180423, 7261228.329482780769467 ], [ 530239.900785414502025, 7261233.76939329970628 ], [ 530229.987933612777852, 7261240.099214585497975 ], [ 530220.0, 7261246.788979351520538 ], [ 530210.011174176470377, 7261253.75821912381798 ], [ 530200.087148198392242, 7261261.551677605137229 ], [ 530190.447983889840543, 7261270.447983890771866 ], [ 530181.552569815889001, 7261280.087148198857903 ], [ 530173.768501089187339, 7261290.0111741758883 ], [ 530166.864953374140896, 7261300.000892210751772 ], [ 530160.45915806631092, 7261310.000000000931323 ], [ 530154.861912838649005, 7261320.0 ], [ 530150.447983889840543, 7261330.0 ], [ 530146.777805175632238, 7261340.0 ], [ 530143.321409409982152, 7261350.0 ], [ 530140.011174176586792, 7261360.0 ], [ 530136.766630999278277, 7261370.0 ], [ 530133.670178714208305, 7261380.0 ], [ 530131.104585926048458, 7261390.0 ], [ 530128.907480461173691, 7261400.0 ], [ 530126.416077273664996, 7261410.0 ], [ 530123.670178714208305, 7261420.0 ], [ 530121.454247441026382, 7261430.0 ], [ 530120.0, 7261440.0 ], [ 530118.54664476972539, 7261450.0 ], [ 530116.340995462262072, 7261460.0 ], [ 530113.671070924960077, 7261470.000000000931323 ], [ 530111.540503428666852, 7261480.0 ], [ 530110.447091679205187, 7261490.0 ], [ 530110.086255987756886, 7261500.0 ], [ 530110.0, 7261510.0 ], [ 530109.913744012243114, 7261520.0 ], [ 530109.552908320911229, 7261530.0 ], [ 530108.459496571333148, 7261539.999553894624114 ], [ 530106.329821285791695, 7261549.993520701304078 ], [ 530103.670178714208305, 7261559.944359513930976 ], [ 530101.540503428783268, 7261569.6772395754233 ], [ 530100.447091679205187, 7261578.683442020788789 ], [ 530100.087148198508658, 7261586.078100949525833 ], [ 530100.011174176470377, 7261591.078100949525833 ] ] } },
{ "type": "Feature", "properties": { "id": 5, "reference_id": 9, "dune_id": 9, "dune_name": "Inverted Y Dune", "acquisition_date": "2020-09-11", "length_m": 764.49014750910567 }, "geometry": { "type": "LineString", "coordinates": [ [ 530097.91319030651357, 7261598.834750852547586 ], [ 530094.243011592421681, 7261603.473915160633624 ], [ 530087.913190306629986, 7261609.764880374073982 ], [ 530079.453693735180423, 7261616.565433513373137 ], [ 530069.900785414502025, 7261623.277835311368108 ], [ 530059.987933612894267, 7261629.995305122807622 ], [ 530049.999107789364643, 7261636.689318661578 ], [ 530040.0, 7261643.299061058089137 ], [ 530030.0, 7261649.924025977961719 ], [ 530020.0, 7261656.330713496543467 ], [ 530010.0, 7261662.21593127399683 ], [ 530000.0, 7261667.870324714109302 ], [ 529990.0, 7261674.031014405190945 ], [ 529980.0, 7261681.179667737334967 ], [ 529970.0, 7261688.906588250771165 ], [ 529960.0, 7261696.330713496543467 ], [ 529950.0, 7261703.234261211939156 ], [ 529940.0, 7261710.000892210751772 ], [ 529930.0, 7261716.776912964880466 ], [ 529920.0, 7261723.757326913066208 ], [ 529910.0, 7261731.551677605137229 ], [ 529900.0, 7261740.447983890771866 ], [ 529890.0, 7261750.087148198857903 ], [ 529880.0, 7261760.011174176819623 ], [ 529870.000892210751772, 7261770.000892210751772 ], [ 529860.011174176470377, 7261780.0 ], [ 529850.087148198392242, 7261790.0 ], [ 529840.447091679205187, 7261800.0 ], [ 529831.541395639418624, 7261810.0 ], [ 529823.682245101314038, 7261820.0 ], [ 529816.428143660770729, 7261830.0 ], [ 529808.994628659682348, 7261840.000000000931323 ], [ 529801.552569815889001, 7261850.0 ], [ 529795.221856319345534, 7261860.0 ], [ 529790.523957911878824, 7261870.0 ], [ 529786.788087141467258, 7261880.0 ], [ 529783.321409409982152, 7261890.0 ], [ 529780.000892210751772, 7261900.0 ], [ 529776.690656977239996, 7261910.0 ], [ 529773.309343022760004, 7261920.0 ], [ 529770.0, 7261930.0 ], [ 529766.689764766488224, 7261940.0 ], [ 529763.299061056924984, 7261950.0 ], [ 529759.924025978078134, 7261960.0 ], [ 529756.329821285791695, 7261970.0 ], [ 529752.205649307463318, 7261980.0 ], [ 529747.793458481901325, 7261990.0 ], [ 529743.6598967484897, 7262000.0 ], [ 529739.999107789364643, 7262010.0 ], [ 529736.329821285791695, 7262020.0 ], [ 529732.129675285541452, 7262030.0 ], [ 529727.423233035369776, 7262040.0 ], [ 529722.490510976873338, 7262050.0 ], [ 529717.509489023126662, 7262060.0 ], [ 529712.576766964630224, 7262070.0 ], [ 529707.870324714574963, 7262080.0 ], [ 529703.670178714208305, 7262090.0 ], [ 529700.0, 7262100.0 ], [ 529696.329821285791695, 7262110.0 ], [ 529692.129675285425037, 7262120.0 ], [ 529687.423233035369776, 7262130.0 ], [ 529682.490510976873338, 7262140.0 ], [ 529677.510381233762018, 7262149.999107789248228 ], [ 529672.5879411411006, 7262159.987933613359928 ], [ 529667.958365123718977, 7262169.900785414502025 ], [ 529664.128444569883868, 7262179.453693735413253 ], [ 529661.628543837927282, 7262187.913190307095647 ], [ 529660.458265855675563, 7262194.243011591956019 ] ] } },
{ "type": "Feature", "properties": { "id": 6, "reference_id": 3, "dune_id": 3, "dune_name": "Big Mommy Dune", "acquisition_date": "2020-09-11", "length_m": 238.48602318461053 }, "geometry": { "type": "LineString", "coordinates": [ [ 529735.756988407694735, 7260610.0 ], [ 529742.08680969348643, 7260610.0 ], [ 529750.546306264819577, 7260610.0 ], [ 529760.099214585614391, 7260610.0 ], [ 529770.012066387222148, 7260610.0 ], [ 529780.000892210751772, 7260610.0 ], [ 529790.0, 7260610.0 ], [ 529800.0, 7260610.0 ], [ 529810.0, 7260610.0 ], [ 529820.0, 7260610.0 ], [ 529830.0, 7260610.0 ], [ 529840.0, 7260610.0 ], [ 529850.0, 7260610.0 ], [ 529860.0, 7260610.0 ], [ 529870.0, 7260610.0 ], [ 529880.0, 7260610.0 ], [ 529890.0, 7260610.0 ], [ 529900.0, 7260610.0 ], [ 529910.0, 7260610.0 ], [ 529920.0, 7260610.0 ], [ 529929.999107789364643, 7260610.0 ], [ 529939.987933612894267, 7260610.0 ], [ 529949.900785414502025, 7260610.0 ], [ 529959.453693735180423, 7260610.0 ], [ 529967.91319030651357, 7260610.0 ], [ 529974.243011592305265, 7260610.0 ] ] } },
{ "type": "Feature", "properties": { "id": 7, "reference_id": 3, "dune_id": 3, "dune_name": "Big Mommy Dune", "acquisition_date": "2020-09-11", "length_m": 130.45776950649028 }, "geometry": { "type": "LineString", "coordinates": [ [ 530035.756988407694735, 7260609.552908320911229 ], [ 530042.08680969348643, 7260608.459496571682394 ], [ 530050.546306264819577, 7260606.329821286723018 ], [ 530060.099214585614391, 7260603.670178715139627 ], [ 530070.012066387222148, 7260601.540503429248929 ], [ 530080.000892210751772, 7260600.446199469268322 ], [ 530090.0, 7260600.075974022969604 ], [ 530100.0, 7260599.924025978893042 ], [ 530110.0, 7260599.553800531663001 ], [ 530119.999107789364643, 7260598.459496571682394 ], [ 530129.987933612894267, 7260596.329821285791695 ], [ 530139.900785414502025, 7260593.670178714208305 ], [ 530149.453693735296838, 7260591.540503429248929 ], [ 530157.91319030651357, 7260590.447091680020094 ], [ 530164.243011592305265, 7260590.087148198857903 ] ] } },
{ "type": "Feature", "properties": { "id": 8, "reference_id": 3, "dune_id": 3, "dune_name": "Big Mommy Dune", "acquisition_date": "2020-09-11", "length_m": 360.14531852969662 }, "geometry": { "type": "LineString", "coordinates": [ [ 529374.243011592305265, 7260695.669840209186077 ], [ 529367.91319030651357, 7260701.639718014746904 ], [ 529359.454585945932195, 7260709.00580283626914 ], [ 529349.911959590972401, 7260716.429035872220993 ], [ 529340.075081811286509, 7260723.682245101779699 ], [ 529330.447091679205187, 7260731.541395640000701 ], [ 529321.551677605253644, 7260740.447091680020094 ], [ 529313.757326912716962, 7260750.087148198857903 ], [ 529306.777805175748654, 7260760.0111741758883 ], [ 529300.011174176470377, 7260770.000892210751772 ], [ 529293.311127444147132, 7260780.000000000931323 ], [ 529286.700938943075016, 7260790.0 ], [ 529280.075974022038281, 7260800.0 ], [ 529273.670178714208305, 7260810.0 ], [ 529267.794350692536682, 7260820.0 ], [ 529262.205649307463318, 7260830.0 ], [ 529256.32982128590811, 7260840.0 ], [ 529249.924025978078134, 7260850.0 ], [ 529243.299953267676756, 7260860.0 ], [ 529236.700046732323244, 7260870.0 ], [ 529230.075974021921866, 7260880.0 ], [ 529223.670178714208305, 7260890.0 ], [ 529217.794350692536682, 7260900.0 ], [ 529212.206541518098675, 7260910.0 ], [ 529206.340995462262072, 7260920.0 ], [ 529200.012066387105733, 7260930.0 ], [ 529193.758665228728205, 7260939.999553894624114 ], [ 529188.334177658427507, 7260949.993520701304078 ], [ 529184.248884901753627, 7260959.944359514862299 ], [ 529181.862371643190272, 7260969.6772395754233 ], [ 529181.229409780702554, 7260978.683442020788789 ], [ 529181.923129766248167, 7260986.078100949525833 ], [ 529183.176084819366224, 7260991.078100949525833 ] ] } },
{ "type": "Feature", "properties": { "id": 9, "reference_id": 3, "dune_id": 3, "dune_name": "Big Mommy Dune", "acquisition_date": "2020-09-11", "length_m": 214.99929676925939 }, "geometry": { "type": "LineString", "coordinates": [ [ 529405.756988407694735, 7260679.552016109228134 ], [ 529412.08680969348643, 7260678.448322394862771 ], [ 529420.546306264819577, 7260676.242673087865114 ], [ 529430.099214585614391, 7260673.223087035119534 ], [ 529440.012066387222148, 7260669.999107789248228 ], [ 529450.000892210751772, 7260666.765738788992167 ], [ 529460.0, 7260663.670178714208305 ], [ 529470.0, 7260661.103693716228008 ], [ 529480.0, 7260658.896306285634637 ], [ 529490.0, 7260656.329821285791695 ], [ 529500.000000000116415, 7260653.234261211939156 ], [ 529510.0, 7260650.000892210751772 ], [ 529520.0, 7260646.776020754128695 ], [ 529530.0, 7260643.746152736246586 ], [ 529540.0, 7260641.464529407210648 ], [ 529550.0, 7260640.000892210751772 ], [ 529560.0, 7260638.546644769608974 ], [ 529569.999107789248228, 7260636.340995462611318 ], [ 529579.987933612894267, 7260633.671070925891399 ], [ 529589.900785414502025, 7260631.540503429248929 ], [ 529599.453693735180423, 7260630.447091680020094 ], [ 529607.91319030651357, 7260630.087148198857903 ], [ 529614.243011592421681, 7260630.011174176819623 ] ] } },
{ "type": "Feature", "properties": { "id": 10, "reference_id": 4, "dune_id": 4, "dune_name": "The Star Dune", "acquisition_date": "2020-09-11", "length_m": 498.68439785161166 }, "geometry": { "type": "LineString", "coordinates": [ [ 533005.756988407694735, 7261871.540503429248929 ], [ 533012.08680969348643, 7261873.671070925891399 ], [ 533020.546306264819577, 7261876.340995462611318 ], [ 533030.099214585614391, 7261878.546644769608974 ], [ 533040.012066387105733, 7261880.0 ], [ 533050.000892210751772, 7261881.453355230391026 ], [ 533060.0, 7261883.659896748140454 ], [ 533070.0, 7261886.340103251859546 ], [ 533080.0, 7261888.546644769608974 ], [ 533090.0, 7261890.0 ], [ 533100.0, 7261891.454247441142797 ], [ 533110.0, 7261893.670178715139627 ], [ 533120.0, 7261896.416077273897827 ], [ 533130.0, 7261898.907480461522937 ], [ 533140.0, 7261901.104585926048458 ], [ 533150.0, 7261903.670178715139627 ], [ 533160.0, 7261906.766630999743938 ], [ 533170.0, 7261910.010281966999173 ], [ 533180.0, 7261913.310235233977437 ], [ 533190.0, 7261916.689764766022563 ], [ 533200.0, 7261919.989718034863472 ], [ 533210.0, 7261923.233369001187384 ], [ 533220.0, 7261926.329821286723018 ], [ 533230.0, 7261928.896306285634637 ], [ 533240.0, 7261931.103693715296686 ], [ 533250.0, 7261933.670178715139627 ], [ 533260.0, 7261936.765738788992167 ], [ 533270.0, 7261940.0 ], [ 533280.0, 7261943.234261211007833 ], [ 533290.0, 7261946.329821284860373 ], [ 533300.0, 7261948.895414074882865 ], [ 533310.0, 7261951.093411749228835 ], [ 533320.0, 7261953.594204692170024 ], [ 533330.0, 7261956.405795307829976 ], [ 533340.0, 7261958.906588250771165 ], [ 533350.0, 7261961.10458592697978 ], [ 533360.0, 7261963.670178714208305 ], [ 533370.0, 7261966.766630999743938 ], [ 533380.000000000116415, 7261970.010281966067851 ], [ 533390.0, 7261973.311127444729209 ], [ 533400.000000000116415, 7261976.700938943773508 ], [ 533410.0, 7261980.075974022969604 ], [ 533420.0, 7261983.670178715139627 ], [ 533430.0, 7261987.794350693002343 ], [ 533439.999107789364643, 7261992.205649307928979 ], [ 533449.987933612894267, 7261996.328929075971246 ], [ 533459.900785414385609, 7261999.912851801142097 ], [ 533469.453693735180423, 7262003.211912859231234 ], [ 533477.913190306629986, 7262006.241780877113342 ], [ 533484.243011592421681, 7262008.448322394862771 ] ] } },
{ "type": "Feature", "properties": { "id": 11, "reference_id": 4, "dune_id": 4, "dune_name": "The Star Dune", "acquisition_date": "2020-09-11", "length_m": 64.33907284740674 }, "geometry": { "type": "LineString", "coordinates": [ [ 533515.756988407694735, 7262021.628543837927282 ], [ 533522.08680969348643, 7262024.128444569185376 ], [ 533530.545414054067805, 7262027.957472912967205 ], [ 533540.087148198392242, 7262032.57676696497947 ], [ 533549.912851801607758, 7262037.423233035951853 ], [ 533559.454585945932195, 7262042.042527087032795 ], [ 533567.91319030651357, 7262045.871555430814624 ], [ 533574.243011592421681, 7262048.371456163004041 ] ] } },
{ "type": "Feature", "properties": { "id": 12, "reference_id": 5, "dune_id": 5, "dune_name": "The Star Dune", "acquisition_date": "2020-09-11", "length_m": 871.49913332348808 }, "geometry": { "type": "LineString", "coordinates": [ [ 534314.243011592305265, 7261565.756988408043981 ], [ 534307.91319030651357, 7261572.085917483083904 ], [ 534299.453693735296838, 7261580.535132088698447 ], [ 534289.900785414502025, 7261590.012066387571394 ], [ 534279.987933612894267, 7261599.564082497730851 ], [ 534269.999107789248228, 7261608.449214605614543 ], [ 534260.0, 7261616.242673087865114 ], [ 534250.0, 7261623.222194824367762 ], [ 534240.0, 7261629.9888258241117 ], [ 534230.0, 7261636.688872556202114 ], [ 534220.0, 7261643.298168847337365 ], [ 534210.0, 7261649.911959591321647 ], [ 534200.0, 7261656.231498911976814 ], [ 534190.0, 7261661.670517219230533 ], [ 534180.0, 7261665.79558140784502 ], [ 534170.0, 7261668.37234837282449 ], [ 534160.0, 7261669.627990132197738 ], [ 534150.0, 7261670.359051270410419 ], [ 534140.0, 7261671.529329252429307 ], [ 534130.0, 7261673.669286503456533 ], [ 534120.0, 7261676.329821285791695 ], [ 534110.0, 7261678.459496570751071 ], [ 534100.0, 7261679.553800531663001 ], [ 534090.0, 7261679.924025977961719 ], [ 534080.0, 7261680.075974022038281 ], [ 534070.0, 7261680.446199468336999 ], [ 534060.0, 7261681.540503429248929 ], [ 534050.0, 7261683.670178715139627 ], [ 534040.0, 7261686.33071349747479 ], [ 534030.0, 7261688.470670748502016 ], [ 534020.0, 7261689.64005651883781 ], [ 534010.0, 7261690.35994348116219 ], [ 534000.0, 7261691.530221464112401 ], [ 533990.0, 7261693.680460680276155 ], [ 533980.0, 7261696.416969484649599 ], [ 533970.0, 7261698.907480461522937 ], [ 533960.0, 7261701.10458592697978 ], [ 533950.0, 7261703.671070924960077 ], [ 533940.0, 7261706.776912964880466 ], [ 533930.0, 7261710.086255988106132 ], [ 533920.0, 7261713.671070924960077 ], [ 533910.0, 7261717.794350693002343 ], [ 533900.0, 7261722.206541517749429 ], [ 533890.0, 7261726.340995462611318 ], [ 533880.0, 7261730.011174176819623 ], [ 533870.0, 7261733.747044946998358 ], [ 533860.0, 7261738.241442372091115 ], [ 533850.0, 7261743.758219124749303 ], [ 533840.0, 7261750.098322374746203 ], [ 533830.0, 7261756.788979352451861 ], [ 533820.0, 7261763.758219122886658 ], [ 533810.000892210635357, 7261771.551677605137229 ], [ 533800.011174176470377, 7261780.447983889840543 ], [ 533790.088040409144014, 7261790.087148198857903 ], [ 533780.45915806631092, 7261800.011174176819623 ], [ 533771.638825803645886, 7261810.000892210751772 ], [ 533764.205310802557506, 7261820.0 ], [ 533758.328590570134111, 7261830.0 ], [ 533753.758219123352319, 7261840.000000000931323 ], [ 533750.012066387222148, 7261850.0 ], [ 533746.340995462262072, 7261860.0 ], [ 533742.206541518098675, 7261870.0 ], [ 533737.793458481901325, 7261880.0 ], [ 533733.659896748373285, 7261890.0 ], [ 533729.999107789364643, 7261900.0 ], [ 533726.329821285791695, 7261910.0 ], [ 533722.129675285425037, 7261920.0 ], [ 533717.42234082473442, 7261930.0 ], [ 533712.479336800519377, 7261940.0 ], [ 533707.42234082473442, 7261950.0 ], [ 533702.128783074789681, 7261960.0 ], [ 533696.31953932007309, 7261970.0 ], [ 533689.924025978078134, 7261980.0 ], [ 533683.311127444147132, 7261989.999553894624114 ], [ 533676.788087141467258, 7261999.993520701304078 ], [ 533670.535132088232785, 7262009.944359513930976 ], [ 533665.309004517854191, 7262019.677239574491978 ], [ 533661.999661495094188, 7262028.683442020788789 ], [ 533660.535132088232785, 7262036.078100949525833 ], [ 533660.098322374979034, 7262041.078100949525833 ] ] } },
{ "type": "Feature", "properties": { "id": 13, "reference_id": 5, "dune_id": 5, "dune_name": "The Star Dune", "acquisition_date": "2020-09-11", "length_m": 258.54901381761124 }, "geometry": { "type": "LineString", "coordinates": [ [ 534334.342226177919656, 7261305.756988408043981 ], [ 534328.459496571333148, 7261312.086809693835676 ], [ 534321.540503428666852, 7261320.546306264586747 ], [ 534315.658666032715701, 7261330.099214585497975 ], [ 534312.085917482734658, 7261340.012066386640072 ], [ 534310.632562252460048, 7261350.000892210751772 ], [ 534310.546306264703162, 7261360.0 ], [ 534311.552569815889001, 7261370.0 ], [ 534313.671070924960077, 7261380.0 ], [ 534316.330713496543467, 7261390.0 ], [ 534318.470670747687109, 7261400.0 ], [ 534319.640056519303471, 7261410.0 ], [ 534320.359943480696529, 7261420.0 ], [ 534321.529329252196476, 7261430.0 ], [ 534323.669286503572948, 7261440.0 ], [ 534326.329821285791695, 7261450.0 ], [ 534328.459496571333148, 7261460.0 ], [ 534329.552908320794813, 7261470.000000000931323 ], [ 534329.911959590855986, 7261480.0 ], [ 534329.977651647059247, 7261490.0 ], [ 534329.911959590855986, 7261500.0 ], [ 534329.552908320794813, 7261509.999107789248228 ], [ 534328.459496571333148, 7261519.987933613359928 ], [ 534326.329821285791695, 7261529.900785414502025 ], [ 534323.670178714208305, 7261539.453693734481931 ], [ 534321.540503428666852, 7261547.913190307095647 ], [ 534320.447091679205187, 7261554.243011592887342 ] ] } },
{ "type": "Feature", "properties": { "id": 14, "reference_id": 7, "dune_id": 7, "dune_name": "Inverted Y Dune", "acquisition_date": "2020-09-11", "length_m": 497.54548124306433 }, "geometry": { "type": "LineString", "coordinates": [ [ 530594.690995482262224, 7261385.756988408043981 ], [ 530589.464867911650799, 7261392.086809693835676 ], [ 530583.211020647897385, 7261400.546306264586747 ], [ 530576.678590590134263, 7261410.099214585497975 ], [ 530569.999107789248228, 7261420.012066387571394 ], [ 530563.309343022760004, 7261430.000892210751772 ], [ 530556.690656977239996, 7261440.0 ], [ 530550.0, 7261450.0 ], [ 530543.309343022760004, 7261460.0 ], [ 530536.689764766488224, 7261470.000000000931323 ], [ 530529.988825823529623, 7261480.0 ], [ 530523.222194824367762, 7261490.0 ], [ 530516.242673087399453, 7261500.0 ], [ 530508.448322394862771, 7261510.0 ], [ 530499.552016110159457, 7261520.0 ], [ 530489.912851801607758, 7261530.0 ], [ 530479.988825823529623, 7261539.999107789248228 ], [ 530469.999107789364643, 7261549.9888258241117 ], [ 530460.0, 7261559.911959591321647 ], [ 530450.0, 7261569.541734145022929 ], [ 530440.0, 7261578.371456162072718 ], [ 530430.000000000116415, 7261585.870663220062852 ], [ 530420.0, 7261592.031352911144495 ], [ 530410.0, 7261597.335192626342177 ], [ 530400.0, 7261602.118501110002398 ], [ 530390.0, 7261606.328929075039923 ], [ 530380.0, 7261610.0 ], [ 530370.0, 7261613.670178715139627 ], [ 530360.0, 7261617.869432504288852 ], [ 530350.0, 7261622.565592788159847 ], [ 530340.0, 7261627.423233035951853 ], [ 530330.0, 7261632.053701263852417 ], [ 530320.0, 7261635.958703628741205 ], [ 530310.0, 7261638.818547841161489 ], [ 530300.0, 7261641.082237573340535 ], [ 530290.0, 7261643.582138305529952 ], [ 530280.0, 7261646.318647109903395 ], [ 530270.0, 7261648.458604361861944 ], [ 530260.0, 7261649.552908321842551 ], [ 530250.000892210635357, 7261649.912851802073419 ], [ 530240.012066387222148, 7261649.9888258241117 ], [ 530230.099214585614391, 7261649.999107790179551 ], [ 530220.546306264819577, 7261650.0 ], [ 530212.08680969348643, 7261650.0 ], [ 530205.756988407694735, 7261650.0 ] ] } },
{ "type": "Feature", "properties": { "id": 15, "reference_id": 6, "dune_id": 6, "dune_name": "The Star Dune", "acquisition_date": "2020-09-11", "length_m": 804.57461915336228 }, "geometry": { "type": "LineString", "coordinates": [ [ 533659.999107789248228, 7262048.921899050474167 ], [ 533659.988825823529623, 7262053.921899050474167 ], [ 533659.912851801607758, 7262061.316557979211211 ], [ 533659.552908320911229, 7262070.322760425508022 ], [ 533658.459496571216732, 7262080.055640487000346 ], [ 533656.329821285791695, 7262090.006479298695922 ], [ 533653.670178714208305, 7262100.000446105375886 ], [ 533651.541395639418624, 7262110.0 ], [ 533650.458265855675563, 7262120.0 ], [ 533650.1742963969009, 7262130.0 ], [ 533650.458265855675563, 7262140.0 ], [ 533651.541395639418624, 7262150.0 ], [ 533653.670178714208305, 7262160.0 ], [ 533656.329821285791695, 7262170.0 ], [ 533658.459496571216732, 7262180.0 ], [ 533659.553800531546585, 7262190.0 ], [ 533659.924025977961719, 7262200.0 ], [ 533660.075974022038281, 7262210.0 ], [ 533660.44619946856983, 7262220.0 ], [ 533661.540503428783268, 7262230.0 ], [ 533663.670178714208305, 7262240.0 ], [ 533666.330713496543467, 7262250.0 ], [ 533668.470670747803524, 7262260.0 ], [ 533669.640056519303471, 7262270.0 ], [ 533670.359943480696529, 7262280.0 ], [ 533671.529329252196476, 7262290.0 ], [ 533673.668394292821176, 7262300.0 ], [ 533676.318647109437734, 7262310.0 ], [ 533678.37234837282449, 7262320.0 ], [ 533679.105816641706042, 7262330.0 ], [ 533678.37234837282449, 7262340.000000000931323 ], [ 533676.317754898685962, 7262350.0 ], [ 533673.658112327102572, 7262360.0 ], [ 533671.453355230391026, 7262370.0 ], [ 533669.999107789364643, 7262380.0 ], [ 533668.535470593255013, 7262390.0 ], [ 533666.253847263869829, 7262400.0 ], [ 533663.223087035119534, 7262410.0 ], [ 533659.988825823529623, 7262420.0 ], [ 533656.689764766488224, 7262430.0 ], [ 533653.309343022760004, 7262440.0 ], [ 533650.0, 7262450.0 ], [ 533646.690656977239996, 7262460.0 ], [ 533643.310235233511776, 7262470.0 ], [ 533640.011174176470377, 7262480.0 ], [ 533636.777805175632238, 7262490.0 ], [ 533633.75643470196519, 7262500.0 ], [ 533631.540503428783268, 7262510.0 ], [ 533630.360835691448301, 7262520.0 ], [ 533629.640056519303471, 7262530.0 ], [ 533628.469778537051752, 7262540.0 ], [ 533626.319539319956675, 7262550.0 ], [ 533623.583030515699647, 7262560.0 ], [ 533621.093411749578081, 7262570.0 ], [ 533618.906588250421919, 7262580.0 ], [ 533616.416077273664996, 7262590.0 ], [ 533613.670178714208305, 7262600.000000000931323 ], [ 533611.454247441026382, 7262610.0 ], [ 533610.0, 7262620.0 ], [ 533608.54664476972539, 7262630.0 ], [ 533606.340995462378487, 7262640.0 ], [ 533603.671070924960077, 7262650.0 ], [ 533601.539611218031496, 7262660.0 ], [ 533600.43591750273481, 7262670.0 ], [ 533600.0, 7262680.0 ], [ 533599.56408249726519, 7262690.0 ], [ 533598.460388781968504, 7262700.0 ], [ 533596.328929075039923, 7262710.0 ], [ 533593.659004537737928, 7262720.0 ], [ 533591.45335523027461, 7262730.0 ], [ 533590.0, 7262740.0 ], [ 533588.545752559090033, 7262750.0 ], [ 533586.329821285791695, 7262760.0 ], [ 533583.583030515816063, 7262770.0 ], [ 533581.082237573107705, 7262780.0 ], [ 533578.819440052029677, 7262789.999107789248228 ], [ 533575.969877805095166, 7262799.987933613359928 ], [ 533572.140849462011829, 7262809.900785414502025 ], [ 533567.871216925210319, 7262819.453693736344576 ], [ 533564.117270393413492, 7262827.913190307095647 ], [ 533561.62765162717551, 7262834.243011592887342 ] ] } },
{ "type": "Feature", "properties": { "id": 16, "reference_id": 2, "dune_id": 2, "dune_name": "Big Mommy Dune", "acquisition_date": "2020-09-11", "length_m": 769.57551879231119 }, "geometry": { "type": "LineString", "coordinates": [ [ 529134.243011592421681, 7260968.448322394862771 ], [ 529127.91319030651357, 7260966.241780877113342 ], [ 529119.453693735296838, 7260963.211912859231234 ], [ 529109.900785414385609, 7260959.911959591321647 ], [ 529099.987933612894267, 7260956.318647109903395 ], [ 529089.999107789248228, 7260952.129675285890698 ], [ 529080.0, 7260947.434407211840153 ], [ 529070.0, 7260942.577659174799919 ], [ 529060.0, 7260937.956580702215433 ], [ 529050.0, 7260934.117270393297076 ], [ 529040.0, 7260931.541395640000701 ], [ 529030.0, 7260930.0111741758883 ], [ 529020.0, 7260928.546644769608974 ], [ 529010.0, 7260926.329821286723018 ], [ 529000.0, 7260923.583922727033496 ], [ 528990.0, 7260921.093411749228835 ], [ 528980.0, 7260918.905696040019393 ], [ 528970.0, 7260916.405795307829976 ], [ 528960.0, 7260913.594204692170024 ], [ 528950.0, 7260911.094303959980607 ], [ 528940.0, 7260908.905696040019393 ], [ 528930.0, 7260906.405795308761299 ], [ 528920.0, 7260903.594204693101346 ], [ 528910.0, 7260901.094303959980607 ], [ 528900.0, 7260898.905696040019393 ], [ 528890.0, 7260896.405795307829976 ], [ 528880.0, 7260893.594204692170024 ], [ 528870.0, 7260891.093411749228835 ], [ 528860.0, 7260888.895414073951542 ], [ 528850.0, 7260886.328929075971246 ], [ 528840.0, 7260883.223087035119534 ], [ 528830.0, 7260879.912851802073419 ], [ 528820.0, 7260876.318647108972073 ], [ 528810.0, 7260872.129675285890698 ], [ 528800.0, 7260867.433515001088381 ], [ 528790.0, 7260862.566484998911619 ], [ 528780.0, 7260857.870324714109302 ], [ 528770.0, 7260853.680460680276155 ], [ 528760.0, 7260850.076866232790053 ], [ 528750.0, 7260846.700046733021736 ], [ 528740.0, 7260843.299953267909586 ], [ 528730.0, 7260839.924025978893042 ], [ 528720.0, 7260836.329821286723018 ], [ 528710.0, 7260832.204757096245885 ], [ 528700.0, 7260827.783176516182721 ], [ 528690.0, 7260823.583030516281724 ], [ 528680.0, 7260819.62888234294951 ], [ 528670.0, 7260815.159543303772807 ], [ 528660.0, 7260809.629774553701282 ], [ 528650.0, 7260803.593312481418252 ], [ 528640.0, 7260797.859150538221002 ], [ 528630.0, 7260792.565592788159847 ], [ 528620.0, 7260787.433515001088381 ], [ 528610.0, 7260782.129675285890698 ], [ 528600.0, 7260776.319539319723845 ], [ 528590.0, 7260769.923133767209947 ], [ 528580.0, 7260763.299061057157815 ], [ 528570.0, 7260756.689764766953886 ], [ 528560.0, 7260750.0 ], [ 528550.0, 7260743.309343023225665 ], [ 528540.0, 7260736.689764766953886 ], [ 528530.0, 7260729.989718034863472 ], [ 528520.0, 7260723.233369001187384 ], [ 528510.0, 7260716.329821286723018 ], [ 528500.0, 7260708.896306284703314 ], [ 528490.0, 7260701.103693716228008 ], [ 528480.000892210751772, 7260693.671070925891399 ], [ 528470.012066387105733, 7260686.777805175632238 ], [ 528460.099214585614391, 7260680.098322374746203 ], [ 528450.546306264819577, 7260673.76939329970628 ], [ 528442.08680969348643, 7260668.329482780769467 ], [ 528435.756988407694735, 7260664.205310802906752 ] ] } }
]
}
