{
"type": "FeatureCollection",
"name": "crests_2022_02_2022-02-23",
"crs": { "type": "name", "properties": { "name": "urn:ogc:def:crs:EPSG::32733" } },
"features": [
{ "type": "Feature", "properties": { "id": 0, "reference_id": 1, "dune_id": 1, "dune_name": "Big Mommy Dune", "acquisition_date": "2022-02-23", "length_m": 479.87234561791144 }, "geometry": { "type": "LineString", "coordinates": [ [ 529065.222748530097306, 7261765.756988408043981 ], [ 529070.098322374979034, 7261772.086809692904353 ], [ 529075.323557734722272, 7261780.546306265518069 ], [ 529080.0, 7261790.099214585497975 ], [ 529084.676442265277728, 7261800.012066386640072 ], [ 529089.901677625020966, 7261810.000892210751772 ], [ 529094.77725147001911, 7261820.0 ], [ 529098.010620470857248, 7261830.0 ], [ 529099.454585945932195, 7261840.000000000931323 ], [ 529099.813637216109782, 7261850.0 ], [ 529099.528775546583347, 7261860.0 ], [ 529098.360281985718757, 7261870.0 ], [ 529095.79468919755891, 7261880.0 ], [ 529091.670517219230533, 7261890.0 ], [ 529086.231498910929076, 7261900.0 ], [ 529079.911959590855986, 7261910.0 ], [ 529073.298168846289627, 7261920.0 ], [ 529066.68976476660464, 7261930.0 ], [ 529060.0, 7261940.0 ], [ 529053.310235233511776, 7261950.0 ], [ 529046.700938942958601, 7261960.0 ], [ 529040.076866232673638, 7261970.0 ], [ 529033.681352890795097, 7261980.0 ], [ 529027.881498891045339, 7261990.0 ], [ 529022.653633197303861, 7262000.0 ], [ 529017.881498890928924, 7262010.0 ], [ 529013.681352890795097, 7262020.0 ], [ 529010.076866232673638, 7262030.0 ], [ 529006.700046732323244, 7262040.0 ], [ 529003.299953267676756, 7262050.0 ], [ 528999.923133767442778, 7262060.0 ], [ 528996.31953932007309, 7262070.0 ], [ 528992.128783074789681, 7262080.0 ], [ 528987.42234082473442, 7262090.0 ], [ 528982.478444589767605, 7262100.0 ], [ 528977.411166648264043, 7262110.0 ], [ 528972.041634876397438, 7262120.0 ], [ 528965.871555430116132, 7262130.0 ], [ 528958.37234837282449, 7262139.999107789248228 ], [ 528949.553800531546585, 7262149.987933613359928 ], [ 528940.011174176470377, 7262159.900785414502025 ], [ 528930.535132088349201, 7262169.453693735413253 ], [ 528922.085917482851073, 7262177.913190307095647 ], [ 528915.756988407694735, 7262184.243011591956019 ] ] } },
{ "type": "Feature", "properties": { "id": 1, "reference_id": 1, "dune_id": 1, "dune_name": "Big Mommy Dune", "acquisition_date": "2022-02-23", "length_m": 732.70628678398361 }, "geometry": { "type": "LineString", "coordinates": [ [ 529045.871555430116132, 7261724.243011591956019 ], [ 529042.042527087032795, 7261717.913190307095647 ], [ 529037.423233035369776, 7261709.453693734481931 ], [ 529032.576766964746639, 7261699.900785414502025 ], [ 529027.957472912967205, 7261689.987933613359928 ], [ 529024.128444569883868, 7261679.999107789248228 ], [ 529021.628543837927282, 7261670.0 ], [ 529020.458265855675563, 7261660.0 ], [ 529020.088040409144014, 7261650.0 ], [ 529020.011174176470377, 7261640.0 ], [ 529020.000892210751772, 7261630.0 ], [ 529020.0, 7261620.0 ], [ 529020.0, 7261610.0 ], [ 529020.0, 7261600.0 ], [ 529020.0, 7261590.0 ], [ 529020.000892210751772, 7261580.0 ], [ 529020.011174176470377, 7261570.0 ], [ 529020.087148198508658, 7261560.000000000931323 ], [ 529020.447091679205187, 7261550.0 ], [ 529021.541395639418624, 7261540.0 ], [ 529023.681352890678681, 7261530.0 ], [ 529026.416969484183937, 7261520.0 ], [ 529028.907480461173691, 7261510.0 ], [ 529031.104585926048458, 7261500.0 ], [ 529033.670178714208305, 7261490.0 ], [ 529036.766630999278277, 7261480.0 ], [ 529040.01028196583502, 7261470.000000000931323 ], [ 529043.311127444147132, 7261460.0 ], [ 529046.700938942958601, 7261450.0 ], [ 529050.075974021921866, 7261440.0 ], [ 529053.670178714208305, 7261430.0 ], [ 529057.794350692536682, 7261420.0 ], [ 529062.206541518098675, 7261410.0 ], [ 529066.340103251626715, 7261400.0 ], [ 529070.0, 7261390.0 ], [ 529073.659896748373285, 7261380.0 ], [ 529077.79345848178491, 7261370.0 ], [ 529082.206541518098675, 7261360.0 ], [ 529086.340103251626715, 7261350.0 ], [ 529090.0, 7261340.0 ], [ 529093.6598967484897, 7261330.0 ], [ 529097.793458481901325, 7261320.0 ], [ 529102.206541518098675, 7261310.000000000931323 ], [ 529106.3401032515103, 7261300.0 ], [ 529110.000892210751772, 7261290.0 ], [ 529113.670178714208305, 7261280.0 ], [ 529117.869432503939606, 7261270.0 ], [ 529122.566484998911619, 7261260.0 ], [ 529127.433515001204796, 7261250.0 ], [ 529132.130567496176809, 7261240.0 ], [ 529136.329821285791695, 7261230.0 ], [ 529139.999107789364643, 7261220.0 ], [ 529143.659896748373285, 7261210.000000000931323 ], [ 529147.793458481901325, 7261200.0 ], [ 529152.205649307463318, 7261190.0 ], [ 529156.329821285791695, 7261180.0 ], [ 529159.924025978078134, 7261170.0 ], [ 529163.299061057041399, 7261160.0 ], [ 529166.688872555969283, 7261150.0 ], [ 529169.988825823529623, 7261140.0 ], [ 529173.222194824367762, 7261130.0 ], [ 529176.242673087399453, 7261120.000000000931323 ], [ 529178.448322394862771, 7261110.0 ], [ 529179.552016110159457, 7261100.0 ], [ 529179.912851801607758, 7261090.0 ], [ 529179.988825823529623, 7261080.0 ], [ 529179.999107789364643, 7261070.000892210751772 ], [ 529180.0, 7261060.012066387571394 ], [ 529180.0, 7261050.099214585497975 ], [ 529180.0, 7261040.546306265518069 ], [ 529180.0, 7261032.086809692904353 ], [ 529180.0, 7261025.756988408043981 ] ] } },
{ "type": "Feature", "properties": { "id": 2, "reference_id": 2, "dune_id": 2, "dune_name": "Big Mommy Dune", "acquisition_date": "2022-02-23", "length_m": 250.77961890731751 }, "geometry": { "type": "LineString", "coordinates": [ [ 528435.756988407694735, 7260652.085917484015226 ], [ 528442.08680969348643, 7260655.745814232155681 ], [ 528450.546306264819577, 7260661.999661495909095 ], [ 528460.099214585614391, 7260670.099214585497975 ], [ 528470.012066387105733, 7260678.557818946428597 ], [ 528480.000892210751772, 7260686.33071349747479 ], [ 528490.0, 7260693.583922727033496 ], [ 528500.0, 7260701.092519539408386 ], [ 528510.0, 7260708.895414074882865 ], [ 528520.0, 7260716.328929075971246 ], [ 528530.0, 7260723.223087035119534 ], [ 528540.0, 7260729.912851801142097 ], [ 528550.0, 7260736.318647109903395 ], [ 528560.0, 7260742.129675285890698 ], [ 528570.0, 7260747.434407211840153 ], [ 528580.0, 7260752.57676696497947 ], [ 528590.0, 7260757.945406526327133 ], [ 528599.999107789364643, 7260764.029229984618723 ], [ 528609.987933612777852, 7260771.082237573340535 ], [ 528619.900785414385609, 7260778.371456162072718 ], [ 528629.453693735296838, 7260784.331052001565695 ], [ 528637.913190306629986, 7260787.924364482983947 ], [ 528644.243011592421681, 7260789.454585946165025 ] ] } },
{ "type": "Feature", "properties": { "id": 3, "reference_id": 2, "dune_id": 2, "dune_name": "Big Mommy Dune", "acquisition_date": "2022-02-23", "length_m": 322.38325955358971 }, "geometry": { "type": "LineString", "coordinates": [ [ 528685.756988407694735, 7260821.627651628106833 ], [ 528692.086809693602845, 7260824.118162604048848 ], [ 528700.546306264819577, 7260827.881498891860247 ], [ 528710.099214585497975, 7260832.216823483817279 ], [ 528720.012066387105733, 7260836.33071349747479 ], [ 528730.000892210751772, 7260839.924025978893042 ], [ 528740.0, 7260843.299953267909586 ], [ 528750.0, 7260846.700046733021736 ], [ 528760.0, 7260850.075974022038281 ], [ 528770.0, 7260853.669286503456533 ], [ 528780.0, 7260857.784068726934493 ], [ 528790.0, 7260862.129675285890698 ], [ 528800.0, 7260865.968985594809055 ], [ 528810.0, 7260868.820332262665033 ], [ 528820.0, 7260871.093411749228835 ], [ 528830.0, 7260873.669286504387856 ], [ 528840.0, 7260876.765738788992167 ], [ 528850.0, 7260880.0 ], [ 528860.0, 7260883.234261211007833 ], [ 528870.0, 7260886.329821286723018 ], [ 528880.0, 7260888.895414073951542 ], [ 528890.0, 7260891.092519538477063 ], [ 528900.0, 7260893.583922727033496 ], [ 528910.0, 7260896.329821285791695 ], [ 528920.0, 7260898.545752558857203 ], [ 528930.0, 7260900.0 ], [ 528940.0, 7260901.453355230391026 ], [ 528949.999107789248228, 7260903.659004538320005 ], [ 528959.987933612894267, 7260906.328929075971246 ], [ 528969.900785414502025, 7260908.459496572613716 ], [ 528979.453693735296838, 7260909.552908321842551 ], [ 528987.91319030651357, 7260909.912851802073419 ], [ 528994.243011592305265, 7260909.9888258241117 ] ] } },
{ "type": "Feature", "properties": { "id": 4, "reference_id": 2, "dune_id": 2, "dune_name": "Big Mommy Dune", "acquisition_date": "2022-02-23", "length_m": 86.699535826535083 }, "geometry": { "type": "LineString", "coordinates": [ [ 529134.243011592421681, 7260968.371456163004041 ], [ 529127.91319030651357, 7260965.871555430814624 ], [ 529119.453693735296838, 7260962.041634876281023 ], [ 529109.900785414385609, 7260957.412058860063553 ], [ 529099.988825823646039, 7260952.489618767052889 ], [ 529090.011174176586792, 7260947.510381233878434 ], [ 529080.099214585614391, 7260942.587941141799092 ], [ 529070.546306264819577, 7260937.958365123718977 ], [ 529062.08680969348643, 7260934.128444570116699 ], [ 529055.756988407694735, 7260931.628543838858604 ] ] } },
{ "type": "Feature", "properties": { "id": 5, "reference_id": 5, "dune_id": 5, "dune_name": "The Star Dune", "acquisition_date": "2022-02-23", "length_m": 672.67618425709816 }, "geometry": { "type": "LineString", "coordinates": [ [ 534144.243011592305265, 7261670.000892210751772 ], [ 534137.91319030651357, 7261670.011174176819623 ], [ 534129.453693735296838, 7261670.087148198857903 ], [ 534119.900785414502025, 7261670.447091679088771 ], [ 534109.987933612894267, 7261671.540503429248929 ], [ 534099.999107789248228, 7261673.670178714208305 ], [ 534090.0, 7261676.329821285791695 ], [ 534080.0, 7261678.460388781502843 ], [ 534070.0, 7261679.564082497730851 ], [ 534060.0, 7261680.0 ], [ 534050.0, 7261680.435917503200471 ], [ 534040.0, 7261681.540503429248929 ], [ 534030.0, 7261683.681352891027927 ], [ 534020.0, 7261686.416969483718276 ], [ 534010.0, 7261688.906588250771165 ], [ 534000.0, 7261691.094303959980607 ], [ 533990.0, 7261693.594204692170024 ], [ 533980.0, 7261696.405795307829976 ], [ 533970.0, 7261698.906588250771165 ], [ 533960.0, 7261701.10458592697978 ], [ 533950.0, 7261703.671070924960077 ], [ 533940.0, 7261706.776912964880466 ], [ 533930.0, 7261710.087148198857903 ], [ 533920.0, 7261713.681352891027927 ], [ 533910.0, 7261717.870324714109302 ], [ 533900.0, 7261722.566484998911619 ], [ 533890.0, 7261727.433515001088381 ], [ 533880.0, 7261732.13056749664247 ], [ 533870.0, 7261736.33071349747479 ], [ 533860.0, 7261740.010281966067851 ], [ 533850.0, 7261743.747044946998358 ], [ 533840.0, 7261748.241442372091115 ], [ 533830.0, 7261753.758219122886658 ], [ 533820.000892210635357, 7261760.098322375677526 ], [ 533810.011174176470377, 7261766.788979351520538 ], [ 533800.088040409144014, 7261773.75821912381798 ], [ 533790.458265855675563, 7261781.551677605137229 ], [ 533781.628543837927282, 7261790.447983890771866 ], [ 533774.129336780519225, 7261800.087148198857903 ], [ 533767.968647089437582, 7261810.011174177750945 ], [ 533762.664807373774238, 7261820.000892210751772 ], [ 533757.882391101680696, 7261830.0 ], [ 533753.681352890678681, 7261840.000000000931323 ], [ 533750.076866232673638, 7261850.0 ], [ 533746.700046732323244, 7261860.0 ], [ 533743.299953267676756, 7261870.0 ], [ 533739.923133767442778, 7261880.0 ], [ 533736.31953932007309, 7261890.0 ], [ 533732.128783074906096, 7261900.0 ], [ 533727.423233035253361, 7261910.0 ], [ 533722.489618766237982, 7261920.0 ], [ 533717.49831484653987, 7261930.0 ], [ 533712.489618766237982, 7261940.0 ], [ 533707.423233035369776, 7261950.0 ], [ 533702.128783074789681, 7261960.0 ], [ 533696.31953932007309, 7261970.0 ], [ 533689.923133767326362, 7261980.0 ], [ 533683.299953267676756, 7261989.999553894624114 ], [ 533676.700938943075016, 7261999.993520701304078 ], [ 533670.088040409144014, 7262009.944359513930976 ], [ 533663.768501089187339, 7262019.677239574491978 ], [ 533658.329482780769467, 7262028.683442020788789 ], [ 533654.20531080244109, 7262036.078100949525833 ], [ 533651.638825803645886, 7262041.078100949525833 ] ] } },
{ "type": "Feature", "properties": { "id": 6, "reference_id": 5, "dune_id": 5, "dune_name": "The Star Dune", "acquisition_date": "2022-02-23", "length_m": 440.73858129810549 }, "geometry": { "type": "LineString", "coordinates": [ [ 534334.778143680654466, 7261305.756988408043981 ], [ 534329.912851801607758, 7261312.086809693835676 ], [ 534324.763590463786386, 7261320.546306264586747 ], [ 534320.447983889840543, 7261330.099214585497975 ], [ 534316.875235339859501, 7261340.012066386640072 ], [ 534313.855649287579581, 7261350.000892210751772 ], [ 534311.999661494977772, 7261360.0 ], [ 534311.988487318623811, 7261370.0 ], [ 534313.757326912716962, 7261380.0 ], [ 534316.340995462262072, 7261390.0 ], [ 534318.460388781968504, 7261400.0 ], [ 534319.553800531546585, 7261410.0 ], [ 534319.924025978078134, 7261420.0 ], [ 534320.075974021921866, 7261430.0 ], [ 534320.446199468453415, 7261440.0 ], [ 534321.540503428666852, 7261450.0 ], [ 534323.670178714208305, 7261460.0 ], [ 534326.329821285791695, 7261470.000000000931323 ], [ 534328.459496571333148, 7261480.0 ], [ 534329.552016110159457, 7261490.0 ], [ 534329.901677625137381, 7261500.0 ], [ 534329.900785414385609, 7261510.0 ], [ 534329.539949722937308, 7261520.0 ], [ 534328.360281985718757, 7261530.0 ], [ 534325.783515021088533, 7261540.0 ], [ 534321.583369020721875, 7261549.999107789248228 ], [ 534315.783515021088533, 7261559.9888258241117 ], [ 534308.360281985718757, 7261569.912851802073419 ], [ 534299.54084193368908, 7261579.552908320911229 ], [ 534289.911959590855986, 7261588.458604360930622 ], [ 534279.988825823529623, 7261596.318647108972073 ], [ 534269.999107789248228, 7261603.583030516281724 ], [ 534260.0, 7261611.092519539408386 ], [ 534250.0, 7261618.895414074882865 ], [ 534240.0, 7261626.328929075039923 ], [ 534230.0, 7261633.223087035119534 ], [ 534220.000892210751772, 7261639.912851801142097 ], [ 534210.012066387105733, 7261646.317754899151623 ], [ 534200.099214585614391, 7261652.117608899250627 ], [ 534190.546306264819577, 7261657.335192626342177 ], [ 534182.08680969348643, 7261662.031352911144495 ], [ 534175.756988407694735, 7261665.870663220062852 ] ] } },
{ "type": "Feature", "properties": { "id": 7, "reference_id": 8, "dune_id": 8, "dune_name": "Inverted Y Dune", "acquisition_date": "2022-02-23", "length_m": 710.27675905792398 }, "geometry": { "type": "LineString", "coordinates": [ [ 530534.243011592305265, 7261184.20441859215498 ], [ 530527.91319030651357, 7261188.317416394129395 ], [ 530519.453693735180423, 7261193.670178714208305 ], [ 530509.900785414385609, 7261199.552908319979906 ], [ 530499.987933612894267, 7261204.702169658616185 ], [ 530489.999107789364643, 7261208.001230716705322 ], [ 530480.0, 7261209.464867912232876 ], [ 530470.0, 7261209.901677625253797 ], [ 530460.0, 7261209.987933613359928 ], [ 530450.0, 7261209.998215579427779 ], [ 530440.0, 7261209.9888258241117 ], [ 530430.000000000116415, 7261209.912851802073419 ], [ 530420.0, 7261209.552908320911229 ], [ 530410.0, 7261208.459496571682394 ], [ 530400.0, 7261206.329821285791695 ], [ 530390.0, 7261203.671070924028754 ], [ 530380.0, 7261201.551677605137229 ], [ 530370.0, 7261200.534239877015352 ], [ 530360.0, 7261200.534239877015352 ], [ 530350.0, 7261201.551677605137229 ], [ 530340.0, 7261203.671070924028754 ], [ 530330.0, 7261206.330713496543467 ], [ 530320.0, 7261208.470670748502016 ], [ 530310.0, 7261209.640948730520904 ], [ 530300.0, 7261210.371117657981813 ], [ 530290.0, 7261211.617369662038982 ], [ 530280.0, 7261214.127552360296249 ], [ 530270.0, 7261217.958365123718977 ], [ 530260.0, 7261222.588833352550864 ], [ 530250.0, 7261227.522447621449828 ], [ 530240.0, 7261232.588833352550864 ], [ 530230.0, 7261237.958365123718977 ], [ 530220.000892210635357, 7261244.128444569185376 ], [ 530210.011174176470377, 7261251.628543837927282 ], [ 530200.087148198392242, 7261260.458265855908394 ], [ 530190.447983889840543, 7261270.088040409609675 ], [ 530181.552569815889001, 7261280.0111741758883 ], [ 530173.768501089187339, 7261290.000892210751772 ], [ 530166.864953374140896, 7261300.0 ], [ 530160.458265855675563, 7261310.000000000931323 ], [ 530154.851630872813985, 7261320.0 ], [ 530150.372009867918678, 7261330.0 ], [ 530146.417861694935709, 7261340.0 ], [ 530142.227997660404071, 7261350.0 ], [ 530137.881498891045339, 7261360.0 ], [ 530134.106988427694887, 7261370.0 ], [ 530131.540503428783268, 7261380.0 ], [ 530130.011174176470377, 7261390.0 ], [ 530128.547536980360746, 7261400.0 ], [ 530126.340103251626715, 7261410.0 ], [ 530123.659896748373285, 7261420.0 ], [ 530121.45335523027461, 7261430.0 ], [ 530120.0, 7261440.0 ], [ 530118.54664476972539, 7261450.0 ], [ 530116.340995462262072, 7261460.0 ], [ 530113.671070924960077, 7261470.000000000931323 ], [ 530111.540503428666852, 7261480.0 ], [ 530110.447091679205187, 7261490.0 ], [ 530110.087148198392242, 7261500.0 ], [ 530110.01028196583502, 7261510.0 ], [ 530109.989718034281395, 7261520.0 ], [ 530109.912851801607758, 7261530.0 ], [ 530109.552462215535343, 7261539.999553894624114 ], [ 530108.453909483039752, 7261549.993520701304078 ], [ 530106.286247186595574, 7261559.944359513930976 ], [ 530103.446632874663919, 7261569.6772395754233 ], [ 530100.770251714391634, 7261578.683442020788789 ], [ 530098.612002322101034, 7261586.078100949525833 ], [ 530096.922237555496395, 7261591.078100949525833 ] ] } },
{ "type": "Feature", "properties": { "id": 8, "reference_id": 9, "dune_id": 9, "dune_name": "Inverted Y Dune", "acquisition_date": "2022-02-23", "length_m": 800.89591068835682 }, "geometry": { "type": "LineString", "coordinates": [ [ 530091.078100949525833, 7261598.910724874585867 ], [ 530086.078100949409418, 7261603.834750852547586 ], [ 530078.683442020905204, 7261610.868574090301991 ], [ 530069.677239574841224, 7261618.771082820370793 ], [ 530059.944359513698146, 7261626.297421364113688 ], [ 530049.993520701071247, 7261633.218392157927155 ], [ 530039.999553894624114, 7261639.913297906517982 ], [ 530030.0, 7261646.328929075971246 ], [ 530020.0, 7261652.205649306997657 ], [ 530010.0, 7261657.794350693002343 ], [ 530000.0, 7261663.670178715139627 ], [ 529990.0, 7261670.075974022038281 ], [ 529980.0, 7261676.700938943773508 ], [ 529970.0, 7261683.311127444729209 ], [ 529960.0, 7261690.011174176819623 ], [ 529950.0, 7261696.777805175632238 ], [ 529940.0, 7261703.757326913066208 ], [ 529930.0, 7261711.551677605137229 ], [ 529920.0, 7261720.447983889840543 ], [ 529910.0, 7261730.087148198857903 ], [ 529900.0, 7261740.011174176819623 ], [ 529890.0, 7261750.000892210751772 ], [ 529880.0, 7261760.0 ], [ 529870.0, 7261770.0 ], [ 529860.000892210751772, 7261780.0 ], [ 529850.011174176470377, 7261790.0 ], [ 529840.087148198392242, 7261800.0 ], [ 529830.447983889840543, 7261810.0 ], [ 529821.552569815889001, 7261820.0 ], [ 529813.768501089187339, 7261830.0 ], [ 529806.864953374140896, 7261840.000000000931323 ], [ 529800.458265855675563, 7261850.0 ], [ 529794.8516308729304, 7261860.0 ], [ 529790.372009867918678, 7261870.0 ], [ 529786.416969484300353, 7261880.0 ], [ 529782.216823483933695, 7261890.0 ], [ 529777.795242903288454, 7261900.0 ], [ 529773.670178714208305, 7261910.0 ], [ 529770.075974022038281, 7261920.0 ], [ 529766.700046732323244, 7261930.0 ], [ 529763.299953267676756, 7261940.0 ], [ 529759.924025978078134, 7261950.0 ], [ 529756.329821285791695, 7261960.0 ], [ 529752.205649307463318, 7261970.0 ], [ 529747.793458481901325, 7261980.0 ], [ 529743.6598967484897, 7261990.0 ], [ 529739.999107789364643, 7262000.0 ], [ 529736.329821285791695, 7262010.0 ], [ 529732.130567496176809, 7262020.0 ], [ 529727.433515001204796, 7262030.0 ], [ 529722.566484998911619, 7262040.0 ], [ 529717.869432503823191, 7262050.0 ], [ 529713.670178714208305, 7262060.0 ], [ 529710.0, 7262070.0 ], [ 529706.329821285791695, 7262080.0 ], [ 529702.130567496176809, 7262090.0 ], [ 529697.433515001088381, 7262100.0 ], [ 529692.566484998911619, 7262110.0 ], [ 529687.869432503823191, 7262120.0 ], [ 529683.670178714208305, 7262130.0 ], [ 529680.000892210751772, 7262140.0 ], [ 529676.340103251626715, 7262150.0 ], [ 529672.20654151821509, 7262160.0 ], [ 529667.794350692536682, 7262170.0 ], [ 529663.671070924843661, 7262180.0 ], [ 529660.087148198508658, 7262189.999107789248228 ], [ 529656.788087141467258, 7262199.987933613359928 ], [ 529653.758219123352319, 7262209.900785414502025 ], [ 529651.551677605253644, 7262219.453693735413253 ], [ 529650.447983889840543, 7262227.913190307095647 ], [ 529650.087148198392242, 7262234.243011592887342 ] ] } },
{ "type": "Feature", "properties": { "id": 9, "reference_id": 4, "dune_id": 4, "dune_name": "The Star Dune", "acquisition_date": "2022-02-23", "length_m": 350.45900076768316 }, "geometry": { "type": "LineString", "coordinates": [ [ 533344.243011592421681, 7261949.552908321842551 ], [ 533337.91319030651357, 7261948.458604359999299 ], [ 533329.453693735296838, 7261946.318647108972073 ], [ 533319.900785414385609, 7261943.583030516281724 ], [ 533309.987933612894267, 7261941.093411749228835 ], [ 533299.999107789364643, 7261938.906588250771165 ], [ 533290.0, 7261936.416077272966504 ], [ 533280.0, 7261933.670178715139627 ], [ 533270.0, 7261931.453355230391026 ], [ 533260.0, 7261929.9888258241117 ], [ 533250.0, 7261928.459496571682394 ], [ 533240.0, 7261925.893011572770774 ], [ 533230.0, 7261922.11939332075417 ], [ 533220.0, 7261917.783176517114043 ], [ 533210.0, 7261913.670178715139627 ], [ 533200.0, 7261910.086255988106132 ], [ 533190.0, 7261906.776912964880466 ], [ 533180.0, 7261903.671070925891399 ], [ 533170.0, 7261901.104585926048458 ], [ 533160.0, 7261898.907480461522937 ], [ 533150.0, 7261896.416077273897827 ], [ 533140.0, 7261893.670178715139627 ], [ 533130.0, 7261891.454247441142797 ], [ 533120.0, 7261890.0 ], [ 533110.0, 7261888.545752558857203 ], [ 533100.0, 7261886.329821285791695 ], [ 533090.0, 7261883.583922726102173 ], [ 533080.0, 7261881.093411749228835 ], [ 533070.0, 7261878.905696040019393 ], [ 533060.0, 7261876.405795307829976 ], [ 533050.000892210751772, 7261873.594204692170024 ], [ 533040.012066387105733, 7261871.094303959980607 ], [ 533030.099214585614391, 7261868.906588250771165 ], [ 533020.546306264819577, 7261866.416969484649599 ], [ 533012.08680969348643, 7261863.681352891027927 ], [ 533005.756988407694735, 7261861.541395640000701 ] ] } },
{ "type": "Feature", "properties": { "id": 10, "reference_id": 4, "dune_id": 4, "dune_name": "The Star Dune", "acquisition_date": "2022-02-23", "length_m": 203.32185021987971 }, "geometry": { "type": "LineString", "coordinates": [ [ 533614.243011592421681, 7262054.788425646722317 ], [ 533607.91319030651357, 7262049.9888258241117 ], [ 533599.453693735180423, 7262045.122641734778881 ], [ 533589.900785414502025, 7262041.529329252429307 ], [ 533579.987933612894267, 7262038.906588250771165 ], [ 533569.999107789364643, 7262035.980159770697355 ], [ 533560.0, 7262032.13056749664247 ], [ 533550.0, 7262027.783176516182721 ], [ 533540.0, 7262023.659004537388682 ], [ 533530.0, 7262020.0 ], [ 533520.0, 7262016.340103251859546 ], [ 533510.0, 7262012.206541517749429 ], [ 533500.0, 7262007.793458482250571 ], [ 533490.0, 7262003.659896749071777 ], [ 533480.0, 7262000.0 ], [ 533470.000892210751772, 7261996.340995462611318 ], [ 533460.012066387105733, 7261992.217715695500374 ], [ 533450.099214585614391, 7261987.881498891860247 ], [ 533440.546306264703162, 7261984.118162604048848 ], [ 533432.086809693602845, 7261981.62765162717551 ], [ 533425.756988407694735, 7261980.458265855908394 ] ] } },
{ "type": "Feature", "properties": { "id": 11, "reference_id": 7, "dune_id": 7, "dune_name": "Inverted Y Dune", "acquisition_date": "2022-02-23", "length_m": 638.51635614585791 }, "geometry": { "type": "LineString", "coordinates": [ [ 530145.75698840781115, 7261640.0 ], [ 530152.08680969348643, 7261640.0 ], [ 530160.546306264819577, 7261640.000892210751772 ], [ 530170.099214585614391, 7261640.0111741758883 ], [ 530180.012066387222148, 7261640.086255988106132 ], [ 530190.000892210751772, 7261640.435917502269149 ], [ 530200.0, 7261641.453355230391026 ], [ 530210.0, 7261643.223087035119534 ], [ 530220.0, 7261644.789317857474089 ], [ 530230.0, 7261644.789317857474089 ], [ 530240.0, 7261643.223087035119534 ], [ 530250.0, 7261641.452463019639254 ], [ 530260.0, 7261640.424743326380849 ], [ 530270.0, 7261639.999107789248228 ], [ 530280.0, 7261639.563190286979079 ], [ 530290.0, 7261638.449214605614543 ], [ 530300.0, 7261636.241780877113342 ], [ 530310.0, 7261633.211912858299911 ], [ 530320.0, 7261629.912851801142097 ], [ 530330.0, 7261626.328929075039923 ], [ 530340.0, 7261622.205649307928979 ], [ 530350.0, 7261617.793458482250571 ], [ 530360.0, 7261613.659896748140454 ], [ 530370.0, 7261609.999107789248228 ], [ 530380.0, 7261606.328929075039923 ], [ 530390.0, 7261602.11939332075417 ], [ 530400.0, 7261597.346366802230477 ], [ 530410.0, 7261592.118501108139753 ], [ 530420.0, 7261586.317754898220301 ], [ 530430.000000000116415, 7261579.911959591321647 ], [ 530440.0, 7261573.211912859231234 ], [ 530449.999107789248228, 7261566.241780877113342 ], [ 530459.988825823646039, 7261558.448322394862771 ], [ 530469.912851801607758, 7261549.552016110159457 ], [ 530479.552908320794813, 7261539.912851801142097 ], [ 530488.458604360581376, 7261529.9888258241117 ], [ 530496.318647109437734, 7261519.999107789248228 ], [ 530503.582138305064291, 7261510.0 ], [ 530511.082237573107705, 7261500.0 ], [ 530518.819440052029677, 7261490.0 ], [ 530525.969877805095166, 7261480.0 ], [ 530532.139957251260057, 7261470.000000000931323 ], [ 530537.860042748739943, 7261460.0 ], [ 530544.030122194904834, 7261450.0 ], [ 530551.180559947970323, 7261440.0 ], [ 530558.917762426892295, 7261430.0 ], [ 530566.417861694935709, 7261420.0 ], [ 530573.681352890678681, 7261410.0 ], [ 530581.54139563953504, 7261400.0 ], [ 530590.447091679205187, 7261390.0 ], [ 530600.087148198392242, 7261380.0 ], [ 530610.01028196583502, 7261370.000892210751772 ], [ 530619.988825823646039, 7261360.012066386640072 ], [ 530629.900785414502025, 7261350.099214585497975 ], [ 530639.453693735296838, 7261340.546306265518069 ], [ 530647.913190306629986, 7261332.086809693835676 ], [ 530654.243011592305265, 7261325.756988408043981 ] ] } },
{ "type": "Feature", "properties": { "id": 12, "reference_id": 6, "dune_id": 6, "dune_name": "The Star Dune", "acquisition_date": "2022-02-23", "length_m": 804.21693470492801 }, "geometry": { "type": "LineString", "coordinates": [ [ 533650.0, 7262048.921899050474167 ], [ 533650.0, 7262053.921899050474167 ], [ 533650.0, 7262061.316557979211211 ], [ 533650.0, 7262070.322760425508022 ], [ 533650.0, 7262080.055640487000346 ], [ 533650.000892210751772, 7262090.006479298695922 ], [ 533650.011174176470377, 7262100.000446105375886 ], [ 533650.087148198508658, 7262110.0 ], [ 533650.447091679205187, 7262120.0 ], [ 533651.540503428783268, 7262130.0 ], [ 533653.670178714208305, 7262140.0 ], [ 533656.329821285791695, 7262150.0 ], [ 533658.459496571216732, 7262160.0 ], [ 533659.552908320911229, 7262170.0 ], [ 533659.912851801607758, 7262180.0 ], [ 533659.98971803416498, 7262190.0 ], [ 533660.01028196583502, 7262200.0 ], [ 533660.087148198392242, 7262210.0 ], [ 533660.447091679088771, 7262220.0 ], [ 533661.540503428783268, 7262230.0 ], [ 533663.671070924960077, 7262240.0 ], [ 533666.340995462378487, 7262250.0 ], [ 533668.546644769841805, 7262260.0 ], [ 533670.0, 7262270.0 ], [ 533671.453355230391026, 7262280.0 ], [ 533673.659004537737928, 7262290.0 ], [ 533676.328036864520982, 7262300.0 ], [ 533678.448322394862771, 7262310.0 ], [ 533679.465760122518986, 7262320.0 ], [ 533679.465760122518986, 7262330.0 ], [ 533678.448322394862771, 7262340.000000000931323 ], [ 533676.328036864520982, 7262350.0 ], [ 533673.659004537737928, 7262360.0 ], [ 533671.453355230391026, 7262370.0 ], [ 533669.999107789364643, 7262380.0 ], [ 533668.535470593255013, 7262390.0 ], [ 533666.253847263869829, 7262400.0 ], [ 533663.223087035119534, 7262410.0 ], [ 533659.988825823529623, 7262420.0 ], [ 533656.689764766488224, 7262430.0 ], [ 533653.310235233511776, 7262440.0 ], [ 533650.01028196583502, 7262450.0 ], [ 533646.766630999161862, 7262460.0 ], [ 533643.670178714208305, 7262470.0 ], [ 533641.103693715413101, 7262480.0 ], [ 533638.896306284703314, 7262490.0 ], [ 533636.329821285791695, 7262500.0 ], [ 533633.234261211473495, 7262510.0 ], [ 533630.000892210751772, 7262520.0 ], [ 533626.77602075424511, 7262530.0 ], [ 533623.746152736130171, 7262540.0 ], [ 533621.464529406744987, 7262550.0 ], [ 533620.000892210635357, 7262560.0 ], [ 533618.54664476972539, 7262570.0 ], [ 533616.340103251626715, 7262580.0 ], [ 533613.659896748373285, 7262590.0 ], [ 533611.45335523027461, 7262600.000000000931323 ], [ 533610.0, 7262610.0 ], [ 533608.54664476972539, 7262620.0 ], [ 533606.340995462378487, 7262630.0 ], [ 533603.671070924960077, 7262640.0 ], [ 533601.540503428783268, 7262650.0 ], [ 533600.44619946856983, 7262660.0 ], [ 533600.075974022038281, 7262670.0 ], [ 533599.924025978078134, 7262680.0 ], [ 533599.553800531546585, 7262690.0 ], [ 533598.459496571216732, 7262700.0 ], [ 533596.329821285791695, 7262710.0 ], [ 533593.669286503456533, 7262720.0 ], [ 533591.529329252196476, 7262730.0 ], [ 533590.359943480696529, 7262740.0 ], [ 533589.639164308551699, 7262750.0 ], [ 533588.459496571216732, 7262760.0 ], [ 533586.242673087399453, 7262770.0 ], [ 533583.211912858649157, 7262780.0 ], [ 533579.912851801607758, 7262789.999107789248228 ], [ 533576.32982128590811, 7262799.987933613359928 ], [ 533572.216823483933695, 7262809.900785414502025 ], [ 533567.881498891045339, 7262819.453693736344576 ], [ 533564.118162604048848, 7262827.913190307095647 ], [ 533561.62765162717551, 7262834.243011592887342 ] ] } },
{ "type": "Feature", "properties": { "id": 13, "reference_id": 3, "dune_id": 3, "dune_name": "Big Mommy Dune", "acquisition_date": "2022-02-23", "length_m": 1252.6688206623721 }, "geometry": { "type": "LineString", "coordinates": [ [ 529183.176084819366224, 7260991.078100949525833 ], [ 529181.923129766248167, 7260986.078100949525833 ], [ 529181.229409780702554, 7260978.683442020788789 ], [ 529181.862371643190272, 7260969.6772395754233 ], [ 529184.248884901753627, 7260959.944359514862299 ], [ 529188.334177658427507, 7260949.993520701304078 ], [ 529193.758665228728205, 7260939.999553894624114 ], [ 529200.012066387105733, 7260930.0 ], [ 529206.340995462262072, 7260920.0 ], [ 529212.206541518098675, 7260910.0 ], [ 529217.794350692536682, 7260900.0 ], [ 529223.670178714208305, 7260890.0 ], [ 529230.075974021921866, 7260880.0 ], [ 529236.700046732323244, 7260870.0 ], [ 529243.299953267676756, 7260860.0 ], [ 529249.924025978078134, 7260850.0 ], [ 529256.32982128590811, 7260840.0 ], [ 529262.205649307463318, 7260830.0 ], [ 529267.794350692536682, 7260820.0 ], [ 529273.671070924960077, 7260810.0 ], [ 529280.086255987756886, 7260800.0 ], [ 529286.776912964996882, 7260790.0 ], [ 529293.671070924960077, 7260780.000000000931323 ], [ 529301.104585926048458, 7260770.0 ], [ 529308.907480461173691, 7260760.0 ], [ 529316.416969484300353, 7260750.000892210751772 ], [ 529323.681352890678681, 7260740.011174176819623 ], [ 529331.54139563953504, 7260730.087148198857903 ], [ 529340.447091679205187, 7260720.447983889840543 ], [ 529350.087148198508658, 7260711.552569815889001 ], [ 529360.011174176353961, 7260703.768501089885831 ], [ 529370.000892210635357, 7260696.864953374490142 ], [ 529380.0, 7260690.459158066660166 ], [ 529390.0, 7260684.861912839114666 ], [ 529400.0, 7260680.447983888909221 ], [ 529410.0, 7260676.777805175632238 ], [ 529420.0, 7260673.320517199113965 ], [ 529430.0, 7260670.000892210751772 ], [ 529440.000000000116415, 7260666.690656977705657 ], [ 529450.0, 7260663.310235233977437 ], [ 529460.0, 7260660.010281966067851 ], [ 529470.0, 7260656.766630999743938 ], [ 529480.0, 7260653.670178714208305 ], [ 529490.0, 7260651.103693716228008 ], [ 529500.000000000116415, 7260648.896306285634637 ], [ 529510.0, 7260646.329821286723018 ], [ 529520.0, 7260643.234261212870479 ], [ 529530.0, 7260640.000892210751772 ], [ 529540.0, 7260636.776912964880466 ], [ 529550.0, 7260633.756434703245759 ], [ 529560.0, 7260631.540503429248929 ], [ 529570.0, 7260630.360835691913962 ], [ 529580.0, 7260629.64005651883781 ], [ 529590.0, 7260628.470670747570693 ], [ 529600.0, 7260626.330713496543467 ], [ 529610.0, 7260623.670178714208305 ], [ 529620.0, 7260621.540503429248929 ], [ 529630.0, 7260620.447091679088771 ], [ 529640.0, 7260620.086255988106132 ], [ 529650.0, 7260620.0 ], [ 529660.0, 7260619.913744012825191 ], [ 529670.0, 7260619.552908320911229 ], [ 529680.0, 7260618.459496571682394 ], [ 529690.0, 7260616.329821286723018 ], [ 529700.0, 7260613.670178715139627 ], [ 529710.0, 7260611.540503429248929 ], [ 529720.0, 7260610.447091680020094 ], [ 529730.0, 7260610.087148198857903 ], [ 529740.0, 7260610.010281966067851 ], [ 529750.0, 7260609.989718034863472 ], [ 529760.0, 7260609.912851802073419 ], [ 529770.0, 7260609.552908320911229 ], [ 529780.0, 7260608.460388782434165 ], [ 529790.0, 7260606.340995462611318 ], [ 529800.0, 7260603.757326912134886 ], [ 529810.0, 7260601.986702897585928 ], [ 529820.0, 7260601.976420931518078 ], [ 529830.0, 7260603.670178715139627 ], [ 529840.0, 7260605.893903782591224 ], [ 529850.0, 7260606.919885354116559 ], [ 529860.0, 7260605.882729606702924 ], [ 529870.0, 7260603.583030516281724 ], [ 529880.0, 7260601.529329252429307 ], [ 529890.0, 7260600.447091680020094 ], [ 529900.0, 7260600.098322374746203 ], [ 529910.0, 7260600.098322374746203 ], [ 529920.0, 7260600.447983890771866 ], [ 529930.0, 7260601.540503429248929 ], [ 529940.0, 7260603.669286504387856 ], [ 529950.0, 7260606.318647110834718 ], [ 529960.0, 7260608.373240584507585 ], [ 529970.0, 7260609.116990817710757 ], [ 529980.0, 7260608.459496571682394 ], [ 529990.0, 7260606.765738788992167 ], [ 530000.0, 7260605.208897721022367 ], [ 530010.0, 7260605.199507966637611 ], [ 530020.0, 7260606.689764767885208 ], [ 530030.0, 7260608.099553090520203 ], [ 530040.0, 7260608.02268685773015 ], [ 530050.0, 7260606.232391122728586 ], [ 530060.0, 7260603.571856340393424 ], [ 530070.0, 7260601.092519539408386 ], [ 530080.0, 7260598.906588250771165 ], [ 530090.0, 7260596.416077272966504 ], [ 530100.0, 7260593.670178714208305 ], [ 530110.0, 7260591.454247441142797 ], [ 530120.0, 7260590.0 ], [ 530130.0, 7260588.546644769608974 ], [ 530140.0, 7260586.340103251859546 ], [ 530150.0, 7260583.659896748140454 ], [ 530160.0, 7260581.453355230391026 ], [ 530170.000000000116415, 7260580.0 ], [ 530180.0, 7260578.545752558857203 ], [ 530190.0, 7260576.329821286723018 ], [ 530199.999107789248228, 7260573.583922727033496 ], [ 530209.987933612894267, 7260571.093411749228835 ], [ 530219.900785414385609, 7260568.906588250771165 ], [ 530229.453693735180423, 7260566.416969484649599 ], [ 530237.91319030651357, 7260563.681352891027927 ], [ 530244.243011592421681, 7260561.541395640000701 ] ] } }
]
}
