{
"type": "FeatureCollection",
"name": "crests_2024_07_2024-07-19",
"crs": { "type": "name", "properties": { "name": "urn:ogc:def:crs:EPSG::32733" } },
"features": [
{ "type": "Feature", "properties": { "id": 0, "reference_id": 1, "dune_id": 1, "dune_name": "Big Mommy Dune", "acquisition_date": "2024-07-19", "length_m": 489.67571493213836 }, "geometry": { "type": "LineString", "coordinates": [ [ 529099.999107789364643, 7261845.756988408043981 ], [ 529099.987933612894267, 7261852.086809693835676 ], [ 529099.901677625137381, 7261860.546306265518069 ], [ 529099.464867911767215, 7261870.099214585497975 ], [ 529098.000338505022228, 7261880.012066386640072 ], [ 529094.690995482262224, 7261890.000892210751772 ], [ 529089.464867911767215, 7261900.0 ], [ 529083.211912858532742, 7261910.0 ], [ 529076.688872555852868, 7261920.0 ], [ 529070.075081811286509, 7261930.0 ], [ 529063.670178714208305, 7261940.0 ], [ 529057.794350692536682, 7261950.0 ], [ 529052.206541518098675, 7261960.0 ], [ 529046.340995462262072, 7261970.0 ], [ 529040.011174176470377, 7261980.0 ], [ 529033.747044946881942, 7261990.0 ], [ 529028.240550161106512, 7262000.0 ], [ 529023.747044946881942, 7262010.0 ], [ 529020.011174176470377, 7262020.0 ], [ 529016.340995462378487, 7262030.0 ], [ 529012.20654151821509, 7262040.0 ], [ 529007.793458481901325, 7262050.0 ], [ 529003.659004537854344, 7262060.0 ], [ 528999.988825823529623, 7262070.0 ], [ 528996.252955053234473, 7262080.0 ], [ 528991.759449839009903, 7262090.0 ], [ 528986.252955053118058, 7262100.0 ], [ 528979.988825823646039, 7262110.0 ], [ 528973.658112327102572, 7262120.0 ], [ 528967.782284305430949, 7262130.0 ], [ 528962.118501109071076, 7262139.999107789248228 ], [ 528955.881837395951152, 7262149.9888258241117 ], [ 528948.37234837282449, 7262159.912851801142097 ], [ 528939.541734144440852, 7262169.552016111090779 ], [ 528929.911959590972401, 7262178.448322394862771 ], [ 528919.988825823529623, 7262186.241780877113342 ], [ 528909.999107789248228, 7262193.211912859231234 ], [ 528900.0, 7262199.911959591321647 ], [ 528890.0, 7262206.318647108972073 ], [ 528880.000892210751772, 7262212.128783075138927 ], [ 528870.012066387105733, 7262217.422340825200081 ], [ 528860.099214585614391, 7262222.478444589301944 ], [ 528850.546306264819577, 7262227.411166648380458 ], [ 528842.086809693370014, 7262232.041634876281023 ], [ 528835.756988407694735, 7262235.871555430814624 ] ] } },
{ "type": "Feature", "properties": { "id": 1, "reference_id": 1, "dune_id": 1, "dune_name": "Big Mommy Dune", "acquisition_date": "2024-07-19", "length_m": 703.59952184656026 }, "geometry": { "type": "LineString", "coordinates": [ [ 529180.0, 7261035.756988408043981 ], [ 529180.0, 7261042.086809693835676 ], [ 529180.0, 7261050.546306265518069 ], [ 529179.999107789364643, 7261060.099214585497975 ], [ 529179.988825823529623, 7261070.012066387571394 ], [ 529179.912851801607758, 7261080.000892210751772 ], [ 529179.552016110159457, 7261090.0 ], [ 529178.448322394862771, 7261100.0 ], [ 529176.242673087399453, 7261110.0 ], [ 529173.222194824367762, 7261120.000000000931323 ], [ 529169.988825823529623, 7261130.0 ], [ 529166.689764766488224, 7261140.0 ], [ 529163.309343022760004, 7261150.0 ], [ 529160.0, 7261160.0 ], [ 529156.690656977239996, 7261170.0 ], [ 529153.309343022760004, 7261180.0 ], [ 529150.0, 7261190.0 ], [ 529146.689764766488224, 7261200.0 ], [ 529143.299061056924984, 7261210.000000000931323 ], [ 529139.923133767326362, 7261220.0 ], [ 529136.319539319956675, 7261230.0 ], [ 529132.129675285425037, 7261240.0 ], [ 529127.433515001204796, 7261250.0 ], [ 529122.566484998911619, 7261260.0 ], [ 529117.869432503939606, 7261270.0 ], [ 529113.670178714208305, 7261280.0 ], [ 529110.0, 7261290.0 ], [ 529106.329821285791695, 7261300.0 ], [ 529102.130567496176809, 7261310.000000000931323 ], [ 529097.433515001204796, 7261320.0 ], [ 529092.566484998911619, 7261330.0 ], [ 529087.870324714574963, 7261340.0 ], [ 529083.680460680043325, 7261350.0 ], [ 529080.076866232557222, 7261360.0 ], [ 529076.700046732323244, 7261370.0 ], [ 529073.299953267676756, 7261380.0 ], [ 529069.924025978078134, 7261390.0 ], [ 529066.329821285791695, 7261400.0 ], [ 529062.205649307463318, 7261410.0 ], [ 529057.794350692536682, 7261420.0 ], [ 529053.670178714208305, 7261430.0 ], [ 529050.075974021921866, 7261440.0 ], [ 529046.700938942958601, 7261450.0 ], [ 529043.31023523339536, 7261460.0 ], [ 529040.0, 7261470.000000000931323 ], [ 529036.690656977239996, 7261480.0 ], [ 529033.310235233511776, 7261490.0 ], [ 529030.011174176586792, 7261500.0 ], [ 529026.776912964996882, 7261510.0 ], [ 529023.746152736246586, 7261520.0 ], [ 529021.464529406744987, 7261530.0 ], [ 529020.000892210751772, 7261540.0 ], [ 529018.54664476972539, 7261550.0 ], [ 529016.340995462378487, 7261560.000000000931323 ], [ 529013.671070924960077, 7261570.0 ], [ 529011.540503428783268, 7261580.0 ], [ 529010.447091679205187, 7261590.0 ], [ 529010.087148198508658, 7261600.0 ], [ 529010.012066387222148, 7261610.0 ], [ 529010.012066387222148, 7261620.0 ], [ 529010.088040409144014, 7261630.0 ], [ 529010.458265855675563, 7261640.0 ], [ 529011.628543837810867, 7261650.0 ], [ 529014.128444569883868, 7261659.999107789248228 ], [ 529017.957472912967205, 7261669.987933613359928 ], [ 529022.576766964746639, 7261679.900785414502025 ], [ 529027.423233035369776, 7261689.453693735413253 ], [ 529032.042527087032795, 7261697.913190307095647 ], [ 529035.871555430116132, 7261704.243011592887342 ] ] } },
{ "type": "Feature", "properties": { "id": 2, "reference_id": 1, "dune_id": 1, "dune_name": "Big Mommy Dune", "acquisition_date": "2024-07-19", "length_m": 80.389002338609274 }, "geometry": { "type": "LineString", "coordinates": [ [ 529086.241780876647681, 7261814.243011592887342 ], [ 529083.211020647897385, 7261807.913190307095647 ], [ 529079.900785414385609, 7261799.453693735413253 ], [ 529076.231498910812661, 7261789.901677625253797 ], [ 529071.682583606336266, 7261780.0 ], [ 529065.893903783056885, 7261770.098322374746203 ], [ 529058.907480461173691, 7261760.546306264586747 ], [ 529051.62765162717551, 7261752.086809693835676 ], [ 529045.668947998550721, 7261745.756988408043981 ] ] } },
{ "type": "Feature", "properties": { "id": 3, "reference_id": 7, "dune_id": 7, "dune_name": "Inverted Y Dune", "acquisition_date": "2024-07-19", "length_m": 647.5521606583327 }, "geometry": { "type": "LineString", "coordinates": [ [ 530125.756988407694735, 7261640.087148198857903 ], [ 530132.08680969348643, 7261640.447091680020094 ], [ 530140.546306264819577, 7261641.540503429248929 ], [ 530150.099214585614391, 7261643.670178715139627 ], [ 530160.012066387222148, 7261646.329821286723018 ], [ 530170.000892210751772, 7261648.459496572613716 ], [ 530180.0, 7261649.552908321842551 ], [ 530190.0, 7261649.912851802073419 ], [ 530200.0, 7261649.9888258241117 ], [ 530210.0, 7261649.999107790179551 ], [ 530220.0, 7261649.999107790179551 ], [ 530230.0, 7261649.9888258241117 ], [ 530240.0, 7261649.912851802073419 ], [ 530250.0, 7261649.552908321842551 ], [ 530260.0, 7261648.458604361861944 ], [ 530270.0, 7261646.318647109903395 ], [ 530280.0, 7261643.583030516281724 ], [ 530290.0, 7261641.092519538477063 ], [ 530300.0, 7261638.895414074882865 ], [ 530310.0, 7261636.328929075971246 ], [ 530320.0, 7261633.223087035119534 ], [ 530330.0, 7261629.913744011893868 ], [ 530340.0, 7261626.328929075039923 ], [ 530350.0, 7261622.205649307928979 ], [ 530360.0, 7261617.793458482250571 ], [ 530370.0, 7261613.659004538320005 ], [ 530380.0, 7261609.9888258241117 ], [ 530390.0, 7261606.252955053001642 ], [ 530400.0, 7261601.758557628840208 ], [ 530410.0, 7261596.241780877113342 ], [ 530420.0, 7261589.901677625253797 ], [ 530430.000000000116415, 7261583.211020648479462 ], [ 530440.0, 7261576.241780877113342 ], [ 530450.0, 7261568.448322394862771 ], [ 530459.999107789364643, 7261559.552016111090779 ], [ 530469.988825823529623, 7261549.912851801142097 ], [ 530479.912851801607758, 7261539.9888258241117 ], [ 530489.552908320911229, 7261529.999107789248228 ], [ 530498.458604360697791, 7261520.0 ], [ 530506.318647109321319, 7261510.0 ], [ 530513.583030515816063, 7261500.0 ], [ 530521.092519538942724, 7261490.0 ], [ 530528.895414074067958, 7261480.0 ], [ 530536.329821285791695, 7261470.000000000931323 ], [ 530543.233369000838138, 7261460.0 ], [ 530549.989718034281395, 7261450.0 ], [ 530556.68976476660464, 7261440.0 ], [ 530563.310235233511776, 7261430.0 ], [ 530570.011174176470377, 7261420.0 ], [ 530576.777805175632238, 7261410.0 ], [ 530583.757326912600547, 7261400.0 ], [ 530591.551677605137229, 7261390.0 ], [ 530600.447091679205187, 7261380.000892210751772 ], [ 530610.075081811286509, 7261370.012066386640072 ], [ 530619.911959590855986, 7261360.099214585497975 ], [ 530629.454585945932195, 7261350.546306265518069 ], [ 530637.913190306629986, 7261342.086809693835676 ], [ 530644.243011592421681, 7261335.756988408043981 ] ] } },
{ "type": "Feature", "properties": { "id": 4, "reference_id": 8, "dune_id": 8, "dune_name": "Inverted Y Dune", "acquisition_date": "2024-07-19", "length_m": 394.37268855098637 }, "geometry": { "type": "LineString", "coordinates": [ [ 530264.243011592421681, 7261221.628543838858604 ], [ 530257.913190306629986, 7261224.129336780868471 ], [ 530249.453693735180423, 7261227.969539299607277 ], [ 530239.900785414502025, 7261232.675981549546123 ], [ 530229.987933612777852, 7261237.969539300538599 ], [ 530219.999107789248228, 7261244.129336779937148 ], [ 530210.000892210751772, 7261251.628543837927282 ], [ 530200.011174176586792, 7261260.458265855908394 ], [ 530190.088040409144014, 7261270.088040409609675 ], [ 530180.458265855675563, 7261280.0111741758883 ], [ 530171.628543837927282, 7261290.000892210751772 ], [ 530164.129336780519225, 7261300.0 ], [ 530157.968647089553997, 7261310.000000000931323 ], [ 530152.664807373890653, 7261320.0 ], [ 530147.882391101680696, 7261330.0 ], [ 530143.681352890678681, 7261340.0 ], [ 530140.076866232673638, 7261350.0 ], [ 530136.700938943075016, 7261360.0 ], [ 530133.310235233511776, 7261370.0 ], [ 530130.0, 7261380.0 ], [ 530126.690656977239996, 7261390.0 ], [ 530123.310235233511776, 7261400.0 ], [ 530120.011174176470377, 7261410.0 ], [ 530116.777805175748654, 7261420.0 ], [ 530113.757326912716962, 7261430.0 ], [ 530111.550785394501872, 7261440.0 ], [ 530110.436809713370167, 7261450.0 ], [ 530110.0, 7261460.0 ], [ 530109.564082497381605, 7261470.000000000931323 ], [ 530108.460388781968504, 7261480.0 ], [ 530106.329821285791695, 7261490.0 ], [ 530103.670178714208305, 7261500.0 ], [ 530101.540503428783268, 7261509.999107789248228 ], [ 530100.447091679205187, 7261519.987933613359928 ], [ 530100.087148198508658, 7261529.900785414502025 ], [ 530100.011174176470377, 7261539.453693734481931 ], [ 530100.000892210751772, 7261547.913190307095647 ], [ 530100.0, 7261554.243011592887342 ] ] } },
{ "type": "Feature", "properties": { "id": 5, "reference_id": 8, "dune_id": 8, "dune_name": "Inverted Y Dune", "acquisition_date": "2024-07-19", "length_m": 168.75182030541441 }, "geometry": { "type": "LineString", "coordinates": [ [ 530554.243011592305265, 7261172.075635517016053 ], [ 530547.91319030651357, 7261175.668947998434305 ], [ 530539.453693735296838, 7261181.627651628106833 ], [ 530529.900785414385609, 7261188.906588250771165 ], [ 530519.987933612894267, 7261195.882729606702924 ], [ 530509.999107789248228, 7261201.595435407944024 ], [ 530500.0, 7261205.78440723195672 ], [ 530490.0, 7261208.360281986184418 ], [ 530480.0, 7261209.540841934271157 ], [ 530470.0, 7261209.911959591321647 ], [ 530460.0, 7261209.9888258241117 ], [ 530450.0, 7261209.999107790179551 ], [ 530440.000892210751772, 7261210.000000000931323 ], [ 530430.012066387222148, 7261210.000000000931323 ], [ 530420.099214585614391, 7261210.000000000931323 ], [ 530410.546306264819577, 7261210.000000000931323 ], [ 530402.08680969348643, 7261210.000000000931323 ], [ 530395.756988407694735, 7261210.000000000931323 ] ] } },
{ "type": "Feature", "properties": { "id": 6, "reference_id": 4, "dune_id": 4, "dune_name": "The Star Dune", "acquisition_date": "2024-07-19", "length_m": 498.88639118148899 }, "geometry": { "type": "LineString", "coordinates": [ [ 533005.756988407694735, 7261870.447091680020094 ], [ 533012.08680969348643, 7261871.540503429248929 ], [ 533020.546306264819577, 7261873.671070925891399 ], [ 533030.099214585614391, 7261876.340995462611318 ], [ 533040.012066387105733, 7261878.546644769608974 ], [ 533050.000892210751772, 7261880.0 ], [ 533060.0, 7261881.454247441142797 ], [ 533070.0, 7261883.670178714208305 ], [ 533080.0, 7261886.416077273897827 ], [ 533090.0, 7261888.906588250771165 ], [ 533100.0, 7261891.094303959980607 ], [ 533110.0, 7261893.594204692170024 ], [ 533120.0, 7261896.405795307829976 ], [ 533130.0, 7261898.906588250771165 ], [ 533140.0, 7261901.104585926048458 ], [ 533150.0, 7261903.670178715139627 ], [ 533160.0, 7261906.765738788992167 ], [ 533170.0, 7261910.0 ], [ 533180.0, 7261913.234261212870479 ], [ 533190.0, 7261916.329821286723018 ], [ 533200.0, 7261918.896306284703314 ], [ 533210.0, 7261921.103693716228008 ], [ 533220.0, 7261923.670178715139627 ], [ 533230.0, 7261926.765738788992167 ], [ 533240.0, 7261930.0 ], [ 533250.0, 7261933.234261211007833 ], [ 533260.0, 7261936.33071349747479 ], [ 533270.0, 7261938.906588250771165 ], [ 533280.0, 7261941.179667737334967 ], [ 533290.0, 7261944.030122194439173 ], [ 533300.0, 7261947.860042748972774 ], [ 533310.0, 7261952.139957251958549 ], [ 533320.0, 7261955.969877805560827 ], [ 533330.0, 7261958.820332262665033 ], [ 533340.0, 7261961.093411749228835 ], [ 533350.0, 7261963.669286503456533 ], [ 533360.0, 7261966.765738788992167 ], [ 533370.0, 7261970.0 ], [ 533380.000000000116415, 7261973.234261211939156 ], [ 533390.0, 7261976.330713496543467 ], [ 533400.000000000116415, 7261978.906588250771165 ], [ 533410.0, 7261981.179667737334967 ], [ 533420.0, 7261984.031014405190945 ], [ 533430.0, 7261987.870324715040624 ], [ 533439.999107789364643, 7261992.21593127399683 ], [ 533449.987933612894267, 7261996.329821286723018 ], [ 533459.900785414385609, 7261999.912851801142097 ], [ 533469.453693735180423, 7262003.211912859231234 ], [ 533477.913190306629986, 7262006.241780877113342 ], [ 533484.243011592421681, 7262008.448322394862771 ] ] } },
{ "type": "Feature", "properties": { "id": 7, "reference_id": 4, "dune_id": 4, "dune_name": "The Star Dune", "acquisition_date": "2024-07-19", "length_m": 109.55173009696722 }, "geometry": { "type": "LineString", "coordinates": [ [ 533631.078100949525833, 7262051.453355230391026 ], [ 533626.078100949409418, 7262053.223087035119534 ], [ 533618.683442020905204, 7262054.788425646722317 ], [ 533609.677239574841224, 7262054.778143681585789 ], [ 533599.94435951358173, 7262053.135046626441181 ], [ 533589.993520701071247, 7262050.995089374482632 ], [ 533579.999553894740529, 7262048.808265876024961 ], [ 533570.000892210751772, 7262045.968985594809055 ], [ 533560.012066387105733, 7262042.140849461778998 ], [ 533550.099214585614391, 7262037.871216925792396 ], [ 533540.546306264819577, 7262034.117270394228399 ], [ 533532.086809693602845, 7262031.62765162717551 ], [ 533525.756988407694735, 7262030.458265855908394 ] ] } },
{ "type": "Feature", "properties": { "id": 8, "reference_id": 6, "dune_id": 6, "dune_name": "The Star Dune", "acquisition_date": "2024-07-19", "length_m": 619.46720293965882 }, "geometry": { "type": "LineString", "coordinates": [ [ 533600.0, 7262674.243011591956019 ], [ 533600.0, 7262667.913190307095647 ], [ 533600.000892210635357, 7262659.453693736344576 ], [ 533600.011174176470377, 7262649.900785414502025 ], [ 533600.087148198392242, 7262639.987933612428606 ], [ 533600.447091679205187, 7262629.999107789248228 ], [ 533601.541395639418624, 7262620.0 ], [ 533603.681352890678681, 7262610.0 ], [ 533606.416969484183937, 7262600.000000000931323 ], [ 533608.906588250421919, 7262590.0 ], [ 533611.094303960213438, 7262580.0 ], [ 533613.594204692170024, 7262570.0 ], [ 533616.405795307829976, 7262560.0 ], [ 533618.905696039786562, 7262550.0 ], [ 533621.094303960213438, 7262540.0 ], [ 533623.594204692170024, 7262530.0 ], [ 533626.405795307713561, 7262520.0 ], [ 533628.906588250421919, 7262510.0 ], [ 533631.104585926048458, 7262500.0 ], [ 533633.670178714208305, 7262490.0 ], [ 533636.766630999278277, 7262480.0 ], [ 533640.01028196583502, 7262470.0 ], [ 533643.310235233511776, 7262460.0 ], [ 533646.689764766488224, 7262450.0 ], [ 533649.989718034281395, 7262440.0 ], [ 533653.233369000838138, 7262430.0 ], [ 533656.329821285791695, 7262420.0 ], [ 533658.895414073951542, 7262410.0 ], [ 533661.092519538942724, 7262400.0 ], [ 533663.583030515816063, 7262390.0 ], [ 533666.318647109437734, 7262380.0 ], [ 533668.458604360697791, 7262370.0 ], [ 533669.552908320911229, 7262360.0 ], [ 533669.912851801607758, 7262350.0 ], [ 533669.988825823646039, 7262340.000000000931323 ], [ 533669.999107789364643, 7262330.0 ], [ 533669.999107789364643, 7262320.0 ], [ 533669.988825823646039, 7262310.0 ], [ 533669.912851801607758, 7262300.0 ], [ 533669.552908320911229, 7262290.0 ], [ 533668.459496571333148, 7262280.0 ], [ 533666.329821285791695, 7262270.0 ], [ 533663.670178714208305, 7262260.0 ], [ 533661.539611218031496, 7262250.0 ], [ 533660.43591750273481, 7262240.0 ], [ 533660.0, 7262230.0 ], [ 533659.56408249726519, 7262220.0 ], [ 533658.460388781968504, 7262210.0 ], [ 533656.329821285791695, 7262200.0 ], [ 533653.670178714208305, 7262190.0 ], [ 533651.540503428783268, 7262180.0 ], [ 533650.447091679205187, 7262170.0 ], [ 533650.087148198508658, 7262160.0 ], [ 533650.011174176470377, 7262150.0 ], [ 533650.000892210751772, 7262140.0 ], [ 533650.0, 7262130.0 ], [ 533650.0, 7262120.0 ], [ 533650.0, 7262110.000892210751772 ], [ 533650.0, 7262100.012066387571394 ], [ 533650.0, 7262090.099214586429298 ], [ 533650.0, 7262080.546306265518069 ], [ 533650.0, 7262072.086809692904353 ], [ 533650.0, 7262065.756988408043981 ] ] } },
{ "type": "Feature", "properties": { "id": 9, "reference_id": 5, "dune_id": 5, "dune_name": "The Star Dune", "acquisition_date": "2024-07-19", "length_m": 907.51787829582429 }, "geometry": { "type": "LineString", "coordinates": [ [ 533651.998769284458831, 7262034.243011591956019 ], [ 533655.298722552019171, 7262027.913190307095647 ], [ 533660.45915806631092, 7262019.453693735413253 ], [ 533666.428143660770729, 7262009.900785414502025 ], [ 533672.217715694569051, 7261999.987933613359928 ], [ 533677.794350692536682, 7261989.999107789248228 ], [ 533683.659896748373285, 7261980.0 ], [ 533689.999107789364643, 7261970.0 ], [ 533696.32982128590811, 7261960.0 ], [ 533702.129675285541452, 7261950.0 ], [ 533707.42234082473442, 7261940.0 ], [ 533712.479336800519377, 7261930.0 ], [ 533717.42234082473442, 7261920.0 ], [ 533722.128783074906096, 7261910.0 ], [ 533726.319539319956675, 7261900.0 ], [ 533729.923133767326362, 7261890.0 ], [ 533733.299061057041399, 7261880.0 ], [ 533736.689764766488224, 7261870.0 ], [ 533740.000892210751772, 7261860.0 ], [ 533743.321409409865737, 7261850.0 ], [ 533746.788979352102615, 7261840.000000000931323 ], [ 533750.535132088349201, 7261830.0 ], [ 533755.309004517854191, 7261820.000892210751772 ], [ 533761.999661495094188, 7261810.011174177750945 ], [ 533770.535132088349201, 7261800.088040409609675 ], [ 533780.098322374979034, 7261790.458265855908394 ], [ 533790.012066387105733, 7261781.628543838858604 ], [ 533800.000892210751772, 7261774.128444570116699 ], [ 533810.0, 7261767.958365123718977 ], [ 533820.0, 7261762.587941141799092 ], [ 533830.0, 7261757.510381232947111 ], [ 533840.0, 7261752.490510977804661 ], [ 533850.0, 7261747.424125246703625 ], [ 533860.0, 7261742.139957251027226 ], [ 533870.0, 7261736.406687518581748 ], [ 533880.0, 7261730.371117657981813 ], [ 533890.0, 7261724.851630873046815 ], [ 533900.0, 7261720.457373645156622 ], [ 533910.0, 7261716.853779197670519 ], [ 533920.0, 7261713.681352891027927 ], [ 533930.0, 7261711.105478137731552 ], [ 533940.0, 7261708.906588250771165 ], [ 533950.0, 7261706.405795307829976 ], [ 533960.0, 7261703.594204692170024 ], [ 533970.0, 7261701.094303959980607 ], [ 533980.0, 7261698.906588250771165 ], [ 533990.0, 7261696.416077273897827 ], [ 534000.0, 7261693.670178714208305 ], [ 534010.0, 7261691.454247441142797 ], [ 534020.0, 7261690.0 ], [ 534030.0, 7261688.546644769608974 ], [ 534040.0, 7261686.340995462611318 ], [ 534050.0, 7261683.671070925891399 ], [ 534060.0, 7261681.539611218497157 ], [ 534070.0, 7261680.435917503200471 ], [ 534080.0, 7261680.0 ], [ 534090.0, 7261679.564082497730851 ], [ 534100.0, 7261678.460388781502843 ], [ 534110.0, 7261676.329821285791695 ], [ 534120.0, 7261673.669286503456533 ], [ 534130.0, 7261671.529329252429307 ], [ 534140.0, 7261670.359051270410419 ], [ 534150.0, 7261669.627990132197738 ], [ 534160.0, 7261668.37234837282449 ], [ 534170.0, 7261665.79558140784502 ], [ 534180.0, 7261661.670517219230533 ], [ 534190.0, 7261656.231498911976814 ], [ 534200.0, 7261649.911959591321647 ], [ 534210.0, 7261643.298168847337365 ], [ 534220.0, 7261636.689764766953886 ], [ 534230.0, 7261630.0 ], [ 534240.0, 7261623.309343023225665 ], [ 534250.0, 7261616.689764766953886 ], [ 534259.999107789248228, 7261609.9888258241117 ], [ 534269.988825823529623, 7261603.222194825299084 ], [ 534279.911959590855986, 7261596.242673087865114 ], [ 534289.54084193368908, 7261588.448322394862771 ], [ 534298.360281985718757, 7261579.552016110159457 ], [ 534305.783515021088533, 7261569.913744012825191 ], [ 534311.583369020721875, 7261560.000892210751772 ], [ 534315.783515021088533, 7261550.098322374746203 ], [ 534318.360281985718757, 7261540.546306265518069 ], [ 534319.54084193368908, 7261532.086809693835676 ], [ 534319.911959590855986, 7261525.756988408043981 ] ] } },
{ "type": "Feature", "properties": { "id": 10, "reference_id": 5, "dune_id": 5, "dune_name": "The Star Dune", "acquisition_date": "2024-07-19", "length_m": 99.162622823519612 }, "geometry": { "type": "LineString", "coordinates": [ [ 534334.342226177919656, 7261304.216484978795052 ], [ 534328.459496571333148, 7261308.416630979627371 ], [ 534321.540503428666852, 7261314.216484978795052 ], [ 534315.657773822080344, 7261321.639718014746904 ], [ 534312.074743306264281, 7261330.459158066660166 ], [ 534310.545414054067805, 7261340.088040409609675 ], [ 534310.099214585614391, 7261350.010281966067851 ], [ 534310.012066387222148, 7261359.9888258241117 ], [ 534310.000892210751772, 7261369.900785414502025 ], [ 534310.0, 7261379.453693735413253 ], [ 534310.0, 7261387.913190307095647 ], [ 534310.0, 7261394.243011592887342 ] ] } },
{ "type": "Feature", "properties": { "id": 11, "reference_id": 5, "dune_id": 5, "dune_name": "The Star Dune", "acquisition_date": "2024-07-19", "length_m": 58.486023183912039 }, "geometry": { "type": "LineString", "coordinates": [ [ 534320.0, 7261425.756988408043981 ], [ 534320.0, 7261432.086809692904353 ], [ 534320.0, 7261440.545414054766297 ], [ 534320.0, 7261450.087148198857903 ], [ 534320.0, 7261459.912851801142097 ], [ 534320.0, 7261469.454585947096348 ], [ 534320.0, 7261477.913190307095647 ], [ 534320.0, 7261484.243011591956019 ] ] } },
{ "type": "Feature", "properties": { "id": 12, "reference_id": 3, "dune_id": 3, "dune_name": "Big Mommy Dune", "acquisition_date": "2024-07-19", "length_m": 1041.1562493831236 }, "geometry": { "type": "LineString", "coordinates": [ [ 530044.243011592305265, 7260610.0 ], [ 530037.91319030651357, 7260610.0 ], [ 530029.453693735180423, 7260610.0 ], [ 530019.900785414502025, 7260610.0 ], [ 530009.987933612894267, 7260610.0 ], [ 529999.999107789364643, 7260610.0 ], [ 529990.0, 7260610.0 ], [ 529980.0, 7260610.0 ], [ 529970.0, 7260610.0 ], [ 529960.0, 7260610.0 ], [ 529950.0, 7260610.0 ], [ 529940.0, 7260610.0 ], [ 529930.0, 7260610.0 ], [ 529920.0, 7260610.0 ], [ 529910.0, 7260610.0 ], [ 529900.0, 7260610.0 ], [ 529890.0, 7260610.0 ], [ 529880.0, 7260610.0 ], [ 529870.0, 7260610.0 ], [ 529860.0, 7260610.0 ], [ 529850.0, 7260610.0 ], [ 529840.0, 7260610.0 ], [ 529830.0, 7260610.0 ], [ 529820.0, 7260610.0 ], [ 529810.0, 7260610.0 ], [ 529800.0, 7260610.0 ], [ 529790.0, 7260610.0 ], [ 529780.0, 7260610.0 ], [ 529770.0, 7260610.000892210751772 ], [ 529760.0, 7260610.011174176819623 ], [ 529750.0, 7260610.087148198857903 ], [ 529740.0, 7260610.447091680020094 ], [ 529730.0, 7260611.540503429248929 ], [ 529720.0, 7260613.670178715139627 ], [ 529710.0, 7260616.329821286723018 ], [ 529700.0, 7260618.459496571682394 ], [ 529690.0, 7260619.552908320911229 ], [ 529680.0, 7260619.913744012825191 ], [ 529670.0, 7260620.0 ], [ 529660.0, 7260620.086255988106132 ], [ 529650.0, 7260620.447091679088771 ], [ 529640.0, 7260621.540503429248929 ], [ 529630.0, 7260623.670178714208305 ], [ 529620.0, 7260626.330713496543467 ], [ 529610.0, 7260628.470670747570693 ], [ 529600.0, 7260629.64005651883781 ], [ 529590.0, 7260630.35994348116219 ], [ 529580.0, 7260631.530221463181078 ], [ 529570.0, 7260633.680460680276155 ], [ 529560.0, 7260636.416969483718276 ], [ 529550.0, 7260638.906588250771165 ], [ 529540.0, 7260641.094303959980607 ], [ 529530.0, 7260643.594204693101346 ], [ 529520.0, 7260646.405795307829976 ], [ 529510.0, 7260648.906588250771165 ], [ 529500.000000000116415, 7260651.10458592697978 ], [ 529490.0, 7260653.670178714208305 ], [ 529480.0, 7260656.765738788992167 ], [ 529470.0, 7260660.0 ], [ 529460.0, 7260663.234261211939156 ], [ 529450.0, 7260666.329821285791695 ], [ 529440.000000000116415, 7260668.896306285634637 ], [ 529430.0, 7260671.104585926048458 ], [ 529420.0, 7260673.681352891027927 ], [ 529410.0, 7260676.853779197670519 ], [ 529400.0, 7260680.458265855908394 ], [ 529390.0, 7260684.862805049866438 ], [ 529380.0, 7260690.459158066660166 ], [ 529370.0, 7260696.864953374490142 ], [ 529360.000892210635357, 7260703.768501089885831 ], [ 529350.011174176586792, 7260711.552569815889001 ], [ 529340.087148198392242, 7260720.447983889840543 ], [ 529330.447983889840543, 7260730.087148198857903 ], [ 529321.551677605253644, 7260740.011174176819623 ], [ 529313.757326912716962, 7260750.000892210751772 ], [ 529306.776912964996882, 7260760.0 ], [ 529300.000892210635357, 7260770.0 ], [ 529293.234261211473495, 7260780.000000000931323 ], [ 529286.329821285791695, 7260790.0 ], [ 529278.896306284703314, 7260800.0 ], [ 529271.103693715296686, 7260810.0 ], [ 529263.670178714208305, 7260820.0 ], [ 529256.766630999278277, 7260830.0 ], [ 529250.01028196583502, 7260840.0 ], [ 529243.311127444147132, 7260850.0 ], [ 529236.700938942958601, 7260860.0 ], [ 529230.075974021921866, 7260870.0 ], [ 529223.670178714208305, 7260880.0 ], [ 529217.794350692536682, 7260890.0 ], [ 529212.206541518098675, 7260900.0 ], [ 529206.3401032515103, 7260910.0 ], [ 529200.0, 7260920.0 ], [ 529193.659450643113814, 7260929.999107789248228 ], [ 529187.788763604359701, 7260939.987933613359928 ], [ 529182.17414159537293, 7260949.900785415433347 ], [ 529176.204597821109928, 7260959.453693736344576 ], [ 529169.688906351919286, 7260967.913190307095647 ], [ 529163.463633195031434, 7260974.243011591956019 ], [ 529158.833858641446568, 7260977.913190307095647 ] ] } },
{ "type": "Feature", "properties": { "id": 13, "reference_id": 3, "dune_id": 3, "dune_name": "Big Mommy Dune", "acquisition_date": "2024-07-19", "length_m": 172.08029690349937 }, "geometry": { "type": "LineString", "coordinates": [ [ 530244.243011592421681, 7260570.087148198857903 ], [ 530237.91319030651357, 7260570.447091680020094 ], [ 530229.453693735180423, 7260571.540503429248929 ], [ 530219.900785414385609, 7260573.671070925891399 ], [ 530209.987933612894267, 7260576.340995462611318 ], [ 530199.999107789248228, 7260578.546644769608974 ], [ 530190.0, 7260580.000892210751772 ], [ 530180.0, 7260581.464529406279325 ], [ 530170.000000000116415, 7260583.746152736246586 ], [ 530160.0, 7260586.776020754128695 ], [ 530150.0, 7260590.0 ], [ 530140.0, 7260593.223087035119534 ], [ 530130.0, 7260596.242673087865114 ], [ 530120.000892210751772, 7260598.448322394862771 ], [ 530110.012066387222148, 7260599.552016111090779 ], [ 530100.099214585614391, 7260599.912851802073419 ], [ 530090.546306264819577, 7260599.9888258241117 ], [ 530082.08680969348643, 7260599.999107789248228 ], [ 530075.756988407694735, 7260600.0 ] ] } },
{ "type": "Feature", "properties": { "id": 14, "reference_id": 9, "dune_id": 9, "dune_name": "Inverted Y Dune", "acquisition_date": "2024-07-19", "length_m": 832.73648752239137 }, "geometry": { "type": "LineString", "coordinates": [ [ 529640.447091679205187, 7262264.243011591956019 ], [ 529641.541395639418624, 7262257.913190307095647 ], [ 529643.681352890678681, 7262249.453693735413253 ], [ 529646.416969484183937, 7262239.900785414502025 ], [ 529648.907480461173691, 7262229.987933613359928 ], [ 529651.104585926048458, 7262219.999107789248228 ], [ 529653.671070924960077, 7262210.0 ], [ 529656.776912965113297, 7262200.0 ], [ 529660.086255987873301, 7262190.0 ], [ 529663.671070924843661, 7262180.0 ], [ 529667.794350692536682, 7262170.0 ], [ 529672.20654151821509, 7262160.0 ], [ 529676.340103251626715, 7262150.0 ], [ 529680.000892210751772, 7262140.0 ], [ 529683.670178714208305, 7262130.0 ], [ 529687.869432503823191, 7262120.0 ], [ 529692.566484998911619, 7262110.0 ], [ 529697.433515001088381, 7262100.0 ], [ 529702.129675285425037, 7262090.0 ], [ 529706.31953932007309, 7262080.0 ], [ 529709.923133767442778, 7262070.0 ], [ 529713.299953267676756, 7262060.0 ], [ 529716.700938943075016, 7262050.0 ], [ 529720.087148198392242, 7262040.0 ], [ 529723.75643470196519, 7262030.0 ], [ 529728.231160405906849, 7262020.0 ], [ 529733.670178714208305, 7262010.0 ], [ 529739.639164308551699, 7262000.0 ], [ 529745.150153548573144, 7261990.0 ], [ 529749.552908320911229, 7261980.0 ], [ 529753.223087035003118, 7261970.0 ], [ 529756.689764766488224, 7261960.0 ], [ 529760.075081811286509, 7261950.0 ], [ 529763.670178714208305, 7261940.0 ], [ 529767.794350692536682, 7261930.0 ], [ 529772.205649307463318, 7261920.0 ], [ 529776.329821285791695, 7261910.0 ], [ 529779.924918188713491, 7261900.0 ], [ 529783.310235233511776, 7261890.0 ], [ 529786.776912964996882, 7261880.0 ], [ 529790.447983889840543, 7261870.0 ], [ 529794.861912838649005, 7261860.0 ], [ 529800.45915806631092, 7261850.0 ], [ 529806.864953374140896, 7261840.000000000931323 ], [ 529813.768501089187339, 7261830.0 ], [ 529821.552569815889001, 7261820.0 ], [ 529830.447983889840543, 7261810.0 ], [ 529840.087148198392242, 7261800.0 ], [ 529850.011174176470377, 7261790.0 ], [ 529860.000892210751772, 7261780.0 ], [ 529870.0, 7261770.0 ], [ 529880.0, 7261760.0 ], [ 529890.0, 7261750.000892210751772 ], [ 529900.0, 7261740.011174176819623 ], [ 529910.0, 7261730.087148198857903 ], [ 529920.0, 7261720.447983889840543 ], [ 529930.0, 7261711.551677605137229 ], [ 529940.0, 7261703.757326913066208 ], [ 529950.0, 7261696.777805175632238 ], [ 529960.0, 7261690.011174176819623 ], [ 529970.0, 7261683.311127444729209 ], [ 529980.0, 7261676.700938943773508 ], [ 529990.0, 7261670.075974022038281 ], [ 530000.0, 7261663.670178715139627 ], [ 530010.0, 7261657.794350693002343 ], [ 530020.0, 7261652.205649306997657 ], [ 530030.0, 7261646.328929075971246 ], [ 530039.999107789364643, 7261639.912851801142097 ], [ 530049.987933612894267, 7261633.212805069051683 ], [ 530059.900785414502025, 7261626.253847263753414 ], [ 530069.453693735180423, 7261618.547536980360746 ], [ 530077.91319030651357, 7261610.098322374746203 ], [ 530084.243011592421681, 7261601.999661495909095 ], [ 530087.913190306629986, 7261595.745814231224358 ] ] } },
{ "type": "Feature", "properties": { "id": 15, "reference_id": 2, "dune_id": 2, "dune_name": "Big Mommy Dune", "acquisition_date": "2024-07-19", "length_m": 333.74270069510595 }, "geometry": { "type": "LineString", "coordinates": [ [ 528754.243011592305265, 7260848.448322394862771 ], [ 528747.91319030651357, 7260846.241780877113342 ], [ 528739.453693735180423, 7260843.211912859231234 ], [ 528729.900785414502025, 7260839.912851801142097 ], [ 528719.987933612894267, 7260836.328929075971246 ], [ 528709.999107789248228, 7260832.205649306997657 ], [ 528700.0, 7260827.793458482250571 ], [ 528690.0, 7260823.659004538320005 ], [ 528680.0, 7260819.9888258241117 ], [ 528670.0, 7260816.252955053001642 ], [ 528660.0, 7260811.75944983959198 ], [ 528650.0, 7260806.252955053001642 ], [ 528640.0, 7260799.9888258241117 ], [ 528630.0, 7260793.659004537388682 ], [ 528620.0, 7260787.793458482250571 ], [ 528610.0, 7260782.205649306997657 ], [ 528600.0, 7260776.329821286723018 ], [ 528590.0, 7260769.924025977961719 ], [ 528580.0, 7260763.299061057157815 ], [ 528570.0, 7260756.689764766953886 ], [ 528560.0, 7260750.0 ], [ 528550.0, 7260743.309343023225665 ], [ 528540.0, 7260736.689764766953886 ], [ 528530.0, 7260729.989718034863472 ], [ 528520.0, 7260723.233369001187384 ], [ 528510.000892210751772, 7260716.33071349747479 ], [ 528500.012066387222148, 7260708.907480461522937 ], [ 528490.099214585614391, 7260701.191734124906361 ], [ 528480.546306264819577, 7260694.129336779937148 ], [ 528472.08680969348643, 7260688.405456803739071 ], [ 528465.756988407694735, 7260684.21559276804328 ] ] } },
{ "type": "Feature", "properties": { "id": 16, "reference_id": 2, "dune_id": 2, "dune_name": "Big Mommy Dune", "acquisition_date": "2024-07-19", "length_m": 384.06674869314094 }, "geometry": { "type": "LineString", "coordinates": [ [ 529151.078100949409418, 7260978.448322394862771 ], [ 529146.078100949409418, 7260976.242673087865114 ], [ 529138.683442020905204, 7260973.222194824367762 ], [ 529129.677239574841224, 7260969.9888258241117 ], [ 529119.944359513698146, 7260966.688872555270791 ], [ 529109.993520701071247, 7260963.299061058089137 ], [ 529099.999553894624114, 7260959.924025978893042 ], [ 529090.0, 7260956.329821286723018 ], [ 529080.0, 7260952.205649308860302 ], [ 529070.0, 7260947.794350693002343 ], [ 529060.0, 7260943.670178714208305 ], [ 529050.0, 7260940.075974022038281 ], [ 529040.0, 7260936.700938942842185 ], [ 529030.0, 7260933.311127443797886 ], [ 529020.0, 7260930.010281965136528 ], [ 529010.0, 7260926.766630999743938 ], [ 529000.0, 7260923.670178715139627 ], [ 528990.0, 7260921.104585926048458 ], [ 528980.0, 7260918.906588250771165 ], [ 528970.0, 7260916.405795307829976 ], [ 528960.0, 7260913.594204692170024 ], [ 528950.0, 7260911.094303959980607 ], [ 528940.0, 7260908.905696040019393 ], [ 528930.0, 7260906.405795308761299 ], [ 528920.0, 7260903.594204693101346 ], [ 528910.0, 7260901.093411750160158 ], [ 528900.0, 7260898.895414073951542 ], [ 528890.0, 7260896.329821285791695 ], [ 528880.0, 7260893.233369001187384 ], [ 528870.0, 7260889.989718034863472 ], [ 528860.0, 7260886.689764766022563 ], [ 528850.0, 7260883.309343023225665 ], [ 528840.0, 7260880.0 ], [ 528830.000892210751772, 7260876.690656977705657 ], [ 528820.012066387222148, 7260873.310235233977437 ], [ 528810.099214585614391, 7260870.011174176819623 ], [ 528800.546306264819577, 7260866.777805175632238 ], [ 528792.08680969348643, 7260863.757326913066208 ], [ 528785.756988407694735, 7260861.551677605137229 ] ] } }
]
}
