{
"type": "FeatureCollection",
"name": "crests_2025_10_2025-10-20",
"crs": { "type": "name", "properties": { "name": "urn:ogc:def:crs:EPSG::32733" } },
"features": [
{ "type": "Feature", "properties": { "id": 0, "reference_id": 2, "dune_id": 2, "dune_name": "Big Mommy Dune", "acquisition_date": "2025-10-20", "length_m": 102.32393804487828 }, "geometry": { "type": "LineString", "coordinates": [ [ 528994.243011592305265, 7260916.242673087865114 ], [ 528987.91319030651357, 7260913.223087035119534 ], [ 528979.453693735296838, 7260909.999107789248228 ], [ 528969.900785414502025, 7260906.765738788992167 ], [ 528959.987933612894267, 7260903.670178715139627 ], [ 528949.999107789248228, 7260901.104585926048458 ], [ 528940.000892210751772, 7260898.907480461522937 ], [ 528930.012066387222148, 7260896.416969484649599 ], [ 528920.099214585614391, 7260893.681352891027927 ], [ 528910.546306264819577, 7260891.541395640000701 ], [ 528902.08680969348643, 7260890.447091679088771 ], [ 528895.756988407578319, 7260890.087148198857903 ] ] } },
{ "type": "Feature", "properties": { "id": 1, "reference_id": 2, "dune_id": 2, "dune_name": "Big Mommy Dune", "acquisition_date": "2025-10-20", "length_m": 71.203660811499844 }, "geometry": { "type": "LineString", "coordinates": [ [ 529151.078100949409418, 7260969.552016110159457 ], [ 529146.078100949409418, 7260968.447430184110999 ], [ 529138.683442020905204, 7260966.231498911976814 ], [ 529129.678131785592996, 7260963.13593883626163 ], [ 529119.956425900803879, 7260959.552908321842551 ], [ 529110.092735286685638, 7260955.236409537494183 ], [ 529100.545860159443691, 7260950.087148198857903 ], [ 529092.08680969348643, 7260945.221856319345534 ], [ 529085.756988407694735, 7260941.98848731815815 ] ] } },
{ "type": "Feature", "properties": { "id": 2, "reference_id": 2, "dune_id": 2, "dune_name": "Big Mommy Dune", "acquisition_date": "2025-10-20", "length_m": 255.8639571054099 }, "geometry": { "type": "LineString", "coordinates": [ [ 528644.243011592421681, 7260785.870663220062852 ], [ 528637.913190306629986, 7260782.030460700392723 ], [ 528629.453693735296838, 7260777.324910661205649 ], [ 528619.900785414385609, 7260772.041634876281023 ], [ 528609.987933612777852, 7260765.958703628741205 ], [ 528599.999107789364643, 7260758.830614227801561 ], [ 528590.0, 7260751.180559948086739 ], [ 528580.0, 7260744.117270393297076 ], [ 528570.0, 7260738.317416394129395 ], [ 528560.0, 7260733.756434702314436 ], [ 528550.0, 7260730.000892210751772 ], [ 528540.0, 7260726.253847263753414 ], [ 528530.0, 7260721.758557628840208 ], [ 528520.0, 7260716.242673087865114 ], [ 528510.0, 7260709.912851802073419 ], [ 528500.0, 7260703.298168847337365 ], [ 528490.0, 7260696.689764766022563 ], [ 528480.0, 7260690.0 ], [ 528470.000892210751772, 7260683.310235233977437 ], [ 528460.012066387105733, 7260676.701831153593957 ], [ 528450.099214585614391, 7260670.088040409609675 ], [ 528440.546306264819577, 7260663.768501088954508 ], [ 528432.08680969348643, 7260658.329482780769467 ], [ 528425.756988407694735, 7260654.205310802906752 ] ] } },
{ "type": "Feature", "properties": { "id": 3, "reference_id": 9, "dune_id": 9, "dune_name": "Inverted Y Dune", "acquisition_date": "2025-10-20", "length_m": 777.45896817495418 }, "geometry": { "type": "LineString", "coordinates": [ [ 530074.243011592421681, 7261615.309004518203437 ], [ 530067.913190306629986, 7261620.535132087767124 ], [ 530059.453693735296838, 7261626.788087141700089 ], [ 530049.900785414502025, 7261633.311127444729209 ], [ 530039.987933612777852, 7261639.924918189644814 ], [ 530029.999107789248228, 7261646.329821286723018 ], [ 530020.0, 7261652.205649306997657 ], [ 530010.0, 7261657.794350693002343 ], [ 530000.0, 7261663.670178715139627 ], [ 529990.0, 7261670.075974022038281 ], [ 529980.0, 7261676.700938943773508 ], [ 529970.0, 7261683.311127444729209 ], [ 529960.0, 7261690.011174176819623 ], [ 529950.0, 7261696.777805175632238 ], [ 529940.0, 7261703.757326913066208 ], [ 529930.0, 7261711.551677605137229 ], [ 529920.0, 7261720.447983889840543 ], [ 529910.0, 7261730.087148198857903 ], [ 529900.0, 7261740.011174176819623 ], [ 529890.0, 7261750.000892210751772 ], [ 529880.0, 7261760.0 ], [ 529870.0, 7261770.0 ], [ 529860.000892210751772, 7261780.0 ], [ 529850.011174176470377, 7261790.0 ], [ 529840.087148198392242, 7261800.0 ], [ 529830.447983889840543, 7261810.0 ], [ 529821.552569815889001, 7261820.0 ], [ 529813.768501089187339, 7261830.0 ], [ 529806.864953374140896, 7261840.000000000931323 ], [ 529800.45915806631092, 7261850.0 ], [ 529794.861912838649005, 7261860.0 ], [ 529790.447983889840543, 7261870.0 ], [ 529786.777805175632238, 7261880.0 ], [ 529783.32051719923038, 7261890.0 ], [ 529780.000892210751772, 7261900.0 ], [ 529776.689764766488224, 7261910.0 ], [ 529773.299061056924984, 7261920.0 ], [ 529769.924025978078134, 7261930.0 ], [ 529766.329821285791695, 7261940.0 ], [ 529762.205649307463318, 7261950.0 ], [ 529757.79345848178491, 7261960.0 ], [ 529753.659896748373285, 7261970.0 ], [ 529749.999107789364643, 7261980.0 ], [ 529746.329821285791695, 7261990.0 ], [ 529742.129675285541452, 7262000.0 ], [ 529737.423233035369776, 7262010.0 ], [ 529732.490510976873338, 7262020.0 ], [ 529727.509489023126662, 7262030.0 ], [ 529722.576766964630224, 7262040.0 ], [ 529717.870324714574963, 7262050.0 ], [ 529713.670178714208305, 7262060.0 ], [ 529710.0, 7262070.0 ], [ 529706.329821285791695, 7262080.0 ], [ 529702.130567496176809, 7262090.0 ], [ 529697.433515001088381, 7262100.0 ], [ 529692.566484998911619, 7262110.0 ], [ 529687.870324714458548, 7262120.0 ], [ 529683.680460680043325, 7262130.0 ], [ 529680.076866232673638, 7262140.0 ], [ 529676.700046732323244, 7262150.0 ], [ 529673.299953267676756, 7262160.0 ], [ 529669.924025978078134, 7262170.0 ], [ 529666.330713496543467, 7262180.0 ], [ 529662.216823483933695, 7262189.999107789248228 ], [ 529657.881498891045339, 7262199.987933613359928 ], [ 529654.118162604048848, 7262209.900785414502025 ], [ 529651.62765162717551, 7262219.453693735413253 ], [ 529650.458265855675563, 7262227.913190307095647 ], [ 529650.088040409144014, 7262234.243011592887342 ] ] } },
{ "type": "Feature", "properties": { "id": 4, "reference_id": 7, "dune_id": 7, "dune_name": "Inverted Y Dune", "acquisition_date": "2025-10-20", "length_m": 54.472747972505651 }, "geometry": { "type": "LineString", "coordinates": [ [ 530154.243457697797567, 7261648.360728091560304 ], [ 530147.919669605558738, 7261645.789994320832193 ], [ 530139.509334221715108, 7261641.639009507372975 ], [ 530130.223545839660801, 7261636.106275446712971 ], [ 530121.304491591989063, 7261629.676839964464307 ], [ 530113.921006839955226, 7261623.462740983814001 ], [ 530108.921899050474167, 7261618.833858640864491 ] ] } },
{ "type": "Feature", "properties": { "id": 5, "reference_id": 7, "dune_id": 7, "dune_name": "Inverted Y Dune", "acquisition_date": "2025-10-20", "length_m": 525.08991931000855 }, "geometry": { "type": "LineString", "coordinates": [ [ 530215.756988407694735, 7261640.0 ], [ 530222.08680969348643, 7261640.0 ], [ 530230.546306264703162, 7261640.0 ], [ 530240.099214585614391, 7261639.999107789248228 ], [ 530250.012066387105733, 7261639.9888258241117 ], [ 530260.000892210751772, 7261639.912851801142097 ], [ 530270.0, 7261639.552908320911229 ], [ 530280.0, 7261638.458604361861944 ], [ 530290.0, 7261636.318647109903395 ], [ 530300.0, 7261633.582138305529952 ], [ 530310.0, 7261631.082237573340535 ], [ 530320.0, 7261628.819440051913261 ], [ 530330.0, 7261625.968985594809055 ], [ 530340.0, 7261622.129675285890698 ], [ 530350.0, 7261617.783176516182721 ], [ 530360.0, 7261613.659004538320005 ], [ 530370.0, 7261609.999107789248228 ], [ 530380.0, 7261606.328929075039923 ], [ 530390.0, 7261602.11939332075417 ], [ 530400.0, 7261597.346366802230477 ], [ 530410.0, 7261592.118501108139753 ], [ 530420.0, 7261586.317754898220301 ], [ 530430.000000000116415, 7261579.911959591321647 ], [ 530440.0, 7261573.211912859231234 ], [ 530450.0, 7261566.241780877113342 ], [ 530459.999107789364643, 7261558.448322394862771 ], [ 530469.988825823529623, 7261549.552016110159457 ], [ 530479.912851801607758, 7261539.912851801142097 ], [ 530489.552016110159457, 7261529.9888258241117 ], [ 530498.448322394862771, 7261519.999107789248228 ], [ 530506.242673087399453, 7261510.0 ], [ 530513.222194824367762, 7261500.0 ], [ 530519.988825823529623, 7261490.0 ], [ 530526.689764766488224, 7261480.0 ], [ 530533.309343022760004, 7261470.000000000931323 ], [ 530540.0, 7261460.0 ], [ 530546.690656977239996, 7261450.0 ], [ 530553.310235233511776, 7261440.0 ], [ 530560.011174176470377, 7261430.0 ], [ 530566.777805175632238, 7261420.0 ], [ 530573.757326912600547, 7261410.0 ], [ 530581.550785394618288, 7261400.000892210751772 ], [ 530590.43591750273481, 7261390.012066387571394 ], [ 530599.987933612894267, 7261380.099214585497975 ], [ 530609.464867911767215, 7261370.546306265518069 ], [ 530617.914082517148927, 7261362.086809693835676 ], [ 530624.243011592305265, 7261355.756988408043981 ] ] } },
{ "type": "Feature", "properties": { "id": 6, "reference_id": 3, "dune_id": 3, "dune_name": "Big Mommy Dune", "acquisition_date": "2025-10-20", "length_m": 354.0468321627269 }, "geometry": { "type": "LineString", "coordinates": [ [ 529374.243011592305265, 7260694.216484978795052 ], [ 529367.91319030651357, 7260698.416630979627371 ], [ 529359.454585945932195, 7260704.216484978795052 ], [ 529349.911959590972401, 7260711.639718014746904 ], [ 529340.075081811286509, 7260720.459158066660166 ], [ 529330.447091679205187, 7260730.088040409609675 ], [ 529321.551677605253644, 7260740.011174176819623 ], [ 529313.757326912716962, 7260750.000892210751772 ], [ 529306.777805175748654, 7260760.0 ], [ 529300.011174176470377, 7260770.0 ], [ 529293.311127444147132, 7260780.000000000931323 ], [ 529286.700938943075016, 7260790.0 ], [ 529280.075974022038281, 7260800.0 ], [ 529273.670178714208305, 7260810.0 ], [ 529267.794350692536682, 7260820.0 ], [ 529262.205649307463318, 7260830.0 ], [ 529256.32982128590811, 7260840.0 ], [ 529249.924025978078134, 7260850.0 ], [ 529243.299061057041399, 7260860.0 ], [ 529236.689764766488224, 7260870.0 ], [ 529230.0, 7260880.0 ], [ 529223.310235233511776, 7260890.0 ], [ 529216.700938943075016, 7260900.0 ], [ 529210.075974022038281, 7260910.0 ], [ 529203.669286503456533, 7260919.999107789248228 ], [ 529197.783622621442191, 7260929.987933613359928 ], [ 529192.124980407999828, 7260939.900785414502025 ], [ 529185.937477882369421, 7260949.453693735413253 ], [ 529178.695108798099682, 7260957.913190307095647 ], [ 529170.858292123419233, 7260964.243011592887342 ], [ 529163.833858641446568, 7260967.913190307095647 ], [ 529158.910724874120206, 7260969.453693735413253 ] ] } },
{ "type": "Feature", "properties": { "id": 7, "reference_id": 3, "dune_id": 3, "dune_name": "Big Mommy Dune", "acquisition_date": "2025-10-20", "length_m": 519.09094431745802 }, "geometry": { "type": "LineString", "coordinates": [ [ 529405.756988407694735, 7260678.448322394862771 ], [ 529412.08680969348643, 7260676.242673087865114 ], [ 529420.546306264819577, 7260673.222194824367762 ], [ 529430.099214585614391, 7260669.9888258241117 ], [ 529440.012066387222148, 7260666.689764766953886 ], [ 529450.000892210751772, 7260663.310235233977437 ], [ 529460.0, 7260660.010281966067851 ], [ 529470.0, 7260656.766630999743938 ], [ 529480.0, 7260653.670178714208305 ], [ 529490.0, 7260651.10458592697978 ], [ 529500.000000000116415, 7260648.906588250771165 ], [ 529510.0, 7260646.405795307829976 ], [ 529520.0, 7260643.594204693101346 ], [ 529530.0, 7260641.094303959980607 ], [ 529540.0, 7260638.906588250771165 ], [ 529550.0, 7260636.416077274829149 ], [ 529560.0, 7260633.670178715139627 ], [ 529570.0, 7260631.454247441142797 ], [ 529580.0, 7260630.0 ], [ 529590.0, 7260628.546644769608974 ], [ 529600.0, 7260626.340995462611318 ], [ 529610.0, 7260623.670178714208305 ], [ 529620.0, 7260621.529329252429307 ], [ 529630.0, 7260620.35994348116219 ], [ 529640.0, 7260619.640056519769132 ], [ 529650.0, 7260618.470670748502016 ], [ 529660.0, 7260616.33071349747479 ], [ 529670.0, 7260613.670178715139627 ], [ 529680.0, 7260611.540503429248929 ], [ 529690.0, 7260610.447091680020094 ], [ 529700.0, 7260610.087148198857903 ], [ 529710.0, 7260610.010281966067851 ], [ 529720.0, 7260609.989718034863472 ], [ 529730.0, 7260609.912851802073419 ], [ 529740.0, 7260609.552908320911229 ], [ 529750.0, 7260608.459496571682394 ], [ 529760.0, 7260606.329821286723018 ], [ 529770.0, 7260603.670178715139627 ], [ 529780.0, 7260601.540503429248929 ], [ 529790.0, 7260600.447091680020094 ], [ 529800.0, 7260600.087148198857903 ], [ 529810.0, 7260600.011174176819623 ], [ 529820.0, 7260600.000892210751772 ], [ 529830.0, 7260600.0 ], [ 529840.0, 7260600.0 ], [ 529850.0, 7260600.0 ], [ 529860.0, 7260600.000892210751772 ], [ 529869.999107789364643, 7260600.011174176819623 ], [ 529879.987933612894267, 7260600.087148198857903 ], [ 529889.900785414385609, 7260600.447091680020094 ], [ 529899.453693735296838, 7260601.540503429248929 ], [ 529907.91319030651357, 7260603.670178715139627 ], [ 529914.243011592305265, 7260606.329821286723018 ] ] } },
{ "type": "Feature", "properties": { "id": 8, "reference_id": 3, "dune_id": 3, "dune_name": "Big Mommy Dune", "acquisition_date": "2025-10-20", "length_m": 222.9815756917657 }, "geometry": { "type": "LineString", "coordinates": [ [ 530025.756988407694735, 7260603.583030516281724 ], [ 530032.08680969348643, 7260605.882729606702924 ], [ 530040.546306264703162, 7260606.918100932613015 ], [ 530050.099214585614391, 7260605.871555430814624 ], [ 530060.012066387222148, 7260603.49588231742382 ], [ 530070.000892210751772, 7260601.082237573340535 ], [ 530080.0, 7260598.905696040019393 ], [ 530090.0, 7260596.416969483718276 ], [ 530100.0, 7260593.680460680276155 ], [ 530110.0, 7260591.530221462249756 ], [ 530120.0, 7260590.35994348116219 ], [ 530130.0, 7260589.64005651883781 ], [ 530140.0, 7260588.469778537750244 ], [ 530150.0, 7260586.319539319723845 ], [ 530160.0, 7260583.583030516281724 ], [ 530170.000000000116415, 7260581.093411750160158 ], [ 530180.0, 7260578.906588250771165 ], [ 530190.0, 7260576.416969484649599 ], [ 530199.999107789248228, 7260573.681352891027927 ], [ 530209.987933612894267, 7260571.541395640000701 ], [ 530219.900785414385609, 7260570.447091680020094 ], [ 530229.453693735180423, 7260570.087148198857903 ], [ 530237.91319030651357, 7260570.011174176819623 ], [ 530244.243011592421681, 7260570.000892210751772 ] ] } },
{ "type": "Feature", "properties": { "id": 9, "reference_id": 1, "dune_id": 1, "dune_name": "Big Mommy Dune", "acquisition_date": "2025-10-20", "length_m": 734.15867007527197 }, "geometry": { "type": "LineString", "coordinates": [ [ 529045.871555430116132, 7261724.243011591956019 ], [ 529042.042527087032795, 7261717.913190307095647 ], [ 529037.423233035369776, 7261709.453693734481931 ], [ 529032.576766964746639, 7261699.900785414502025 ], [ 529027.957472912967205, 7261689.987933613359928 ], [ 529024.128444569883868, 7261679.999107789248228 ], [ 529021.628543837927282, 7261670.0 ], [ 529020.458265855675563, 7261660.0 ], [ 529020.088040409144014, 7261650.0 ], [ 529020.011174176470377, 7261640.0 ], [ 529020.000892210751772, 7261630.0 ], [ 529020.0, 7261620.0 ], [ 529020.0, 7261610.0 ], [ 529020.0, 7261600.0 ], [ 529020.0, 7261590.0 ], [ 529020.000892210751772, 7261580.0 ], [ 529020.011174176470377, 7261570.0 ], [ 529020.087148198508658, 7261560.000000000931323 ], [ 529020.447091679205187, 7261550.0 ], [ 529021.541395639418624, 7261540.0 ], [ 529023.681352890678681, 7261530.0 ], [ 529026.416969484183937, 7261520.0 ], [ 529028.906588250538334, 7261510.0 ], [ 529031.094303960213438, 7261500.0 ], [ 529033.594204692286439, 7261490.0 ], [ 529036.406687518465333, 7261480.0 ], [ 529038.916870216256939, 7261470.000000000931323 ], [ 529041.18145215860568, 7261460.0 ], [ 529044.041296371375211, 7261450.0 ], [ 529047.946298736496828, 7261440.0 ], [ 529052.576766964630224, 7261430.0 ], [ 529057.434407211840153, 7261420.0 ], [ 529062.129675285541452, 7261410.0 ], [ 529066.31953932007309, 7261400.0 ], [ 529069.923133767326362, 7261390.0 ], [ 529073.299953267676756, 7261380.0 ], [ 529076.700046732323244, 7261370.0 ], [ 529080.075974022038281, 7261360.0 ], [ 529083.670178714208305, 7261350.0 ], [ 529087.794350692536682, 7261340.0 ], [ 529092.20654151821509, 7261330.0 ], [ 529096.340103251626715, 7261320.0 ], [ 529100.000892210751772, 7261310.000000000931323 ], [ 529103.670178714208305, 7261300.0 ], [ 529107.870324714574963, 7261290.0 ], [ 529112.576766964630224, 7261280.0 ], [ 529117.509489023126662, 7261270.0 ], [ 529122.490510976989754, 7261260.0 ], [ 529127.423233035369776, 7261250.0 ], [ 529132.129675285425037, 7261240.0 ], [ 529136.329821285791695, 7261230.0 ], [ 529139.999107789364643, 7261220.0 ], [ 529143.659896748373285, 7261210.000000000931323 ], [ 529147.793458481901325, 7261200.0 ], [ 529152.205649307463318, 7261190.0 ], [ 529156.329821285791695, 7261180.0 ], [ 529159.924025978078134, 7261170.0 ], [ 529163.299061057041399, 7261160.0 ], [ 529166.688872555969283, 7261150.0 ], [ 529169.988825823529623, 7261140.0 ], [ 529173.222194824367762, 7261130.0 ], [ 529176.242673087399453, 7261120.000000000931323 ], [ 529178.448322394862771, 7261110.0 ], [ 529179.552016110159457, 7261100.0 ], [ 529179.913744012243114, 7261090.0 ], [ 529180.0, 7261080.0 ], [ 529180.086255987756886, 7261070.000892210751772 ], [ 529180.447091679205187, 7261060.012066387571394 ], [ 529181.540503428783268, 7261050.099214585497975 ], [ 529183.670178714208305, 7261040.546306265518069 ], [ 529186.329821285791695, 7261032.086809692904353 ], [ 529188.459496571333148, 7261025.756988408043981 ] ] } },
{ "type": "Feature", "properties": { "id": 10, "reference_id": 1, "dune_id": 1, "dune_name": "Big Mommy Dune", "acquisition_date": "2025-10-20", "length_m": 358.81156891486842 }, "geometry": { "type": "LineString", "coordinates": [ [ 529084.690995482262224, 7261915.756988408043981 ], [ 529079.464867911767215, 7261922.086809693835676 ], [ 529073.211912858532742, 7261930.546306265518069 ], [ 529066.688872555852868, 7261940.099214585497975 ], [ 529060.075081811286509, 7261950.012066386640072 ], [ 529053.670178714208305, 7261960.000892210751772 ], [ 529047.794350692536682, 7261970.0 ], [ 529042.206541518098675, 7261980.0 ], [ 529036.340995462378487, 7261990.0 ], [ 529030.011174176586792, 7262000.0 ], [ 529023.747044946881942, 7262010.0 ], [ 529018.240550161106512, 7262020.0 ], [ 529013.747044946765527, 7262030.0 ], [ 529010.01028196583502, 7262040.0 ], [ 529006.330713496543467, 7262050.0 ], [ 529002.129675285541452, 7262060.0 ], [ 528997.423233035369776, 7262070.0 ], [ 528992.489618766237982, 7262080.0 ], [ 528987.499207057291642, 7262090.0 ], [ 528982.499900732073002, 7262100.0 ], [ 528977.499207057291642, 7262110.0 ], [ 528972.488726555602625, 7262120.0 ], [ 528967.4120588588994, 7262130.0 ], [ 528962.041634876397438, 7262139.999107789248228 ], [ 528955.871555430116132, 7262149.9888258241117 ], [ 528948.371456162189133, 7262159.911959590390325 ], [ 528939.541734144440852, 7262169.541734145022929 ], [ 528929.912851801607758, 7262178.371456163004041 ], [ 528920.000892210635357, 7262185.870663220062852 ], [ 528910.098322374862619, 7262192.030460700392723 ], [ 528900.546306264819577, 7262197.324018450453877 ], [ 528892.08680969348643, 7262202.030460700392723 ], [ 528885.756988407694735, 7262205.870663220062852 ] ] } },
{ "type": "Feature", "properties": { "id": 11, "reference_id": 8, "dune_id": 8, "dune_name": "Inverted Y Dune", "acquisition_date": "2025-10-20", "length_m": 709.88600392226783 }, "geometry": { "type": "LineString", "coordinates": [ [ 530100.011174176470377, 7261591.078100949525833 ], [ 530100.087148198508658, 7261586.078100949525833 ], [ 530100.447091679205187, 7261578.683442020788789 ], [ 530101.540503428783268, 7261569.6772395754233 ], [ 530103.670178714208305, 7261559.944359513930976 ], [ 530106.329821285791695, 7261549.993520701304078 ], [ 530108.459496571333148, 7261539.999553894624114 ], [ 530109.552908320911229, 7261530.0 ], [ 530109.913744012243114, 7261520.0 ], [ 530110.0, 7261510.0 ], [ 530110.086255987756886, 7261500.0 ], [ 530110.447091679205187, 7261490.0 ], [ 530111.540503428666852, 7261480.0 ], [ 530113.671070924960077, 7261470.000000000931323 ], [ 530116.340995462262072, 7261460.0 ], [ 530118.54664476972539, 7261450.0 ], [ 530120.0, 7261440.0 ], [ 530121.454247441026382, 7261430.0 ], [ 530123.670178714208305, 7261420.0 ], [ 530126.416077273664996, 7261410.0 ], [ 530128.907480461173691, 7261400.0 ], [ 530131.104585926048458, 7261390.0 ], [ 530133.670178714208305, 7261380.0 ], [ 530136.766630999278277, 7261370.0 ], [ 530140.011174176586792, 7261360.0 ], [ 530143.321409409982152, 7261350.0 ], [ 530146.777805175632238, 7261340.0 ], [ 530150.447983889840543, 7261330.0 ], [ 530154.861912838649005, 7261320.0 ], [ 530160.45915806631092, 7261310.000000000931323 ], [ 530166.864953374140896, 7261300.0 ], [ 530173.768501089187339, 7261290.000892210751772 ], [ 530181.552569815889001, 7261280.0111741758883 ], [ 530190.447983889840543, 7261270.087148198857903 ], [ 530200.087148198392242, 7261260.447983890771866 ], [ 530210.011174176470377, 7261251.551677605137229 ], [ 530220.000892210635357, 7261243.758219122886658 ], [ 530230.0, 7261236.788979352451861 ], [ 530240.0, 7261230.099214585497975 ], [ 530250.0, 7261223.768501089885831 ], [ 530260.0, 7261218.318308604881167 ], [ 530270.0, 7261214.118162604048848 ], [ 530280.0, 7261211.191734124906361 ], [ 530290.0, 7261208.918654637411237 ], [ 530300.0, 7261206.417861694470048 ], [ 530310.0, 7261203.681352891027927 ], [ 530320.0, 7261201.541395639069378 ], [ 530330.0, 7261200.447091678157449 ], [ 530340.0, 7261200.087148198857903 ], [ 530350.0, 7261200.0111741758883 ], [ 530360.0, 7261200.000892210751772 ], [ 530370.0, 7261200.0 ], [ 530380.0, 7261200.0 ], [ 530390.0, 7261200.000892210751772 ], [ 530400.0, 7261200.0111741758883 ], [ 530410.0, 7261200.087148198857903 ], [ 530420.0, 7261200.447091678157449 ], [ 530430.000000000116415, 7261201.540503428317606 ], [ 530440.0, 7261203.669286503456533 ], [ 530450.0, 7261206.318647108972073 ], [ 530460.0, 7261208.371456163004041 ], [ 530470.0, 7261209.094642465934157 ], [ 530480.0, 7261208.284307964146137 ], [ 530489.999107789364643, 7261205.860381253063679 ], [ 530499.987933612894267, 7261202.041634876281023 ], [ 530509.900785414385609, 7261197.42323303502053 ], [ 530519.453693735180423, 7261192.576766964048147 ], [ 530527.91319030651357, 7261187.957472912967205 ], [ 530534.243011592305265, 7261184.128444570116699 ] ] } },
{ "type": "Feature", "properties": { "id": 12, "reference_id": 5, "dune_id": 5, "dune_name": "The Star Dune", "acquisition_date": "2025-10-20", "length_m": 665.38087092144633 }, "geometry": { "type": "LineString", "coordinates": [ [ 534134.243011592305265, 7261670.000892210751772 ], [ 534127.91319030651357, 7261670.011174176819623 ], [ 534119.453693735296838, 7261670.087148198857903 ], [ 534109.900785414502025, 7261670.447091679088771 ], [ 534099.987933612894267, 7261671.540503429248929 ], [ 534089.999107789364643, 7261673.670178714208305 ], [ 534080.0, 7261676.329821285791695 ], [ 534070.0, 7261678.460388781502843 ], [ 534060.0, 7261679.564082497730851 ], [ 534050.0, 7261680.0 ], [ 534040.0, 7261680.435917503200471 ], [ 534030.0, 7261681.539611218497157 ], [ 534020.0, 7261683.671070925891399 ], [ 534010.0, 7261686.340995462611318 ], [ 534000.0, 7261688.546644769608974 ], [ 533990.0, 7261690.000892210751772 ], [ 533980.0, 7261691.464529406279325 ], [ 533970.0, 7261693.746152736246586 ], [ 533960.0, 7261696.776912965811789 ], [ 533950.0, 7261700.011174177750945 ], [ 533940.0, 7261703.311127444729209 ], [ 533930.0, 7261706.700938943773508 ], [ 533920.0, 7261710.076866233721375 ], [ 533910.0, 7261713.680460680276155 ], [ 533900.0, 7261717.870324714109302 ], [ 533890.0, 7261722.566484998911619 ], [ 533880.0, 7261727.434407211840153 ], [ 533870.0, 7261732.140849461778998 ], [ 533860.0, 7261736.406687518581748 ], [ 533850.0, 7261740.37111765705049 ], [ 533840.0, 7261744.851630873978138 ], [ 533830.0, 7261750.458265855908394 ], [ 533820.0, 7261756.864953374490142 ], [ 533810.000892210635357, 7261763.768501088954508 ], [ 533800.011174176470377, 7261771.552569815889001 ], [ 533790.088040409144014, 7261780.447983889840543 ], [ 533780.45915806631092, 7261790.087148198857903 ], [ 533771.638825803645886, 7261800.011174176819623 ], [ 533764.205310802557506, 7261810.000892210751772 ], [ 533758.329482780885883, 7261820.0 ], [ 533753.768501089187339, 7261830.0 ], [ 533750.088040409144014, 7261840.000000000931323 ], [ 533746.700938942958601, 7261850.0 ], [ 533743.299953267676756, 7261860.0 ], [ 533739.924025978078134, 7261870.0 ], [ 533736.329821285791695, 7261880.0 ], [ 533732.205649307463318, 7261890.0 ], [ 533727.79345848178491, 7261900.0 ], [ 533723.659004537737928, 7261910.0 ], [ 533719.988825823529623, 7261920.0 ], [ 533716.252955053234473, 7261930.0 ], [ 533711.758557628374547, 7261940.0 ], [ 533706.242673087399453, 7261950.0 ], [ 533699.912851801607758, 7261960.0 ], [ 533693.299061057041399, 7261970.0 ], [ 533686.700046732323244, 7261980.0 ], [ 533680.076866232673638, 7261989.999553894624114 ], [ 533673.681352890678681, 7261999.993520701304078 ], [ 533667.882391101680696, 7262009.944359513930976 ], [ 533662.664807373774238, 7262019.677239574491978 ], [ 533657.968647089437582, 7262028.683442020788789 ], [ 533654.129336780519225, 7262036.078100949525833 ], [ 533651.628543837927282, 7262041.078100949525833 ] ] } },
{ "type": "Feature", "properties": { "id": 13, "reference_id": 5, "dune_id": 5, "dune_name": "The Star Dune", "acquisition_date": "2025-10-20", "length_m": 435.26756961034454 }, "geometry": { "type": "LineString", "coordinates": [ [ 534334.342226177919656, 7261305.756988408043981 ], [ 534328.459496571333148, 7261312.086809693835676 ], [ 534321.541395639418624, 7261320.546306264586747 ], [ 534315.668947998550721, 7261330.099214585497975 ], [ 534312.161891504772939, 7261340.012066386640072 ], [ 534310.992505733272992, 7261350.000892210751772 ], [ 534311.639718014281243, 7261360.0 ], [ 534313.682245101430453, 7261370.0 ], [ 534316.330713496543467, 7261380.0 ], [ 534318.460388781968504, 7261390.0 ], [ 534319.56408249726519, 7261400.0 ], [ 534320.0, 7261410.0 ], [ 534320.43591750273481, 7261420.0 ], [ 534321.539611218031496, 7261430.0 ], [ 534323.670178714208305, 7261440.0 ], [ 534326.329821285791695, 7261450.0 ], [ 534328.459496571333148, 7261460.0 ], [ 534329.552016110159457, 7261470.000000000931323 ], [ 534329.901677625137381, 7261480.0 ], [ 534329.901677625137381, 7261490.0 ], [ 534329.552016110159457, 7261500.0 ], [ 534328.458604360581376, 7261510.0 ], [ 534326.317754898685962, 7261520.0 ], [ 534323.570964128593914, 7261530.0 ], [ 534320.99419716396369, 7261539.999107789248228 ], [ 534318.360281985718757, 7261549.9888258241117 ], [ 534314.330159790813923, 7261559.912851802073419 ], [ 534307.924364482983947, 7261569.552908320911229 ], [ 534299.454585945932195, 7261578.458604360930622 ], [ 534289.900785414502025, 7261586.318647108972073 ], [ 534279.987933612894267, 7261593.583030516281724 ], [ 534269.999107789248228, 7261601.092519540339708 ], [ 534260.0, 7261608.895414074882865 ], [ 534250.0, 7261616.328929075971246 ], [ 534240.0, 7261623.223087035119534 ], [ 534230.000892210751772, 7261629.913744011893868 ], [ 534220.012066387105733, 7261636.328929075971246 ], [ 534210.099214585614391, 7261642.204757097177207 ], [ 534200.546306264819577, 7261647.782284306362271 ], [ 534192.08680969348643, 7261653.571856340393424 ], [ 534185.756988407694735, 7261659.540841933339834 ], [ 534182.08680969348643, 7261664.701277447864413 ] ] } },
{ "type": "Feature", "properties": { "id": 14, "reference_id": 6, "dune_id": 6, "dune_name": "The Star Dune", "acquisition_date": "2025-10-20", "length_m": 748.15342587789678 }, "geometry": { "type": "LineString", "coordinates": [ [ 533650.0, 7262048.921899050474167 ], [ 533650.0, 7262053.921899050474167 ], [ 533650.0, 7262061.316557979211211 ], [ 533650.0, 7262070.322760425508022 ], [ 533650.0, 7262080.055640487000346 ], [ 533650.0, 7262090.006479298695922 ], [ 533650.0, 7262100.000446105375886 ], [ 533650.000892210751772, 7262110.0 ], [ 533650.011174176470377, 7262120.0 ], [ 533650.087148198508658, 7262130.0 ], [ 533650.447091679205187, 7262140.0 ], [ 533651.540503428783268, 7262150.0 ], [ 533653.670178714208305, 7262160.0 ], [ 533656.329821285791695, 7262170.0 ], [ 533658.460388781968504, 7262180.0 ], [ 533659.56408249726519, 7262190.0 ], [ 533660.0, 7262200.0 ], [ 533660.43591750273481, 7262210.0 ], [ 533661.539611218031496, 7262220.0 ], [ 533663.670178714208305, 7262230.0 ], [ 533666.329821285791695, 7262240.0 ], [ 533668.459496571333148, 7262250.0 ], [ 533669.552908320911229, 7262260.0 ], [ 533669.91374401235953, 7262270.0 ], [ 533669.999107789364643, 7262280.0 ], [ 533670.075081811286509, 7262290.0 ], [ 533670.359943480696529, 7262300.0 ], [ 533671.093411749578081, 7262310.0 ], [ 533672.129675285541452, 7262320.0 ], [ 533672.65964257158339, 7262330.0 ], [ 533672.128783074906096, 7262340.000000000931323 ], [ 533671.082237573107705, 7262350.0 ], [ 533670.272795282304287, 7262360.0 ], [ 533669.628882342833094, 7262370.0 ], [ 533668.468886326416396, 7262380.0 ], [ 533666.319539319956675, 7262390.0 ], [ 533663.583030515816063, 7262400.0 ], [ 533661.092519538942724, 7262410.0 ], [ 533658.895414073951542, 7262420.0 ], [ 533656.329821285791695, 7262430.0 ], [ 533653.233369000838138, 7262440.0 ], [ 533649.989718034281395, 7262450.0 ], [ 533646.689764766488224, 7262460.0 ], [ 533643.310235233511776, 7262470.0 ], [ 533640.011174176470377, 7262480.0 ], [ 533636.776912964996882, 7262490.0 ], [ 533633.746152736246586, 7262500.0 ], [ 533631.464529406744987, 7262510.0 ], [ 533630.000892210751772, 7262520.0 ], [ 533628.545752558973618, 7262530.0 ], [ 533626.329821285791695, 7262540.0 ], [ 533623.583922726451419, 7262550.0 ], [ 533621.093411749578081, 7262560.0 ], [ 533618.906588250421919, 7262570.0 ], [ 533616.416969484183937, 7262580.0 ], [ 533613.680460680043325, 7262590.0 ], [ 533611.530221462948248, 7262600.000000000931323 ], [ 533610.359943480696529, 7262610.0 ], [ 533609.640056519303471, 7262620.0 ], [ 533608.470670747803524, 7262630.0 ], [ 533606.330713496543467, 7262640.0 ], [ 533603.670178714208305, 7262650.0 ], [ 533601.540503428783268, 7262660.0 ], [ 533600.44619946856983, 7262670.0 ], [ 533600.075974022038281, 7262680.0 ], [ 533599.924025978078134, 7262690.0 ], [ 533599.553800531546585, 7262700.0 ], [ 533598.459496571216732, 7262710.0 ], [ 533596.328929075039923, 7262720.0 ], [ 533593.659004537737928, 7262730.0 ], [ 533591.45335523027461, 7262739.999107789248228 ], [ 533590.0, 7262749.987933613359928 ], [ 533588.54664476972539, 7262759.900785414502025 ], [ 533586.340995462262072, 7262769.453693735413253 ], [ 533583.671070924960077, 7262777.913190307095647 ], [ 533581.540503428783268, 7262784.243011591956019 ] ] } },
{ "type": "Feature", "properties": { "id": 15, "reference_id": 4, "dune_id": 4, "dune_name": "The Star Dune", "acquisition_date": "2025-10-20", "length_m": 340.7694028800189 }, "geometry": { "type": "LineString", "coordinates": [ [ 533414.243011592421681, 7261969.552908321842551 ], [ 533407.91319030651357, 7261968.459496572613716 ], [ 533399.453693735296838, 7261966.328929075971246 ], [ 533389.900785414502025, 7261963.659004538320005 ], [ 533379.987933612894267, 7261961.453355230391026 ], [ 533369.999107789364643, 7261959.999107789248228 ], [ 533360.0, 7261958.535470593720675 ], [ 533350.0, 7261956.253847263753414 ], [ 533340.0, 7261953.223979245871305 ], [ 533330.0, 7261949.999107789248228 ], [ 533320.0, 7261946.765738788992167 ], [ 533310.0, 7261943.670178713276982 ], [ 533300.0, 7261941.103693715296686 ], [ 533290.0, 7261938.896306284703314 ], [ 533280.0, 7261936.329821286723018 ], [ 533270.0, 7261933.234261211007833 ], [ 533260.0, 7261930.0 ], [ 533250.0, 7261926.765738788992167 ], [ 533240.0, 7261923.669286504387856 ], [ 533230.0, 7261921.093411749228835 ], [ 533220.0, 7261918.820332262665033 ], [ 533210.0, 7261915.969877805560827 ], [ 533200.0, 7261912.139957251958549 ], [ 533190.0, 7261907.860042748972774 ], [ 533180.0, 7261904.030122195370495 ], [ 533170.0, 7261901.180559948086739 ], [ 533160.0, 7261898.917762426659465 ], [ 533150.0, 7261896.416969483718276 ], [ 533140.0, 7261893.670178715139627 ], [ 533130.000892210751772, 7261891.454247441142797 ], [ 533120.012066387105733, 7261890.0 ], [ 533110.099214585497975, 7261888.546644769608974 ], [ 533100.546306264819577, 7261886.340995462611318 ], [ 533092.08680969348643, 7261883.671070924960077 ], [ 533085.756988407694735, 7261881.540503429248929 ] ] } }
]
}
