{
"type": "FeatureCollection",
"name": "crests_2020_12_2020-12-25",
"crs": { "type": "name", "properties": { "name": "urn:ogc:def:crs:EPSG::32733" } },
"features": [
{ "type": "Feature", "properties": { "id": 0, "reference_id": 3, "dune_id": 3, "dune_name": "Big Mommy Dune", "acquisition_date": "2020-12-25", "length_m": 609.15488362082306 }, "geometry": { "type": "LineString", "coordinates": [ [ 529614.243011592421681, 7260630.011174176819623 ], [ 529607.91319030651357, 7260630.087148198857903 ], [ 529599.453693735180423, 7260630.447091680020094 ], [ 529589.900785414502025, 7260631.541395640000701 ], [ 529579.987933612894267, 7260633.681352891027927 ], [ 529569.999107789248228, 7260636.416969483718276 ], [ 529560.0, 7260638.906588250771165 ], [ 529550.0, 7260641.094303959980607 ], [ 529540.0, 7260643.594204693101346 ], [ 529530.0, 7260646.405795307829976 ], [ 529520.0, 7260648.905696040019393 ], [ 529510.0, 7260651.094303959980607 ], [ 529500.000000000116415, 7260653.594204692170024 ], [ 529490.0, 7260656.405795307829976 ], [ 529480.0, 7260658.906588250771165 ], [ 529470.0, 7260661.10458592697978 ], [ 529460.0, 7260663.670178714208305 ], [ 529450.0, 7260666.765738788992167 ], [ 529440.000000000116415, 7260670.0 ], [ 529430.0, 7260673.235153421759605 ], [ 529420.0, 7260676.34188767336309 ], [ 529410.0, 7260678.994628659449518 ], [ 529400.0, 7260681.638825803995132 ], [ 529390.0, 7260685.669840209186077 ], [ 529380.0, 7260692.075635517016053 ], [ 529370.0, 7260700.545414054766297 ], [ 529360.0, 7260710.099214585497975 ], [ 529350.000892210751772, 7260720.012066386640072 ], [ 529340.011174176470377, 7260730.000892210751772 ], [ 529330.087148198392242, 7260740.0 ], [ 529320.447983889956959, 7260750.0 ], [ 529311.551677605253644, 7260760.0 ], [ 529303.757326912600547, 7260770.0 ], [ 529296.777805175632238, 7260780.000000000931323 ], [ 529290.011174176470377, 7260790.0 ], [ 529283.310235233511776, 7260800.0 ], [ 529276.690656977239996, 7260810.0 ], [ 529270.0, 7260820.0 ], [ 529263.309343022760004, 7260830.0 ], [ 529256.690656977356412, 7260840.0 ], [ 529250.0, 7260850.0 ], [ 529243.309343022876419, 7260860.0 ], [ 529236.690656977239996, 7260870.0 ], [ 529230.0, 7260880.0 ], [ 529223.310235233511776, 7260890.0 ], [ 529216.700938943075016, 7260900.0 ], [ 529210.076866232557222, 7260910.0 ], [ 529203.681352890562266, 7260920.0 ], [ 529197.882391101680696, 7260930.0 ], [ 529192.664807373774238, 7260939.999553894624114 ], [ 529187.968647089437582, 7260949.993520701304078 ], [ 529184.129336780519225, 7260959.944359514862299 ], [ 529181.628543837927282, 7260969.6772395754233 ], [ 529180.458265855675563, 7260978.683442020788789 ], [ 529180.088040409144014, 7260986.078100949525833 ], [ 529180.011174176470377, 7260991.078100949525833 ] ] } },
{ "type": "Feature", "properties": { "id": 1, "reference_id": 3, "dune_id": 3, "dune_name": "Big Mommy Dune", "acquisition_date": "2020-12-25", "length_m": 58.486023184610531 }, "geometry": { "type": "LineString", "coordinates": [ [ 529704.243011592305265, 7260620.0 ], [ 529697.91319030651357, 7260620.0 ], [ 529689.454585945932195, 7260620.0 ], [ 529679.912851801607758, 7260620.0 ], [ 529670.087148198508658, 7260620.0 ], [ 529660.545414054067805, 7260620.0 ], [ 529652.08680969348643, 7260620.0 ], [ 529645.756988407694735, 7260620.0 ] ] } },
{ "type": "Feature", "properties": { "id": 2, "reference_id": 3, "dune_id": 3, "dune_name": "Big Mommy Dune", "acquisition_date": "2020-12-25", "length_m": 149.35523700315508 }, "geometry": { "type": "LineString", "coordinates": [ [ 529894.243011592421681, 7260603.670178715139627 ], [ 529887.91319030651357, 7260606.329821286723018 ], [ 529879.453693735180423, 7260608.459496571682394 ], [ 529869.900785414385609, 7260609.552908320911229 ], [ 529859.987933612894267, 7260609.912851802073419 ], [ 529849.999107789364643, 7260609.9888258241117 ], [ 529840.0, 7260609.999107789248228 ], [ 529830.0, 7260610.0 ], [ 529820.0, 7260610.0 ], [ 529810.0, 7260610.0 ], [ 529800.0, 7260610.0 ], [ 529790.000892210751772, 7260610.0 ], [ 529780.012066387105733, 7260610.0 ], [ 529770.099214585614391, 7260610.0 ], [ 529760.546306264819577, 7260610.0 ], [ 529752.08680969348643, 7260610.0 ], [ 529745.756988407694735, 7260610.0 ] ] } },
{ "type": "Feature", "properties": { "id": 3, "reference_id": 3, "dune_id": 3, "dune_name": "Big Mommy Dune", "acquisition_date": "2020-12-25", "length_m": 234.95378603680609 }, "geometry": { "type": "LineString", "coordinates": [ [ 530244.243011592421681, 7260561.627651628106833 ], [ 530237.91319030651357, 7260564.117270393297076 ], [ 530229.453693735180423, 7260567.870324715040624 ], [ 530219.900785414385609, 7260572.129675285890698 ], [ 530209.987933612894267, 7260575.882729606702924 ], [ 530199.999107789248228, 7260578.373240584507585 ], [ 530190.0, 7260579.552908321842551 ], [ 530180.0, 7260579.999107789248228 ], [ 530170.000000000116415, 7260580.435917503200471 ], [ 530160.0, 7260581.540503429248929 ], [ 530150.0, 7260583.681352891027927 ], [ 530140.0, 7260586.416969484649599 ], [ 530130.0, 7260588.906588250771165 ], [ 530120.0, 7260591.093411749228835 ], [ 530110.0, 7260593.583922727033496 ], [ 530100.0, 7260596.329821285791695 ], [ 530090.0, 7260598.545752558857203 ], [ 530080.0, 7260600.0 ], [ 530070.0, 7260601.453355230391026 ], [ 530060.000892210751772, 7260603.659004537388682 ], [ 530050.012066387222148, 7260606.328929075971246 ], [ 530040.099214585614391, 7260608.459496571682394 ], [ 530030.546306264819577, 7260609.552908320911229 ], [ 530022.08680969348643, 7260609.912851802073419 ], [ 530015.756988407694735, 7260609.9888258241117 ] ] } },
{ "type": "Feature", "properties": { "id": 4, "reference_id": 8, "dune_id": 8, "dune_name": "Inverted Y Dune", "acquisition_date": "2020-12-25", "length_m": 428.41529666241843 }, "geometry": { "type": "LineString", "coordinates": [ [ 530264.243011592421681, 7261221.638825803995132 ], [ 530257.913190306629986, 7261224.205310802906752 ], [ 530249.453693735180423, 7261228.329482780769467 ], [ 530239.900785414502025, 7261233.76939329970628 ], [ 530229.987933612777852, 7261240.099214585497975 ], [ 530220.0, 7261246.788979351520538 ], [ 530210.011174176470377, 7261253.75821912381798 ], [ 530200.087148198392242, 7261261.551677605137229 ], [ 530190.447983889840543, 7261270.447983890771866 ], [ 530181.552569815889001, 7261280.087148198857903 ], [ 530173.768501089187339, 7261290.0111741758883 ], [ 530166.864953374140896, 7261300.000892210751772 ], [ 530160.45915806631092, 7261310.000000000931323 ], [ 530154.861912838649005, 7261320.0 ], [ 530150.447983889840543, 7261330.0 ], [ 530146.777805175632238, 7261340.0 ], [ 530143.321409409982152, 7261350.0 ], [ 530140.011174176586792, 7261360.0 ], [ 530136.766630999278277, 7261370.0 ], [ 530133.670178714208305, 7261380.0 ], [ 530131.104585926048458, 7261390.0 ], [ 530128.907480461173691, 7261400.0 ], [ 530126.416077273664996, 7261410.0 ], [ 530123.670178714208305, 7261420.0 ], [ 530121.454247441026382, 7261430.0 ], [ 530120.0, 7261440.0 ], [ 530118.54664476972539, 7261450.0 ], [ 530116.340995462262072, 7261460.0 ], [ 530113.671070924960077, 7261470.000000000931323 ], [ 530111.540503428666852, 7261480.0 ], [ 530110.447091679205187, 7261490.0 ], [ 530110.086255987756886, 7261500.0 ], [ 530110.0, 7261510.0 ], [ 530109.913744012243114, 7261520.0 ], [ 530109.552908320911229, 7261530.0 ], [ 530108.459496571333148, 7261539.999553894624114 ], [ 530106.329821285791695, 7261549.993520701304078 ], [ 530103.670178714208305, 7261559.944359513930976 ], [ 530101.540503428783268, 7261569.6772395754233 ], [ 530100.447091679205187, 7261578.683442020788789 ], [ 530100.087148198508658, 7261586.078100949525833 ], [ 530100.011174176470377, 7261591.078100949525833 ] ] } },
{ "type": "Feature", "properties": { "id": 5, "reference_id": 8, "dune_id": 8, "dune_name": "Inverted Y Dune", "acquisition_date": "2020-12-25", "length_m": 119.54433656149648 }, "geometry": { "type": "LineString", "coordinates": [ [ 530514.243011592421681, 7261201.540503428317606 ], [ 530507.91319030651357, 7261203.670178713276982 ], [ 530499.453693735296838, 7261206.329821285791695 ], [ 530489.900785414385609, 7261208.459496571682394 ], [ 530479.987933612894267, 7261209.552908320911229 ], [ 530469.999107789364643, 7261209.912851802073419 ], [ 530460.0, 7261209.9888258241117 ], [ 530450.0, 7261209.999107790179551 ], [ 530440.000892210751772, 7261210.000000000931323 ], [ 530430.012066387222148, 7261210.000000000931323 ], [ 530420.099214585614391, 7261210.000000000931323 ], [ 530410.546306264819577, 7261210.000000000931323 ], [ 530402.08680969348643, 7261210.000000000931323 ], [ 530395.756988407694735, 7261210.000000000931323 ] ] } },
{ "type": "Feature", "properties": { "id": 6, "reference_id": 2, "dune_id": 2, "dune_name": "Big Mommy Dune", "acquisition_date": "2020-12-25", "length_m": 324.79997015410902 }, "geometry": { "type": "LineString", "coordinates": [ [ 528714.243011592305265, 7260828.448322394862771 ], [ 528707.91319030651357, 7260826.241780877113342 ], [ 528699.453693735296838, 7260823.211020648479462 ], [ 528689.900785414502025, 7260819.901677625253797 ], [ 528679.987933612894267, 7260816.242673087865114 ], [ 528669.999107789364643, 7260811.768839593976736 ], [ 528660.0, 7260806.329821284860373 ], [ 528650.0, 7260800.35994348116219 ], [ 528640.0, 7260794.838672275654972 ], [ 528630.0, 7260790.35994348116219 ], [ 528620.0, 7260786.329821286723018 ], [ 528610.0, 7260781.768839593976736 ], [ 528600.0, 7260776.243565298616886 ], [ 528590.0, 7260769.912851801142097 ], [ 528580.0, 7260763.298168846406043 ], [ 528570.0, 7260756.689764766953886 ], [ 528560.0, 7260750.0 ], [ 528550.0, 7260743.309343023225665 ], [ 528540.0, 7260736.689764766953886 ], [ 528530.0, 7260729.989718034863472 ], [ 528520.0, 7260723.233369001187384 ], [ 528510.0, 7260716.329821286723018 ], [ 528500.0, 7260708.896306284703314 ], [ 528490.0, 7260701.103693716228008 ], [ 528480.000892210751772, 7260693.671070925891399 ], [ 528470.012066387105733, 7260686.777805175632238 ], [ 528460.099214585614391, 7260680.098322374746203 ], [ 528450.546306264819577, 7260673.76939329970628 ], [ 528442.08680969348643, 7260668.329482780769467 ], [ 528435.756988407694735, 7260664.205310802906752 ] ] } },
{ "type": "Feature", "properties": { "id": 7, "reference_id": 2, "dune_id": 2, "dune_name": "Big Mommy Dune", "acquisition_date": "2020-12-25", "length_m": 89.343560709190911 }, "geometry": { "type": "LineString", "coordinates": [ [ 529065.756988407694735, 7260934.205310802906752 ], [ 529072.08680969348643, 7260938.328590570017695 ], [ 529080.546306264819577, 7260943.757326912134886 ], [ 529090.099214585497975, 7260950.000892211683095 ], [ 529100.011174176586792, 7260956.253847263753414 ], [ 529109.988825823529623, 7260961.758557628840208 ], [ 529119.900785414385609, 7260966.241780877113342 ], [ 529129.453693735296838, 7260969.901677625253797 ], [ 529137.913190306629986, 7260973.211020648479462 ], [ 529144.243011592421681, 7260976.241780877113342 ] ] } },
{ "type": "Feature", "properties": { "id": 8, "reference_id": 5, "dune_id": 5, "dune_name": "The Star Dune", "acquisition_date": "2020-12-25", "length_m": 1152.0248301804443 }, "geometry": { "type": "LineString", "coordinates": [ [ 534334.342226177919656, 7261305.756988408043981 ], [ 534328.459496571333148, 7261312.086809693835676 ], [ 534321.540503428666852, 7261320.546306264586747 ], [ 534315.657773822080344, 7261330.099214585497975 ], [ 534312.075635517016053, 7261340.012066386640072 ], [ 534310.556588230538182, 7261350.000892210751772 ], [ 534310.186362784006633, 7261360.0 ], [ 534310.45915806631092, 7261370.0 ], [ 534311.541395639418624, 7261380.0 ], [ 534313.671070924960077, 7261390.0 ], [ 534316.340995462262072, 7261400.0 ], [ 534318.54664476972539, 7261410.0 ], [ 534320.0, 7261420.0 ], [ 534321.45335523027461, 7261430.0 ], [ 534323.659004537737928, 7261440.0 ], [ 534326.328929075156339, 7261450.0 ], [ 534328.459496571333148, 7261460.0 ], [ 534329.552908320794813, 7261470.000000000931323 ], [ 534329.912851801607758, 7261480.0 ], [ 534329.988825823529623, 7261490.0 ], [ 534329.999107789364643, 7261500.0 ], [ 534329.999107789364643, 7261510.0 ], [ 534329.987933612894267, 7261520.0 ], [ 534329.900785414385609, 7261530.0 ], [ 534329.453693735296838, 7261539.999107789248228 ], [ 534327.91319030651357, 7261549.9888258241117 ], [ 534324.243011592421681, 7261559.912851802073419 ], [ 534317.91319030651357, 7261569.552908320911229 ], [ 534309.453693735296838, 7261578.458604360930622 ], [ 534299.900785414502025, 7261586.318647108972073 ], [ 534289.987933612894267, 7261593.583030516281724 ], [ 534279.999107789248228, 7261601.092519540339708 ], [ 534270.0, 7261608.895414074882865 ], [ 534260.0, 7261616.328929075971246 ], [ 534250.0, 7261623.223087035119534 ], [ 534240.0, 7261629.912851801142097 ], [ 534230.0, 7261636.318647109903395 ], [ 534220.0, 7261642.128783075138927 ], [ 534210.0, 7261647.422340825200081 ], [ 534200.0, 7261652.478444591164589 ], [ 534190.0, 7261657.411166648380458 ], [ 534180.0, 7261662.041634876281023 ], [ 534170.0, 7261665.872447641566396 ], [ 534160.0, 7261668.382630338892341 ], [ 534150.0, 7261669.62888234294951 ], [ 534140.0, 7261670.359051270410419 ], [ 534130.0, 7261671.529329252429307 ], [ 534120.0, 7261673.669286503456533 ], [ 534110.0, 7261676.330713496543467 ], [ 534100.0, 7261678.470670748502016 ], [ 534090.0, 7261679.640056519769132 ], [ 534080.0, 7261680.35994348116219 ], [ 534070.0, 7261681.529329252429307 ], [ 534060.0, 7261683.669286504387856 ], [ 534050.0, 7261686.33071349747479 ], [ 534040.0, 7261688.470670748502016 ], [ 534030.0, 7261689.64005651883781 ], [ 534020.0, 7261690.35994348116219 ], [ 534010.0, 7261691.530221464112401 ], [ 534000.0, 7261693.680460680276155 ], [ 533990.0, 7261696.416969484649599 ], [ 533980.0, 7261698.906588250771165 ], [ 533970.0, 7261701.094303959980607 ], [ 533960.0, 7261703.594204692170024 ], [ 533950.0, 7261706.406687518581748 ], [ 533940.0, 7261708.916870215907693 ], [ 533930.0, 7261711.181452158838511 ], [ 533920.0, 7261714.041296371258795 ], [ 533910.0, 7261717.947190947830677 ], [ 533900.0, 7261722.58704893104732 ], [ 533890.0, 7261727.510381233878434 ], [ 533880.0, 7261732.490510977804661 ], [ 533870.0, 7261737.424125246703625 ], [ 533860.0, 7261742.139957251027226 ], [ 533850.0, 7261746.406687518581748 ], [ 533840.0, 7261750.37111765705049 ], [ 533830.0, 7261754.851630872115493 ], [ 533820.0, 7261760.458265855908394 ], [ 533810.000892210635357, 7261766.864953374490142 ], [ 533800.012066387105733, 7261773.768501089885831 ], [ 533790.098322374979034, 7261781.552569815889001 ], [ 533780.535132088232785, 7261790.447983890771866 ], [ 533771.999661495094188, 7261800.087148198857903 ], [ 533765.309004517854191, 7261810.011174177750945 ], [ 533760.535132088349201, 7261820.000892210751772 ], [ 533756.78897935221903, 7261830.0 ], [ 533753.321409409982152, 7261840.000000000931323 ], [ 533750.000892210751772, 7261850.0 ], [ 533746.690656977239996, 7261860.0 ], [ 533743.309343022760004, 7261870.0 ], [ 533739.999107789364643, 7261880.0 ], [ 533736.679482800886035, 7261890.0 ], [ 533733.222194824367762, 7261900.0 ], [ 533729.552908320794813, 7261910.0 ], [ 533725.149261337937787, 7261920.0 ], [ 533719.627990132081322, 7261930.0 ], [ 533713.583030515816063, 7261940.0 ], [ 533707.783176516066305, 7261950.0 ], [ 533702.205649307463318, 7261960.0 ], [ 533696.340103251626715, 7261970.0 ], [ 533690.0, 7261980.0 ], [ 533683.659896748373285, 7261989.999553894624114 ], [ 533677.794350692536682, 7261999.993520701304078 ], [ 533672.217715694569051, 7262009.944359513930976 ], [ 533666.428143660770729, 7262019.677239574491978 ], [ 533660.45915806631092, 7262028.683442020788789 ], [ 533655.298722552019171, 7262036.078100949525833 ], [ 533651.998769284458831, 7262041.078100949525833 ] ] } },
{ "type": "Feature", "properties": { "id": 9, "reference_id": 6, "dune_id": 6, "dune_name": "The Star Dune", "acquisition_date": "2020-12-25", "length_m": 748.08498759590384 }, "geometry": { "type": "LineString", "coordinates": [ [ 533650.0, 7262048.921899050474167 ], [ 533650.0, 7262053.921899050474167 ], [ 533650.0, 7262061.316557979211211 ], [ 533650.0, 7262070.322760425508022 ], [ 533650.0, 7262080.055640487000346 ], [ 533650.0, 7262090.006479298695922 ], [ 533650.0, 7262100.000446105375886 ], [ 533650.0, 7262110.0 ], [ 533650.0, 7262120.0 ], [ 533650.000892210751772, 7262130.0 ], [ 533650.011174176470377, 7262140.0 ], [ 533650.087148198508658, 7262150.0 ], [ 533650.447091679205187, 7262160.0 ], [ 533651.540503428783268, 7262170.0 ], [ 533653.670178714208305, 7262180.0 ], [ 533656.329821285791695, 7262190.0 ], [ 533658.460388781968504, 7262200.0 ], [ 533659.56408249726519, 7262210.0 ], [ 533660.0, 7262220.0 ], [ 533660.43591750273481, 7262230.0 ], [ 533661.539611218031496, 7262240.0 ], [ 533663.670178714208305, 7262250.0 ], [ 533666.329821285791695, 7262260.0 ], [ 533668.459496571333148, 7262270.0 ], [ 533669.552908320911229, 7262280.0 ], [ 533669.912851801607758, 7262290.0 ], [ 533669.988825823646039, 7262300.0 ], [ 533669.999107789364643, 7262310.0 ], [ 533670.0, 7262320.0 ], [ 533670.0, 7262330.0 ], [ 533669.999107789364643, 7262340.000000000931323 ], [ 533669.988825823646039, 7262350.0 ], [ 533669.912851801607758, 7262360.0 ], [ 533669.552908320911229, 7262370.0 ], [ 533668.458604360697791, 7262380.0 ], [ 533666.318647109437734, 7262390.0 ], [ 533663.583030515816063, 7262400.0 ], [ 533661.092519538942724, 7262410.0 ], [ 533658.895414073951542, 7262420.0 ], [ 533656.329821285791695, 7262430.0 ], [ 533653.233369000838138, 7262440.0 ], [ 533649.989718034281395, 7262450.0 ], [ 533646.689764766488224, 7262460.0 ], [ 533643.310235233511776, 7262470.0 ], [ 533640.01028196583502, 7262480.0 ], [ 533636.766630999278277, 7262490.0 ], [ 533633.670178714208305, 7262500.0 ], [ 533631.104585926048458, 7262510.0 ], [ 533628.906588250421919, 7262520.0 ], [ 533626.405795307713561, 7262530.0 ], [ 533623.594204692170024, 7262540.0 ], [ 533621.094303960213438, 7262550.0 ], [ 533618.906588250421919, 7262560.0 ], [ 533616.416077273664996, 7262570.0 ], [ 533613.670178714208305, 7262580.0 ], [ 533611.454247441026382, 7262590.0 ], [ 533610.0, 7262600.000000000931323 ], [ 533608.54664476972539, 7262610.0 ], [ 533606.340995462378487, 7262620.0 ], [ 533603.671070924960077, 7262630.0 ], [ 533601.540503428783268, 7262640.0 ], [ 533600.44619946856983, 7262650.0 ], [ 533600.075974022038281, 7262660.0 ], [ 533599.924025978078134, 7262670.0 ], [ 533599.553800531546585, 7262680.0 ], [ 533598.459496571216732, 7262690.0 ], [ 533596.329821285791695, 7262700.0 ], [ 533593.669286503456533, 7262710.0 ], [ 533591.529329252196476, 7262720.0 ], [ 533590.359943480696529, 7262730.0 ], [ 533589.640056519303471, 7262739.999107789248228 ], [ 533588.470670747803524, 7262749.987933613359928 ], [ 533586.330713496543467, 7262759.900785414502025 ], [ 533583.670178714208305, 7262769.453693735413253 ], [ 533581.540503428783268, 7262777.913190307095647 ], [ 533580.447091679205187, 7262784.243011591956019 ] ] } },
{ "type": "Feature", "properties": { "id": 10, "reference_id": 7, "dune_id": 7, "dune_name": "Inverted Y Dune", "acquisition_date": "2020-12-25", "length_m": 589.8198556116289 }, "geometry": { "type": "LineString", "coordinates": [ [ 530195.756988407694735, 7261650.0 ], [ 530202.086809693370014, 7261650.0 ], [ 530210.546306264819577, 7261649.999107790179551 ], [ 530220.099214585614391, 7261649.9888258241117 ], [ 530230.012066387105733, 7261649.912851802073419 ], [ 530240.000892210751772, 7261649.552908321842551 ], [ 530250.0, 7261648.458604361861944 ], [ 530260.0, 7261646.318647109903395 ], [ 530270.0, 7261643.583030516281724 ], [ 530280.0, 7261641.092519538477063 ], [ 530290.0, 7261638.895414074882865 ], [ 530300.0, 7261636.329821285791695 ], [ 530310.0, 7261633.233369001187384 ], [ 530320.0, 7261629.989718034863472 ], [ 530330.0, 7261626.688872555270791 ], [ 530340.0, 7261623.299061057157815 ], [ 530350.0, 7261619.92313376814127 ], [ 530360.0, 7261616.319539319723845 ], [ 530370.0, 7261612.128783075138927 ], [ 530380.0, 7261607.423233035951853 ], [ 530390.0, 7261602.489618767052889 ], [ 530400.0, 7261597.498314846307039 ], [ 530410.0, 7261592.488726556301117 ], [ 530420.0, 7261587.412058860063553 ], [ 530430.000000000116415, 7261582.041634876281023 ], [ 530440.0, 7261575.871555430814624 ], [ 530450.0, 7261568.371456163004041 ], [ 530459.999107789364643, 7261559.541734145022929 ], [ 530469.988825823529623, 7261549.911959590390325 ], [ 530479.911959590855986, 7261539.9888258241117 ], [ 530489.541734144324437, 7261529.999107789248228 ], [ 530498.37234837282449, 7261520.0 ], [ 530505.881837395951152, 7261510.0 ], [ 530512.118501109071076, 7261500.0 ], [ 530517.783176516182721, 7261490.0 ], [ 530523.670178714208305, 7261480.0 ], [ 530530.086255987756886, 7261470.000000000931323 ], [ 530536.776912964996882, 7261460.0 ], [ 530543.671070924843661, 7261450.0 ], [ 530551.104585926048458, 7261440.0 ], [ 530558.907480461057276, 7261430.0 ], [ 530566.416969484183937, 7261420.0 ], [ 530573.681352890678681, 7261410.0 ], [ 530581.54139563953504, 7261400.0 ], [ 530590.447091679205187, 7261390.0 ], [ 530600.087148198392242, 7261380.0 ], [ 530610.01028196583502, 7261370.000892210751772 ], [ 530619.988825823646039, 7261360.012066386640072 ], [ 530629.900785414502025, 7261350.099214585497975 ], [ 530639.453693735296838, 7261340.546306265518069 ], [ 530647.913190306629986, 7261332.086809693835676 ], [ 530654.243011592305265, 7261325.756988408043981 ] ] } },
{ "type": "Feature", "properties": { "id": 11, "reference_id": 9, "dune_id": 9, "dune_name": "Inverted Y Dune", "acquisition_date": "2020-12-25", "length_m": 746.24300654264869 }, "geometry": { "type": "LineString", "coordinates": [ [ 529660.458265855675563, 7262194.243011591956019 ], [ 529661.62765162717551, 7262187.913190307095647 ], [ 529664.118162604048848, 7262179.453693735413253 ], [ 529667.881498891045339, 7262169.900785414502025 ], [ 529672.217715694685467, 7262159.987933613359928 ], [ 529676.340995462262072, 7262149.999107789248228 ], [ 529680.0, 7262140.0 ], [ 529683.6598967484897, 7262130.0 ], [ 529687.793458481901325, 7262120.0 ], [ 529692.206541518098675, 7262110.0 ], [ 529696.340103251626715, 7262100.0 ], [ 529700.0, 7262090.0 ], [ 529703.659896748373285, 7262080.0 ], [ 529707.793458481901325, 7262070.0 ], [ 529712.20654151821509, 7262060.0 ], [ 529716.340103251626715, 7262050.0 ], [ 529720.000892210751772, 7262040.0 ], [ 529723.670178714208305, 7262030.0 ], [ 529727.870324714574963, 7262020.0 ], [ 529732.576766964630224, 7262010.0 ], [ 529737.509489023126662, 7262000.0 ], [ 529742.490510976989754, 7261990.0 ], [ 529747.423233035369776, 7261980.0 ], [ 529752.128783074789681, 7261970.0 ], [ 529756.319539319956675, 7261960.0 ], [ 529759.923133767326362, 7261950.0 ], [ 529763.299061056924984, 7261940.0 ], [ 529766.689764766488224, 7261930.0 ], [ 529770.0, 7261920.0 ], [ 529773.310235233511776, 7261910.0 ], [ 529776.701831153710373, 7261900.0 ], [ 529780.087148198392242, 7261890.0 ], [ 529783.757326912600547, 7261880.0 ], [ 529788.24233458249364, 7261870.0 ], [ 529793.758219123352319, 7261860.0 ], [ 529800.098322374862619, 7261850.0 ], [ 529806.78897935221903, 7261840.000000000931323 ], [ 529813.757326912716962, 7261830.0 ], [ 529821.540503428783268, 7261820.0 ], [ 529830.360835691448301, 7261810.0 ], [ 529839.640056519303471, 7261800.0 ], [ 529848.470670747687109, 7261790.0 ], [ 529856.330713496543467, 7261780.0 ], [ 529863.670178714208305, 7261770.000892210751772 ], [ 529871.540503428666852, 7261760.011174176819623 ], [ 529880.447091679205187, 7261750.087148198857903 ], [ 529890.087148198392242, 7261740.447983890771866 ], [ 529900.011174176470377, 7261731.551677605137229 ], [ 529910.000892210635357, 7261723.757326913066208 ], [ 529920.0, 7261716.777805175632238 ], [ 529930.0, 7261710.0111741758883 ], [ 529940.0, 7261703.310235233977437 ], [ 529950.0, 7261696.690656977705657 ], [ 529960.0, 7261690.0 ], [ 529970.0, 7261683.310235233977437 ], [ 529980.0, 7261676.700938943773508 ], [ 529990.0, 7261670.075974022038281 ], [ 530000.0, 7261663.670178715139627 ], [ 530010.0, 7261657.794350693002343 ], [ 530020.0, 7261652.206541517749429 ], [ 530030.0, 7261646.340103251859546 ], [ 530039.999107789364643, 7261640.000892210751772 ], [ 530049.987933612894267, 7261633.671070924960077 ], [ 530059.900785414502025, 7261627.881498891860247 ], [ 530069.453693735180423, 7261622.664807373657823 ], [ 530077.91319030651357, 7261617.968647089786828 ], [ 530084.243011592421681, 7261614.129336780868471 ] ] } },
{ "type": "Feature", "properties": { "id": 12, "reference_id": 1, "dune_id": 1, "dune_name": "Big Mommy Dune", "acquisition_date": "2020-12-25", "length_m": 1269.6963752850954 }, "geometry": { "type": "LineString", "coordinates": [ [ 529180.0, 7260998.921899050474167 ], [ 529180.0, 7261003.921899050474167 ], [ 529180.0, 7261011.316557979211211 ], [ 529180.0, 7261020.322760425508022 ], [ 529180.0, 7261030.055640487000346 ], [ 529180.0, 7261040.006479299627244 ], [ 529180.0, 7261050.000446105375886 ], [ 529180.0, 7261060.0 ], [ 529179.999107789364643, 7261070.0 ], [ 529179.988825823529623, 7261080.0 ], [ 529179.912851801607758, 7261090.0 ], [ 529179.552016110159457, 7261100.0 ], [ 529178.448322394862771, 7261110.0 ], [ 529176.241780876647681, 7261120.000000000931323 ], [ 529173.211912858532742, 7261130.0 ], [ 529169.912851801607758, 7261140.0 ], [ 529166.328929075156339, 7261150.0 ], [ 529162.205649307463318, 7261160.0 ], [ 529157.793458481901325, 7261170.0 ], [ 529153.6598967484897, 7261180.0 ], [ 529150.0, 7261190.0 ], [ 529146.340103251626715, 7261200.0 ], [ 529142.20654151821509, 7261210.000000000931323 ], [ 529137.79345848178491, 7261220.0 ], [ 529133.659896748373285, 7261230.0 ], [ 529130.0, 7261240.0 ], [ 529126.340103251626715, 7261250.0 ], [ 529122.20654151821509, 7261260.0 ], [ 529117.793458481901325, 7261270.0 ], [ 529113.659896748373285, 7261280.0 ], [ 529110.0, 7261290.0 ], [ 529106.3401032515103, 7261300.0 ], [ 529102.206541518098675, 7261310.000000000931323 ], [ 529097.793458481901325, 7261320.0 ], [ 529093.6598967484897, 7261330.0 ], [ 529090.0, 7261340.0 ], [ 529086.340103251626715, 7261350.0 ], [ 529082.206541518098675, 7261360.0 ], [ 529077.79345848178491, 7261370.0 ], [ 529073.659896748373285, 7261380.0 ], [ 529070.0, 7261390.0 ], [ 529066.340103251626715, 7261400.0 ], [ 529062.206541518098675, 7261410.0 ], [ 529057.794350692536682, 7261420.0 ], [ 529053.670178714208305, 7261430.0 ], [ 529050.075974021921866, 7261440.0 ], [ 529046.700938942958601, 7261450.0 ], [ 529043.311127444147132, 7261460.0 ], [ 529040.01028196583502, 7261470.000000000931323 ], [ 529036.766630999278277, 7261480.0 ], [ 529033.670178714208305, 7261490.0 ], [ 529031.104585926048458, 7261500.0 ], [ 529028.907480461173691, 7261510.0 ], [ 529026.416969484183937, 7261520.0 ], [ 529023.681352890678681, 7261530.0 ], [ 529021.541395639418624, 7261540.0 ], [ 529020.447091679205187, 7261550.0 ], [ 529020.087148198508658, 7261560.000000000931323 ], [ 529020.011174176470377, 7261570.0 ], [ 529020.000892210751772, 7261580.0 ], [ 529020.0, 7261590.0 ], [ 529020.0, 7261600.0 ], [ 529020.0, 7261610.0 ], [ 529020.0, 7261620.0 ], [ 529020.000892210751772, 7261630.0 ], [ 529020.011174176470377, 7261640.0 ], [ 529020.087148198508658, 7261650.0 ], [ 529020.447983889840543, 7261660.0 ], [ 529021.551677605137229, 7261670.0 ], [ 529023.758219123352319, 7261680.0 ], [ 529026.78897935221903, 7261690.0 ], [ 529030.098322374979034, 7261700.0 ], [ 529033.758219123352319, 7261710.0 ], [ 529038.241442371741869, 7261720.0 ], [ 529043.747044946765527, 7261730.000000000931323 ], [ 529050.01028196583502, 7261740.0 ], [ 529056.330713496543467, 7261750.0 ], [ 529062.129675285541452, 7261760.0 ], [ 529067.423233035369776, 7261770.0 ], [ 529072.489618766121566, 7261780.0 ], [ 529077.49831484653987, 7261790.0 ], [ 529082.488726555602625, 7261800.0 ], [ 529087.4120588588994, 7261810.0 ], [ 529092.041634876397438, 7261820.0 ], [ 529095.870663219597191, 7261830.0 ], [ 529098.360281985718757, 7261840.000000000931323 ], [ 529099.453693735413253, 7261850.0 ], [ 529099.452801524661481, 7261860.0 ], [ 529098.350000019883737, 7261870.0 ], [ 529095.793796986807138, 7261880.0 ], [ 529091.670517219230533, 7261890.0 ], [ 529086.231498910929076, 7261900.0 ], [ 529079.911959590855986, 7261910.0 ], [ 529073.298168846289627, 7261920.0 ], [ 529066.68976476660464, 7261930.0 ], [ 529060.0, 7261940.0 ], [ 529053.310235233511776, 7261950.0 ], [ 529046.700938942958601, 7261960.0 ], [ 529040.076866232673638, 7261970.0 ], [ 529033.681352890795097, 7261980.0 ], [ 529027.881498891045339, 7261990.0 ], [ 529022.653633197303861, 7262000.0 ], [ 529017.881498890928924, 7262010.0 ], [ 529013.681352890795097, 7262020.0 ], [ 529010.075974022038281, 7262030.0 ], [ 529006.68976476660464, 7262040.0 ], [ 529003.223087035119534, 7262050.0 ], [ 528999.552908320911229, 7262060.0 ], [ 528995.149261337821372, 7262070.0 ], [ 528989.628882342833094, 7262080.0 ], [ 528983.593312481534667, 7262090.0 ], [ 528977.859150538104586, 7262100.0 ], [ 528972.564700577524491, 7262110.0 ], [ 528967.42234082473442, 7262120.0 ], [ 528962.043419297784567, 7262129.999107789248228 ], [ 528955.88362181733828, 7262139.987933613359928 ], [ 528948.470670747803524, 7262149.900785414502025 ], [ 528940.088040409144014, 7262159.453693735413253 ], [ 528931.998769284342416, 7262167.913190307095647 ], [ 528925.745814231224358, 7262174.243011591956019 ] ] } },
{ "type": "Feature", "properties": { "id": 13, "reference_id": 4, "dune_id": 4, "dune_name": "The Star Dune", "acquisition_date": "2020-12-25", "length_m": 110.68799225360513 }, "geometry": { "type": "LineString", "coordinates": [ [ 533124.243011592305265, 7261889.9888258241117 ], [ 533117.913190306629986, 7261889.912851801142097 ], [ 533109.453693735180423, 7261889.552908320911229 ], [ 533099.900785414502025, 7261888.458604359999299 ], [ 533089.987933612894267, 7261886.318647109903395 ], [ 533079.999107789364643, 7261883.583030516281724 ], [ 533070.0, 7261881.093411749228835 ], [ 533060.000892210751772, 7261878.906588250771165 ], [ 533050.012066387105733, 7261876.416969484649599 ], [ 533040.099214585614391, 7261873.681352891027927 ], [ 533030.546306264819577, 7261871.541395640000701 ], [ 533022.08680969348643, 7261870.447091680020094 ], [ 533015.756988407694735, 7261870.087148198857903 ] ] } }
]
}
