{
"type": "FeatureCollection",
"name": "crests_2020_04_2020-04-26",
"crs": { "type": "name", "properties": { "name": "urn:ogc:def:crs:EPSG::32733" } },
"features": [
{ "type": "Feature", "properties": { "id": 0, "reference_id": 4, "dune_id": 4, "dune_name": "The Star Dune", "acquisition_date": "2020-04-26", "length_m": 648.45530466678247 }, "geometry": { "type": "LineString", "coordinates": [ [ 533624.243011592305265, 7262058.459496572613716 ], [ 533617.91319030651357, 7262056.328929075971246 ], [ 533609.453693735180423, 7262053.659004538320005 ], [ 533599.900785414385609, 7262051.452463019639254 ], [ 533589.987933612894267, 7262049.9888258241117 ], [ 533579.999107789364643, 7262048.458604360930622 ], [ 533570.0, 7262045.882729606702924 ], [ 533560.0, 7262042.042527087032795 ], [ 533550.0, 7262037.41205885913223 ], [ 533540.0, 7262032.488726556301117 ], [ 533530.0, 7262027.499207057058811 ], [ 533520.0, 7262022.500792942941189 ], [ 533510.0, 7262017.510381234809756 ], [ 533500.0, 7262012.576766964048147 ], [ 533490.0, 7262007.871216924861073 ], [ 533480.0, 7262003.680460680276155 ], [ 533470.0, 7262000.076866233721375 ], [ 533460.0, 7261996.700938943773508 ], [ 533450.0, 7261993.310235233977437 ], [ 533440.0, 7261990.0 ], [ 533430.0, 7261986.690656976774335 ], [ 533420.0, 7261983.309343023225665 ], [ 533410.0, 7261980.0 ], [ 533400.000000000116415, 7261976.690656977705657 ], [ 533390.0, 7261973.310235233977437 ], [ 533380.000000000116415, 7261970.010281966067851 ], [ 533370.0, 7261966.766630999743938 ], [ 533360.0, 7261963.670178714208305 ], [ 533350.0, 7261961.10458592697978 ], [ 533340.0, 7261958.906588250771165 ], [ 533330.0, 7261956.405795307829976 ], [ 533320.0, 7261953.594204692170024 ], [ 533310.0, 7261951.093411749228835 ], [ 533300.0, 7261948.895414074882865 ], [ 533290.0, 7261946.329821284860373 ], [ 533280.0, 7261943.233369000256062 ], [ 533270.0, 7261939.989718034863472 ], [ 533260.0, 7261936.689764766022563 ], [ 533250.0, 7261933.310235233977437 ], [ 533240.0, 7261930.010281966067851 ], [ 533230.0, 7261926.766630999743938 ], [ 533220.0, 7261923.670178715139627 ], [ 533210.0, 7261921.103693716228008 ], [ 533200.0, 7261918.896306284703314 ], [ 533190.0, 7261916.329821286723018 ], [ 533180.0, 7261913.234261212870479 ], [ 533170.0, 7261910.0 ], [ 533160.0, 7261906.765738788992167 ], [ 533150.0, 7261903.670178715139627 ], [ 533140.0, 7261901.104585926048458 ], [ 533130.0, 7261898.907480461522937 ], [ 533120.0, 7261896.416077273897827 ], [ 533110.0, 7261893.670178715139627 ], [ 533100.0, 7261891.454247441142797 ], [ 533090.0, 7261890.0 ], [ 533080.0, 7261888.545752558857203 ], [ 533070.0, 7261886.329821285791695 ], [ 533060.0, 7261883.583922726102173 ], [ 533050.000892210751772, 7261881.093411749228835 ], [ 533040.012066387105733, 7261878.906588250771165 ], [ 533030.099214585614391, 7261876.416969484649599 ], [ 533020.546306264819577, 7261873.681352891027927 ], [ 533012.08680969348643, 7261871.541395640000701 ], [ 533005.756988407694735, 7261870.447091680020094 ] ] } },
{ "type": "Feature", "properties": { "id": 1, "reference_id": 1, "dune_id": 1, "dune_name": "Big Mommy Dune", "acquisition_date": "2020-04-26", "length_m": 606.2700306177021 }, "geometry": { "type": "LineString", "coordinates": [ [ 528835.756988407694735, 7262238.361174196004868 ], [ 528842.086809693370014, 7262235.794689197093248 ], [ 528850.546306264819577, 7262231.670517219230533 ], [ 528860.099214585614391, 7262226.231498911045492 ], [ 528870.012066387105733, 7262219.911959591321647 ], [ 528880.000892210751772, 7262213.298168846406043 ], [ 528890.0, 7262206.688872556202114 ], [ 528900.0, 7262199.9888258241117 ], [ 528910.0, 7262193.222194824367762 ], [ 528919.999107789364643, 7262186.242673087865114 ], [ 528929.988825823529623, 7262178.448322394862771 ], [ 528939.911959590972401, 7262169.552016111090779 ], [ 528949.541734144324437, 7262159.912851801142097 ], [ 528958.371456162189133, 7262149.9888258241117 ], [ 528965.871555430116132, 7262139.999107789248228 ], [ 528972.041634876397438, 7262130.0 ], [ 528977.4120588588994, 7262120.0 ], [ 528982.488726555602625, 7262110.0 ], [ 528987.498314846656285, 7262100.0 ], [ 528992.489618766237982, 7262090.0 ], [ 528997.423233035369776, 7262080.0 ], [ 529002.128783074789681, 7262070.0 ], [ 529006.31953932007309, 7262060.0 ], [ 529009.923133767326362, 7262050.0 ], [ 529013.299953267676756, 7262040.0 ], [ 529016.700938943075016, 7262030.0 ], [ 529020.087148198508658, 7262020.0 ], [ 529023.757326912600547, 7262010.0 ], [ 529028.241442371741869, 7262000.0 ], [ 529033.747044946881942, 7261990.0 ], [ 529040.011174176470377, 7261980.0 ], [ 529046.340995462262072, 7261970.0 ], [ 529052.206541518098675, 7261960.0 ], [ 529057.794350692536682, 7261950.0 ], [ 529063.670178714208305, 7261940.0 ], [ 529070.075974022038281, 7261930.0 ], [ 529076.700046732323244, 7261920.0 ], [ 529083.299061057041399, 7261910.0 ], [ 529089.911067380220629, 7261900.0 ], [ 529096.2203247344587, 7261890.0 ], [ 529101.58336902083829, 7261880.0 ], [ 529105.346705307718366, 7261870.0 ], [ 529106.808604380581528, 7261860.0 ], [ 529105.772340844618157, 7261850.0 ], [ 529103.047006216831505, 7261840.000000000931323 ], [ 529099.530559967970476, 7261830.0 ], [ 529095.148369127186015, 7261820.0 ], [ 529089.639164308551699, 7261810.0 ], [ 529083.669286503572948, 7261800.0 ], [ 529078.219986229436472, 7261790.000892210751772 ], [ 529073.670178714208305, 7261780.012066387571394 ], [ 529069.651230695773847, 7261770.099214585497975 ], [ 529065.248475923435763, 7261760.546306264586747 ], [ 529060.088040409144014, 7261752.086809693835676 ], [ 529055.221856319345534, 7261745.756988408043981 ] ] } },
{ "type": "Feature", "properties": { "id": 2, "reference_id": 1, "dune_id": 1, "dune_name": "Big Mommy Dune", "acquisition_date": "2020-04-26", "length_m": 184.00747793195566 }, "geometry": { "type": "LineString", "coordinates": [ [ 529020.0, 7261555.756988408043981 ], [ 529020.0, 7261562.086809693835676 ], [ 529020.0, 7261570.546306264586747 ], [ 529020.0, 7261580.099214585497975 ], [ 529020.0, 7261590.012066387571394 ], [ 529020.0, 7261600.000892210751772 ], [ 529020.0, 7261610.0 ], [ 529020.0, 7261620.0 ], [ 529020.0, 7261630.0 ], [ 529020.000892210751772, 7261640.0 ], [ 529020.011174176470377, 7261650.0 ], [ 529020.088040409144014, 7261660.0 ], [ 529020.458265855675563, 7261670.0 ], [ 529021.628543837927282, 7261680.0 ], [ 529024.128444569883868, 7261689.999107789248228 ], [ 529027.957472912967205, 7261699.987933613359928 ], [ 529032.576766964746639, 7261709.900785414502025 ], [ 529037.423233035369776, 7261719.453693735413253 ], [ 529042.042527087032795, 7261727.913190307095647 ], [ 529045.871555430116132, 7261734.243011591956019 ] ] } },
{ "type": "Feature", "properties": { "id": 3, "reference_id": 1, "dune_id": 1, "dune_name": "Big Mommy Dune", "acquisition_date": "2020-04-26", "length_m": 551.4291686620586 }, "geometry": { "type": "LineString", "coordinates": [ [ 529180.0, 7260998.921899050474167 ], [ 529180.0, 7261003.921899050474167 ], [ 529180.0, 7261011.316557979211211 ], [ 529180.0, 7261020.322760425508022 ], [ 529180.0, 7261030.055640487000346 ], [ 529180.0, 7261040.006479299627244 ], [ 529180.0, 7261050.000446105375886 ], [ 529179.999107789364643, 7261060.0 ], [ 529179.988825823529623, 7261070.0 ], [ 529179.912851801607758, 7261080.0 ], [ 529179.552908320794813, 7261090.0 ], [ 529178.458604360581376, 7261100.0 ], [ 529176.318647109321319, 7261110.0 ], [ 529173.583030515816063, 7261120.000000000931323 ], [ 529171.092519538942724, 7261130.0 ], [ 529168.895414074067958, 7261140.0 ], [ 529166.329821285791695, 7261150.0 ], [ 529163.233369000954553, 7261160.0 ], [ 529159.989718034281395, 7261170.0 ], [ 529156.68976476660464, 7261180.0 ], [ 529153.309343022760004, 7261190.0 ], [ 529150.0, 7261200.0 ], [ 529146.689764766488224, 7261210.000000000931323 ], [ 529143.299061056924984, 7261220.0 ], [ 529139.923133767326362, 7261230.0 ], [ 529136.319539319956675, 7261240.0 ], [ 529132.129675285425037, 7261250.0 ], [ 529127.433515001204796, 7261260.0 ], [ 529122.566484998911619, 7261270.0 ], [ 529117.869432503939606, 7261280.0 ], [ 529113.670178714208305, 7261290.0 ], [ 529110.000892210751772, 7261300.0 ], [ 529106.3401032515103, 7261310.000000000931323 ], [ 529102.206541518098675, 7261320.0 ], [ 529097.793458481901325, 7261330.0 ], [ 529093.6598967484897, 7261340.0 ], [ 529090.0, 7261350.0 ], [ 529086.340103251626715, 7261360.0 ], [ 529082.206541518098675, 7261370.0 ], [ 529077.794350692536682, 7261380.0 ], [ 529073.670178714208305, 7261390.0 ], [ 529070.075974022038281, 7261400.0 ], [ 529066.700046732323244, 7261410.0 ], [ 529063.299953267676756, 7261420.0 ], [ 529059.924025978078134, 7261430.0 ], [ 529056.330713496543467, 7261440.0 ], [ 529052.215931273181923, 7261450.0 ], [ 529047.870324714458548, 7261460.0 ], [ 529044.031014405540191, 7261470.000000000931323 ], [ 529041.180559947970323, 7261479.999107789248228 ], [ 529038.917762426892295, 7261489.987933613359928 ], [ 529036.417861694935709, 7261499.900785414502025 ], [ 529033.681352890795097, 7261509.453693735413253 ], [ 529031.54139563953504, 7261517.913190307095647 ], [ 529030.447091679205187, 7261524.243011592887342 ] ] } },
{ "type": "Feature", "properties": { "id": 4, "reference_id": 3, "dune_id": 3, "dune_name": "Big Mommy Dune", "acquisition_date": "2020-04-26", "length_m": 238.48602318461053 }, "geometry": { "type": "LineString", "coordinates": [ [ 529735.756988407694735, 7260610.0 ], [ 529742.08680969348643, 7260610.0 ], [ 529750.546306264819577, 7260610.0 ], [ 529760.099214585614391, 7260610.0 ], [ 529770.012066387222148, 7260610.0 ], [ 529780.000892210751772, 7260610.0 ], [ 529790.0, 7260610.0 ], [ 529800.0, 7260610.0 ], [ 529810.0, 7260610.0 ], [ 529820.0, 7260610.0 ], [ 529830.0, 7260610.0 ], [ 529840.0, 7260610.0 ], [ 529850.0, 7260610.0 ], [ 529860.0, 7260610.0 ], [ 529870.0, 7260610.0 ], [ 529880.0, 7260610.0 ], [ 529890.0, 7260610.0 ], [ 529900.0, 7260610.0 ], [ 529910.0, 7260610.0 ], [ 529920.0, 7260610.0 ], [ 529929.999107789364643, 7260610.0 ], [ 529939.987933612894267, 7260610.0 ], [ 529949.900785414502025, 7260610.0 ], [ 529959.453693735180423, 7260610.0 ], [ 529967.91319030651357, 7260610.0 ], [ 529974.243011592305265, 7260610.0 ] ] } },
{ "type": "Feature", "properties": { "id": 5, "reference_id": 3, "dune_id": 3, "dune_name": "Big Mommy Dune", "acquisition_date": "2020-04-26", "length_m": 332.72691926011959 }, "geometry": { "type": "LineString", "coordinates": [ [ 529374.243011592305265, 7260695.756988408043981 ], [ 529367.91319030651357, 7260702.086809693835676 ], [ 529359.453693735180423, 7260710.546306265518069 ], [ 529349.900785414502025, 7260720.099214585497975 ], [ 529339.988825823529623, 7260730.012066388502717 ], [ 529330.01028196583502, 7260740.000892210751772 ], [ 529320.087148198508658, 7260750.0 ], [ 529310.447983889956959, 7260760.0 ], [ 529301.551677605253644, 7260770.0 ], [ 529293.757326912600547, 7260780.000000000931323 ], [ 529286.777805175632238, 7260790.0 ], [ 529280.011174176470377, 7260800.0 ], [ 529273.310235233511776, 7260810.0 ], [ 529266.690656977239996, 7260820.0 ], [ 529260.0, 7260830.0 ], [ 529253.309343022876419, 7260840.0 ], [ 529246.690656977239996, 7260850.0 ], [ 529240.0, 7260860.0 ], [ 529233.31023523339536, 7260870.0 ], [ 529226.700938943075016, 7260880.0 ], [ 529220.076866232557222, 7260890.0 ], [ 529213.680460680043325, 7260900.0 ], [ 529207.871216925210319, 7260910.0 ], [ 529202.57765917526558, 7260919.999107789248228 ], [ 529197.521555410232395, 7260929.987933613359928 ], [ 529192.588833351852372, 7260939.900785414502025 ], [ 529187.958365123718977, 7260949.453693735413253 ], [ 529184.128444569883868, 7260957.913190307095647 ], [ 529181.628543837927282, 7260964.243011592887342 ] ] } },
{ "type": "Feature", "properties": { "id": 6, "reference_id": 3, "dune_id": 3, "dune_name": "Big Mommy Dune", "acquisition_date": "2020-04-26", "length_m": 79.443761977511144 }, "geometry": { "type": "LineString", "coordinates": [ [ 530085.756988407694735, 7260599.999107789248228 ], [ 530092.08680969348643, 7260599.9888258241117 ], [ 530100.546306264819577, 7260599.912851802073419 ], [ 530110.099214585614391, 7260599.552908321842551 ], [ 530120.011174176470377, 7260598.459496571682394 ], [ 530129.988825823529623, 7260596.329821285791695 ], [ 530139.900785414502025, 7260593.670178714208305 ], [ 530149.453693735296838, 7260591.540503429248929 ], [ 530157.91319030651357, 7260590.447091680020094 ], [ 530164.243011592305265, 7260590.087148198857903 ] ] } },
{ "type": "Feature", "properties": { "id": 7, "reference_id": 3, "dune_id": 3, "dune_name": "Big Mommy Dune", "acquisition_date": "2020-04-26", "length_m": 141.81245207770343 }, "geometry": { "type": "LineString", "coordinates": [ [ 529614.243011592421681, 7260630.087148198857903 ], [ 529607.91319030651357, 7260630.447091680020094 ], [ 529599.453693735180423, 7260631.540503429248929 ], [ 529589.900785414502025, 7260633.671070925891399 ], [ 529579.987933612894267, 7260636.340995462611318 ], [ 529569.999107789248228, 7260638.546644769608974 ], [ 529560.0, 7260640.0 ], [ 529550.0, 7260641.454247441142797 ], [ 529540.0, 7260643.670178715139627 ], [ 529530.0, 7260646.416077273897827 ], [ 529520.000892210751772, 7260648.906588250771165 ], [ 529510.012066387105733, 7260651.093411749228835 ], [ 529500.099214585614391, 7260653.583030516281724 ], [ 529490.546306264819577, 7260656.318647109903395 ], [ 529482.08680969348643, 7260658.458604361861944 ], [ 529475.756988407694735, 7260659.552908320911229 ] ] } },
{ "type": "Feature", "properties": { "id": 8, "reference_id": 8, "dune_id": 8, "dune_name": "Inverted Y Dune", "acquisition_date": "2020-04-26", "length_m": 404.9980870488975 }, "geometry": { "type": "LineString", "coordinates": [ [ 530244.243011592421681, 7261232.086809693835676 ], [ 530237.91319030651357, 7261235.756988408043981 ], [ 530229.453693735180423, 7261242.086809693835676 ], [ 530219.900785414385609, 7261250.546306264586747 ], [ 530209.987933612894267, 7261260.099214585497975 ], [ 530200.0, 7261270.012066387571394 ], [ 530190.012066387105733, 7261280.000892210751772 ], [ 530180.098322374862619, 7261290.0 ], [ 530170.535132088349201, 7261300.0 ], [ 530161.999661495094188, 7261310.000000000931323 ], [ 530155.309004517970607, 7261320.0 ], [ 530150.535132088349201, 7261330.0 ], [ 530146.78897935221903, 7261340.0 ], [ 530143.321409409982152, 7261350.0 ], [ 530140.000892210751772, 7261360.0 ], [ 530136.690656977239996, 7261370.0 ], [ 530133.310235233511776, 7261380.0 ], [ 530130.01028196583502, 7261390.0 ], [ 530126.766630999278277, 7261400.0 ], [ 530123.670178714208305, 7261410.0 ], [ 530121.104585926048458, 7261420.0 ], [ 530118.907480461173691, 7261430.0 ], [ 530116.416969484300353, 7261440.0 ], [ 530113.681352890678681, 7261450.0 ], [ 530111.540503428666852, 7261460.0 ], [ 530110.43591750273481, 7261470.000000000931323 ], [ 530110.0, 7261480.0 ], [ 530109.564082497381605, 7261490.0 ], [ 530108.460388781968504, 7261500.0 ], [ 530106.329821285791695, 7261510.0 ], [ 530103.670178714208305, 7261520.0 ], [ 530101.540503428783268, 7261530.0 ], [ 530100.446645573829301, 7261539.999553894624114 ], [ 530100.081561110215262, 7261549.993520701304078 ], [ 530099.967600077274255, 7261559.944359513930976 ], [ 530099.777346371090971, 7261569.6772395754233 ], [ 530099.229748285608366, 7261578.683442020788789 ], [ 530098.164910642895848, 7261586.078100949525833 ], [ 530096.835089357104152, 7261591.078100949525833 ] ] } },
{ "type": "Feature", "properties": { "id": 9, "reference_id": 8, "dune_id": 8, "dune_name": "Inverted Y Dune", "acquisition_date": "2020-04-26", "length_m": 50.345141326753328 }, "geometry": { "type": "LineString", "coordinates": [ [ 530554.243903803057037, 7261172.085917483083904 ], [ 530547.925256693619303, 7261175.744922020472586 ], [ 530539.552908320794813, 7261181.987595107406378 ], [ 530530.447091679088771, 7261190.0 ], [ 530522.074743306264281, 7261198.012404892593622 ], [ 530515.756096197059378, 7261204.255077979527414 ] ] } },
{ "type": "Feature", "properties": { "id": 10, "reference_id": 9, "dune_id": 9, "dune_name": "Inverted Y Dune", "acquisition_date": "2020-04-26", "length_m": 181.43322122585877 }, "geometry": { "type": "LineString", "coordinates": [ [ 529671.62765162717551, 7262174.243011591956019 ], [ 529674.118162604048848, 7262167.913190307095647 ], [ 529677.881498891045339, 7262159.453693735413253 ], [ 529682.217715694569051, 7262149.900785414502025 ], [ 529686.340995462262072, 7262139.987933613359928 ], [ 529690.000892210751772, 7262129.999107789248228 ], [ 529693.670178714208305, 7262120.0 ], [ 529697.869432503823191, 7262110.0 ], [ 529702.566484998911619, 7262100.0 ], [ 529707.433515001088381, 7262090.0 ], [ 529712.129675285425037, 7262080.0 ], [ 529716.31953932007309, 7262070.0 ], [ 529719.923133767442778, 7262060.0 ], [ 529723.299061057041399, 7262050.000892210751772 ], [ 529726.688872555852868, 7262040.012066386640072 ], [ 529729.988825823529623, 7262030.099214585497975 ], [ 529733.222194824367762, 7262020.546306265518069 ], [ 529736.242673087399453, 7262012.086809693835676 ], [ 529738.448322394862771, 7262005.756988408043981 ] ] } },
{ "type": "Feature", "properties": { "id": 11, "reference_id": 9, "dune_id": 9, "dune_name": "Inverted Y Dune", "acquisition_date": "2020-04-26", "length_m": 506.97218289860814 }, "geometry": { "type": "LineString", "coordinates": [ [ 530091.078100949525833, 7261598.921006839722395 ], [ 530086.078100949409418, 7261603.910724874585867 ], [ 530078.683442020905204, 7261611.228517569601536 ], [ 530069.677239574841224, 7261619.864494569599628 ], [ 530059.944359513698146, 7261628.427988858893514 ], [ 530049.993520701071247, 7261635.888316694647074 ], [ 530039.999553894624114, 7261642.118947215378284 ], [ 530030.0, 7261647.783176517114043 ], [ 530020.0, 7261653.669286503456533 ], [ 530010.0, 7261660.075974022969604 ], [ 530000.0, 7261666.700938943773508 ], [ 529990.0, 7261673.310235233977437 ], [ 529980.0, 7261680.0 ], [ 529970.0, 7261686.690656976774335 ], [ 529960.0, 7261693.310235233977437 ], [ 529950.0, 7261700.011174177750945 ], [ 529940.0, 7261706.777805175632238 ], [ 529930.0, 7261713.757326913066208 ], [ 529920.0, 7261721.551677605137229 ], [ 529910.0, 7261730.447983890771866 ], [ 529900.0, 7261740.087148198857903 ], [ 529890.0, 7261750.011174176819623 ], [ 529880.0, 7261760.000892210751772 ], [ 529870.000892210751772, 7261770.0 ], [ 529860.011174176470377, 7261780.0 ], [ 529850.087148198392242, 7261790.0 ], [ 529840.447983889840543, 7261800.0 ], [ 529831.551677605137229, 7261810.0 ], [ 529823.758219123352319, 7261820.0 ], [ 529816.78897935221903, 7261830.0 ], [ 529810.098322374979034, 7261840.000000000931323 ], [ 529803.758219123352319, 7261850.0 ], [ 529798.242334582377225, 7261860.0 ], [ 529793.757326912600547, 7261870.0 ], [ 529790.087148198392242, 7261880.0 ], [ 529786.701831153710373, 7261890.0 ], [ 529783.310235233511776, 7261900.0 ], [ 529780.0, 7261910.0 ], [ 529776.690656977239996, 7261919.999107790179551 ], [ 529773.310235233511776, 7261929.987933613359928 ], [ 529770.011174176470377, 7261939.900785414502025 ], [ 529766.777805175632238, 7261949.453693736344576 ], [ 529763.757326912600547, 7261957.913190307095647 ], [ 529761.551677605137229, 7261964.243011592887342 ] ] } },
{ "type": "Feature", "properties": { "id": 12, "reference_id": 2, "dune_id": 2, "dune_name": "Big Mommy Dune", "acquisition_date": "2020-04-26", "length_m": 801.70146864074479 }, "geometry": { "type": "LineString", "coordinates": [ [ 529151.078100949409418, 7260978.448322394862771 ], [ 529146.078100949409418, 7260976.241780877113342 ], [ 529138.683442020905204, 7260973.211912859231234 ], [ 529129.677239574841224, 7260969.911959590390325 ], [ 529119.944359513698146, 7260966.318647108972073 ], [ 529109.993520701071247, 7260962.128783075138927 ], [ 529099.999553894624114, 7260957.423233035951853 ], [ 529090.0, 7260952.490510977804661 ], [ 529080.0, 7260947.510381233878434 ], [ 529070.0, 7260942.58704893104732 ], [ 529060.0, 7260937.947190947830677 ], [ 529050.0, 7260934.041296371258795 ], [ 529040.0, 7260931.181452158838511 ], [ 529030.0, 7260928.916870215907693 ], [ 529020.0, 7260926.406687518581748 ], [ 529010.0, 7260923.594204692170024 ], [ 529000.0, 7260921.094303959980607 ], [ 528990.0, 7260918.905696040019393 ], [ 528980.0, 7260916.405795307829976 ], [ 528970.0, 7260913.594204692170024 ], [ 528960.0, 7260911.094303959980607 ], [ 528950.0, 7260908.906588250771165 ], [ 528940.0, 7260906.416077273897827 ], [ 528930.0, 7260903.670178715139627 ], [ 528920.0, 7260901.454247441142797 ], [ 528910.0, 7260899.999107789248228 ], [ 528900.0, 7260898.535470593720675 ], [ 528890.0, 7260896.253847263753414 ], [ 528880.0, 7260893.223087035119534 ], [ 528870.0, 7260889.9888258241117 ], [ 528860.0, 7260886.689764766022563 ], [ 528850.0, 7260883.309343023225665 ], [ 528840.0, 7260880.0 ], [ 528830.0, 7260876.689764766953886 ], [ 528820.0, 7260873.299061057157815 ], [ 528810.0, 7260869.924025978893042 ], [ 528800.0, 7260866.329821286723018 ], [ 528790.0, 7260862.205649307928979 ], [ 528780.0, 7260857.793458482250571 ], [ 528770.0, 7260853.659896748140454 ], [ 528760.0, 7260850.0 ], [ 528750.0, 7260846.340103251859546 ], [ 528740.0, 7260842.206541518680751 ], [ 528730.0, 7260837.793458482250571 ], [ 528720.0, 7260833.659896748140454 ], [ 528710.0, 7260829.999107789248228 ], [ 528700.0, 7260826.329821285791695 ], [ 528690.0, 7260822.129675285890698 ], [ 528680.0, 7260817.423233035951853 ], [ 528670.0, 7260812.489618767052889 ], [ 528660.0, 7260807.499207057058811 ], [ 528650.0, 7260802.499900732189417 ], [ 528640.0, 7260797.499207057990134 ], [ 528630.0, 7260792.489618767052889 ], [ 528620.0, 7260787.423233035951853 ], [ 528610.0, 7260782.128783075138927 ], [ 528600.0, 7260776.319539319723845 ], [ 528590.0, 7260769.923133767209947 ], [ 528580.0, 7260763.299061057157815 ], [ 528570.0, 7260756.689764766953886 ], [ 528560.0, 7260750.0 ], [ 528550.0, 7260743.309343023225665 ], [ 528540.0, 7260736.689764766953886 ], [ 528530.0, 7260729.989718034863472 ], [ 528520.0, 7260723.233369001187384 ], [ 528510.0, 7260716.329821286723018 ], [ 528500.0, 7260708.896306284703314 ], [ 528490.0, 7260701.103693716228008 ], [ 528480.0, 7260693.670178715139627 ], [ 528470.000892210751772, 7260686.766630999743938 ], [ 528460.012066387105733, 7260680.0111741758883 ], [ 528450.099214585614391, 7260673.322301620617509 ], [ 528440.546306264819577, 7260666.788979352451861 ], [ 528432.08680969348643, 7260660.535132088698447 ], [ 528425.756988407694735, 7260655.309004518203437 ] ] } },
{ "type": "Feature", "properties": { "id": 13, "reference_id": 5, "dune_id": 5, "dune_name": "The Star Dune", "acquisition_date": "2020-04-26", "length_m": 1004.6183786956844 }, "geometry": { "type": "LineString", "coordinates": [ [ 533651.998769284458831, 7262041.078100949525833 ], [ 533655.298722552019171, 7262036.078100949525833 ], [ 533660.458265855675563, 7262028.683442020788789 ], [ 533666.417861694935709, 7262019.677239574491978 ], [ 533672.141741672763601, 7262009.944359513930976 ], [ 533677.434407211840153, 7261999.993520701304078 ], [ 533682.566484998911619, 7261989.999553894624114 ], [ 533687.869432503823191, 7261980.0 ], [ 533693.670178714208305, 7261970.0 ], [ 533700.0, 7261960.0 ], [ 533706.328929075156339, 7261950.0 ], [ 533712.119393319706433, 7261940.0 ], [ 533717.346366802696139, 7261930.0 ], [ 533722.118501109071076, 7261920.0 ], [ 533726.318647109437734, 7261910.0 ], [ 533729.923133767326362, 7261900.0 ], [ 533733.299953267676756, 7261890.0 ], [ 533736.700046732323244, 7261880.0 ], [ 533740.076866232673638, 7261870.0 ], [ 533743.681352890678681, 7261860.0 ], [ 533747.882391101680696, 7261850.0 ], [ 533752.664807373774238, 7261840.000000000931323 ], [ 533757.968647089437582, 7261830.0 ], [ 533764.129336780519225, 7261820.000892210751772 ], [ 533771.628543837810867, 7261810.011174177750945 ], [ 533780.458265855675563, 7261800.088040409609675 ], [ 533790.088040409144014, 7261790.458265855908394 ], [ 533800.011174176470377, 7261781.628543838858604 ], [ 533810.000892210635357, 7261774.128444570116699 ], [ 533820.0, 7261767.958365123718977 ], [ 533830.0, 7261762.587941141799092 ], [ 533840.0, 7261757.510381232947111 ], [ 533850.0, 7261752.490510977804661 ], [ 533860.0, 7261747.424125246703625 ], [ 533870.0, 7261742.139957251027226 ], [ 533880.0, 7261736.406687518581748 ], [ 533890.0, 7261730.371117657981813 ], [ 533900.0, 7261724.851630873046815 ], [ 533910.0, 7261720.457373645156622 ], [ 533920.0, 7261716.853779197670519 ], [ 533930.0, 7261713.681352891027927 ], [ 533940.0, 7261711.105478137731552 ], [ 533950.0, 7261708.906588250771165 ], [ 533960.0, 7261706.405795307829976 ], [ 533970.0, 7261703.594204692170024 ], [ 533980.0, 7261701.094303959980607 ], [ 533990.0, 7261698.906588250771165 ], [ 534000.0, 7261696.416969484649599 ], [ 534010.0, 7261693.681352891027927 ], [ 534020.0, 7261691.540503429248929 ], [ 534030.0, 7261690.435917503200471 ], [ 534040.0, 7261690.0 ], [ 534050.0, 7261689.564082497730851 ], [ 534060.0, 7261688.460388783365488 ], [ 534070.0, 7261686.329821286723018 ], [ 534080.0, 7261683.669286504387856 ], [ 534090.0, 7261681.529329252429307 ], [ 534100.0, 7261680.35994348116219 ], [ 534110.0, 7261679.640056519769132 ], [ 534120.0, 7261678.470670748502016 ], [ 534130.0, 7261676.329821285791695 ], [ 534140.0, 7261673.659004537388682 ], [ 534150.0, 7261671.452463019639254 ], [ 534160.0, 7261669.987933613359928 ], [ 534170.0, 7261668.448322394862771 ], [ 534180.0, 7261665.805863374844193 ], [ 534190.0, 7261661.671409429982305 ], [ 534200.0, 7261656.231498911976814 ], [ 534210.0, 7261649.911959591321647 ], [ 534220.0, 7261643.298168847337365 ], [ 534230.0, 7261636.688872556202114 ], [ 534240.0, 7261629.9888258241117 ], [ 534250.0, 7261623.222194824367762 ], [ 534260.0, 7261616.242673087865114 ], [ 534269.999107789248228, 7261608.448322394862771 ], [ 534279.987933612894267, 7261599.552016111090779 ], [ 534289.901677625020966, 7261589.912851802073419 ], [ 534299.464867911767215, 7261579.9888258241117 ], [ 534308.000338505022228, 7261569.999107789248228 ], [ 534314.690103271510452, 7261560.000000000931323 ], [ 534319.453693735296838, 7261550.0 ], [ 534323.122980238753371, 7261540.0 ], [ 534326.219432523823343, 7261530.0 ], [ 534328.360281985718757, 7261520.0 ], [ 534329.10492443095427, 7261510.0 ], [ 534328.37234837282449, 7261500.0 ], [ 534326.318647109321319, 7261490.0 ], [ 534323.669286503572948, 7261480.000892210751772 ], [ 534321.540503428666852, 7261470.012066387571394 ], [ 534320.447091679205187, 7261460.099214585497975 ], [ 534320.087148198392242, 7261450.546306265518069 ], [ 534320.011174176470377, 7261442.086809692904353 ], [ 534320.000892210751772, 7261435.756988408043981 ] ] } },
{ "type": "Feature", "properties": { "id": 14, "reference_id": 5, "dune_id": 5, "dune_name": "The Star Dune", "acquisition_date": "2020-04-26", "length_m": 93.921430491742086 }, "geometry": { "type": "LineString", "coordinates": [ [ 534334.778143680654466, 7261305.756988408043981 ], [ 534329.912851801607758, 7261312.086809693835676 ], [ 534324.763590463786386, 7261320.546306264586747 ], [ 534320.447091679205187, 7261330.099214585497975 ], [ 534316.864061163389124, 7261340.012066386640072 ], [ 534313.768501089187339, 7261350.0 ], [ 534311.552569815889001, 7261359.987933613359928 ], [ 534310.447983889840543, 7261369.900785414502025 ], [ 534310.087148198392242, 7261379.453693735413253 ], [ 534310.011174176470377, 7261387.913190307095647 ], [ 534310.000892210751772, 7261394.243011592887342 ] ] } },
{ "type": "Feature", "properties": { "id": 15, "reference_id": 7, "dune_id": 7, "dune_name": "Inverted Y Dune", "acquisition_date": "2020-04-26", "length_m": 553.03099594919581 }, "geometry": { "type": "LineString", "coordinates": [ [ 530132.08680969348643, 7261635.210682142525911 ], [ 530135.756988407694735, 7261640.0 ], [ 530142.08680969348643, 7261644.789317857474089 ], [ 530150.546306264819577, 7261648.012404892593622 ], [ 530160.099214585614391, 7261649.465760122984648 ], [ 530170.012066387222148, 7261649.901677625253797 ], [ 530180.000892210751772, 7261649.987933613359928 ], [ 530190.0, 7261649.999107790179551 ], [ 530200.0, 7261650.0 ], [ 530210.0, 7261650.0 ], [ 530220.0, 7261649.999107790179551 ], [ 530230.0, 7261649.9888258241117 ], [ 530240.0, 7261649.912851802073419 ], [ 530250.0, 7261649.552908321842551 ], [ 530260.0, 7261648.458604361861944 ], [ 530270.0, 7261646.318647109903395 ], [ 530280.0, 7261643.583030516281724 ], [ 530290.0, 7261641.092519538477063 ], [ 530300.0, 7261638.895414074882865 ], [ 530310.0, 7261636.328929075971246 ], [ 530320.0, 7261633.223087035119534 ], [ 530330.0, 7261629.913744011893868 ], [ 530340.0, 7261626.328929075039923 ], [ 530350.0, 7261622.205649307928979 ], [ 530360.0, 7261617.793458482250571 ], [ 530370.0, 7261613.659896748140454 ], [ 530380.0, 7261609.999107789248228 ], [ 530390.0, 7261606.328929075039923 ], [ 530400.0, 7261602.118501110002398 ], [ 530410.0, 7261597.335192626342177 ], [ 530420.0, 7261592.031352911144495 ], [ 530430.000000000116415, 7261585.870663220062852 ], [ 530440.0, 7261578.371456162072718 ], [ 530450.0, 7261569.541734145022929 ], [ 530460.0, 7261559.911959591321647 ], [ 530469.999107789364643, 7261549.9888258241117 ], [ 530479.988825823529623, 7261539.999107789248228 ], [ 530489.912851801607758, 7261530.0 ], [ 530499.552016110159457, 7261520.0 ], [ 530508.448322394862771, 7261510.0 ], [ 530516.242673087399453, 7261500.0 ], [ 530523.222194824367762, 7261490.0 ], [ 530529.988825823529623, 7261480.0 ], [ 530536.689764766488224, 7261470.000000000931323 ], [ 530543.31023523339536, 7261460.0 ], [ 530550.01028196583502, 7261450.000892210751772 ], [ 530556.765738788526505, 7261440.012066387571394 ], [ 530563.658112327102572, 7261430.099214585497975 ], [ 530571.005371340434067, 7261420.546306264586747 ], [ 530578.361174196470529, 7261412.086809693835676 ], [ 530584.330159790813923, 7261405.756988408043981 ] ] } },
{ "type": "Feature", "properties": { "id": 16, "reference_id": 6, "dune_id": 6, "dune_name": "The Star Dune", "acquisition_date": "2020-04-26", "length_m": 893.13862632901396 }, "geometry": { "type": "LineString", "coordinates": [ [ 533550.0, 7262924.243011591956019 ], [ 533550.000892210751772, 7262917.913190307095647 ], [ 533550.011174176470377, 7262909.453693736344576 ], [ 533550.087148198392242, 7262899.900785414502025 ], [ 533550.447983889840543, 7262889.987933613359928 ], [ 533551.551677605253644, 7262879.999107789248228 ], [ 533553.757326912600547, 7262870.000000000931323 ], [ 533556.777805175632238, 7262860.0 ], [ 533560.011174176470377, 7262850.0 ], [ 533563.310235233511776, 7262840.0 ], [ 533566.690656977239996, 7262830.0 ], [ 533570.0, 7262820.0 ], [ 533573.309343022876419, 7262810.0 ], [ 533576.68976476660464, 7262800.0 ], [ 533579.988825823529623, 7262790.0 ], [ 533583.222194824367762, 7262780.0 ], [ 533586.24356529803481, 7262770.0 ], [ 533588.459496571216732, 7262760.0 ], [ 533589.639164308551699, 7262750.0 ], [ 533590.359943480696529, 7262740.0 ], [ 533591.529329252196476, 7262730.0 ], [ 533593.669286503456533, 7262720.0 ], [ 533596.329821285791695, 7262710.0 ], [ 533598.459496571216732, 7262700.0 ], [ 533599.552908320794813, 7262690.0 ], [ 533599.913744012243114, 7262680.0 ], [ 533600.0, 7262670.0 ], [ 533600.086255987756886, 7262660.0 ], [ 533600.447091679205187, 7262650.0 ], [ 533601.540503428783268, 7262640.0 ], [ 533603.670178714208305, 7262630.0 ], [ 533606.330713496543467, 7262620.0 ], [ 533608.470670747803524, 7262610.0 ], [ 533609.640056519303471, 7262600.000000000931323 ], [ 533610.359943480696529, 7262590.0 ], [ 533611.530221462948248, 7262580.0 ], [ 533613.680460680043325, 7262570.0 ], [ 533616.416969484183937, 7262560.0 ], [ 533618.907480461173691, 7262550.0 ], [ 533621.104585925932042, 7262540.0 ], [ 533623.670178714208305, 7262530.0 ], [ 533626.766630999161862, 7262520.0 ], [ 533630.01028196583502, 7262510.0 ], [ 533633.310235233511776, 7262500.0 ], [ 533636.690656977239996, 7262490.0 ], [ 533640.000000000116415, 7262480.0 ], [ 533643.309343022760004, 7262470.0 ], [ 533646.689764766488224, 7262460.0 ], [ 533649.989718034281395, 7262450.0 ], [ 533653.233369000838138, 7262440.0 ], [ 533656.329821285791695, 7262430.0 ], [ 533658.895414073951542, 7262420.0 ], [ 533661.092519538942724, 7262410.0 ], [ 533663.583030515816063, 7262400.0 ], [ 533666.318647109437734, 7262390.0 ], [ 533668.458604360697791, 7262380.0 ], [ 533669.552908320911229, 7262370.0 ], [ 533669.912851801607758, 7262360.0 ], [ 533669.988825823646039, 7262350.0 ], [ 533669.999107789364643, 7262340.000000000931323 ], [ 533670.0, 7262330.0 ], [ 533670.0, 7262320.0 ], [ 533669.999107789364643, 7262310.0 ], [ 533669.988825823646039, 7262300.0 ], [ 533669.912851801607758, 7262290.0 ], [ 533669.552908320911229, 7262280.0 ], [ 533668.459496571333148, 7262270.0 ], [ 533666.329821285791695, 7262260.0 ], [ 533663.670178714208305, 7262250.0 ], [ 533661.539611218031496, 7262240.0 ], [ 533660.43591750273481, 7262230.0 ], [ 533660.0, 7262220.0 ], [ 533659.56408249726519, 7262210.0 ], [ 533658.460388781968504, 7262200.0 ], [ 533656.329821285791695, 7262190.0 ], [ 533653.670178714208305, 7262180.0 ], [ 533651.540503428783268, 7262170.0 ], [ 533650.447091679205187, 7262160.0 ], [ 533650.087148198508658, 7262150.0 ], [ 533650.011174176470377, 7262140.0 ], [ 533650.000892210751772, 7262130.0 ], [ 533650.0, 7262120.0 ], [ 533650.0, 7262110.0 ], [ 533650.0, 7262100.000446105375886 ], [ 533650.0, 7262090.006479298695922 ], [ 533650.0, 7262080.055640487000346 ], [ 533650.0, 7262070.322760425508022 ], [ 533650.0, 7262061.316557979211211 ], [ 533650.0, 7262053.921899050474167 ], [ 533650.0, 7262048.921899050474167 ] ] } }
]
}
