{
"type": "FeatureCollection",
"name": "crests_2025_05_2025-05-10",
"crs": { "type": "name", "properties": { "name": "urn:ogc:def:crs:EPSG::32733" } },
"features": [
{ "type": "Feature", "properties": { "id": 0, "reference_id": 8, "dune_id": 8, "dune_name": "Inverted Y Dune", "acquisition_date": "2025-05-10", "length_m": 731.30109633076677 }, "geometry": { "type": "LineString", "coordinates": [ [ 530554.243011592305265, 7261174.129336780868471 ], [ 530547.91319030651357, 7261177.968647089786828 ], [ 530539.453693735296838, 7261182.663915162906051 ], [ 530529.900785414385609, 7261187.870324714109302 ], [ 530519.987933612894267, 7261193.583030515350401 ], [ 530509.999107789248228, 7261199.541734144091606 ], [ 530500.0, 7261204.701277447864413 ], [ 530490.0, 7261208.001230716705322 ], [ 530480.0, 7261209.464867912232876 ], [ 530470.0, 7261209.901677625253797 ], [ 530460.0, 7261209.987041402608156 ], [ 530450.0, 7261209.987933613359928 ], [ 530440.0, 7261209.912851802073419 ], [ 530430.000000000116415, 7261209.552908320911229 ], [ 530420.0, 7261208.459496571682394 ], [ 530410.0, 7261206.329821285791695 ], [ 530400.0, 7261203.670178713276982 ], [ 530390.0, 7261201.540503428317606 ], [ 530380.0, 7261200.447091678157449 ], [ 530370.0, 7261200.088040409609675 ], [ 530360.0, 7261200.022348353639245 ], [ 530350.0, 7261200.088040409609675 ], [ 530340.0, 7261200.447091678157449 ], [ 530330.0, 7261201.541395639069378 ], [ 530320.0, 7261203.681352891027927 ], [ 530310.0, 7261206.417861694470048 ], [ 530300.0, 7261208.917762426659465 ], [ 530290.0, 7261211.181452158838511 ], [ 530280.0, 7261214.041296372190118 ], [ 530270.0, 7261217.947190947830677 ], [ 530260.0, 7261222.587941141799092 ], [ 530250.0, 7261227.522447621449828 ], [ 530240.0, 7261232.588833352550864 ], [ 530230.0, 7261237.958365123718977 ], [ 530220.000892210635357, 7261244.128444569185376 ], [ 530210.011174176470377, 7261251.628543837927282 ], [ 530200.088040409144014, 7261260.458265855908394 ], [ 530190.458265855675563, 7261270.088040409609675 ], [ 530181.628543837810867, 7261280.0111741758883 ], [ 530174.128444569883868, 7261290.000892210751772 ], [ 530167.958365123602562, 7261300.0 ], [ 530162.588833351852372, 7261310.000000000931323 ], [ 530157.521555410232395, 7261320.0 ], [ 530152.577659175381996, 7261330.0 ], [ 530147.871216925326735, 7261340.0 ], [ 530143.681352890678681, 7261350.0 ], [ 530140.088040409144014, 7261360.0 ], [ 530136.787194930715486, 7261370.0 ], [ 530133.747044946881942, 7261380.0 ], [ 530131.464529406744987, 7261390.0 ], [ 530130.000892210751772, 7261400.0 ], [ 530128.54664476972539, 7261410.0 ], [ 530126.340103251626715, 7261420.0 ], [ 530123.659896748373285, 7261430.0 ], [ 530121.45335523027461, 7261440.0 ], [ 530120.0, 7261450.0 ], [ 530118.54664476972539, 7261460.0 ], [ 530116.340995462262072, 7261470.000000000931323 ], [ 530113.671070924960077, 7261480.0 ], [ 530111.540503428666852, 7261490.0 ], [ 530110.447091679205187, 7261500.0 ], [ 530110.086255987756886, 7261510.0 ], [ 530110.0, 7261520.0 ], [ 530109.913744012243114, 7261530.0 ], [ 530109.552908320911229, 7261539.999553894624114 ], [ 530108.459496571333148, 7261549.993520701304078 ], [ 530106.329821285791695, 7261559.944359513930976 ], [ 530103.670178714208305, 7261569.6772395754233 ], [ 530101.540503428783268, 7261578.683442020788789 ], [ 530100.447091679205187, 7261586.078100949525833 ], [ 530100.087148198508658, 7261591.078100949525833 ] ] } },
{ "type": "Feature", "properties": { "id": 1, "reference_id": 9, "dune_id": 9, "dune_name": "Inverted Y Dune", "acquisition_date": "2025-05-10", "length_m": 764.6394569431892 }, "geometry": { "type": "LineString", "coordinates": [ [ 530097.91319030651357, 7261598.833858641795814 ], [ 530094.243011592421681, 7261603.463633195497096 ], [ 530087.913190306629986, 7261609.688906352967024 ], [ 530079.453693735180423, 7261616.204597821459174 ], [ 530069.900785414502025, 7261622.174141596071422 ], [ 530059.987933612894267, 7261627.788763605058193 ], [ 530049.999107789364643, 7261633.659450643695891 ], [ 530040.0, 7261640.0 ], [ 530030.0, 7261646.340103251859546 ], [ 530020.0, 7261652.206541517749429 ], [ 530010.0, 7261657.794350693002343 ], [ 530000.0, 7261663.670178715139627 ], [ 529990.0, 7261670.075974022038281 ], [ 529980.0, 7261676.700938943773508 ], [ 529970.0, 7261683.311127444729209 ], [ 529960.0, 7261690.011174176819623 ], [ 529950.0, 7261696.777805175632238 ], [ 529940.0, 7261703.757326913066208 ], [ 529930.0, 7261711.551677605137229 ], [ 529920.0, 7261720.447983889840543 ], [ 529910.0, 7261730.087148198857903 ], [ 529900.0, 7261740.011174176819623 ], [ 529890.0, 7261750.000892210751772 ], [ 529880.0, 7261760.0 ], [ 529870.0, 7261770.0 ], [ 529860.000892210751772, 7261780.0 ], [ 529850.011174176470377, 7261790.0 ], [ 529840.088040409144014, 7261800.0 ], [ 529830.458265855675563, 7261810.0 ], [ 529821.628543837927282, 7261820.0 ], [ 529814.129336780519225, 7261830.0 ], [ 529807.968647089437582, 7261840.000000000931323 ], [ 529802.664807373774238, 7261850.0 ], [ 529797.881498891045339, 7261860.0 ], [ 529793.671070924843661, 7261870.0 ], [ 529790.000892210751772, 7261880.0 ], [ 529786.340103251626715, 7261890.0 ], [ 529782.206541518098675, 7261900.0 ], [ 529777.794350692536682, 7261910.0 ], [ 529773.670178714208305, 7261920.0 ], [ 529770.075974022038281, 7261930.0 ], [ 529766.700046732323244, 7261940.0 ], [ 529763.299953267676756, 7261950.0 ], [ 529759.923133767326362, 7261960.0 ], [ 529756.319539319956675, 7261970.0 ], [ 529752.128783074789681, 7261980.0 ], [ 529747.423233035369776, 7261990.0 ], [ 529742.490510976989754, 7262000.0 ], [ 529737.509489023126662, 7262010.0 ], [ 529732.576766964630224, 7262020.0 ], [ 529727.871216925210319, 7262030.0 ], [ 529723.680460680043325, 7262040.0 ], [ 529720.075974022038281, 7262050.0 ], [ 529716.689764766488224, 7262060.0 ], [ 529713.223087035003118, 7262070.0 ], [ 529709.552908320911229, 7262080.0 ], [ 529705.150153548456728, 7262090.0 ], [ 529699.640056519303471, 7262100.0 ], [ 529693.680460680043325, 7262110.0 ], [ 529688.30713442794513, 7262120.0 ], [ 529684.116378182778135, 7262130.0 ], [ 529681.180559948086739, 7262140.0 ], [ 529678.831506439251825, 7262149.999107789248228 ], [ 529675.970770015846938, 7262159.987933613359928 ], [ 529672.140849462011829, 7262169.900785414502025 ], [ 529667.871216925210319, 7262179.453693735413253 ], [ 529664.117270393413492, 7262187.913190307095647 ], [ 529661.62765162717551, 7262194.243011591956019 ] ] } },
{ "type": "Feature", "properties": { "id": 2, "reference_id": 6, "dune_id": 6, "dune_name": "The Star Dune", "acquisition_date": "2025-05-10", "length_m": 895.56418697376432 }, "geometry": { "type": "LineString", "coordinates": [ [ 533550.0, 7262924.243011591956019 ], [ 533550.000892210751772, 7262917.913190307095647 ], [ 533550.011174176470377, 7262909.453693736344576 ], [ 533550.087148198392242, 7262899.900785414502025 ], [ 533550.447983889840543, 7262889.987933613359928 ], [ 533551.551677605253644, 7262879.999107789248228 ], [ 533553.757326912600547, 7262870.000000000931323 ], [ 533556.777805175632238, 7262860.0 ], [ 533560.011174176470377, 7262850.0 ], [ 533563.311127444147132, 7262840.0 ], [ 533566.700938943075016, 7262830.0 ], [ 533570.075974022038281, 7262820.0 ], [ 533573.669286503572948, 7262810.0 ], [ 533577.784068726818077, 7262800.0 ], [ 533582.129675285541452, 7262790.0 ], [ 533585.968985594459809, 7262780.0 ], [ 533588.819440052029677, 7262770.0 ], [ 533591.082237573107705, 7262760.0 ], [ 533593.582138305064291, 7262750.0 ], [ 533596.318647109321319, 7262740.0 ], [ 533598.458604360581376, 7262730.0 ], [ 533599.553800531546585, 7262720.0 ], [ 533599.924025978078134, 7262710.0 ], [ 533600.075974022038281, 7262700.0 ], [ 533600.44619946856983, 7262690.0 ], [ 533601.540503428783268, 7262680.0 ], [ 533603.670178714208305, 7262670.0 ], [ 533606.329821285791695, 7262660.0 ], [ 533608.460388781968504, 7262650.0 ], [ 533609.56408249726519, 7262640.0 ], [ 533610.0, 7262630.0 ], [ 533610.43591750273481, 7262620.0 ], [ 533611.540503428783268, 7262610.0 ], [ 533613.681352890795097, 7262600.000000000931323 ], [ 533616.416969484183937, 7262590.0 ], [ 533618.906588250421919, 7262580.0 ], [ 533621.094303960213438, 7262570.0 ], [ 533623.594204692170024, 7262560.0 ], [ 533626.405795307713561, 7262550.0 ], [ 533628.905696039786562, 7262540.0 ], [ 533631.094303960213438, 7262530.0 ], [ 533633.594204692286439, 7262520.0 ], [ 533636.405795307829976, 7262510.0 ], [ 533638.906588250538334, 7262500.0 ], [ 533641.104585926048458, 7262490.0 ], [ 533643.670178714208305, 7262480.0 ], [ 533646.765738788526505, 7262470.0 ], [ 533650.0, 7262460.0 ], [ 533653.234261211473495, 7262450.0 ], [ 533656.329821285791695, 7262440.0 ], [ 533658.895414073951542, 7262430.0 ], [ 533661.093411749578081, 7262420.0 ], [ 533663.594204692286439, 7262410.0 ], [ 533666.405795307829976, 7262400.0 ], [ 533668.905696039786562, 7262390.0 ], [ 533671.093411749578081, 7262380.0 ], [ 533673.583030515816063, 7262370.0 ], [ 533676.318647109437734, 7262360.0 ], [ 533678.458604360697791, 7262350.0 ], [ 533679.552016110159457, 7262340.000000000931323 ], [ 533679.901677625137381, 7262330.0 ], [ 533679.901677625137381, 7262320.0 ], [ 533679.552016110159457, 7262310.0 ], [ 533678.459496571333148, 7262300.0 ], [ 533676.329821285791695, 7262290.0 ], [ 533673.669286503456533, 7262280.0 ], [ 533671.529329252196476, 7262270.0 ], [ 533670.359943480696529, 7262260.0 ], [ 533669.640056519303471, 7262250.0 ], [ 533668.470670747803524, 7262240.0 ], [ 533666.330713496543467, 7262230.0 ], [ 533663.670178714208305, 7262220.0 ], [ 533661.540503428783268, 7262210.0 ], [ 533660.447091679088771, 7262200.0 ], [ 533660.087148198392242, 7262190.0 ], [ 533660.011174176470377, 7262180.0 ], [ 533660.000892210751772, 7262170.0 ], [ 533660.0, 7262160.0 ], [ 533660.0, 7262150.0 ], [ 533660.0, 7262140.0 ], [ 533660.0, 7262130.0 ], [ 533659.999107789248228, 7262120.0 ], [ 533659.988825823529623, 7262110.0 ], [ 533659.912851801607758, 7262100.000446105375886 ], [ 533659.552908320911229, 7262090.006479298695922 ], [ 533658.459496571216732, 7262080.055640487000346 ], [ 533656.329821285791695, 7262070.322760425508022 ], [ 533653.670178714208305, 7262061.316557979211211 ], [ 533651.540503428783268, 7262053.921899050474167 ], [ 533650.447091679205187, 7262048.921899050474167 ] ] } },
{ "type": "Feature", "properties": { "id": 3, "reference_id": 5, "dune_id": 5, "dune_name": "The Star Dune", "acquisition_date": "2025-05-10", "length_m": 1141.7113586458361 }, "geometry": { "type": "LineString", "coordinates": [ [ 533651.638825803645886, 7262041.078100949525833 ], [ 533654.20531080244109, 7262036.078100949525833 ], [ 533658.329482780769467, 7262028.683442020788789 ], [ 533663.768501089187339, 7262019.677239574491978 ], [ 533670.088040409144014, 7262009.944359513930976 ], [ 533676.700938943075016, 7261999.993520701304078 ], [ 533683.299953267676756, 7261989.999553894624114 ], [ 533689.923133767326362, 7261980.0 ], [ 533696.31953932007309, 7261970.0 ], [ 533702.128783074789681, 7261960.0 ], [ 533707.423233035369776, 7261950.0 ], [ 533712.489618766237982, 7261940.0 ], [ 533717.49831484653987, 7261930.0 ], [ 533722.489618766237982, 7261920.0 ], [ 533727.423233035253361, 7261910.0 ], [ 533732.128783074906096, 7261900.0 ], [ 533736.318647109437734, 7261890.0 ], [ 533739.912851801607758, 7261880.0 ], [ 533743.22397924575489, 7261870.0 ], [ 533746.340103251626715, 7261860.0 ], [ 533748.983454483095556, 7261850.0 ], [ 533751.551677605253644, 7261840.000000000931323 ], [ 533755.222748530097306, 7261830.0 ], [ 533760.535132088349201, 7261820.000892210751772 ], [ 533766.875235339859501, 7261810.011174177750945 ], [ 533773.76939329970628, 7261800.088040409609675 ], [ 533781.552569815889001, 7261790.458265855908394 ], [ 533790.447983889840543, 7261781.628543838858604 ], [ 533800.087148198392242, 7261774.128444570116699 ], [ 533810.011174176470377, 7261767.958365123718977 ], [ 533820.000892210635357, 7261762.587941141799092 ], [ 533830.0, 7261757.511273443698883 ], [ 533840.0, 7261752.500792942941189 ], [ 533850.0, 7261747.500099267810583 ], [ 533860.0, 7261742.499900732189417 ], [ 533870.0, 7261737.500099267810583 ], [ 533880.0, 7261732.500792942941189 ], [ 533890.0, 7261727.510381233878434 ], [ 533900.0, 7261722.576766964048147 ], [ 533910.0, 7261717.871216924861073 ], [ 533920.0, 7261713.680460680276155 ], [ 533930.0, 7261710.076866233721375 ], [ 533940.0, 7261706.700938943773508 ], [ 533950.0, 7261703.311127444729209 ], [ 533960.0, 7261700.011174177750945 ], [ 533970.0, 7261696.777805175632238 ], [ 533980.0, 7261693.756434702314436 ], [ 533990.0, 7261691.540503429248929 ], [ 534000.0, 7261690.360835691913962 ], [ 534010.0, 7261689.64005651883781 ], [ 534020.0, 7261688.470670748502016 ], [ 534030.0, 7261686.33071349747479 ], [ 534040.0, 7261683.670178715139627 ], [ 534050.0, 7261681.539611218497157 ], [ 534060.0, 7261680.435917503200471 ], [ 534070.0, 7261680.0 ], [ 534080.0, 7261679.564082497730851 ], [ 534090.0, 7261678.460388781502843 ], [ 534100.0, 7261676.329821285791695 ], [ 534110.0, 7261673.669286503456533 ], [ 534120.0, 7261671.529329252429307 ], [ 534130.0, 7261670.35994348116219 ], [ 534140.0, 7261669.63916430901736 ], [ 534150.0, 7261668.459496571682394 ], [ 534160.0, 7261666.242673087865114 ], [ 534170.0, 7261663.211020648479462 ], [ 534180.0, 7261659.901677625253797 ], [ 534190.0, 7261656.241780877113342 ], [ 534200.0, 7261651.757665418088436 ], [ 534210.0, 7261646.241780877113342 ], [ 534220.0, 7261639.902569836005569 ], [ 534230.0, 7261633.222194824367762 ], [ 534240.0, 7261626.328929075039923 ], [ 534250.0, 7261618.895414074882865 ], [ 534260.0, 7261611.092519539408386 ], [ 534269.999107789248228, 7261603.583030516281724 ], [ 534279.988825823529623, 7261596.318647108972073 ], [ 534289.911959590855986, 7261588.458604360930622 ], [ 534299.54084193368908, 7261579.552908320911229 ], [ 534308.360281985718757, 7261569.912851802073419 ], [ 534315.783515021088533, 7261559.9888258241117 ], [ 534321.583369020721875, 7261549.999107789248228 ], [ 534325.783515021088533, 7261540.0 ], [ 534328.360281985718757, 7261530.0 ], [ 534329.54084193368908, 7261520.0 ], [ 534329.911959590855986, 7261510.0 ], [ 534329.988825823529623, 7261500.0 ], [ 534329.999107789364643, 7261490.0 ], [ 534330.0, 7261480.0 ], [ 534329.999107789364643, 7261470.000000000931323 ], [ 534329.988825823529623, 7261460.0 ], [ 534329.912851801607758, 7261450.0 ], [ 534329.552908320794813, 7261440.0 ], [ 534328.459496571333148, 7261430.0 ], [ 534326.329821285791695, 7261420.0 ], [ 534323.670178714208305, 7261410.0 ], [ 534321.540503428666852, 7261400.0 ], [ 534320.447091679205187, 7261390.0 ], [ 534320.087148198392242, 7261380.0 ], [ 534320.012066387105733, 7261370.0 ], [ 534320.012958597857505, 7261360.0 ], [ 534320.098322374862619, 7261350.000892210751772 ], [ 534320.534239877597429, 7261340.012066386640072 ], [ 534321.987595107872039, 7261330.099214585497975 ], [ 534325.210682142991573, 7261320.546306264586747 ], [ 534330.0, 7261312.086809693835676 ], [ 534334.789317857124843, 7261305.756988408043981 ] ] } },
{ "type": "Feature", "properties": { "id": 4, "reference_id": 7, "dune_id": 7, "dune_name": "Inverted Y Dune", "acquisition_date": "2025-05-10", "length_m": 641.33315351414444 }, "geometry": { "type": "LineString", "coordinates": [ [ 530654.243011592305265, 7261325.756988408043981 ], [ 530647.913190306629986, 7261332.086809693835676 ], [ 530639.453693735296838, 7261340.546306265518069 ], [ 530629.901677625137381, 7261350.099214585497975 ], [ 530619.999107789364643, 7261360.012066386640072 ], [ 530610.086255987756886, 7261370.000892210751772 ], [ 530600.447983889840543, 7261380.0 ], [ 530591.551677605137229, 7261390.0 ], [ 530583.757326912600547, 7261400.0 ], [ 530576.777805175632238, 7261410.0 ], [ 530570.011174176470377, 7261420.0 ], [ 530563.310235233511776, 7261430.0 ], [ 530556.690656977239996, 7261440.0 ], [ 530550.0, 7261450.0 ], [ 530543.309343022760004, 7261460.0 ], [ 530536.689764766488224, 7261470.000000000931323 ], [ 530529.988825823529623, 7261480.0 ], [ 530523.222194824367762, 7261490.0 ], [ 530516.242673087399453, 7261500.0 ], [ 530508.448322394862771, 7261510.0 ], [ 530499.552016110159457, 7261519.999107789248228 ], [ 530489.912851801607758, 7261529.9888258241117 ], [ 530479.988825823529623, 7261539.912851801142097 ], [ 530469.999107789364643, 7261549.552016110159457 ], [ 530460.0, 7261558.448322394862771 ], [ 530450.0, 7261566.242673087865114 ], [ 530440.0, 7261573.222194824367762 ], [ 530430.000000000116415, 7261579.987933613359928 ], [ 530420.0, 7261586.678590590134263 ], [ 530410.0, 7261593.222194824367762 ], [ 530400.0, 7261599.552016111090779 ], [ 530390.0, 7261605.138979372568429 ], [ 530380.0, 7261609.552016110159457 ], [ 530370.0, 7261613.222194824367762 ], [ 530360.0, 7261616.679482800886035 ], [ 530350.0, 7261619.999107789248228 ], [ 530340.0, 7261623.309343023225665 ], [ 530330.0, 7261626.689764766022563 ], [ 530320.0, 7261629.989718034863472 ], [ 530310.0, 7261633.233369001187384 ], [ 530300.0, 7261636.329821285791695 ], [ 530290.0, 7261638.895414074882865 ], [ 530280.0, 7261641.092519538477063 ], [ 530270.0, 7261643.582138305529952 ], [ 530260.0, 7261646.307472933083773 ], [ 530250.0, 7261648.371456163004041 ], [ 530240.0, 7261649.105816641822457 ], [ 530230.0, 7261648.372348373755813 ], [ 530220.0, 7261646.318647109903395 ], [ 530210.0, 7261643.669286504387856 ], [ 530200.0, 7261641.541395640000701 ], [ 530190.000892210751772, 7261640.458265855908394 ], [ 530180.012066387222148, 7261640.174296396784484 ], [ 530170.099214585614391, 7261640.458265855908394 ], [ 530160.546306264819577, 7261641.541395640000701 ], [ 530152.08680969348643, 7261643.670178715139627 ], [ 530145.75698840781115, 7261646.329821286723018 ] ] } },
{ "type": "Feature", "properties": { "id": 5, "reference_id": 4, "dune_id": 4, "dune_name": "The Star Dune", "acquisition_date": "2025-05-10", "length_m": 648.70453532515796 }, "geometry": { "type": "LineString", "coordinates": [ [ 533005.756988407694735, 7261863.671070925891399 ], [ 533012.08680969348643, 7261866.340995462611318 ], [ 533020.546306264819577, 7261868.546644769608974 ], [ 533030.099214585614391, 7261870.0 ], [ 533040.012066387105733, 7261871.454247441142797 ], [ 533050.000892210751772, 7261873.670178715139627 ], [ 533060.0, 7261876.416077273897827 ], [ 533070.0, 7261878.906588250771165 ], [ 533080.0, 7261881.094303959980607 ], [ 533090.0, 7261883.594204692170024 ], [ 533100.0, 7261886.405795307829976 ], [ 533110.0, 7261888.906588250771165 ], [ 533120.0, 7261891.10458592697978 ], [ 533130.0, 7261893.670178715139627 ], [ 533140.0, 7261896.765738788992167 ], [ 533150.0, 7261900.0 ], [ 533160.0, 7261903.234261211939156 ], [ 533170.0, 7261906.329821286723018 ], [ 533180.0, 7261908.896306285634637 ], [ 533190.0, 7261911.103693716228008 ], [ 533200.0, 7261913.670178715139627 ], [ 533210.0, 7261916.766630999743938 ], [ 533220.0, 7261920.010281966067851 ], [ 533230.0, 7261923.310235233977437 ], [ 533240.0, 7261926.689764766953886 ], [ 533250.0, 7261929.989718034863472 ], [ 533260.0, 7261933.233369000256062 ], [ 533270.0, 7261936.329821286723018 ], [ 533280.0, 7261938.896306284703314 ], [ 533290.0, 7261941.103693715296686 ], [ 533300.0, 7261943.670178713276982 ], [ 533310.0, 7261946.765738788992167 ], [ 533320.0, 7261950.0 ], [ 533330.0, 7261953.234261211007833 ], [ 533340.0, 7261956.329821286723018 ], [ 533350.0, 7261958.896306285634637 ], [ 533360.0, 7261961.103693716228008 ], [ 533370.0, 7261963.670178714208305 ], [ 533380.000000000116415, 7261966.766630999743938 ], [ 533390.0, 7261970.010281966067851 ], [ 533400.000000000116415, 7261973.311127444729209 ], [ 533410.0, 7261976.700938943773508 ], [ 533420.0, 7261980.075974022969604 ], [ 533430.0, 7261983.670178715139627 ], [ 533440.0, 7261987.794350693002343 ], [ 533450.0, 7261992.206541518680751 ], [ 533460.0, 7261996.340103251859546 ], [ 533470.0, 7262000.000892210751772 ], [ 533480.0, 7262003.670178715139627 ], [ 533490.0, 7262007.870324714109302 ], [ 533500.0, 7262012.576766964048147 ], [ 533510.0, 7262017.509489024057984 ], [ 533520.0, 7262022.490510976873338 ], [ 533530.0, 7262027.423233035951853 ], [ 533540.0, 7262032.128783075138927 ], [ 533550.0, 7262036.318647109903395 ], [ 533560.0, 7262039.911959590390325 ], [ 533570.0, 7262043.211912859231234 ], [ 533579.999107789364643, 7262046.241780877113342 ], [ 533589.987933612894267, 7262048.448322394862771 ], [ 533599.900785414385609, 7262049.552016111090779 ], [ 533609.453693735180423, 7262049.912851801142097 ], [ 533617.91319030651357, 7262049.9888258241117 ], [ 533624.243011592305265, 7262049.999107789248228 ] ] } },
{ "type": "Feature", "properties": { "id": 6, "reference_id": 3, "dune_id": 3, "dune_name": "Big Mommy Dune", "acquisition_date": "2025-05-10", "length_m": 1223.5230613741026 }, "geometry": { "type": "LineString", "coordinates": [ [ 529181.638825803645886, 7260964.243011592887342 ], [ 529184.205310802557506, 7260957.913190307095647 ], [ 529188.328590570250526, 7260949.453693735413253 ], [ 529193.758219123352319, 7260939.900785414502025 ], [ 529200.012066387105733, 7260929.987933613359928 ], [ 529206.340995462262072, 7260919.999107789248228 ], [ 529212.206541518098675, 7260910.0 ], [ 529217.794350692536682, 7260900.0 ], [ 529223.670178714208305, 7260890.0 ], [ 529230.075974021921866, 7260880.0 ], [ 529236.700046732323244, 7260870.0 ], [ 529243.299953267676756, 7260860.0 ], [ 529249.924025978078134, 7260850.0 ], [ 529256.32982128590811, 7260840.0 ], [ 529262.205649307463318, 7260830.0 ], [ 529267.794350692536682, 7260820.0 ], [ 529273.671070924960077, 7260810.0 ], [ 529280.086255987756886, 7260800.0 ], [ 529286.776912964996882, 7260790.0 ], [ 529293.671070924960077, 7260780.000000000931323 ], [ 529301.104585926048458, 7260770.0 ], [ 529308.907480461173691, 7260760.0 ], [ 529316.416969484300353, 7260750.000892210751772 ], [ 529323.681352890678681, 7260740.011174176819623 ], [ 529331.54139563953504, 7260730.087148198857903 ], [ 529340.447091679205187, 7260720.447983889840543 ], [ 529350.087148198508658, 7260711.552569815889001 ], [ 529360.011174176353961, 7260703.768501089885831 ], [ 529370.000892210635357, 7260696.864953374490142 ], [ 529380.0, 7260690.459158066660166 ], [ 529390.0, 7260684.861912839114666 ], [ 529400.0, 7260680.447983888909221 ], [ 529410.0, 7260676.777805175632238 ], [ 529420.0, 7260673.320517199113965 ], [ 529430.0, 7260670.000892210751772 ], [ 529440.000000000116415, 7260666.690656977705657 ], [ 529450.0, 7260663.310235233977437 ], [ 529460.0, 7260660.010281966067851 ], [ 529470.0, 7260656.766630999743938 ], [ 529480.0, 7260653.670178714208305 ], [ 529490.0, 7260651.10458592697978 ], [ 529500.000000000116415, 7260648.906588250771165 ], [ 529510.0, 7260646.405795307829976 ], [ 529520.0, 7260643.594204693101346 ], [ 529530.0, 7260641.094303959980607 ], [ 529540.0, 7260638.906588250771165 ], [ 529550.0, 7260636.416077274829149 ], [ 529560.0, 7260633.670178715139627 ], [ 529570.0, 7260631.454247441142797 ], [ 529580.0, 7260630.0 ], [ 529590.0, 7260628.546644769608974 ], [ 529600.0, 7260626.340995462611318 ], [ 529610.0, 7260623.671070924960077 ], [ 529620.0, 7260621.539611218497157 ], [ 529630.0, 7260620.435917503200471 ], [ 529640.0, 7260620.0 ], [ 529650.0, 7260619.564082497730851 ], [ 529660.0, 7260618.460388782434165 ], [ 529670.0, 7260616.329821286723018 ], [ 529680.0, 7260613.670178715139627 ], [ 529690.0, 7260611.540503429248929 ], [ 529700.0, 7260610.447091680020094 ], [ 529710.0, 7260610.086255988106132 ], [ 529720.0, 7260610.0 ], [ 529730.0, 7260609.913744012825191 ], [ 529740.0, 7260609.552908320911229 ], [ 529750.0, 7260608.459496571682394 ], [ 529760.0, 7260606.329821286723018 ], [ 529770.0, 7260603.670178715139627 ], [ 529780.0, 7260601.540503429248929 ], [ 529790.0, 7260600.447091680020094 ], [ 529800.0, 7260600.087148198857903 ], [ 529810.0, 7260600.011174176819623 ], [ 529820.0, 7260600.000892210751772 ], [ 529830.0, 7260600.0 ], [ 529840.0, 7260600.0 ], [ 529850.0, 7260600.0 ], [ 529860.0, 7260600.0 ], [ 529870.0, 7260600.0 ], [ 529880.0, 7260600.000892210751772 ], [ 529890.0, 7260600.011174176819623 ], [ 529900.0, 7260600.087148198857903 ], [ 529910.0, 7260600.447091680020094 ], [ 529920.0, 7260601.540503429248929 ], [ 529930.0, 7260603.669286504387856 ], [ 529940.0, 7260606.318647110834718 ], [ 529950.0, 7260608.373240584507585 ], [ 529960.0, 7260609.116990817710757 ], [ 529970.0, 7260608.459496571682394 ], [ 529980.0, 7260606.765738788992167 ], [ 529990.0, 7260605.209789931774139 ], [ 530000.0, 7260605.209789931774139 ], [ 530010.0, 7260606.765738788992167 ], [ 530020.0, 7260608.459496571682394 ], [ 530030.0, 7260609.116990817710757 ], [ 530040.0, 7260608.373240584507585 ], [ 530050.0, 7260606.317754900082946 ], [ 530060.0, 7260603.658112328499556 ], [ 530070.0, 7260601.453355230391026 ], [ 530080.0, 7260600.0 ], [ 530090.0, 7260598.546644769608974 ], [ 530100.0, 7260596.340103251859546 ], [ 530110.0, 7260593.659896748140454 ], [ 530120.0, 7260591.453355230391026 ], [ 530130.0, 7260590.0 ], [ 530140.0, 7260588.546644769608974 ], [ 530150.0, 7260586.340103251859546 ], [ 530160.0, 7260583.659896748140454 ], [ 530170.000000000116415, 7260581.453355230391026 ], [ 530180.0, 7260580.0 ], [ 530190.0, 7260578.546644769608974 ], [ 530199.999107789248228, 7260576.340995462611318 ], [ 530209.987933612894267, 7260573.671070925891399 ], [ 530219.900785414385609, 7260571.540503429248929 ], [ 530229.453693735180423, 7260570.447091680020094 ], [ 530237.91319030651357, 7260570.087148198857903 ], [ 530244.243011592421681, 7260570.011174176819623 ] ] } },
{ "type": "Feature", "properties": { "id": 7, "reference_id": 2, "dune_id": 2, "dune_name": "Big Mommy Dune", "acquisition_date": "2025-05-10", "length_m": 799.50213619558031 }, "geometry": { "type": "LineString", "coordinates": [ [ 528425.756988407694735, 7260654.215592768974602 ], [ 528432.08680969348643, 7260658.405456803739071 ], [ 528440.546306264819577, 7260664.128444570116699 ], [ 528450.099214585614391, 7260671.181452158838511 ], [ 528460.012066387105733, 7260678.831506438553333 ], [ 528470.000892210751772, 7260685.969877805560827 ], [ 528480.0, 7260692.129675285890698 ], [ 528490.0, 7260697.784068727865815 ], [ 528500.0, 7260703.670178715139627 ], [ 528510.0, 7260710.086255988106132 ], [ 528520.0, 7260716.776912964880466 ], [ 528530.0, 7260723.670178714208305 ], [ 528540.0, 7260731.093411750160158 ], [ 528550.0, 7260738.820332262665033 ], [ 528560.0, 7260745.968985594809055 ], [ 528570.0, 7260752.129675285890698 ], [ 528580.0, 7260757.783176516182721 ], [ 528590.0, 7260763.659004537388682 ], [ 528600.0, 7260769.999107789248228 ], [ 528610.0, 7260776.329821286723018 ], [ 528620.0, 7260782.129675285890698 ], [ 528630.0, 7260787.423233035951853 ], [ 528640.0, 7260792.489618767052889 ], [ 528650.0, 7260797.499207057990134 ], [ 528660.0, 7260802.499900732189417 ], [ 528670.0, 7260807.499207057058811 ], [ 528680.0, 7260812.489618767052889 ], [ 528690.0, 7260817.423233035951853 ], [ 528700.0, 7260822.129675285890698 ], [ 528710.0, 7260826.329821285791695 ], [ 528720.0, 7260830.0 ], [ 528730.0, 7260833.670178715139627 ], [ 528740.0, 7260837.869432504288852 ], [ 528750.0, 7260842.565592788159847 ], [ 528760.0, 7260847.423233035951853 ], [ 528770.0, 7260852.053701262921095 ], [ 528780.0, 7260855.959595839492977 ], [ 528790.0, 7260858.829722017981112 ], [ 528800.0, 7260861.169385772198439 ], [ 528810.0, 7260864.029229984618723 ], [ 528820.0, 7260867.860042748972774 ], [ 528830.0, 7260872.139957251027226 ], [ 528840.0, 7260875.969877805560827 ], [ 528850.0, 7260878.819440051913261 ], [ 528860.0, 7260881.083129784092307 ], [ 528870.0, 7260883.593312481418252 ], [ 528880.0, 7260886.405795307829976 ], [ 528890.0, 7260888.905696040019393 ], [ 528900.0, 7260891.094303959980607 ], [ 528910.0, 7260893.594204692170024 ], [ 528920.0, 7260896.405795307829976 ], [ 528930.0, 7260898.906588250771165 ], [ 528940.0, 7260901.104585926048458 ], [ 528950.0, 7260903.670178715139627 ], [ 528960.0, 7260906.765738788992167 ], [ 528970.0, 7260910.0 ], [ 528980.0, 7260913.234261211939156 ], [ 528990.0, 7260916.329821285791695 ], [ 529000.0, 7260918.895414074882865 ], [ 529010.0, 7260921.093411749228835 ], [ 529020.0, 7260923.595096902921796 ], [ 529030.0, 7260926.416969484649599 ], [ 529040.0, 7260928.993736449629068 ], [ 529050.0, 7260931.551677605137229 ], [ 529060.0, 7260935.211574353277683 ], [ 529070.0, 7260940.447091679088771 ], [ 529080.0, 7260946.416077273897827 ], [ 529090.0, 7260952.129675285890698 ], [ 529099.999553894624114, 7260957.336084837093949 ], [ 529109.993520701071247, 7260962.031352911144495 ], [ 529119.944359513698146, 7260965.870663220062852 ], [ 529129.677239574841224, 7260968.371456163004041 ], [ 529138.683442020905204, 7260969.541734144091606 ], [ 529146.078100949409418, 7260969.911959590390325 ], [ 529151.078100949409418, 7260969.9888258241117 ] ] } },
{ "type": "Feature", "properties": { "id": 8, "reference_id": 1, "dune_id": 1, "dune_name": "Big Mommy Dune", "acquisition_date": "2025-05-10", "length_m": 1350.0065748506076 }, "geometry": { "type": "LineString", "coordinates": [ [ 529189.999107789364643, 7261035.756988408043981 ], [ 529189.988825823529623, 7261042.086809693835676 ], [ 529189.912851801607758, 7261050.546306265518069 ], [ 529189.552908320911229, 7261060.099214585497975 ], [ 529188.459496571333148, 7261070.012066387571394 ], [ 529186.328929075156339, 7261080.000892210751772 ], [ 529183.659004537737928, 7261090.0 ], [ 529181.453355230391026, 7261100.0 ], [ 529179.999107789364643, 7261110.0 ], [ 529178.535470593255013, 7261120.000000000931323 ], [ 529176.253847263869829, 7261130.0 ], [ 529173.223087035003118, 7261140.0 ], [ 529169.988825823529623, 7261150.0 ], [ 529166.688872555969283, 7261160.0 ], [ 529163.299061057041399, 7261170.0 ], [ 529159.924025978078134, 7261180.0 ], [ 529156.329821285791695, 7261190.0 ], [ 529152.205649307463318, 7261200.0 ], [ 529147.793458481901325, 7261210.000000000931323 ], [ 529143.659896748373285, 7261220.0 ], [ 529139.999107789364643, 7261230.0 ], [ 529136.329821285791695, 7261240.0 ], [ 529132.130567496176809, 7261250.0 ], [ 529127.433515001204796, 7261260.0 ], [ 529122.566484998911619, 7261270.0 ], [ 529117.869432503939606, 7261280.0 ], [ 529113.670178714208305, 7261290.0 ], [ 529110.0, 7261300.0 ], [ 529106.329821285791695, 7261310.000000000931323 ], [ 529102.130567496176809, 7261320.0 ], [ 529097.433515001204796, 7261330.0 ], [ 529092.566484998911619, 7261340.0 ], [ 529087.870324714574963, 7261350.0 ], [ 529083.680460680043325, 7261360.0 ], [ 529080.076866232557222, 7261370.0 ], [ 529076.700046732323244, 7261380.0 ], [ 529073.299953267676756, 7261390.0 ], [ 529069.924025978078134, 7261400.0 ], [ 529066.329821285791695, 7261410.0 ], [ 529062.205649307463318, 7261420.0 ], [ 529057.794350692536682, 7261430.0 ], [ 529053.670178714208305, 7261440.0 ], [ 529050.075974021921866, 7261450.0 ], [ 529046.700938942958601, 7261460.0 ], [ 529043.311127444147132, 7261470.000000000931323 ], [ 529040.01028196583502, 7261480.0 ], [ 529036.766630999278277, 7261490.0 ], [ 529033.670178714208305, 7261500.0 ], [ 529031.104585926048458, 7261510.0 ], [ 529028.907480461173691, 7261520.0 ], [ 529026.416969484183937, 7261530.0 ], [ 529023.681352890678681, 7261540.0 ], [ 529021.541395639418624, 7261550.0 ], [ 529020.447091679205187, 7261560.000000000931323 ], [ 529020.087148198508658, 7261570.0 ], [ 529020.011174176470377, 7261580.0 ], [ 529020.000892210751772, 7261590.0 ], [ 529020.0, 7261600.0 ], [ 529020.0, 7261610.0 ], [ 529020.0, 7261620.0 ], [ 529020.000892210751772, 7261630.0 ], [ 529020.011174176470377, 7261640.0 ], [ 529020.088040409144014, 7261650.0 ], [ 529020.458265855675563, 7261660.0 ], [ 529021.628543837927282, 7261670.0 ], [ 529024.128444569883868, 7261680.0 ], [ 529027.958365123718977, 7261690.0 ], [ 529032.588833351852372, 7261700.0 ], [ 529037.521555410232395, 7261710.0 ], [ 529042.576766964630224, 7261720.0 ], [ 529047.860042748739943, 7261730.000000000931323 ], [ 529053.593312481534667, 7261740.0 ], [ 529059.629774553584866, 7261750.0 ], [ 529065.160435514291748, 7261760.0 ], [ 529069.640056519303471, 7261770.0 ], [ 529073.670178714208305, 7261780.0 ], [ 529078.230268195271492, 7261790.0 ], [ 529083.745260525494814, 7261800.0 ], [ 529089.999107789248228, 7261810.0 ], [ 529096.241780876764096, 7261820.0 ], [ 529101.660235253395513, 7261830.0 ], [ 529105.706648788414896, 7261840.000000000931323 ], [ 529107.902016130043194, 7261850.0 ], [ 529107.902016130043194, 7261860.0 ], [ 529105.706648788414896, 7261870.0 ], [ 529101.659343042760156, 7261880.0 ], [ 529096.23060670029372, 7261890.0 ], [ 529089.911959590855986, 7261900.0 ], [ 529083.299061057041399, 7261910.0 ], [ 529076.700046732323244, 7261920.0 ], [ 529070.075974022038281, 7261930.0 ], [ 529063.670178714208305, 7261940.0 ], [ 529057.795242903288454, 7261950.0 ], [ 529052.216823483933695, 7261960.0 ], [ 529046.416969484183937, 7261970.0 ], [ 529040.371117657283321, 7261980.0 ], [ 529034.840456696460024, 7261990.0 ], [ 529030.370225446531549, 7262000.0 ], [ 529026.406687518465333, 7262010.0 ], [ 529022.140849462011829, 7262020.0 ], [ 529017.434407211840153, 7262030.0 ], [ 529012.565592788159847, 7262040.0 ], [ 529007.859150538104586, 7262050.0 ], [ 529003.593312481651083, 7262060.0 ], [ 528999.629774553584866, 7262070.0 ], [ 528995.159543303656392, 7262080.0 ], [ 528989.628882342833094, 7262090.0 ], [ 528983.582138305064291, 7262100.0 ], [ 528977.772002339712344, 7262110.0 ], [ 528972.117608898319304, 7262120.0 ], [ 528965.881837395951152, 7262130.0 ], [ 528958.37234837282449, 7262140.0 ], [ 528949.541734144324437, 7262149.999107789248228 ], [ 528939.911959590972401, 7262159.9888258241117 ], [ 528929.988825823529623, 7262169.912851802073419 ], [ 528919.999107789364643, 7262179.552016110159457 ], [ 528910.0, 7262188.448322394862771 ], [ 528900.0, 7262196.241780877113342 ], [ 528890.0, 7262203.211912859231234 ], [ 528880.000892210751772, 7262209.91195959225297 ], [ 528870.012066387105733, 7262216.317754899151623 ], [ 528860.099214585614391, 7262222.117608898319304 ], [ 528850.546306264819577, 7262227.335192626342177 ], [ 528842.086809693370014, 7262232.031352911144495 ], [ 528835.756988407694735, 7262235.870663220062852 ] ] } }
]
}
