{
"type": "FeatureCollection",
"name": "crests_2017_06_2017-06-24",
"crs": { "type": "name", "properties": { "name": "urn:ogc:def:crs:EPSG::32733" } },
"features": [
{ "type": "Feature", "properties": { "id": 0, "reference_id": 4, "dune_id": 4, "dune_name": "The Star Dune", "acquisition_date": "2017-06-24", "length_m": 194.76340516770782 }, "geometry": { "type": "LineString", "coordinates": [ [ 533005.756988407694735, 7261871.540503429248929 ], [ 533012.08680969348643, 7261873.671070925891399 ], [ 533020.546306264819577, 7261876.340995462611318 ], [ 533030.099214585614391, 7261878.546644769608974 ], [ 533040.012066387105733, 7261880.0 ], [ 533050.000892210751772, 7261881.454247441142797 ], [ 533060.0, 7261883.670178714208305 ], [ 533070.0, 7261886.416077273897827 ], [ 533080.0, 7261888.906588250771165 ], [ 533090.0, 7261891.094303959980607 ], [ 533100.0, 7261893.594204692170024 ], [ 533110.0, 7261896.405795307829976 ], [ 533120.0, 7261898.906588250771165 ], [ 533130.0, 7261901.104585926048458 ], [ 533140.0, 7261903.670178715139627 ], [ 533149.999107789364643, 7261906.765738788992167 ], [ 533159.987933612894267, 7261909.999107789248228 ], [ 533169.900785414502025, 7261913.223087035119534 ], [ 533179.453693735180423, 7261916.242673087865114 ], [ 533187.91319030651357, 7261918.448322394862771 ], [ 533194.243011592305265, 7261919.552016110159457 ] ] } },
{ "type": "Feature", "properties": { "id": 1, "reference_id": 4, "dune_id": 4, "dune_name": "The Star Dune", "acquisition_date": "2017-06-24", "length_m": 71.197214144167347 }, "geometry": { "type": "LineString", "coordinates": [ [ 533334.243011592421681, 7261959.552016111090779 ], [ 533327.91319030651357, 7261958.448322394862771 ], [ 533319.453693735296838, 7261956.242673087865114 ], [ 533309.901677625137381, 7261953.223087035119534 ], [ 533300.0, 7261950.0 ], [ 533290.098322374979034, 7261946.776912964880466 ], [ 533280.546306264703162, 7261943.757326912134886 ], [ 533272.08680969348643, 7261941.551677605137229 ], [ 533265.756988407694735, 7261940.447983889840543 ] ] } },
{ "type": "Feature", "properties": { "id": 2, "reference_id": 4, "dune_id": 4, "dune_name": "The Star Dune", "acquisition_date": "2017-06-24", "length_m": 51.346874423411407 }, "geometry": { "type": "LineString", "coordinates": [ [ 533484.243011592421681, 7262008.448322394862771 ], [ 533477.914082517265342, 7262006.242673087865114 ], [ 533469.465760122402571, 7262003.223087035119534 ], [ 533460.0, 7262000.0 ], [ 533450.534239877597429, 7261996.776912964880466 ], [ 533442.085917482734658, 7261993.757326913997531 ], [ 533435.756988407694735, 7261991.551677605137229 ] ] } },
{ "type": "Feature", "properties": { "id": 3, "reference_id": 4, "dune_id": 4, "dune_name": "The Star Dune", "acquisition_date": "2017-06-24", "length_m": 64.346411746073159 }, "geometry": { "type": "LineString", "coordinates": [ [ 533515.756988407694735, 7262021.988487319089472 ], [ 533522.08680969348643, 7262025.221856319345534 ], [ 533530.545414054067805, 7262030.087148198857903 ], [ 533540.087148198392242, 7262035.23640953656286 ], [ 533549.912851801607758, 7262039.552908321842551 ], [ 533559.454585945932195, 7262043.13593883626163 ], [ 533567.91319030651357, 7262046.231498911976814 ], [ 533574.243011592421681, 7262048.447430184110999 ] ] } },
{ "type": "Feature", "properties": { "id": 4, "reference_id": 1, "dune_id": 1, "dune_name": "Big Mommy Dune", "acquisition_date": "2017-06-24", "length_m": 129.35523700254799 }, "geometry": { "type": "LineString", "coordinates": [ [ 529026.329821285791695, 7261684.243011591956019 ], [ 529023.670178714208305, 7261677.913190307095647 ], [ 529021.540503428783268, 7261669.453693735413253 ], [ 529020.447091679205187, 7261659.900785414502025 ], [ 529020.087148198508658, 7261649.987933613359928 ], [ 529020.011174176470377, 7261639.999107789248228 ], [ 529020.000892210751772, 7261630.0 ], [ 529020.0, 7261620.0 ], [ 529020.0, 7261610.0 ], [ 529020.0, 7261600.000892210751772 ], [ 529020.0, 7261590.012066387571394 ], [ 529020.0, 7261580.099214585497975 ], [ 529020.0, 7261570.546306264586747 ], [ 529020.0, 7261562.086809693835676 ], [ 529020.0, 7261555.756988408043981 ] ] } },
{ "type": "Feature", "properties": { "id": 5, "reference_id": 1, "dune_id": 1, "dune_name": "Big Mommy Dune", "acquisition_date": "2017-06-24", "length_m": 506.17616384611125 }, "geometry": { "type": "LineString", "coordinates": [ [ 529180.0, 7261045.756988408043981 ], [ 529180.0, 7261052.086809693835676 ], [ 529180.0, 7261060.546306265518069 ], [ 529180.0, 7261070.099214585497975 ], [ 529179.999107789364643, 7261080.012066387571394 ], [ 529179.988825823529623, 7261090.000892210751772 ], [ 529179.912851801607758, 7261100.0 ], [ 529179.552016110159457, 7261110.0 ], [ 529178.448322394862771, 7261120.000000000931323 ], [ 529176.242673087399453, 7261130.0 ], [ 529173.222194824367762, 7261140.0 ], [ 529169.988825823529623, 7261150.0 ], [ 529166.689764766488224, 7261160.0 ], [ 529163.309343022760004, 7261170.0 ], [ 529160.0, 7261180.0 ], [ 529156.68976476660464, 7261190.0 ], [ 529153.299061057041399, 7261200.0 ], [ 529149.924025978078134, 7261210.000000000931323 ], [ 529146.329821285791695, 7261220.0 ], [ 529142.205649307463318, 7261230.0 ], [ 529137.79345848178491, 7261240.0 ], [ 529133.659896748373285, 7261250.0 ], [ 529129.999107789364643, 7261260.0 ], [ 529126.329821285791695, 7261270.0 ], [ 529122.129675285541452, 7261280.0 ], [ 529117.423233035369776, 7261290.0 ], [ 529112.490510976873338, 7261300.0 ], [ 529107.509489023126662, 7261310.000000000931323 ], [ 529102.576766964630224, 7261320.0 ], [ 529097.871216925210319, 7261330.0 ], [ 529093.680460680043325, 7261340.0 ], [ 529090.076866232673638, 7261350.0 ], [ 529086.700046732323244, 7261360.0 ], [ 529083.299953267676756, 7261370.0 ], [ 529079.923133767326362, 7261380.0 ], [ 529076.319539319956675, 7261390.0 ], [ 529072.129675285425037, 7261400.0 ], [ 529067.433515001088381, 7261410.0 ], [ 529062.566484998911619, 7261420.0 ], [ 529057.870324714574963, 7261430.0 ], [ 529053.680460680043325, 7261440.0 ], [ 529050.076866232673638, 7261450.0 ], [ 529046.700938942958601, 7261460.0 ], [ 529043.311127444147132, 7261470.000000000931323 ], [ 529040.011174176470377, 7261479.999107789248228 ], [ 529036.777805175632238, 7261489.987933613359928 ], [ 529033.757326912600547, 7261499.900785414502025 ], [ 529031.551677605253644, 7261509.453693735413253 ], [ 529030.447983889840543, 7261517.913190307095647 ], [ 529030.087148198508658, 7261524.243011592887342 ] ] } },
{ "type": "Feature", "properties": { "id": 6, "reference_id": 1, "dune_id": 1, "dune_name": "Big Mommy Dune", "acquisition_date": "2017-06-24", "length_m": 513.72003044648307 }, "geometry": { "type": "LineString", "coordinates": [ [ 529109.988825823529623, 7261825.756988408043981 ], [ 529109.912851801607758, 7261832.086809693835676 ], [ 529109.552016110159457, 7261840.546306265518069 ], [ 529108.447430184110999, 7261850.099214585497975 ], [ 529106.231498910929076, 7261860.012066387571394 ], [ 529103.135046625859104, 7261870.000892210751772 ], [ 529099.540841933805496, 7261880.0 ], [ 529095.138087161350995, 7261890.0 ], [ 529089.552016110159457, 7261900.0 ], [ 529083.223087035003118, 7261910.0 ], [ 529076.689764766488224, 7261920.0 ], [ 529070.075081811286509, 7261930.0 ], [ 529063.670178714208305, 7261940.0 ], [ 529057.794350692536682, 7261950.0 ], [ 529052.206541518098675, 7261960.0 ], [ 529046.3401032515103, 7261970.0 ], [ 529040.000892210751772, 7261980.0 ], [ 529033.671070924960077, 7261990.0 ], [ 529027.880606680409983, 7262000.0 ], [ 529022.653633197303861, 7262010.0 ], [ 529017.881498890928924, 7262020.0 ], [ 529013.681352890795097, 7262030.0 ], [ 529010.076866232673638, 7262040.0 ], [ 529006.700046732323244, 7262050.0 ], [ 529003.299953267676756, 7262060.0 ], [ 528999.923133767442778, 7262070.0 ], [ 528996.31953932007309, 7262080.0 ], [ 528992.128783074789681, 7262090.0 ], [ 528987.42234082473442, 7262100.0 ], [ 528982.478444589767605, 7262110.0 ], [ 528977.411166648264043, 7262120.0 ], [ 528972.041634876397438, 7262130.0 ], [ 528965.871555430116132, 7262139.999107789248228 ], [ 528958.371456162189133, 7262149.9888258241117 ], [ 528949.541734144324437, 7262159.912851801142097 ], [ 528939.911959590972401, 7262169.552016111090779 ], [ 528929.988825823529623, 7262178.448322394862771 ], [ 528919.999107789364643, 7262186.242673087865114 ], [ 528910.0, 7262193.222194824367762 ], [ 528900.0, 7262199.9888258241117 ], [ 528890.0, 7262206.688872556202114 ], [ 528880.000892210751772, 7262213.298168846406043 ], [ 528870.012066387105733, 7262219.911959591321647 ], [ 528860.099214585614391, 7262226.231498911045492 ], [ 528850.546306264819577, 7262231.670517219230533 ], [ 528842.086809693370014, 7262235.794689197093248 ], [ 528835.756988407694735, 7262238.361174196004868 ] ] } },
{ "type": "Feature", "properties": { "id": 7, "reference_id": 3, "dune_id": 3, "dune_name": "Big Mommy Dune", "acquisition_date": "2017-06-24", "length_m": 141.81245207770343 }, "geometry": { "type": "LineString", "coordinates": [ [ 529614.243011592421681, 7260630.087148198857903 ], [ 529607.91319030651357, 7260630.447091680020094 ], [ 529599.453693735180423, 7260631.540503429248929 ], [ 529589.900785414502025, 7260633.671070925891399 ], [ 529579.987933612894267, 7260636.340995462611318 ], [ 529569.999107789248228, 7260638.546644769608974 ], [ 529560.0, 7260640.0 ], [ 529550.0, 7260641.454247441142797 ], [ 529540.0, 7260643.670178715139627 ], [ 529530.0, 7260646.416077273897827 ], [ 529520.000892210751772, 7260648.906588250771165 ], [ 529510.012066387105733, 7260651.093411749228835 ], [ 529500.099214585614391, 7260653.583030516281724 ], [ 529490.546306264819577, 7260656.318647109903395 ], [ 529482.08680969348643, 7260658.458604361861944 ], [ 529475.756988407694735, 7260659.552908320911229 ] ] } },
{ "type": "Feature", "properties": { "id": 8, "reference_id": 3, "dune_id": 3, "dune_name": "Big Mommy Dune", "acquisition_date": "2017-06-24", "length_m": 58.486023184610531 }, "geometry": { "type": "LineString", "coordinates": [ [ 529704.243011592305265, 7260620.0 ], [ 529697.91319030651357, 7260620.0 ], [ 529689.454585945932195, 7260620.0 ], [ 529679.912851801607758, 7260620.0 ], [ 529670.087148198508658, 7260620.0 ], [ 529660.545414054067805, 7260620.0 ], [ 529652.08680969348643, 7260620.0 ], [ 529645.756988407694735, 7260620.0 ] ] } },
{ "type": "Feature", "properties": { "id": 9, "reference_id": 3, "dune_id": 3, "dune_name": "Big Mommy Dune", "acquisition_date": "2017-06-24", "length_m": 248.48602318461053 }, "geometry": { "type": "LineString", "coordinates": [ [ 529735.756988407694735, 7260610.0 ], [ 529742.08680969348643, 7260610.0 ], [ 529750.546306264819577, 7260610.0 ], [ 529760.099214585614391, 7260610.0 ], [ 529770.012066387222148, 7260610.0 ], [ 529780.000892210751772, 7260610.0 ], [ 529790.0, 7260610.0 ], [ 529800.0, 7260610.0 ], [ 529810.0, 7260610.0 ], [ 529820.0, 7260610.0 ], [ 529830.0, 7260610.0 ], [ 529840.0, 7260610.0 ], [ 529850.0, 7260610.0 ], [ 529860.0, 7260610.0 ], [ 529870.0, 7260610.0 ], [ 529880.0, 7260610.0 ], [ 529890.0, 7260610.0 ], [ 529900.0, 7260610.0 ], [ 529910.0, 7260610.0 ], [ 529920.0, 7260610.0 ], [ 529930.0, 7260610.0 ], [ 529939.999107789248228, 7260610.0 ], [ 529949.987933612894267, 7260610.0 ], [ 529959.900785414502025, 7260610.0 ], [ 529969.453693735180423, 7260610.0 ], [ 529977.91319030651357, 7260610.0 ], [ 529984.243011592305265, 7260610.0 ] ] } },
{ "type": "Feature", "properties": { "id": 10, "reference_id": 3, "dune_id": 3, "dune_name": "Big Mommy Dune", "acquisition_date": "2017-06-24", "length_m": 363.13729152574166 }, "geometry": { "type": "LineString", "coordinates": [ [ 529374.243011592305265, 7260695.756988408043981 ], [ 529367.91319030651357, 7260702.086809693835676 ], [ 529359.453693735180423, 7260710.546306265518069 ], [ 529349.900785414502025, 7260720.099214585497975 ], [ 529339.988825823529623, 7260730.012066388502717 ], [ 529330.01028196583502, 7260740.000892210751772 ], [ 529320.087148198508658, 7260750.0 ], [ 529310.447983889956959, 7260760.0 ], [ 529301.551677605253644, 7260770.0 ], [ 529293.758219123352319, 7260780.000000000931323 ], [ 529286.788087141467258, 7260790.0 ], [ 529280.088040409144014, 7260800.0 ], [ 529273.681352890795097, 7260810.0 ], [ 529267.870324714574963, 7260820.0 ], [ 529262.566484998911619, 7260830.0 ], [ 529257.433515001204796, 7260840.0 ], [ 529252.129675285541452, 7260850.0 ], [ 529246.31953932007309, 7260860.0 ], [ 529239.923133767326362, 7260870.0 ], [ 529233.299061056924984, 7260880.0 ], [ 529226.689764766488224, 7260890.0 ], [ 529220.0, 7260900.0 ], [ 529213.310235233511776, 7260910.0 ], [ 529206.700938942958601, 7260920.0 ], [ 529200.075974022038281, 7260930.0 ], [ 529193.669732608832419, 7260939.998661683872342 ], [ 529187.789655814995058, 7260949.982346525415778 ], [ 529182.17414159537293, 7260959.857211316004395 ], [ 529176.204597821109928, 7260969.230147896334529 ], [ 529169.688906351919286, 7260977.142938592471182 ], [ 529163.463633195031434, 7260982.407922235317528 ], [ 529158.833858641446568, 7260984.748279663734138 ] ] } },
{ "type": "Feature", "properties": { "id": 11, "reference_id": 3, "dune_id": 3, "dune_name": "Big Mommy Dune", "acquisition_date": "2017-06-24", "length_m": 59.470384647972004 }, "geometry": { "type": "LineString", "coordinates": [ [ 530105.756988407694735, 7260599.912851802073419 ], [ 530112.08680969348643, 7260599.552908321842551 ], [ 530120.545414054067805, 7260598.459496571682394 ], [ 530130.087148198392242, 7260596.329821285791695 ], [ 530139.912851801607758, 7260593.670178714208305 ], [ 530149.454585945932195, 7260591.540503429248929 ], [ 530157.91319030651357, 7260590.447091680020094 ], [ 530164.243011592305265, 7260590.087148198857903 ] ] } },
{ "type": "Feature", "properties": { "id": 12, "reference_id": 8, "dune_id": 8, "dune_name": "Inverted Y Dune", "acquisition_date": "2017-06-24", "length_m": 402.7446955105022 }, "geometry": { "type": "LineString", "coordinates": [ [ 530244.243011592421681, 7261232.086809693835676 ], [ 530237.91319030651357, 7261235.756988408043981 ], [ 530229.453693735180423, 7261242.086809693835676 ], [ 530219.900785414385609, 7261250.546306264586747 ], [ 530209.988825823646039, 7261260.099214585497975 ], [ 530200.01028196583502, 7261270.012066387571394 ], [ 530190.088040409144014, 7261280.000892210751772 ], [ 530180.45915806631092, 7261290.0 ], [ 530171.638825803645886, 7261300.0 ], [ 530164.20531080244109, 7261310.000000000931323 ], [ 530158.329482780885883, 7261320.0 ], [ 530153.768501089187339, 7261330.0 ], [ 530150.088040409144014, 7261340.0 ], [ 530146.701831153710373, 7261350.0 ], [ 530143.311127444263548, 7261360.0 ], [ 530140.01028196583502, 7261370.0 ], [ 530136.766630999278277, 7261380.0 ], [ 530133.670178714208305, 7261390.0 ], [ 530131.104585926048458, 7261400.0 ], [ 530128.907480461173691, 7261410.0 ], [ 530126.416077273664996, 7261420.0 ], [ 530123.670178714208305, 7261430.0 ], [ 530121.454247441026382, 7261440.0 ], [ 530120.0, 7261450.0 ], [ 530118.54664476972539, 7261460.0 ], [ 530116.340995462262072, 7261470.000000000931323 ], [ 530113.671070924960077, 7261480.0 ], [ 530111.540503428666852, 7261490.0 ], [ 530110.447091679205187, 7261500.0 ], [ 530110.086255987756886, 7261510.0 ], [ 530110.0, 7261520.0 ], [ 530109.913744012243114, 7261530.0 ], [ 530109.552908320911229, 7261539.999553894624114 ], [ 530108.459496571333148, 7261549.993520701304078 ], [ 530106.329821285791695, 7261559.944359513930976 ], [ 530103.670178714208305, 7261569.6772395754233 ], [ 530101.540503428783268, 7261578.683442020788789 ], [ 530100.447091679205187, 7261586.078100949525833 ], [ 530100.087148198508658, 7261591.078100949525833 ] ] } },
{ "type": "Feature", "properties": { "id": 13, "reference_id": 9, "dune_id": 9, "dune_name": "Inverted Y Dune", "acquisition_date": "2017-06-24", "length_m": 172.78442565563017 }, "geometry": { "type": "LineString", "coordinates": [ [ 529748.372348372940905, 7261995.756988408043981 ], [ 529745.881837395951152, 7262002.086809693835676 ], [ 529742.118501109071076, 7262010.546306264586747 ], [ 529737.782284305430949, 7262020.099214585497975 ], [ 529733.659004537737928, 7262030.012066386640072 ], [ 529729.999107789364643, 7262040.000892210751772 ], [ 529726.329821285791695, 7262050.0 ], [ 529722.129675285541452, 7262060.0 ], [ 529717.423233035369776, 7262070.0 ], [ 529712.489618766121566, 7262080.0 ], [ 529707.499207057291642, 7262090.0 ], [ 529702.500792942708358, 7262100.0 ], [ 529697.511273444397375, 7262109.999107789248228 ], [ 529692.5879411411006, 7262119.987933613359928 ], [ 529687.958365123602562, 7262129.900785414502025 ], [ 529684.128444569883868, 7262139.453693735413253 ], [ 529681.628543837927282, 7262147.913190307095647 ], [ 529680.458265855675563, 7262154.243011591956019 ] ] } },
{ "type": "Feature", "properties": { "id": 14, "reference_id": 9, "dune_id": 9, "dune_name": "Inverted Y Dune", "acquisition_date": "2017-06-24", "length_m": 513.45627361163849 }, "geometry": { "type": "LineString", "coordinates": [ [ 530097.91319030651357, 7261598.910724874585867 ], [ 530094.243011592421681, 7261603.834750852547586 ], [ 530087.913190306629986, 7261610.868574090301991 ], [ 530079.453693735180423, 7261618.771082820370793 ], [ 530069.900785414502025, 7261626.297421364113688 ], [ 530059.987933612894267, 7261633.218392157927155 ], [ 530049.999107789364643, 7261639.913297906517982 ], [ 530040.0, 7261646.328929075971246 ], [ 530030.0, 7261652.205649306997657 ], [ 530020.0, 7261657.794350693002343 ], [ 530010.0, 7261663.670178715139627 ], [ 530000.0, 7261670.075974022038281 ], [ 529990.0, 7261676.700938943773508 ], [ 529980.0, 7261683.310235233977437 ], [ 529970.0, 7261690.0 ], [ 529960.0, 7261696.690656977705657 ], [ 529950.0, 7261703.310235233977437 ], [ 529940.0, 7261710.0111741758883 ], [ 529930.0, 7261716.777805175632238 ], [ 529920.0, 7261723.757326913066208 ], [ 529910.0, 7261731.551677605137229 ], [ 529900.0, 7261740.447983890771866 ], [ 529890.0, 7261750.087148198857903 ], [ 529880.0, 7261760.011174176819623 ], [ 529870.000892210751772, 7261770.000892210751772 ], [ 529860.011174176470377, 7261780.0 ], [ 529850.087148198392242, 7261790.0 ], [ 529840.447091679205187, 7261800.0 ], [ 529831.541395639418624, 7261810.0 ], [ 529823.682245101314038, 7261820.0 ], [ 529816.428143660770729, 7261830.0 ], [ 529808.994628659682348, 7261840.000000000931323 ], [ 529801.552569815889001, 7261850.0 ], [ 529795.222748530097306, 7261860.0 ], [ 529790.534239877597429, 7261870.0 ], [ 529786.864061163389124, 7261880.0 ], [ 529783.682245101314038, 7261890.0 ], [ 529781.104585926048458, 7261900.0 ], [ 529778.896306284703314, 7261910.0 ], [ 529776.329821285791695, 7261919.999107790179551 ], [ 529773.234261211473495, 7261929.987933613359928 ], [ 529770.000892210751772, 7261939.900785414502025 ], [ 529766.776912964996882, 7261949.453693736344576 ], [ 529763.757326912600547, 7261957.913190307095647 ], [ 529761.551677605137229, 7261964.243011592887342 ] ] } },
{ "type": "Feature", "properties": { "id": 15, "reference_id": 2, "dune_id": 2, "dune_name": "Big Mommy Dune", "acquisition_date": "2017-06-24", "length_m": 382.9371776638946 }, "geometry": { "type": "LineString", "coordinates": [ [ 528754.243011592305265, 7260848.448322394862771 ], [ 528747.91319030651357, 7260846.241780877113342 ], [ 528739.453693735180423, 7260843.211912859231234 ], [ 528729.900785414502025, 7260839.912851801142097 ], [ 528719.987933612894267, 7260836.328929075971246 ], [ 528709.999107789248228, 7260832.204757096245885 ], [ 528700.0, 7260827.783176516182721 ], [ 528690.0, 7260823.583030516281724 ], [ 528680.0, 7260819.62888234294951 ], [ 528670.0, 7260815.159543303772807 ], [ 528660.0, 7260809.629774553701282 ], [ 528650.0, 7260803.593312481418252 ], [ 528640.0, 7260797.859150538221002 ], [ 528630.0, 7260792.565592788159847 ], [ 528620.0, 7260787.433515001088381 ], [ 528610.0, 7260782.129675285890698 ], [ 528600.0, 7260776.319539319723845 ], [ 528590.0, 7260769.923133767209947 ], [ 528580.0, 7260763.299061057157815 ], [ 528570.0, 7260756.689764766953886 ], [ 528560.0, 7260750.0 ], [ 528550.0, 7260743.309343023225665 ], [ 528540.0, 7260736.689764766953886 ], [ 528530.0, 7260729.989718034863472 ], [ 528520.0, 7260723.233369001187384 ], [ 528510.0, 7260716.329821286723018 ], [ 528500.0, 7260708.896306284703314 ], [ 528490.0, 7260701.103693716228008 ], [ 528480.0, 7260693.670178715139627 ], [ 528470.000892210751772, 7260686.766630999743938 ], [ 528460.012066387105733, 7260680.0111741758883 ], [ 528450.099214585614391, 7260673.322301620617509 ], [ 528440.546306264819577, 7260666.788979352451861 ], [ 528432.08680969348643, 7260660.535132088698447 ], [ 528425.756988407694735, 7260655.309004518203437 ] ] } },
{ "type": "Feature", "properties": { "id": 16, "reference_id": 2, "dune_id": 2, "dune_name": "Big Mommy Dune", "acquisition_date": "2017-06-24", "length_m": 144.05137338708749 }, "geometry": { "type": "LineString", "coordinates": [ [ 528805.756988407694735, 7260871.551677605137229 ], [ 528812.08680969348643, 7260873.757326913066208 ], [ 528820.546306264819577, 7260876.776912964880466 ], [ 528830.099214585614391, 7260880.000892210751772 ], [ 528840.012066387105733, 7260883.234261211007833 ], [ 528850.000892210751772, 7260886.329821286723018 ], [ 528860.0, 7260888.896306284703314 ], [ 528870.0, 7260891.103693716228008 ], [ 528880.0, 7260893.670178714208305 ], [ 528890.0, 7260896.765738788992167 ], [ 528899.999107789364643, 7260899.999107789248228 ], [ 528909.987933612894267, 7260903.223087036050856 ], [ 528919.900785414385609, 7260906.242673087865114 ], [ 528929.453693735296838, 7260908.448322394862771 ], [ 528937.913190306629986, 7260909.552016111090779 ], [ 528944.243011592305265, 7260909.912851802073419 ] ] } },
{ "type": "Feature", "properties": { "id": 17, "reference_id": 2, "dune_id": 2, "dune_name": "Big Mommy Dune", "acquisition_date": "2017-06-24", "length_m": 51.851553388750766 }, "geometry": { "type": "LineString", "coordinates": [ [ 529015.756988407694735, 7260930.458265855908394 ], [ 529022.085917482851073, 7260931.627651628106833 ], [ 529030.534239877713844, 7260934.117270393297076 ], [ 529040.0, 7260937.870324714109302 ], [ 529049.465760122402571, 7260942.129675285890698 ], [ 529057.914082517265342, 7260945.882729606702924 ], [ 529064.243011592305265, 7260948.37234837282449 ] ] } },
{ "type": "Feature", "properties": { "id": 18, "reference_id": 6, "dune_id": 6, "dune_name": "The Star Dune", "acquisition_date": "2017-06-24", "length_m": 525.45279110448769 }, "geometry": { "type": "LineString", "coordinates": [ [ 533560.534239877597429, 7262844.243011592887342 ], [ 533561.988487318623811, 7262837.913190307095647 ], [ 533565.221856319461949, 7262829.453693736344576 ], [ 533570.087148198508658, 7262819.900785414502025 ], [ 533575.237301746965386, 7262809.987933613359928 ], [ 533579.564082497381605, 7262799.999107789248228 ], [ 533583.223087035119534, 7262790.0 ], [ 533586.678590590134263, 7262780.0 ], [ 533589.987933612894267, 7262770.0 ], [ 533593.222194824367762, 7262760.0 ], [ 533596.242673087399453, 7262750.0 ], [ 533598.448322394862771, 7262740.0 ], [ 533599.552016110159457, 7262730.0 ], [ 533599.913744012243114, 7262720.0 ], [ 533600.0, 7262710.0 ], [ 533600.086255987756886, 7262700.0 ], [ 533600.447091679205187, 7262690.0 ], [ 533601.540503428783268, 7262680.0 ], [ 533603.670178714208305, 7262670.0 ], [ 533606.329821285791695, 7262660.0 ], [ 533608.460388781968504, 7262650.0 ], [ 533609.56408249726519, 7262640.0 ], [ 533610.0, 7262630.0 ], [ 533610.436809713486582, 7262620.0 ], [ 533611.550785394501872, 7262610.0 ], [ 533613.757326912600547, 7262600.000000000931323 ], [ 533616.776912964996882, 7262590.0 ], [ 533620.000892210635357, 7262580.0 ], [ 533623.234261211473495, 7262570.0 ], [ 533626.329821285791695, 7262560.0 ], [ 533628.895414073951542, 7262550.0 ], [ 533631.093411749578081, 7262540.0 ], [ 533633.594204692286439, 7262530.0 ], [ 533636.405795307829976, 7262520.0 ], [ 533638.905696039786562, 7262510.0 ], [ 533641.094303960213438, 7262500.0 ], [ 533643.594204692286439, 7262490.0 ], [ 533646.405795307829976, 7262480.0 ], [ 533648.906588250538334, 7262470.0 ], [ 533651.104585926048458, 7262460.0 ], [ 533653.670178714208305, 7262450.0 ], [ 533656.765738788526505, 7262440.0 ], [ 533659.999107789248228, 7262430.0 ], [ 533663.223979245638475, 7262420.0 ], [ 533666.253847263869829, 7262410.0 ], [ 533668.535470593255013, 7262400.0 ], [ 533669.999107789364643, 7262390.0 ], [ 533671.453355230391026, 7262380.000892210751772 ], [ 533673.659004537737928, 7262370.012066387571394 ], [ 533676.328929075156339, 7262360.099214585497975 ], [ 533678.459496571333148, 7262350.546306264586747 ], [ 533679.552908320911229, 7262342.086809693835676 ], [ 533679.912851801607758, 7262335.756988408043981 ] ] } },
{ "type": "Feature", "properties": { "id": 19, "reference_id": 6, "dune_id": 6, "dune_name": "The Star Dune", "acquisition_date": "2017-06-24", "length_m": 182.205651794966 }, "geometry": { "type": "LineString", "coordinates": [ [ 533675.882729606702924, 7262254.243011592887342 ], [ 533672.129675285541452, 7262247.913190307095647 ], [ 533667.870324714574963, 7262239.453693734481931 ], [ 533664.117270393413492, 7262229.900785414502025 ], [ 533661.62765162717551, 7262219.987933613359928 ], [ 533660.458265855675563, 7262209.999107789248228 ], [ 533660.088040409144014, 7262200.0 ], [ 533660.011174176470377, 7262190.0 ], [ 533660.000892210751772, 7262180.0 ], [ 533659.999107789248228, 7262170.0 ], [ 533659.988825823529623, 7262160.0 ], [ 533659.913744012243114, 7262150.0 ], [ 533659.56408249726519, 7262140.0 ], [ 533658.545752559090033, 7262130.0 ], [ 533656.765738788526505, 7262120.000892210751772 ], [ 533655.123533944482915, 7262110.012066386640072 ], [ 533654.763590463669971, 7262100.099214585497975 ], [ 533655.236409536330029, 7262090.546306265518069 ], [ 533654.876466055517085, 7262082.086809693835676 ], [ 533653.234261211473495, 7262075.756988408043981 ] ] } },
{ "type": "Feature", "properties": { "id": 20, "reference_id": 5, "dune_id": 5, "dune_name": "The Star Dune", "acquisition_date": "2017-06-24", "length_m": 79.499833243534994 }, "geometry": { "type": "LineString", "coordinates": [ [ 534329.552908320794813, 7261464.243011591956019 ], [ 534328.459496571333148, 7261457.913190307095647 ], [ 534326.329821285791695, 7261449.453693736344576 ], [ 534323.670178714208305, 7261439.900785414502025 ], [ 534321.540503428666852, 7261429.9888258241117 ], [ 534320.447091679205187, 7261420.011174176819623 ], [ 534320.087148198392242, 7261410.099214585497975 ], [ 534320.011174176470377, 7261400.546306264586747 ], [ 534320.000892210751772, 7261392.086809693835676 ], [ 534320.0, 7261385.756988408043981 ] ] } },
{ "type": "Feature", "properties": { "id": 21, "reference_id": 5, "dune_id": 5, "dune_name": "The Star Dune", "acquisition_date": "2017-06-24", "length_m": 874.26155557596826 }, "geometry": { "type": "LineString", "coordinates": [ [ 533657.370221445453353, 7262041.078100949525833 ], [ 533660.163679927238263, 7262036.078100949525833 ], [ 533664.528470837743953, 7262028.683442020788789 ], [ 533670.235612226766534, 7262019.677239574491978 ], [ 533676.384569561574608, 7262009.944359513930976 ], [ 533682.212128606392071, 7261999.993520701304078 ], [ 533687.793904587160796, 7261989.999553894624114 ], [ 533693.6598967484897, 7261980.0 ], [ 533699.999107789364643, 7261970.0 ], [ 533706.328929075156339, 7261960.0 ], [ 533712.119393319706433, 7261950.0 ], [ 533717.346366802696139, 7261940.0 ], [ 533722.118501109071076, 7261930.0 ], [ 533726.318647109437734, 7261920.0 ], [ 533729.923133767326362, 7261910.0 ], [ 533733.299953267676756, 7261900.0 ], [ 533736.700046732323244, 7261890.0 ], [ 533740.075974022038281, 7261880.0 ], [ 533743.670178714208305, 7261870.0 ], [ 533747.795242903288454, 7261860.0 ], [ 533752.217715694569051, 7261850.0 ], [ 533756.428143660770729, 7261840.000000000931323 ], [ 533760.45915806631092, 7261830.0 ], [ 533765.298722552019171, 7261820.000892210751772 ], [ 533771.998769284342416, 7261810.011174177750945 ], [ 533780.535132088232785, 7261800.088040409609675 ], [ 533790.098322374979034, 7261790.458265855908394 ], [ 533800.012066387105733, 7261781.628543838858604 ], [ 533810.000892210635357, 7261774.128444570116699 ], [ 533820.0, 7261767.958365123718977 ], [ 533830.0, 7261762.587941141799092 ], [ 533840.0, 7261757.511273443698883 ], [ 533850.0, 7261752.500792942941189 ], [ 533860.0, 7261747.500099267810583 ], [ 533870.0, 7261742.500792942941189 ], [ 533880.0, 7261737.510381234809756 ], [ 533890.0, 7261732.576766965910792 ], [ 533900.0, 7261727.871216925792396 ], [ 533910.0, 7261723.680460680276155 ], [ 533920.0, 7261720.076866232790053 ], [ 533930.0, 7261716.700938943773508 ], [ 533940.0, 7261713.311127444729209 ], [ 533950.0, 7261710.0111741758883 ], [ 533960.0, 7261706.776912964880466 ], [ 533970.0, 7261703.746152736246586 ], [ 533980.0, 7261701.464529407210648 ], [ 533990.0, 7261700.000892210751772 ], [ 534000.0, 7261698.546644769608974 ], [ 534010.0, 7261696.340995462611318 ], [ 534020.0, 7261693.671070924960077 ], [ 534030.0, 7261691.539611218497157 ], [ 534040.0, 7261690.435917503200471 ], [ 534050.0, 7261690.0 ], [ 534060.0, 7261689.564082497730851 ], [ 534070.0, 7261688.460388783365488 ], [ 534080.0, 7261686.329821286723018 ], [ 534090.0, 7261683.670178715139627 ], [ 534100.0, 7261681.539611218497157 ], [ 534110.0, 7261680.435917503200471 ], [ 534120.0, 7261680.0 ], [ 534130.0, 7261679.564082497730851 ], [ 534140.0, 7261678.459496570751071 ], [ 534150.0, 7261676.317754898220301 ], [ 534160.0, 7261673.571856340393424 ], [ 534170.0, 7261671.005371341481805 ], [ 534180.0, 7261668.447430184110999 ], [ 534190.0, 7261664.778143680654466 ], [ 534200.0, 7261659.476042088121176 ], [ 534210.0, 7261653.211912859231234 ], [ 534220.0, 7261646.678590590134263 ], [ 534230.0, 7261639.999107789248228 ], [ 534240.0, 7261633.309343023225665 ], [ 534250.0, 7261626.689764766022563 ], [ 534260.0, 7261619.9888258241117 ], [ 534269.999107789248228, 7261613.222194824367762 ], [ 534279.987933612894267, 7261606.243565298616886 ], [ 534289.900785414502025, 7261598.460388782434165 ], [ 534299.453693735296838, 7261589.651230695657432 ], [ 534307.91319030651357, 7261580.459158066660166 ], [ 534314.243011592305265, 7261572.075635517947376 ], [ 534317.91319030651357, 7261565.756096197292209 ] ] } },
{ "type": "Feature", "properties": { "id": 22, "reference_id": 7, "dune_id": 7, "dune_name": "Inverted Y Dune", "acquisition_date": "2017-06-24", "length_m": 572.9013016982891 }, "geometry": { "type": "LineString", "coordinates": [ [ 530215.756988407694735, 7261650.0 ], [ 530222.08680969348643, 7261650.0 ], [ 530230.546306264703162, 7261650.0 ], [ 530240.099214585614391, 7261649.999107790179551 ], [ 530250.012066387105733, 7261649.9888258241117 ], [ 530260.000892210751772, 7261649.912851802073419 ], [ 530270.0, 7261649.552016111090779 ], [ 530280.0, 7261648.448322394862771 ], [ 530290.0, 7261646.242673087865114 ], [ 530300.0, 7261643.222194824367762 ], [ 530310.0, 7261639.9888258241117 ], [ 530320.0, 7261636.688872556202114 ], [ 530330.0, 7261633.299061057157815 ], [ 530340.0, 7261629.924025978893042 ], [ 530350.0, 7261626.329821285791695 ], [ 530360.0, 7261622.204757097177207 ], [ 530370.0, 7261617.783176516182721 ], [ 530380.0, 7261613.583030516281724 ], [ 530390.0, 7261609.627990132197738 ], [ 530400.0, 7261605.148369127884507 ], [ 530410.0, 7261599.541734145022929 ], [ 530420.0, 7261593.135046625509858 ], [ 530430.000000000116415, 7261586.231498911976814 ], [ 530440.0, 7261578.447430184110999 ], [ 530450.0, 7261569.552016110159457 ], [ 530460.0, 7261559.912851802073419 ], [ 530469.999107789364643, 7261549.9888258241117 ], [ 530479.988825823529623, 7261539.999107789248228 ], [ 530489.912851801607758, 7261530.0 ], [ 530499.552016110159457, 7261520.0 ], [ 530508.448322394862771, 7261510.0 ], [ 530516.242673087399453, 7261500.0 ], [ 530523.222194824367762, 7261490.0 ], [ 530529.988825823529623, 7261480.0 ], [ 530536.689764766488224, 7261470.000000000931323 ], [ 530543.309343022760004, 7261460.0 ], [ 530550.0, 7261450.0 ], [ 530556.690656977239996, 7261440.0 ], [ 530563.310235233511776, 7261430.0 ], [ 530570.011174176470377, 7261420.0 ], [ 530576.777805175632238, 7261410.0 ], [ 530583.757326912600547, 7261400.0 ], [ 530591.551677605137229, 7261390.0 ], [ 530600.447983889840543, 7261380.0 ], [ 530610.086255987756886, 7261370.000892210751772 ], [ 530619.999107789364643, 7261360.012066386640072 ], [ 530629.901677625137381, 7261350.099214585497975 ], [ 530639.453693735296838, 7261340.546306265518069 ], [ 530647.913190306629986, 7261332.086809693835676 ], [ 530654.243011592305265, 7261325.756988408043981 ] ] } }
]
}
