{
"type": "FeatureCollection",
"name": "crests_2026_08_2026-08-03",
"crs": { "type": "name", "properties": { "name": "urn:ogc:def:crs:EPSG::32733" } },
"features": [
{ "type": "Feature", "properties": { "id": 0, "reference_id": 5, "dune_id": 5, "dune_name": "The Star Dune", "acquisition_date": "2026-08-03", "length_m": 1145.7449342308778 }, "geometry": { "type": "LineString", "coordinates": [ [ 533650.535132088349201, 7262041.078100949525833 ], [ 533651.999661495094188, 7262036.078100949525833 ], [ 533655.309004517737776, 7262028.683442020788789 ], [ 533660.535132088232785, 7262019.677239574491978 ], [ 533666.788087141467258, 7262009.944359513930976 ], [ 533673.311127444263548, 7261999.993520701304078 ], [ 533679.924025978078134, 7261989.999553894624114 ], [ 533686.31953932007309, 7261980.0 ], [ 533692.128783074789681, 7261970.0 ], [ 533697.423233035369776, 7261960.0 ], [ 533702.489618766237982, 7261950.0 ], [ 533707.498314846656285, 7261940.0 ], [ 533712.489618766237982, 7261930.0 ], [ 533717.423233035253361, 7261920.0 ], [ 533722.128783074906096, 7261910.0 ], [ 533726.319539319956675, 7261900.0 ], [ 533729.923133767326362, 7261890.0 ], [ 533733.299061057041399, 7261880.0 ], [ 533736.689764766488224, 7261870.0 ], [ 533740.000892210751772, 7261860.0 ], [ 533743.321409409865737, 7261850.0 ], [ 533746.788979352102615, 7261840.000000000931323 ], [ 533750.535132088349201, 7261830.0 ], [ 533755.309004517854191, 7261820.000892210751772 ], [ 533761.999661495094188, 7261810.011174177750945 ], [ 533770.535132088349201, 7261800.088040409609675 ], [ 533780.098322374979034, 7261790.458265855908394 ], [ 533790.012066387105733, 7261781.628543838858604 ], [ 533800.000892210751772, 7261774.128444570116699 ], [ 533810.0, 7261767.958365123718977 ], [ 533820.0, 7261762.587941141799092 ], [ 533830.0, 7261757.511273443698883 ], [ 533840.0, 7261752.500792942941189 ], [ 533850.0, 7261747.500099267810583 ], [ 533860.0, 7261742.499900732189417 ], [ 533870.0, 7261737.500099267810583 ], [ 533880.0, 7261732.500792942941189 ], [ 533890.0, 7261727.510381233878434 ], [ 533900.0, 7261722.576766964048147 ], [ 533910.0, 7261717.871216924861073 ], [ 533920.0, 7261713.681352891027927 ], [ 533930.0, 7261710.088040409609675 ], [ 533940.0, 7261706.787194930948317 ], [ 533950.0, 7261703.747044946998358 ], [ 533960.0, 7261701.464529407210648 ], [ 533970.0, 7261700.000892210751772 ], [ 533980.0, 7261698.546644769608974 ], [ 533990.0, 7261696.340103251859546 ], [ 534000.0, 7261693.659896749071777 ], [ 534010.0, 7261691.453355230391026 ], [ 534020.0, 7261690.0 ], [ 534030.0, 7261688.546644769608974 ], [ 534040.0, 7261686.340995462611318 ], [ 534050.0, 7261683.671070925891399 ], [ 534060.0, 7261681.539611218497157 ], [ 534070.0, 7261680.435917503200471 ], [ 534080.0, 7261680.0 ], [ 534090.0, 7261679.564082497730851 ], [ 534100.0, 7261678.460388781502843 ], [ 534110.0, 7261676.329821285791695 ], [ 534120.0, 7261673.669286503456533 ], [ 534130.0, 7261671.529329252429307 ], [ 534140.0, 7261670.359051270410419 ], [ 534150.0, 7261669.62888234294951 ], [ 534160.0, 7261668.382630338892341 ], [ 534170.0, 7261665.871555430814624 ], [ 534180.0, 7261662.031352911144495 ], [ 534190.0, 7261657.335192626342177 ], [ 534200.0, 7261652.117608899250627 ], [ 534210.0, 7261646.317754899151623 ], [ 534220.0, 7261639.912851801142097 ], [ 534230.0, 7261633.223087035119534 ], [ 534240.0, 7261626.328929075039923 ], [ 534250.0, 7261618.895414074882865 ], [ 534260.0, 7261611.092519539408386 ], [ 534269.999107789248228, 7261603.583030516281724 ], [ 534279.987933612894267, 7261596.318647108972073 ], [ 534289.900785414502025, 7261588.458604360930622 ], [ 534299.453693735296838, 7261579.552908320911229 ], [ 534307.914082517265342, 7261569.912851802073419 ], [ 534314.254185768892057, 7261559.9888258241117 ], [ 534318.000338505022228, 7261549.999107789248228 ], [ 534319.900785414385609, 7261540.0 ], [ 534321.440396632417105, 7261530.0 ], [ 534323.646938150632195, 7261520.0 ], [ 534326.241780876764096, 7261510.0 ], [ 534328.012404892127961, 7261500.0 ], [ 534328.012404892127961, 7261490.0 ], [ 534326.242673087399453, 7261480.0 ], [ 534323.659004537737928, 7261470.000000000931323 ], [ 534321.539611218031496, 7261460.0 ], [ 534320.446199468453415, 7261450.0 ], [ 534320.075974021921866, 7261440.0 ], [ 534319.924025978078134, 7261430.0 ], [ 534319.553800531546585, 7261420.0 ], [ 534318.459496571216732, 7261410.0 ], [ 534316.329821285791695, 7261400.0 ], [ 534313.670178714208305, 7261390.0 ], [ 534311.541395639418624, 7261380.0 ], [ 534310.45915806631092, 7261370.0 ], [ 534310.186362784006633, 7261360.0 ], [ 534310.556588230538182, 7261350.000892210751772 ], [ 534312.075635517016053, 7261340.012066386640072 ], [ 534315.657773822080344, 7261330.099214585497975 ], [ 534321.540503428666852, 7261320.546306264586747 ], [ 534328.459496571333148, 7261312.086809693835676 ], [ 534334.342226177919656, 7261305.756988408043981 ] ] } },
{ "type": "Feature", "properties": { "id": 1, "reference_id": 8, "dune_id": 8, "dune_name": "Inverted Y Dune", "acquisition_date": "2026-08-03", "length_m": 421.20641266218826 }, "geometry": { "type": "LineString", "coordinates": [ [ 530264.243011592421681, 7261221.628543838858604 ], [ 530257.913190306629986, 7261224.129336780868471 ], [ 530249.453693735180423, 7261227.969539299607277 ], [ 530239.900785414502025, 7261232.675981549546123 ], [ 530229.987933612777852, 7261237.969539300538599 ], [ 530219.999107789248228, 7261244.129336779937148 ], [ 530210.000892210751772, 7261251.628543837927282 ], [ 530200.011174176586792, 7261260.458265855908394 ], [ 530190.088040409144014, 7261270.088040409609675 ], [ 530180.458265855675563, 7261280.0111741758883 ], [ 530171.628543837927282, 7261290.000892210751772 ], [ 530164.129336780519225, 7261300.0 ], [ 530157.968647089553997, 7261310.000000000931323 ], [ 530152.664807373890653, 7261320.0 ], [ 530147.882391101680696, 7261330.0 ], [ 530143.681352890678681, 7261340.0 ], [ 530140.076866232673638, 7261350.0 ], [ 530136.700938943075016, 7261360.0 ], [ 530133.311127444147132, 7261370.0 ], [ 530130.01028196583502, 7261380.0 ], [ 530126.766630999278277, 7261390.0 ], [ 530123.670178714208305, 7261400.0 ], [ 530121.104585926048458, 7261410.0 ], [ 530118.907480461173691, 7261420.0 ], [ 530116.416077273548581, 7261430.0 ], [ 530113.670178714208305, 7261440.0 ], [ 530111.454247441026382, 7261450.0 ], [ 530110.0, 7261460.0 ], [ 530108.54664476972539, 7261470.000000000931323 ], [ 530106.340995462262072, 7261480.0 ], [ 530103.671070924960077, 7261490.0 ], [ 530101.540503428783268, 7261500.0 ], [ 530100.447091679205187, 7261510.0 ], [ 530100.087148198508658, 7261520.0 ], [ 530100.010728071210906, 7261529.999553894624114 ], [ 530099.995305122458376, 7261539.993520701304078 ], [ 530099.956425900803879, 7261549.944359513930976 ], [ 530099.776454160455614, 7261559.6772395754233 ], [ 530099.229748285608366, 7261568.683442020788789 ], [ 530098.164910642895848, 7261576.078100949525833 ], [ 530096.835089357104152, 7261581.078100949525833 ] ] } },
{ "type": "Feature", "properties": { "id": 2, "reference_id": 8, "dune_id": 8, "dune_name": "Inverted Y Dune", "acquisition_date": "2026-08-03", "length_m": 168.75182030541441 }, "geometry": { "type": "LineString", "coordinates": [ [ 530554.243011592305265, 7261172.075635517016053 ], [ 530547.91319030651357, 7261175.668947998434305 ], [ 530539.453693735296838, 7261181.627651628106833 ], [ 530529.900785414385609, 7261188.906588250771165 ], [ 530519.987933612894267, 7261195.882729606702924 ], [ 530509.999107789248228, 7261201.595435407944024 ], [ 530500.0, 7261205.78440723195672 ], [ 530490.0, 7261208.360281986184418 ], [ 530480.0, 7261209.540841934271157 ], [ 530470.0, 7261209.911959591321647 ], [ 530460.0, 7261209.9888258241117 ], [ 530450.0, 7261209.999107790179551 ], [ 530440.000892210751772, 7261210.000000000931323 ], [ 530430.012066387222148, 7261210.000000000931323 ], [ 530420.099214585614391, 7261210.000000000931323 ], [ 530410.546306264819577, 7261210.000000000931323 ], [ 530402.08680969348643, 7261210.000000000931323 ], [ 530395.756988407694735, 7261210.000000000931323 ] ] } },
{ "type": "Feature", "properties": { "id": 3, "reference_id": 9, "dune_id": 9, "dune_name": "Inverted Y Dune", "acquisition_date": "2026-08-03", "length_m": 767.42900901836708 }, "geometry": { "type": "LineString", "coordinates": [ [ 530092.618604378192686, 7261588.921006839722395 ], [ 530089.748279663734138, 7261593.910724874585867 ], [ 530085.013263306696899, 7261601.22940978128463 ], [ 530078.136736146174371, 7261609.874776534736156 ], [ 530069.497267834376544, 7261618.503962881863117 ], [ 530059.906372502679005, 7261626.248260175809264 ], [ 530049.988379718270153, 7261633.212358963675797 ], [ 530039.999107789364643, 7261639.912851801142097 ], [ 530030.0, 7261646.328929075971246 ], [ 530020.0, 7261652.205649306997657 ], [ 530010.0, 7261657.794350693002343 ], [ 530000.0, 7261663.670178715139627 ], [ 529990.0, 7261670.075974022038281 ], [ 529980.0, 7261676.700938943773508 ], [ 529970.0, 7261683.311127444729209 ], [ 529960.0, 7261690.011174176819623 ], [ 529950.0, 7261696.777805175632238 ], [ 529940.0, 7261703.757326913066208 ], [ 529930.0, 7261711.551677605137229 ], [ 529920.0, 7261720.447983889840543 ], [ 529910.0, 7261730.087148198857903 ], [ 529900.0, 7261740.011174176819623 ], [ 529890.0, 7261750.000892210751772 ], [ 529880.0, 7261760.0 ], [ 529870.0, 7261770.0 ], [ 529860.000892210751772, 7261780.0 ], [ 529850.011174176470377, 7261790.0 ], [ 529840.087148198392242, 7261800.0 ], [ 529830.447983889840543, 7261810.0 ], [ 529821.552569815889001, 7261820.0 ], [ 529813.768501089187339, 7261830.0 ], [ 529806.864953374140896, 7261840.000000000931323 ], [ 529800.45915806631092, 7261850.0 ], [ 529794.861912838649005, 7261860.0 ], [ 529790.447983889840543, 7261870.0 ], [ 529786.776912964996882, 7261880.0 ], [ 529783.310235233511776, 7261890.0 ], [ 529779.924918188713491, 7261900.0 ], [ 529776.329821285791695, 7261910.0 ], [ 529772.205649307463318, 7261920.0 ], [ 529767.794350692536682, 7261930.0 ], [ 529763.670178714208305, 7261940.0 ], [ 529760.075974022038281, 7261950.0 ], [ 529756.700046732323244, 7261960.0 ], [ 529753.299953267676756, 7261970.0 ], [ 529749.923133767326362, 7261980.0 ], [ 529746.31953932007309, 7261990.0 ], [ 529742.128783074789681, 7262000.0 ], [ 529737.423233035369776, 7262010.0 ], [ 529732.490510976873338, 7262020.0 ], [ 529727.509489023126662, 7262030.0 ], [ 529722.576766964630224, 7262040.0 ], [ 529717.870324714574963, 7262050.0 ], [ 529713.670178714208305, 7262060.0 ], [ 529710.0, 7262070.0 ], [ 529706.329821285791695, 7262080.0 ], [ 529702.130567496176809, 7262090.0 ], [ 529697.433515001088381, 7262100.0 ], [ 529692.566484998911619, 7262110.0 ], [ 529687.870324714458548, 7262120.0 ], [ 529683.680460680043325, 7262130.0 ], [ 529680.076866232673638, 7262140.0 ], [ 529676.700938943075016, 7262149.999107789248228 ], [ 529673.311127444147132, 7262159.987933613359928 ], [ 529670.011174176470377, 7262169.900785414502025 ], [ 529666.777805175632238, 7262179.453693735413253 ], [ 529663.757326912600547, 7262187.913190307095647 ], [ 529661.551677605137229, 7262194.243011591956019 ] ] } },
{ "type": "Feature", "properties": { "id": 4, "reference_id": 3, "dune_id": 3, "dune_name": "Big Mommy Dune", "acquisition_date": "2026-08-03", "length_m": 336.515598742983 }, "geometry": { "type": "LineString", "coordinates": [ [ 529374.243011592305265, 7260695.756988408043981 ], [ 529367.91319030651357, 7260702.086809693835676 ], [ 529359.453693735180423, 7260710.546306265518069 ], [ 529349.900785414502025, 7260720.099214585497975 ], [ 529339.988825823529623, 7260730.012066388502717 ], [ 529330.01028196583502, 7260740.000892210751772 ], [ 529320.087148198508658, 7260750.0 ], [ 529310.447983889956959, 7260760.0 ], [ 529301.551677605253644, 7260770.0 ], [ 529293.757326912600547, 7260780.000000000931323 ], [ 529286.776912964996882, 7260790.0 ], [ 529280.000892210751772, 7260800.0 ], [ 529273.234261211473495, 7260810.0 ], [ 529266.329821285791695, 7260820.0 ], [ 529258.896306284703314, 7260830.0 ], [ 529251.103693715296686, 7260840.0 ], [ 529243.671070924960077, 7260850.0 ], [ 529236.776912964996882, 7260860.0 ], [ 529230.086255987756886, 7260870.0 ], [ 529223.671070924960077, 7260880.0 ], [ 529217.794350692536682, 7260890.0 ], [ 529212.206541518098675, 7260900.0 ], [ 529206.3401032515103, 7260910.0 ], [ 529200.000892210751772, 7260919.999107789248228 ], [ 529193.671070924960077, 7260929.987933613359928 ], [ 529187.881498891045339, 7260939.900785414502025 ], [ 529182.664807373774238, 7260949.453693735413253 ], [ 529177.968647089437582, 7260957.913190307095647 ], [ 529174.129336780519225, 7260964.243011592887342 ] ] } },
{ "type": "Feature", "properties": { "id": 5, "reference_id": 3, "dune_id": 3, "dune_name": "Big Mommy Dune", "acquisition_date": "2026-08-03", "length_m": 647.1029097846681 }, "geometry": { "type": "LineString", "coordinates": [ [ 529405.756988407694735, 7260679.552016109228134 ], [ 529412.08680969348643, 7260678.448322394862771 ], [ 529420.546306264819577, 7260676.242673087865114 ], [ 529430.099214585614391, 7260673.222194824367762 ], [ 529440.012066387222148, 7260669.9888258241117 ], [ 529450.000892210751772, 7260666.689764766953886 ], [ 529460.0, 7260663.310235233977437 ], [ 529470.0, 7260660.010281966067851 ], [ 529480.0, 7260656.766630999743938 ], [ 529490.0, 7260653.670178714208305 ], [ 529500.000000000116415, 7260651.10458592697978 ], [ 529510.0, 7260648.906588250771165 ], [ 529520.0, 7260646.405795307829976 ], [ 529530.0, 7260643.594204693101346 ], [ 529540.0, 7260641.094303959980607 ], [ 529550.0, 7260638.906588250771165 ], [ 529560.0, 7260636.416969483718276 ], [ 529570.0, 7260633.680460680276155 ], [ 529580.0, 7260631.530221463181078 ], [ 529590.0, 7260630.35994348116219 ], [ 529600.0, 7260629.64005651883781 ], [ 529610.0, 7260628.470670747570693 ], [ 529620.0, 7260626.330713496543467 ], [ 529630.0, 7260623.670178714208305 ], [ 529640.0, 7260621.540503429248929 ], [ 529650.0, 7260620.447091679088771 ], [ 529660.0, 7260620.086255988106132 ], [ 529670.0, 7260620.0 ], [ 529680.0, 7260619.913744012825191 ], [ 529690.0, 7260619.552908320911229 ], [ 529700.0, 7260618.459496571682394 ], [ 529710.0, 7260616.329821286723018 ], [ 529720.0, 7260613.670178715139627 ], [ 529730.0, 7260611.540503429248929 ], [ 529740.0, 7260610.447091680020094 ], [ 529750.0, 7260610.087148198857903 ], [ 529760.0, 7260610.011174176819623 ], [ 529770.0, 7260610.000892210751772 ], [ 529780.0, 7260610.0 ], [ 529790.0, 7260610.0 ], [ 529800.0, 7260610.0 ], [ 529810.0, 7260610.0 ], [ 529820.0, 7260610.0 ], [ 529830.0, 7260610.0 ], [ 529840.0, 7260610.0 ], [ 529850.0, 7260610.0 ], [ 529860.0, 7260610.0 ], [ 529870.0, 7260610.0 ], [ 529880.0, 7260610.0 ], [ 529890.0, 7260610.0 ], [ 529900.0, 7260610.0 ], [ 529910.0, 7260610.0 ], [ 529920.0, 7260610.0 ], [ 529930.0, 7260610.0 ], [ 529940.0, 7260610.0 ], [ 529950.0, 7260610.0 ], [ 529960.0, 7260610.0 ], [ 529970.0, 7260610.0 ], [ 529980.0, 7260610.0 ], [ 529990.0, 7260610.0 ], [ 529999.999107789364643, 7260610.0 ], [ 530009.987933612894267, 7260610.0 ], [ 530019.900785414502025, 7260610.0 ], [ 530029.453693735180423, 7260610.0 ], [ 530037.91319030651357, 7260610.0 ], [ 530044.243011592305265, 7260610.0 ] ] } },
{ "type": "Feature", "properties": { "id": 6, "reference_id": 3, "dune_id": 3, "dune_name": "Big Mommy Dune", "acquisition_date": "2026-08-03", "length_m": 161.73201234061065 }, "geometry": { "type": "LineString", "coordinates": [ [ 530085.756988407694735, 7260599.9888258241117 ], [ 530092.08680969348643, 7260599.912851802073419 ], [ 530100.546306264819577, 7260599.552908321842551 ], [ 530110.099214585614391, 7260598.458604360930622 ], [ 530120.012066387222148, 7260596.318647108972073 ], [ 530130.000892210751772, 7260593.583030516281724 ], [ 530140.0, 7260591.093411749228835 ], [ 530150.0, 7260588.906588250771165 ], [ 530160.0, 7260586.416077273897827 ], [ 530170.000000000116415, 7260583.670178714208305 ], [ 530180.0, 7260581.454247441142797 ], [ 530190.0, 7260580.0 ], [ 530199.999107789248228, 7260578.546644769608974 ], [ 530209.987933612894267, 7260576.340995462611318 ], [ 530219.900785414385609, 7260573.671070925891399 ], [ 530229.453693735180423, 7260571.540503429248929 ], [ 530237.91319030651357, 7260570.447091680020094 ], [ 530244.243011592421681, 7260570.087148198857903 ] ] } },
{ "type": "Feature", "properties": { "id": 7, "reference_id": 4, "dune_id": 4, "dune_name": "The Star Dune", "acquisition_date": "2026-08-03", "length_m": 498.83419886266677 }, "geometry": { "type": "LineString", "coordinates": [ [ 533005.756988407694735, 7261870.447091680020094 ], [ 533012.08680969348643, 7261871.540503429248929 ], [ 533020.546306264819577, 7261873.671070925891399 ], [ 533030.099214585614391, 7261876.340995462611318 ], [ 533040.012066387105733, 7261878.546644769608974 ], [ 533050.000892210751772, 7261880.0 ], [ 533060.0, 7261881.454247441142797 ], [ 533070.0, 7261883.670178714208305 ], [ 533080.0, 7261886.416077273897827 ], [ 533090.0, 7261888.907480461522937 ], [ 533100.0, 7261891.10458592697978 ], [ 533110.0, 7261893.670178715139627 ], [ 533120.0, 7261896.765738788992167 ], [ 533130.0, 7261900.0 ], [ 533140.0, 7261903.234261211939156 ], [ 533150.0, 7261906.329821286723018 ], [ 533160.0, 7261908.895414074882865 ], [ 533170.0, 7261911.093411750160158 ], [ 533180.0, 7261913.594204692170024 ], [ 533190.0, 7261916.405795307829976 ], [ 533200.0, 7261918.905696040019393 ], [ 533210.0, 7261921.094303959980607 ], [ 533220.0, 7261923.594204692170024 ], [ 533230.0, 7261926.405795307829976 ], [ 533240.0, 7261928.906588250771165 ], [ 533250.0, 7261931.104585926048458 ], [ 533260.0, 7261933.670178715139627 ], [ 533270.0, 7261936.765738788992167 ], [ 533280.0, 7261940.0 ], [ 533290.0, 7261943.234261211007833 ], [ 533300.0, 7261946.329821284860373 ], [ 533310.0, 7261948.896306285634637 ], [ 533320.0, 7261951.103693716228008 ], [ 533330.0, 7261953.670178715139627 ], [ 533340.0, 7261956.766630999743938 ], [ 533350.0, 7261960.010281966999173 ], [ 533360.0, 7261963.310235233977437 ], [ 533370.0, 7261966.690656977705657 ], [ 533380.000000000116415, 7261970.0 ], [ 533390.0, 7261973.310235233977437 ], [ 533400.000000000116415, 7261976.700938943773508 ], [ 533410.0, 7261980.075974022969604 ], [ 533420.0, 7261983.670178715139627 ], [ 533430.0, 7261987.794350693002343 ], [ 533439.999107789364643, 7261992.205649307928979 ], [ 533449.987933612894267, 7261996.328929075971246 ], [ 533459.900785414385609, 7261999.912851801142097 ], [ 533469.453693735180423, 7262003.211912859231234 ], [ 533477.913190306629986, 7262006.241780877113342 ], [ 533484.243011592421681, 7262008.448322394862771 ] ] } },
{ "type": "Feature", "properties": { "id": 8, "reference_id": 4, "dune_id": 4, "dune_name": "The Star Dune", "acquisition_date": "2026-08-03", "length_m": 109.76914154459106 }, "geometry": { "type": "LineString", "coordinates": [ [ 533525.756988407694735, 7262030.458265855908394 ], [ 533532.086809693602845, 7262031.62765162717551 ], [ 533540.546306264819577, 7262034.117270394228399 ], [ 533550.099214585614391, 7262037.871216925792396 ], [ 533560.012066387105733, 7262042.140849461778998 ], [ 533570.000892210751772, 7262045.969877805560827 ], [ 533579.999553894740529, 7262048.819440051913261 ], [ 533589.993520701071247, 7262051.082237573340535 ], [ 533599.94435951358173, 7262053.582138305529952 ], [ 533609.677239574841224, 7262056.318647109903395 ], [ 533618.683442020905204, 7262058.458604361861944 ], [ 533626.078100949409418, 7262059.552908321842551 ], [ 533631.078100949525833, 7262059.912851803004742 ] ] } },
{ "type": "Feature", "properties": { "id": 9, "reference_id": 7, "dune_id": 7, "dune_name": "Inverted Y Dune", "acquisition_date": "2026-08-03", "length_m": 652.5517062010199 }, "geometry": { "type": "LineString", "coordinates": [ [ 530135.756988407694735, 7261646.340995462611318 ], [ 530142.08680969348643, 7261643.757326913066208 ], [ 530150.546306264819577, 7261641.987595107406378 ], [ 530160.099214585614391, 7261641.987595107406378 ], [ 530170.012066387222148, 7261643.757326913066208 ], [ 530180.000892210751772, 7261646.340995462611318 ], [ 530190.0, 7261648.460388782434165 ], [ 530200.0, 7261649.552908321842551 ], [ 530210.0, 7261649.912851802073419 ], [ 530220.0, 7261649.987933613359928 ], [ 530230.0, 7261649.987933613359928 ], [ 530240.0, 7261649.912851802073419 ], [ 530250.0, 7261649.552908321842551 ], [ 530260.0, 7261648.458604361861944 ], [ 530270.0, 7261646.318647109903395 ], [ 530280.0, 7261643.583030516281724 ], [ 530290.0, 7261641.092519538477063 ], [ 530300.0, 7261638.895414074882865 ], [ 530310.0, 7261636.329821285791695 ], [ 530320.0, 7261633.233369001187384 ], [ 530330.0, 7261629.989718034863472 ], [ 530340.0, 7261626.688872555270791 ], [ 530350.0, 7261623.299061057157815 ], [ 530360.0, 7261619.92313376814127 ], [ 530370.0, 7261616.318647109903395 ], [ 530380.0, 7261612.118501109071076 ], [ 530390.0, 7261607.346366802230477 ], [ 530400.0, 7261602.118501110002398 ], [ 530410.0, 7261596.317754898220301 ], [ 530420.0, 7261589.911959591321647 ], [ 530430.000000000116415, 7261583.211912859231234 ], [ 530440.0, 7261576.241780877113342 ], [ 530450.0, 7261568.448322394862771 ], [ 530460.0, 7261559.552016111090779 ], [ 530469.999107789364643, 7261549.912851801142097 ], [ 530479.988825823529623, 7261539.9888258241117 ], [ 530489.912851801607758, 7261529.999107789248228 ], [ 530499.552016110159457, 7261520.0 ], [ 530508.448322394862771, 7261510.0 ], [ 530516.242673087399453, 7261500.0 ], [ 530523.222194824367762, 7261490.0 ], [ 530529.988825823529623, 7261480.0 ], [ 530536.689764766488224, 7261470.000000000931323 ], [ 530543.309343022760004, 7261460.0 ], [ 530550.0, 7261450.0 ], [ 530556.690656977239996, 7261440.0 ], [ 530563.310235233511776, 7261430.0 ], [ 530570.011174176470377, 7261420.0 ], [ 530576.777805175632238, 7261410.0 ], [ 530583.757326912600547, 7261400.0 ], [ 530591.551677605137229, 7261390.0 ], [ 530600.447983889840543, 7261380.0 ], [ 530610.086255987756886, 7261370.000892210751772 ], [ 530619.999107789364643, 7261360.012066386640072 ], [ 530629.901677625137381, 7261350.099214585497975 ], [ 530639.453693735296838, 7261340.546306265518069 ], [ 530647.913190306629986, 7261332.086809693835676 ], [ 530654.243011592305265, 7261325.756988408043981 ] ] } },
{ "type": "Feature", "properties": { "id": 10, "reference_id": 1, "dune_id": 1, "dune_name": "Big Mommy Dune", "acquisition_date": "2026-08-03", "length_m": 1345.3853239819489 }, "geometry": { "type": "LineString", "coordinates": [ [ 529180.0, 7261045.756988408043981 ], [ 529180.0, 7261052.086809693835676 ], [ 529179.999107789364643, 7261060.546306265518069 ], [ 529179.988825823529623, 7261070.099214585497975 ], [ 529179.912851801607758, 7261080.012066387571394 ], [ 529179.552016110159457, 7261090.000892210751772 ], [ 529178.448322394862771, 7261100.0 ], [ 529176.242673087399453, 7261110.0 ], [ 529173.222194824367762, 7261120.000000000931323 ], [ 529169.988825823529623, 7261130.0 ], [ 529166.689764766488224, 7261140.0 ], [ 529163.309343022760004, 7261150.0 ], [ 529160.0, 7261160.0 ], [ 529156.690656977239996, 7261170.0 ], [ 529153.309343022760004, 7261180.0 ], [ 529150.0, 7261190.0 ], [ 529146.689764766488224, 7261200.0 ], [ 529143.299061056924984, 7261210.000000000931323 ], [ 529139.923133767326362, 7261220.0 ], [ 529136.319539319956675, 7261230.0 ], [ 529132.129675285425037, 7261240.0 ], [ 529127.433515001204796, 7261250.0 ], [ 529122.566484998911619, 7261260.0 ], [ 529117.869432503939606, 7261270.0 ], [ 529113.670178714208305, 7261280.0 ], [ 529110.0, 7261290.0 ], [ 529106.329821285791695, 7261300.0 ], [ 529102.130567496176809, 7261310.000000000931323 ], [ 529097.433515001204796, 7261320.0 ], [ 529092.566484998911619, 7261330.0 ], [ 529087.870324714574963, 7261340.0 ], [ 529083.680460680043325, 7261350.0 ], [ 529080.076866232557222, 7261360.0 ], [ 529076.700046732323244, 7261370.0 ], [ 529073.299953267676756, 7261380.0 ], [ 529069.924025978078134, 7261390.0 ], [ 529066.329821285791695, 7261400.0 ], [ 529062.205649307463318, 7261410.0 ], [ 529057.794350692536682, 7261420.0 ], [ 529053.671070924960077, 7261430.0 ], [ 529050.086255987756886, 7261440.0 ], [ 529046.776912964880466, 7261450.0 ], [ 529043.671070924843661, 7261460.0 ], [ 529041.104585926048458, 7261470.000000000931323 ], [ 529038.906588250538334, 7261480.0 ], [ 529036.405795307829976, 7261490.0 ], [ 529033.594204692286439, 7261500.0 ], [ 529031.094303960213438, 7261510.0 ], [ 529028.906588250538334, 7261520.0 ], [ 529026.416077273548581, 7261530.0 ], [ 529023.670178714208305, 7261540.0 ], [ 529021.454247440909967, 7261550.0 ], [ 529020.0, 7261560.000000000931323 ], [ 529018.54664476972539, 7261570.0 ], [ 529016.340995462378487, 7261580.0 ], [ 529013.671070924960077, 7261590.0 ], [ 529011.540503428783268, 7261600.0 ], [ 529010.447091679205187, 7261610.0 ], [ 529010.088040409144014, 7261620.0 ], [ 529010.022348352940753, 7261630.0 ], [ 529010.088040409144014, 7261640.0 ], [ 529010.447091679205187, 7261650.0 ], [ 529011.541395639418624, 7261660.0 ], [ 529013.681352890795097, 7261670.0 ], [ 529016.417861694935709, 7261680.0 ], [ 529018.917762426892295, 7261690.0 ], [ 529021.181452158722095, 7261700.0 ], [ 529024.042188582126983, 7261710.0 ], [ 529027.958365123718977, 7261720.0 ], [ 529032.675089339492843, 7261730.000000000931323 ], [ 529037.969539300072938, 7261740.0 ], [ 529044.128444569767453, 7261750.0 ], [ 529051.61736966134049, 7261760.0 ], [ 529060.370225446531549, 7261770.0 ], [ 529069.628882342833094, 7261780.0 ], [ 529078.371456162072718, 7261790.0 ], [ 529085.78440723172389, 7261800.0 ], [ 529091.584261231473647, 7261810.0 ], [ 529095.793796986807138, 7261820.0 ], [ 529098.436256007757038, 7261830.0 ], [ 529099.899893203750253, 7261840.000000000931323 ], [ 529100.993304953328334, 7261850.0 ], [ 529102.020178734092042, 7261860.0 ], [ 529102.123618272715248, 7261870.0 ], [ 529100.130013790447265, 7261880.0 ], [ 529095.78440723172389, 7261890.0 ], [ 529089.824811392463744, 7261900.0 ], [ 529083.287886880571023, 7261910.0 ], [ 529076.699154521571472, 7261920.0 ], [ 529070.076866232673638, 7261930.0 ], [ 529063.68046067992691, 7261940.0 ], [ 529057.871216925210319, 7261950.0 ], [ 529052.576766964630224, 7261960.0 ], [ 529047.510381233762018, 7261970.0 ], [ 529042.500792942708358, 7261980.0 ], [ 529037.500099268043414, 7261990.0 ], [ 529032.500792942708358, 7262000.0 ], [ 529027.510381233878434, 7262010.0 ], [ 529022.575874753994867, 7262020.0 ], [ 529017.860042748739943, 7262030.0 ], [ 529013.594204692170024, 7262040.0 ], [ 529009.640056519303471, 7262050.0 ], [ 529005.236409536330029, 7262060.0 ], [ 529000.0, 7262070.0 ], [ 528994.763590463786386, 7262080.0 ], [ 528990.359943480812944, 7262090.0 ], [ 528986.404903097078204, 7262100.0 ], [ 528982.128783074789681, 7262110.0 ], [ 528977.336084836977534, 7262120.0 ], [ 528972.031352910678834, 7262130.0 ], [ 528965.870663219480775, 7262139.999107789248228 ], [ 528958.371456162189133, 7262149.9888258241117 ], [ 528949.541734144324437, 7262159.912851801142097 ], [ 528939.911959590972401, 7262169.552016111090779 ], [ 528929.988825823529623, 7262178.448322394862771 ], [ 528919.999107789364643, 7262186.241780877113342 ], [ 528910.0, 7262193.211912859231234 ], [ 528900.0, 7262199.912851802073419 ], [ 528890.0, 7262206.328929075039923 ], [ 528880.000892210751772, 7262212.204757097177207 ], [ 528870.012066387105733, 7262217.782284306362271 ], [ 528860.099214585614391, 7262223.571856339462101 ], [ 528850.546306264819577, 7262229.540841933339834 ], [ 528842.086809693370014, 7262234.701277447864413 ], [ 528835.756988407694735, 7262238.001230715774 ] ] } },
{ "type": "Feature", "properties": { "id": 11, "reference_id": 2, "dune_id": 2, "dune_name": "Big Mommy Dune", "acquisition_date": "2026-08-03", "length_m": 382.77917249115609 }, "geometry": { "type": "LineString", "coordinates": [ [ 528754.243011592305265, 7260848.448322394862771 ], [ 528747.91319030651357, 7260846.241780877113342 ], [ 528739.453693735180423, 7260843.211912859231234 ], [ 528729.900785414502025, 7260839.911959590390325 ], [ 528719.987933612894267, 7260836.318647108972073 ], [ 528709.999107789248228, 7260832.128783075138927 ], [ 528700.0, 7260827.423233035951853 ], [ 528690.0, 7260822.489618766121566 ], [ 528680.0, 7260817.499207057058811 ], [ 528670.0, 7260812.499900732189417 ], [ 528660.0, 7260807.500099267810583 ], [ 528650.0, 7260802.499900732189417 ], [ 528640.0, 7260797.499207057990134 ], [ 528630.0, 7260792.489618767052889 ], [ 528620.0, 7260787.423233035951853 ], [ 528610.0, 7260782.128783075138927 ], [ 528600.0, 7260776.319539319723845 ], [ 528590.0, 7260769.923133767209947 ], [ 528580.0, 7260763.299061057157815 ], [ 528570.0, 7260756.689764766953886 ], [ 528560.0, 7260750.0 ], [ 528550.0, 7260743.309343023225665 ], [ 528540.0, 7260736.689764766953886 ], [ 528530.0, 7260729.989718034863472 ], [ 528520.0, 7260723.233369001187384 ], [ 528510.0, 7260716.329821286723018 ], [ 528500.0, 7260708.896306284703314 ], [ 528490.0, 7260701.103693716228008 ], [ 528480.0, 7260693.670178715139627 ], [ 528470.000892210751772, 7260686.766630999743938 ], [ 528460.012066387105733, 7260680.0111741758883 ], [ 528450.099214585614391, 7260673.322301620617509 ], [ 528440.546306264819577, 7260666.788979352451861 ], [ 528432.08680969348643, 7260660.535132088698447 ], [ 528425.756988407694735, 7260655.309004518203437 ] ] } },
{ "type": "Feature", "properties": { "id": 12, "reference_id": 2, "dune_id": 2, "dune_name": "Big Mommy Dune", "acquisition_date": "2026-08-03", "length_m": 355.81073148720725 }, "geometry": { "type": "LineString", "coordinates": [ [ 528785.756988407694735, 7260861.551677605137229 ], [ 528792.08680969348643, 7260863.757326913066208 ], [ 528800.546306264819577, 7260866.777805175632238 ], [ 528810.099214585614391, 7260870.011174176819623 ], [ 528820.012066387222148, 7260873.310235233977437 ], [ 528830.000892210751772, 7260876.690656977705657 ], [ 528840.0, 7260880.0 ], [ 528850.0, 7260883.309343023225665 ], [ 528860.0, 7260886.689764766022563 ], [ 528870.0, 7260889.989718034863472 ], [ 528880.0, 7260893.233369001187384 ], [ 528890.0, 7260896.329821285791695 ], [ 528900.0, 7260898.895414073951542 ], [ 528910.0, 7260901.093411750160158 ], [ 528920.0, 7260903.594204693101346 ], [ 528930.0, 7260906.405795308761299 ], [ 528940.0, 7260908.905696040019393 ], [ 528950.0, 7260911.094303959980607 ], [ 528960.0, 7260913.594204692170024 ], [ 528970.0, 7260916.405795307829976 ], [ 528980.0, 7260918.905696040019393 ], [ 528990.0, 7260921.094303959980607 ], [ 529000.0, 7260923.594204692170024 ], [ 529010.0, 7260926.405795307829976 ], [ 529020.0, 7260928.906588250771165 ], [ 529030.0, 7260931.105478137731552 ], [ 529040.0, 7260933.681352891027927 ], [ 529050.0, 7260936.852886986918747 ], [ 529060.0, 7260940.447091679088771 ], [ 529070.0, 7260944.774764640256763 ], [ 529079.999107789248228, 7260950.000000000931323 ], [ 529089.987933612894267, 7260955.225235359743237 ], [ 529099.900785414502025, 7260959.552016111090779 ], [ 529109.453693735296838, 7260963.13593883626163 ], [ 529117.91319030651357, 7260966.231498911976814 ], [ 529124.243011592421681, 7260968.447430184110999 ] ] } },
{ "type": "Feature", "properties": { "id": 13, "reference_id": 6, "dune_id": 6, "dune_name": "The Star Dune", "acquisition_date": "2026-08-03", "length_m": 867.76008042574426 }, "geometry": { "type": "LineString", "coordinates": [ [ 533540.447091679205187, 7262924.243011591956019 ], [ 533541.541395639418624, 7262917.913190307095647 ], [ 533543.681352890678681, 7262909.453693736344576 ], [ 533546.416969484183937, 7262899.900785414502025 ], [ 533548.906588250538334, 7262889.987933613359928 ], [ 533551.094303960213438, 7262879.999107789248228 ], [ 533553.594204692286439, 7262870.000000000931323 ], [ 533556.406687518581748, 7262860.0 ], [ 533558.916870216256939, 7262850.0 ], [ 533561.180559947970323, 7262840.0 ], [ 533564.031014405656606, 7262830.0 ], [ 533567.870324714574963, 7262820.0 ], [ 533572.215931273298338, 7262810.0 ], [ 533576.32982128590811, 7262800.0 ], [ 533579.912851801607758, 7262790.0 ], [ 533583.211912858649157, 7262780.0 ], [ 533586.241780876764096, 7262770.0 ], [ 533588.449214605498128, 7262760.0 ], [ 533589.563190286629833, 7262750.0 ], [ 533590.0, 7262740.0 ], [ 533590.43591750273481, 7262730.0 ], [ 533591.539611218031496, 7262720.0 ], [ 533593.670178714208305, 7262710.0 ], [ 533596.329821285791695, 7262700.0 ], [ 533598.459496571216732, 7262690.0 ], [ 533599.553800531546585, 7262680.0 ], [ 533599.924025978078134, 7262670.0 ], [ 533600.075974022038281, 7262660.0 ], [ 533600.44619946856983, 7262650.0 ], [ 533601.540503428783268, 7262640.0 ], [ 533603.670178714208305, 7262630.0 ], [ 533606.330713496543467, 7262620.0 ], [ 533608.470670747803524, 7262610.0 ], [ 533609.640056519303471, 7262600.000000000931323 ], [ 533610.360835691448301, 7262590.0 ], [ 533611.540503428783268, 7262580.0 ], [ 533613.756434701848775, 7262570.0 ], [ 533616.776912964996882, 7262560.0 ], [ 533620.000892210635357, 7262550.0 ], [ 533623.234261211473495, 7262540.0 ], [ 533626.329821285791695, 7262530.0 ], [ 533628.895414073951542, 7262520.0 ], [ 533631.093411749578081, 7262510.0 ], [ 533633.594204692286439, 7262500.0 ], [ 533636.405795307829976, 7262490.0 ], [ 533638.906588250538334, 7262480.0 ], [ 533641.104585926048458, 7262470.0 ], [ 533643.670178714208305, 7262460.0 ], [ 533646.766630999161862, 7262450.0 ], [ 533650.01028196583502, 7262440.0 ], [ 533653.310235233511776, 7262430.0 ], [ 533656.689764766488224, 7262420.0 ], [ 533659.988825823529623, 7262410.0 ], [ 533663.222194824367762, 7262400.0 ], [ 533666.242673087399453, 7262390.0 ], [ 533668.448322394862771, 7262380.0 ], [ 533669.552016110159457, 7262370.0 ], [ 533669.912851801607758, 7262360.0 ], [ 533669.988825823646039, 7262350.0 ], [ 533669.999107789364643, 7262340.000000000931323 ], [ 533670.0, 7262330.0 ], [ 533669.999107789364643, 7262320.0 ], [ 533669.988825823646039, 7262310.0 ], [ 533669.912851801607758, 7262300.0 ], [ 533669.552908320911229, 7262290.0 ], [ 533668.459496571333148, 7262280.0 ], [ 533666.329821285791695, 7262270.0 ], [ 533663.670178714208305, 7262260.0 ], [ 533661.540503428783268, 7262250.0 ], [ 533660.44619946856983, 7262240.0 ], [ 533660.075974022038281, 7262230.0 ], [ 533659.924025977961719, 7262220.0 ], [ 533659.553800531546585, 7262210.0 ], [ 533658.459496571216732, 7262200.0 ], [ 533656.329821285791695, 7262190.0 ], [ 533653.670178714208305, 7262180.0 ], [ 533651.540503428783268, 7262170.0 ], [ 533650.447091679205187, 7262160.0 ], [ 533650.087148198508658, 7262150.0 ], [ 533650.011174176470377, 7262140.0 ], [ 533650.000892210751772, 7262130.0 ], [ 533650.0, 7262120.000892210751772 ], [ 533650.0, 7262110.012066386640072 ], [ 533650.0, 7262100.099214585497975 ], [ 533650.0, 7262090.546306265518069 ], [ 533650.0, 7262082.086809693835676 ], [ 533650.0, 7262075.756988408043981 ] ] } }
]
}
