{
"type": "FeatureCollection",
"name": "crests_2021_05_2021-05-26",
"crs": { "type": "name", "properties": { "name": "urn:ogc:def:crs:EPSG::32733" } },
"features": [
{ "type": "Feature", "properties": { "id": 0, "reference_id": 1, "dune_id": 1, "dune_name": "Big Mommy Dune", "acquisition_date": "2021-05-26", "length_m": 489.25173240472952 }, "geometry": { "type": "LineString", "coordinates": [ [ 529099.987933612894267, 7261855.756988408043981 ], [ 529099.901677625137381, 7261862.086809693835676 ], [ 529099.464867911767215, 7261870.546306265518069 ], [ 529098.000338505022228, 7261880.099214585497975 ], [ 529094.690995482262224, 7261890.012066386640072 ], [ 529089.464867911767215, 7261900.000892210751772 ], [ 529083.211020647897385, 7261910.0 ], [ 529076.678590590134263, 7261920.0 ], [ 529069.999107789364643, 7261930.0 ], [ 529063.310235233511776, 7261940.0 ], [ 529056.700938943075016, 7261950.0 ], [ 529050.076866232673638, 7261960.0 ], [ 529043.68046067992691, 7261970.0 ], [ 529037.871216925210319, 7261980.0 ], [ 529032.577659175381996, 7261990.0 ], [ 529027.520663199597038, 7262000.0 ], [ 529022.577659175381996, 7262010.0 ], [ 529017.871216925326735, 7262020.0 ], [ 529013.680460680043325, 7262030.0 ], [ 529010.075974022038281, 7262040.0 ], [ 529006.68976476660464, 7262050.0 ], [ 529003.223087035119534, 7262060.0 ], [ 528999.552908320911229, 7262070.0 ], [ 528995.149261337821372, 7262080.0 ], [ 528989.628882342833094, 7262090.0 ], [ 528983.593312481534667, 7262100.0 ], [ 528977.859150538104586, 7262110.0 ], [ 528972.564700577524491, 7262120.0 ], [ 528967.42234082473442, 7262130.0 ], [ 528962.042527087032795, 7262139.999107789248228 ], [ 528955.871555430116132, 7262149.9888258241117 ], [ 528948.371456162189133, 7262159.912851801142097 ], [ 528939.541734144440852, 7262169.552016111090779 ], [ 528929.911959590972401, 7262178.448322394862771 ], [ 528919.988825823529623, 7262186.241780877113342 ], [ 528909.999107789248228, 7262193.211912859231234 ], [ 528900.0, 7262199.912851802073419 ], [ 528890.0, 7262206.328929075039923 ], [ 528880.0, 7262212.203864886425436 ], [ 528870.000892210751772, 7262217.771110128611326 ], [ 528860.012066387222148, 7262223.484708140604198 ], [ 528850.099214585497975, 7262229.093750255182385 ], [ 528840.546306264819577, 7262233.160774019546807 ], [ 528832.08680969348643, 7262234.331052001565695 ], [ 528825.756988407694735, 7262233.135046625509858 ] ] } },
{ "type": "Feature", "properties": { "id": 1, "reference_id": 1, "dune_id": 1, "dune_name": "Big Mommy Dune", "acquisition_date": "2021-05-26", "length_m": 823.1328933181594 }, "geometry": { "type": "LineString", "coordinates": [ [ 529085.795581408194266, 7261814.243011592887342 ], [ 529081.682583606336266, 7261807.913190307095647 ], [ 529076.328929075039923, 7261799.453693735413253 ], [ 529070.435025291983038, 7261789.900785414502025 ], [ 529065.199507966404781, 7261779.987933613359928 ], [ 529061.46363719610963, 7261769.999107789248228 ], [ 529058.536362804006785, 7261760.0 ], [ 529054.800492033595219, 7261750.0 ], [ 529049.564974708016962, 7261740.0 ], [ 529043.670178714208305, 7261730.000000000931323 ], [ 529038.306242217309773, 7261720.0 ], [ 529034.117270393413492, 7261710.0 ], [ 529031.190841913805343, 7261700.0 ], [ 529028.907480461173691, 7261690.0 ], [ 529026.330713496543467, 7261680.0 ], [ 529023.234261211473495, 7261670.0 ], [ 529020.000892210751772, 7261660.0 ], [ 529016.776912965113297, 7261650.0 ], [ 529013.757326912600547, 7261640.0 ], [ 529011.552569815889001, 7261630.0 ], [ 529010.45915806631092, 7261620.0 ], [ 529010.1742963969009, 7261610.0 ], [ 529010.458265855675563, 7261600.0 ], [ 529011.541395639418624, 7261590.0 ], [ 529013.671070924960077, 7261580.0 ], [ 529016.340995462378487, 7261570.0 ], [ 529018.54664476972539, 7261560.000000000931323 ], [ 529020.0, 7261550.0 ], [ 529021.454247440909967, 7261540.0 ], [ 529023.670178714208305, 7261530.0 ], [ 529026.416077273548581, 7261520.0 ], [ 529028.907480461173691, 7261510.0 ], [ 529031.104585926048458, 7261500.0 ], [ 529033.670178714208305, 7261490.0 ], [ 529036.766630999278277, 7261480.0 ], [ 529040.01028196583502, 7261470.000000000931323 ], [ 529043.311127444147132, 7261460.0 ], [ 529046.700938942958601, 7261450.0 ], [ 529050.075974021921866, 7261440.0 ], [ 529053.670178714208305, 7261430.0 ], [ 529057.794350692536682, 7261420.0 ], [ 529062.205649307463318, 7261410.0 ], [ 529066.329821285791695, 7261400.0 ], [ 529069.924025978078134, 7261390.0 ], [ 529073.299953267676756, 7261380.0 ], [ 529076.700046732323244, 7261370.0 ], [ 529080.075974022038281, 7261360.0 ], [ 529083.670178714208305, 7261350.0 ], [ 529087.794350692536682, 7261340.0 ], [ 529092.205649307463318, 7261330.0 ], [ 529096.329821285791695, 7261320.0 ], [ 529099.924918188713491, 7261310.000000000931323 ], [ 529103.31023523339536, 7261300.0 ], [ 529106.77602075424511, 7261290.0 ], [ 529110.436809713370167, 7261280.0 ], [ 529114.773872429504991, 7261270.0 ], [ 529120.000892210751772, 7261260.0 ], [ 529125.236409536330029, 7261250.0 ], [ 529129.639164308551699, 7261240.0 ], [ 529133.583922726567835, 7261230.0 ], [ 529137.783176516182721, 7261220.0 ], [ 529142.204757096711546, 7261210.000000000931323 ], [ 529146.329821285791695, 7261200.0 ], [ 529149.924025978078134, 7261190.0 ], [ 529153.299061057041399, 7261180.0 ], [ 529156.688872555969283, 7261170.0 ], [ 529159.989718034281395, 7261160.0 ], [ 529163.233369000954553, 7261150.0 ], [ 529166.329821285791695, 7261140.0 ], [ 529168.895414074067958, 7261130.0 ], [ 529171.092519538942724, 7261120.000000000931323 ], [ 529173.583030515816063, 7261110.0 ], [ 529176.318647109321319, 7261100.0 ], [ 529178.458604360581376, 7261090.0 ], [ 529179.552908320794813, 7261080.000892210751772 ], [ 529179.912851801607758, 7261070.012066387571394 ], [ 529179.988825823529623, 7261060.099214585497975 ], [ 529179.999107789364643, 7261050.546306265518069 ], [ 529180.0, 7261042.086809693835676 ], [ 529180.0, 7261035.756988408043981 ] ] } },
{ "type": "Feature", "properties": { "id": 2, "reference_id": 5, "dune_id": 5, "dune_name": "The Star Dune", "acquisition_date": "2021-05-26", "length_m": 846.96316197831425 }, "geometry": { "type": "LineString", "coordinates": [ [ 533651.638825803645886, 7262041.078100949525833 ], [ 533654.20531080244109, 7262036.078100949525833 ], [ 533658.328590570134111, 7262028.683442020788789 ], [ 533663.758219123352319, 7262019.677239574491978 ], [ 533670.011174176586792, 7262009.944359513930976 ], [ 533676.330713496543467, 7261999.993520701304078 ], [ 533682.130567496176809, 7261989.999553894624114 ], [ 533687.433515001088381, 7261980.0 ], [ 533692.566484998911619, 7261970.0 ], [ 533697.869432503823191, 7261960.0 ], [ 533703.669286503572948, 7261950.0 ], [ 533709.989718034281395, 7261940.0 ], [ 533716.252955053234473, 7261930.0 ], [ 533721.758557628374547, 7261920.0 ], [ 533726.242673087399453, 7261910.0 ], [ 533729.912851801607758, 7261900.0 ], [ 533733.298168846406043, 7261890.0 ], [ 533736.689764766488224, 7261880.0 ], [ 533740.0, 7261870.0 ], [ 533743.31023523339536, 7261860.0 ], [ 533746.701831153710373, 7261850.0 ], [ 533750.088040409144014, 7261840.000000000931323 ], [ 533753.768501089187339, 7261830.0 ], [ 533758.329482780885883, 7261820.000892210751772 ], [ 533764.205310802557506, 7261810.011174177750945 ], [ 533771.638825803645886, 7261800.088040409609675 ], [ 533780.45915806631092, 7261790.458265855908394 ], [ 533790.088040409144014, 7261781.628543838858604 ], [ 533800.011174176470377, 7261774.128444570116699 ], [ 533810.000892210635357, 7261767.958365123718977 ], [ 533820.0, 7261762.587941141799092 ], [ 533830.0, 7261757.511273443698883 ], [ 533840.0, 7261752.500792942941189 ], [ 533850.0, 7261747.500099267810583 ], [ 533860.0, 7261742.499900732189417 ], [ 533870.0, 7261737.500099267810583 ], [ 533880.0, 7261732.500792942941189 ], [ 533890.0, 7261727.511273444630206 ], [ 533900.0, 7261722.58704893104732 ], [ 533910.0, 7261717.947190947830677 ], [ 533920.0, 7261714.041296371258795 ], [ 533930.0, 7261711.181452158838511 ], [ 533940.0, 7261708.916870215907693 ], [ 533950.0, 7261706.406687518581748 ], [ 533960.0, 7261703.594204692170024 ], [ 533970.0, 7261701.094303959980607 ], [ 533980.0, 7261698.906588250771165 ], [ 533990.0, 7261696.416969484649599 ], [ 534000.0, 7261693.680460680276155 ], [ 534010.0, 7261691.530221464112401 ], [ 534020.0, 7261690.35994348116219 ], [ 534030.0, 7261689.64005651883781 ], [ 534040.0, 7261688.470670748502016 ], [ 534050.0, 7261686.33071349747479 ], [ 534060.0, 7261683.669286504387856 ], [ 534070.0, 7261681.529329252429307 ], [ 534080.0, 7261680.35994348116219 ], [ 534090.0, 7261679.640056519769132 ], [ 534100.0, 7261678.470670748502016 ], [ 534110.0, 7261676.330713496543467 ], [ 534120.0, 7261673.669286503456533 ], [ 534130.0, 7261671.529329252429307 ], [ 534140.0, 7261670.359051270410419 ], [ 534150.0, 7261669.627990132197738 ], [ 534160.0, 7261668.37234837282449 ], [ 534170.0, 7261665.79558140784502 ], [ 534180.0, 7261661.670517219230533 ], [ 534190.0, 7261656.231498911976814 ], [ 534200.0, 7261649.911959591321647 ], [ 534210.0, 7261643.298168847337365 ], [ 534220.0, 7261636.689764766953886 ], [ 534230.0, 7261630.0 ], [ 534240.0, 7261623.309343023225665 ], [ 534249.999107789364643, 7261616.690656977705657 ], [ 534259.987933612777852, 7261610.000892210751772 ], [ 534269.900785414385609, 7261603.32140941079706 ], [ 534279.453693735180423, 7261596.788979351520538 ], [ 534287.913190306629986, 7261590.535132088698447 ], [ 534294.243011592305265, 7261585.309004517272115 ] ] } },
{ "type": "Feature", "properties": { "id": 3, "reference_id": 5, "dune_id": 5, "dune_name": "The Star Dune", "acquisition_date": "2021-05-26", "length_m": 186.45972126566318 }, "geometry": { "type": "LineString", "coordinates": [ [ 534334.342226177919656, 7261305.756988408043981 ], [ 534328.459496571333148, 7261312.086809693835676 ], [ 534321.541395639418624, 7261320.546306264586747 ], [ 534315.668947998550721, 7261330.099214585497975 ], [ 534312.161891504772939, 7261340.012066386640072 ], [ 534310.992505733272992, 7261350.000892210751772 ], [ 534311.639718014281243, 7261360.0 ], [ 534313.682245101430453, 7261370.0 ], [ 534316.330713496543467, 7261380.0 ], [ 534318.459496571216732, 7261390.0 ], [ 534319.552908320794813, 7261400.0 ], [ 534319.912851801607758, 7261410.0 ], [ 534319.988825823529623, 7261420.0 ], [ 534319.999107789364643, 7261430.0 ], [ 534320.0, 7261439.999107789248228 ], [ 534320.0, 7261449.987933613359928 ], [ 534320.0, 7261459.900785414502025 ], [ 534320.0, 7261469.453693736344576 ], [ 534320.0, 7261477.913190307095647 ], [ 534320.0, 7261484.243011591956019 ] ] } },
{ "type": "Feature", "properties": { "id": 4, "reference_id": 3, "dune_id": 3, "dune_name": "Big Mommy Dune", "acquisition_date": "2021-05-26", "length_m": 613.81117729322852 }, "geometry": { "type": "LineString", "coordinates": [ [ 529170.088040409144014, 7260991.078100949525833 ], [ 529170.458265855675563, 7260986.078100949525833 ], [ 529171.628543837927282, 7260978.683442020788789 ], [ 529174.128444569883868, 7260969.6772395754233 ], [ 529177.958365123602562, 7260959.944359514862299 ], [ 529182.588833351852372, 7260949.993520701304078 ], [ 529187.52155541034881, 7260939.999553894624114 ], [ 529192.577659175381996, 7260930.0 ], [ 529197.871216925210319, 7260920.0 ], [ 529203.68046067992691, 7260910.0 ], [ 529210.076866232557222, 7260900.0 ], [ 529216.700938943075016, 7260890.0 ], [ 529223.310235233511776, 7260880.0 ], [ 529230.0, 7260870.0 ], [ 529236.690656977239996, 7260860.0 ], [ 529243.310235233511776, 7260850.0 ], [ 529250.01028196583502, 7260840.0 ], [ 529256.766630999278277, 7260830.0 ], [ 529263.670178714208305, 7260820.0 ], [ 529271.104585926048458, 7260810.0 ], [ 529278.907480461173691, 7260800.0 ], [ 529286.416969484183937, 7260790.0 ], [ 529293.681352890678681, 7260780.000000000931323 ], [ 529301.541395639418624, 7260770.0 ], [ 529310.447091679205187, 7260760.0 ], [ 529320.087148198508658, 7260750.0 ], [ 529330.011174176470377, 7260740.0 ], [ 529340.000892210751772, 7260730.000892210751772 ], [ 529350.0, 7260720.012066386640072 ], [ 529360.0, 7260710.099214585497975 ], [ 529370.0, 7260700.545414054766297 ], [ 529380.0, 7260692.075635517016053 ], [ 529390.0, 7260685.669840209186077 ], [ 529400.0, 7260681.638825803995132 ], [ 529410.0, 7260678.994628659449518 ], [ 529420.0, 7260676.34188767336309 ], [ 529430.0, 7260673.234261211007833 ], [ 529440.000000000116415, 7260669.989718034863472 ], [ 529450.0, 7260666.689764766953886 ], [ 529460.0, 7260663.310235233977437 ], [ 529470.0, 7260660.010281966067851 ], [ 529480.0, 7260656.766630999743938 ], [ 529490.0, 7260653.670178714208305 ], [ 529500.000000000116415, 7260651.10458592697978 ], [ 529510.0, 7260648.907480461522937 ], [ 529520.0, 7260646.416077273897827 ], [ 529530.0, 7260643.670178715139627 ], [ 529540.0, 7260641.454247441142797 ], [ 529550.0, 7260640.0 ], [ 529560.0, 7260638.546644769608974 ], [ 529569.999107789248228, 7260636.340995462611318 ], [ 529579.987933612894267, 7260633.671070925891399 ], [ 529589.900785414502025, 7260631.540503429248929 ], [ 529599.453693735180423, 7260630.447091680020094 ], [ 529607.91319030651357, 7260630.087148198857903 ], [ 529614.243011592421681, 7260630.011174176819623 ] ] } },
{ "type": "Feature", "properties": { "id": 5, "reference_id": 3, "dune_id": 3, "dune_name": "Big Mommy Dune", "acquisition_date": "2021-05-26", "length_m": 58.486023184610531 }, "geometry": { "type": "LineString", "coordinates": [ [ 529704.243011592305265, 7260620.0 ], [ 529697.91319030651357, 7260620.0 ], [ 529689.454585945932195, 7260620.0 ], [ 529679.912851801607758, 7260620.0 ], [ 529670.087148198508658, 7260620.0 ], [ 529660.545414054067805, 7260620.0 ], [ 529652.08680969348643, 7260620.0 ], [ 529645.756988407694735, 7260620.0 ] ] } },
{ "type": "Feature", "properties": { "id": 6, "reference_id": 3, "dune_id": 3, "dune_name": "Big Mommy Dune", "acquisition_date": "2021-05-26", "length_m": 198.48602318461053 }, "geometry": { "type": "LineString", "coordinates": [ [ 529735.756988407694735, 7260610.0 ], [ 529742.08680969348643, 7260610.0 ], [ 529750.546306264819577, 7260610.0 ], [ 529760.099214585614391, 7260610.0 ], [ 529770.012066387222148, 7260610.0 ], [ 529780.000892210751772, 7260610.0 ], [ 529790.0, 7260610.0 ], [ 529800.0, 7260610.0 ], [ 529810.0, 7260610.0 ], [ 529820.0, 7260610.0 ], [ 529830.0, 7260610.0 ], [ 529840.0, 7260610.0 ], [ 529850.0, 7260610.0 ], [ 529860.0, 7260610.0 ], [ 529870.0, 7260610.0 ], [ 529880.0, 7260610.0 ], [ 529889.999107789364643, 7260610.0 ], [ 529899.987933612894267, 7260610.0 ], [ 529909.900785414385609, 7260610.0 ], [ 529919.453693735296838, 7260610.0 ], [ 529927.913190306629986, 7260610.0 ], [ 529934.243011592305265, 7260610.0 ] ] } },
{ "type": "Feature", "properties": { "id": 7, "reference_id": 3, "dune_id": 3, "dune_name": "Big Mommy Dune", "acquisition_date": "2021-05-26", "length_m": 152.26601649952767 }, "geometry": { "type": "LineString", "coordinates": [ [ 530244.243011592421681, 7260570.011174176819623 ], [ 530237.91319030651357, 7260570.087148198857903 ], [ 530229.453693735180423, 7260570.447983890771866 ], [ 530219.900785414385609, 7260571.551677605137229 ], [ 530209.987933612894267, 7260573.757326913066208 ], [ 530199.999107789248228, 7260576.776912965811789 ], [ 530190.0, 7260580.000892210751772 ], [ 530180.0, 7260583.234261211007833 ], [ 530170.000000000116415, 7260586.329821285791695 ], [ 530160.0, 7260588.895414073951542 ], [ 530150.0, 7260591.092519538477063 ], [ 530140.000892210751772, 7260593.583030516281724 ], [ 530130.012066387222148, 7260596.318647108972073 ], [ 530120.099214585614391, 7260598.458604360930622 ], [ 530110.546306264819577, 7260599.552908321842551 ], [ 530102.08680969348643, 7260599.912851802073419 ], [ 530095.756988407694735, 7260599.9888258241117 ] ] } },
{ "type": "Feature", "properties": { "id": 8, "reference_id": 8, "dune_id": 8, "dune_name": "Inverted Y Dune", "acquisition_date": "2021-05-26", "length_m": 68.486023185774684 }, "geometry": { "type": "LineString", "coordinates": [ [ 530100.0, 7261564.243011593818665 ], [ 530100.0, 7261557.913190307095647 ], [ 530100.0, 7261549.453693735413253 ], [ 530100.0, 7261539.901677625253797 ], [ 530100.0, 7261530.0 ], [ 530100.0, 7261520.098322374746203 ], [ 530100.0, 7261510.546306264586747 ], [ 530100.0, 7261502.086809692904353 ], [ 530100.0, 7261495.756988408043981 ] ] } },
{ "type": "Feature", "properties": { "id": 9, "reference_id": 8, "dune_id": 8, "dune_name": "Inverted Y Dune", "acquisition_date": "2021-05-26", "length_m": 304.29539821143487 }, "geometry": { "type": "LineString", "coordinates": [ [ 530264.243011592421681, 7261221.628543838858604 ], [ 530257.913190306629986, 7261224.129336780868471 ], [ 530249.453693735180423, 7261227.969539299607277 ], [ 530239.900785414502025, 7261232.675981549546123 ], [ 530229.987933612777852, 7261237.969539300538599 ], [ 530219.999107789248228, 7261244.129336779937148 ], [ 530210.0, 7261251.628543837927282 ], [ 530200.000892210751772, 7261260.458265855908394 ], [ 530190.012066387105733, 7261270.088040409609675 ], [ 530180.098322374862619, 7261280.0111741758883 ], [ 530170.535132088349201, 7261290.000892210751772 ], [ 530161.999661495094188, 7261300.0 ], [ 530155.309004517970607, 7261310.000000000931323 ], [ 530150.535132088349201, 7261320.0 ], [ 530146.788087141467258, 7261330.0 ], [ 530143.311127444263548, 7261340.0 ], [ 530139.924918188713491, 7261350.0 ], [ 530136.330713496543467, 7261360.0 ], [ 530132.215931273298338, 7261370.0 ], [ 530127.870324714574963, 7261380.0 ], [ 530124.031014405656606, 7261390.0 ], [ 530121.180559947970323, 7261400.0 ], [ 530118.917762426892295, 7261410.0 ], [ 530116.417861694935709, 7261419.999107789248228 ], [ 530113.681352890678681, 7261429.987933613359928 ], [ 530111.541395639418624, 7261439.900785414502025 ], [ 530110.447091679205187, 7261449.453693736344576 ], [ 530110.087148198392242, 7261457.913190307095647 ], [ 530110.011174176470377, 7261464.243011591956019 ] ] } },
{ "type": "Feature", "properties": { "id": 10, "reference_id": 8, "dune_id": 8, "dune_name": "Inverted Y Dune", "acquisition_date": "2021-05-26", "length_m": 171.97890050717874 }, "geometry": { "type": "LineString", "coordinates": [ [ 530395.756988407694735, 7261210.000000000931323 ], [ 530402.08680969348643, 7261210.000000000931323 ], [ 530410.546306264819577, 7261210.000000000931323 ], [ 530420.099214585614391, 7261210.000000000931323 ], [ 530430.012066387222148, 7261210.000000000931323 ], [ 530440.000892210751772, 7261210.000000000931323 ], [ 530450.0, 7261209.999107790179551 ], [ 530460.0, 7261209.987933613359928 ], [ 530470.0, 7261209.901677625253797 ], [ 530480.0, 7261209.464867912232876 ], [ 530490.0, 7261208.00033850595355 ], [ 530500.0, 7261204.690103271976113 ], [ 530509.999107789248228, 7261199.454585945233703 ], [ 530519.987933612894267, 7261193.135938837192953 ], [ 530529.900785414385609, 7261186.329821286723018 ], [ 530539.453693735296838, 7261178.993736449629068 ], [ 530547.91319030651357, 7261171.638825803995132 ], [ 530554.243011592305265, 7261165.6698402101174 ] ] } },
{ "type": "Feature", "properties": { "id": 11, "reference_id": 4, "dune_id": 4, "dune_name": "The Star Dune", "acquisition_date": "2021-05-26", "length_m": 195.10020517647482 }, "geometry": { "type": "LineString", "coordinates": [ [ 533005.756988407694735, 7261870.447091680020094 ], [ 533012.08680969348643, 7261871.540503429248929 ], [ 533020.546306264819577, 7261873.671070925891399 ], [ 533030.099214585614391, 7261876.340995462611318 ], [ 533040.012066387105733, 7261878.546644769608974 ], [ 533050.000892210751772, 7261880.0 ], [ 533060.0, 7261881.454247441142797 ], [ 533070.0, 7261883.670178714208305 ], [ 533080.0, 7261886.416077273897827 ], [ 533090.0, 7261888.907480461522937 ], [ 533100.0, 7261891.10458592697978 ], [ 533110.0, 7261893.670178715139627 ], [ 533120.0, 7261896.766630999743938 ], [ 533130.0, 7261900.010281965136528 ], [ 533140.0, 7261903.310235233977437 ], [ 533149.999107789364643, 7261906.689764766953886 ], [ 533159.987933612894267, 7261909.9888258241117 ], [ 533169.900785414502025, 7261913.222194824367762 ], [ 533179.453693735180423, 7261916.242673087865114 ], [ 533187.91319030651357, 7261918.448322394862771 ], [ 533194.243011592305265, 7261919.552016110159457 ] ] } },
{ "type": "Feature", "properties": { "id": 12, "reference_id": 4, "dune_id": 4, "dune_name": "The Star Dune", "acquisition_date": "2021-05-26", "length_m": 427.27242616112176 }, "geometry": { "type": "LineString", "coordinates": [ [ 533225.756988407694735, 7261930.087148198857903 ], [ 533232.086809693602845, 7261930.447983889840543 ], [ 533240.546306264819577, 7261931.551677605137229 ], [ 533250.099214585614391, 7261933.757326912134886 ], [ 533260.012066387222148, 7261936.777805175632238 ], [ 533270.000892210751772, 7261940.011174176819623 ], [ 533280.0, 7261943.310235233977437 ], [ 533290.0, 7261946.689764766022563 ], [ 533300.0, 7261949.989718034863472 ], [ 533310.0, 7261953.233369001187384 ], [ 533320.0, 7261956.329821286723018 ], [ 533330.0, 7261958.895414074882865 ], [ 533340.0, 7261961.093411749228835 ], [ 533350.0, 7261963.594204693101346 ], [ 533360.0, 7261966.405795308761299 ], [ 533370.0, 7261968.906588250771165 ], [ 533380.000000000116415, 7261971.10458592697978 ], [ 533390.0, 7261973.670178714208305 ], [ 533400.000000000116415, 7261976.766630999743938 ], [ 533410.0, 7261980.010281965136528 ], [ 533420.0, 7261983.311127444729209 ], [ 533430.0, 7261986.700938943773508 ], [ 533440.0, 7261990.075974022038281 ], [ 533450.0, 7261993.670178715139627 ], [ 533460.0, 7261997.794350693002343 ], [ 533470.0, 7262002.206541518680751 ], [ 533480.0, 7262006.340103251859546 ], [ 533490.0, 7262010.000892210751772 ], [ 533500.0, 7262013.670178714208305 ], [ 533510.0, 7262017.870324715040624 ], [ 533520.0, 7262022.57676696497947 ], [ 533530.0, 7262027.509489023126662 ], [ 533540.0, 7262032.489618767052889 ], [ 533550.0, 7262037.412951069884002 ], [ 533560.0, 7262042.052809053100646 ], [ 533570.0, 7262045.958703628741205 ], [ 533579.999553894740529, 7262048.818547841161489 ], [ 533589.993520701071247, 7262051.082237573340535 ], [ 533599.94435951358173, 7262053.582138305529952 ], [ 533609.677239574841224, 7262056.318647109903395 ], [ 533618.683442020905204, 7262058.458604361861944 ], [ 533626.078100949409418, 7262059.552908321842551 ], [ 533631.078100949525833, 7262059.912851803004742 ] ] } },
{ "type": "Feature", "properties": { "id": 13, "reference_id": 6, "dune_id": 6, "dune_name": "The Star Dune", "acquisition_date": "2021-05-26", "length_m": 387.78408480582226 }, "geometry": { "type": "LineString", "coordinates": [ [ 533600.0, 7262664.243011592887342 ], [ 533600.000892210635357, 7262657.913190307095647 ], [ 533600.011174176470377, 7262649.453693736344576 ], [ 533600.087148198392242, 7262639.900785414502025 ], [ 533600.447091679205187, 7262629.987933613359928 ], [ 533601.540503428783268, 7262619.999107789248228 ], [ 533603.671070924960077, 7262610.0 ], [ 533606.340995462378487, 7262600.000000000931323 ], [ 533608.54664476972539, 7262590.0 ], [ 533610.000892210751772, 7262580.0 ], [ 533611.464529406744987, 7262570.0 ], [ 533613.746152736246586, 7262560.0 ], [ 533616.776912964996882, 7262550.0 ], [ 533620.011174176470377, 7262540.0 ], [ 533623.31023523339536, 7262530.0 ], [ 533626.690656977239996, 7262520.0 ], [ 533630.0, 7262510.0 ], [ 533633.309343022760004, 7262500.0 ], [ 533636.68976476660464, 7262490.0 ], [ 533639.989718034281395, 7262480.0 ], [ 533643.233369000838138, 7262470.0 ], [ 533646.329821285791695, 7262460.0 ], [ 533648.895414074067958, 7262450.0 ], [ 533651.093411749578081, 7262440.0 ], [ 533653.594204692286439, 7262430.0 ], [ 533656.405795307829976, 7262420.0 ], [ 533658.905696039786562, 7262410.0 ], [ 533661.093411749578081, 7262400.0 ], [ 533663.583030515816063, 7262390.0 ], [ 533666.318647109437734, 7262380.0 ], [ 533668.458604360697791, 7262370.0 ], [ 533669.552908320911229, 7262360.0 ], [ 533669.912851801607758, 7262350.0 ], [ 533669.988825823646039, 7262340.000000000931323 ], [ 533669.999107789364643, 7262330.000892210751772 ], [ 533670.0, 7262320.012066386640072 ], [ 533670.0, 7262310.099214585497975 ], [ 533670.0, 7262300.546306265518069 ], [ 533670.0, 7262292.086809692904353 ], [ 533670.0, 7262285.756988408043981 ] ] } },
{ "type": "Feature", "properties": { "id": 14, "reference_id": 6, "dune_id": 6, "dune_name": "The Star Dune", "acquisition_date": "2021-05-26", "length_m": 179.54433656141896 }, "geometry": { "type": "LineString", "coordinates": [ [ 533660.0, 7262254.243011592887342 ], [ 533660.0, 7262247.913190307095647 ], [ 533660.0, 7262239.453693734481931 ], [ 533660.0, 7262229.900785414502025 ], [ 533660.0, 7262219.987933613359928 ], [ 533660.0, 7262209.999107789248228 ], [ 533660.0, 7262200.0 ], [ 533660.0, 7262190.0 ], [ 533660.0, 7262180.0 ], [ 533660.0, 7262170.0 ], [ 533660.0, 7262160.0 ], [ 533660.0, 7262150.0 ], [ 533659.999107789248228, 7262140.0 ], [ 533659.988825823529623, 7262130.0 ], [ 533659.912851801607758, 7262120.000892210751772 ], [ 533659.552908320911229, 7262110.012066386640072 ], [ 533658.459496571216732, 7262100.099214585497975 ], [ 533656.329821285791695, 7262090.546306265518069 ], [ 533653.670178714208305, 7262082.086809693835676 ], [ 533651.540503428783268, 7262075.756988408043981 ] ] } },
{ "type": "Feature", "properties": { "id": 15, "reference_id": 9, "dune_id": 9, "dune_name": "Inverted Y Dune", "acquisition_date": "2021-05-26", "length_m": 760.00785993619536 }, "geometry": { "type": "LineString", "coordinates": [ [ 529660.458265855675563, 7262194.243011591956019 ], [ 529661.628543837927282, 7262187.913190307095647 ], [ 529664.128444569883868, 7262179.453693735413253 ], [ 529667.957472912967205, 7262169.900785414502025 ], [ 529672.577659175381996, 7262159.987933613359928 ], [ 529677.434407211840153, 7262149.999107789248228 ], [ 529682.130567496176809, 7262140.0 ], [ 529686.329821285791695, 7262130.0 ], [ 529690.0, 7262120.0 ], [ 529693.670178714208305, 7262110.0 ], [ 529697.869432503823191, 7262100.0 ], [ 529702.566484998911619, 7262090.0 ], [ 529707.433515001088381, 7262080.0 ], [ 529712.129675285425037, 7262070.0 ], [ 529716.31953932007309, 7262060.0 ], [ 529719.923133767442778, 7262050.0 ], [ 529723.299953267676756, 7262040.0 ], [ 529726.700046732323244, 7262030.0 ], [ 529730.076866232673638, 7262020.0 ], [ 529733.68046067992691, 7262010.0 ], [ 529737.870324714574963, 7262000.0 ], [ 529742.566484998911619, 7261990.0 ], [ 529747.433515001204796, 7261980.0 ], [ 529752.129675285425037, 7261970.0 ], [ 529756.319539319956675, 7261960.0 ], [ 529759.923133767326362, 7261950.0 ], [ 529763.299953267676756, 7261940.0 ], [ 529766.700046732323244, 7261930.0 ], [ 529770.075974022038281, 7261920.0 ], [ 529773.670178714208305, 7261910.0 ], [ 529777.795242903288454, 7261900.0 ], [ 529782.216823483933695, 7261890.0 ], [ 529786.416969484300353, 7261880.0 ], [ 529790.372009867918678, 7261870.0 ], [ 529794.8516308729304, 7261860.0 ], [ 529800.458265855675563, 7261850.0 ], [ 529806.864953374140896, 7261840.000000000931323 ], [ 529813.768501089187339, 7261830.0 ], [ 529821.552569815889001, 7261820.0 ], [ 529830.447983889840543, 7261810.0 ], [ 529840.087148198392242, 7261800.0 ], [ 529850.011174176470377, 7261790.0 ], [ 529860.000892210751772, 7261780.0 ], [ 529870.0, 7261770.0 ], [ 529880.0, 7261760.0 ], [ 529890.0, 7261750.000892210751772 ], [ 529900.0, 7261740.011174176819623 ], [ 529910.0, 7261730.087148198857903 ], [ 529920.0, 7261720.447983889840543 ], [ 529930.0, 7261711.551677605137229 ], [ 529940.0, 7261703.75821912381798 ], [ 529950.0, 7261696.788087141700089 ], [ 529960.0, 7261690.087148198857903 ], [ 529970.0, 7261683.671070925891399 ], [ 529980.0, 7261677.794350693002343 ], [ 529990.0, 7261672.206541517749429 ], [ 530000.0, 7261666.340103251859546 ], [ 530010.0, 7261660.0 ], [ 530020.0, 7261653.659004537388682 ], [ 530030.0, 7261647.782284306362271 ], [ 530039.999107789364643, 7261642.118501110002398 ], [ 530049.987933612894267, 7261635.882729606702924 ], [ 530059.900785414502025, 7261628.384414760395885 ], [ 530069.453693735180423, 7261619.640948729589581 ], [ 530077.91319030651357, 7261610.458265855908394 ], [ 530084.243011592421681, 7261602.075635517016053 ], [ 530087.913190306629986, 7261595.756096197292209 ] ] } },
{ "type": "Feature", "properties": { "id": 16, "reference_id": 2, "dune_id": 2, "dune_name": "Big Mommy Dune", "acquisition_date": "2021-05-26", "length_m": 382.77917249115609 }, "geometry": { "type": "LineString", "coordinates": [ [ 528754.243011592305265, 7260848.448322394862771 ], [ 528747.91319030651357, 7260846.241780877113342 ], [ 528739.453693735180423, 7260843.211912859231234 ], [ 528729.900785414502025, 7260839.911959590390325 ], [ 528719.987933612894267, 7260836.318647108972073 ], [ 528709.999107789248228, 7260832.128783075138927 ], [ 528700.0, 7260827.423233035951853 ], [ 528690.0, 7260822.489618766121566 ], [ 528680.0, 7260817.499207057058811 ], [ 528670.0, 7260812.499900732189417 ], [ 528660.0, 7260807.500099267810583 ], [ 528650.0, 7260802.499900732189417 ], [ 528640.0, 7260797.499207057990134 ], [ 528630.0, 7260792.489618767052889 ], [ 528620.0, 7260787.423233035951853 ], [ 528610.0, 7260782.128783075138927 ], [ 528600.0, 7260776.319539319723845 ], [ 528590.0, 7260769.923133767209947 ], [ 528580.0, 7260763.299061057157815 ], [ 528570.0, 7260756.689764766953886 ], [ 528560.0, 7260750.0 ], [ 528550.0, 7260743.309343023225665 ], [ 528540.0, 7260736.689764766953886 ], [ 528530.0, 7260729.989718034863472 ], [ 528520.0, 7260723.233369001187384 ], [ 528510.0, 7260716.329821286723018 ], [ 528500.0, 7260708.896306284703314 ], [ 528490.0, 7260701.103693716228008 ], [ 528480.0, 7260693.670178715139627 ], [ 528470.000892210751772, 7260686.766630999743938 ], [ 528460.012066387105733, 7260680.0111741758883 ], [ 528450.099214585614391, 7260673.322301620617509 ], [ 528440.546306264819577, 7260666.788979352451861 ], [ 528432.08680969348643, 7260660.535132088698447 ], [ 528425.756988407694735, 7260655.309004518203437 ] ] } },
{ "type": "Feature", "properties": { "id": 17, "reference_id": 2, "dune_id": 2, "dune_name": "Big Mommy Dune", "acquisition_date": "2021-05-26", "length_m": 377.47837460805039 }, "geometry": { "type": "LineString", "coordinates": [ [ 528785.756988407694735, 7260861.627651628106833 ], [ 528792.08680969348643, 7260864.117270393297076 ], [ 528800.546306264819577, 7260867.871216924861073 ], [ 528810.099214585614391, 7260872.140849461778998 ], [ 528820.012066387222148, 7260875.969877805560827 ], [ 528830.000892210751772, 7260878.820332262665033 ], [ 528840.0, 7260881.093411750160158 ], [ 528850.0, 7260883.669286504387856 ], [ 528860.0, 7260886.765738788992167 ], [ 528870.0, 7260890.0 ], [ 528880.0, 7260893.234261211939156 ], [ 528890.0, 7260896.329821285791695 ], [ 528900.0, 7260898.895414073951542 ], [ 528910.0, 7260901.093411750160158 ], [ 528920.0, 7260903.594204693101346 ], [ 528930.0, 7260906.405795308761299 ], [ 528940.0, 7260908.905696040019393 ], [ 528950.0, 7260911.094303959980607 ], [ 528960.0, 7260913.594204692170024 ], [ 528970.0, 7260916.405795307829976 ], [ 528980.0, 7260918.905696040019393 ], [ 528990.0, 7260921.094303959980607 ], [ 529000.0, 7260923.594204692170024 ], [ 529010.0, 7260926.405795307829976 ], [ 529020.0, 7260928.906588250771165 ], [ 529030.0, 7260931.105478137731552 ], [ 529040.0, 7260933.681352891027927 ], [ 529050.0, 7260936.852886986918747 ], [ 529060.0, 7260940.447091679088771 ], [ 529070.0, 7260944.774764640256763 ], [ 529080.0, 7260950.000000000931323 ], [ 529090.0, 7260955.226127570495009 ], [ 529099.999107789364643, 7260959.563190286979079 ], [ 529109.987933612894267, 7260963.223087035119534 ], [ 529119.900785414385609, 7260966.678590590134263 ], [ 529129.453693735296838, 7260969.987933613359928 ], [ 529137.913190306629986, 7260973.222194824367762 ], [ 529144.243011592421681, 7260976.242673087865114 ] ] } },
{ "type": "Feature", "properties": { "id": 18, "reference_id": 7, "dune_id": 7, "dune_name": "Inverted Y Dune", "acquisition_date": "2021-05-26", "length_m": 610.03377099470276 }, "geometry": { "type": "LineString", "coordinates": [ [ 530654.243011592305265, 7261325.756988408043981 ], [ 530647.913190306629986, 7261332.086809693835676 ], [ 530639.453693735296838, 7261340.546306265518069 ], [ 530629.900785414502025, 7261350.099214585497975 ], [ 530619.988825823646039, 7261360.012066386640072 ], [ 530610.01028196583502, 7261370.000892210751772 ], [ 530600.087148198392242, 7261380.0 ], [ 530590.447983889840543, 7261390.0 ], [ 530581.551677605253644, 7261400.0 ], [ 530573.757326912600547, 7261410.0 ], [ 530566.777805175632238, 7261420.0 ], [ 530560.011174176470377, 7261430.0 ], [ 530553.310235233511776, 7261440.0 ], [ 530546.690656977239996, 7261450.0 ], [ 530540.0, 7261460.0 ], [ 530533.309343022760004, 7261470.000000000931323 ], [ 530526.689764766488224, 7261480.0 ], [ 530519.988825823529623, 7261490.0 ], [ 530513.222194824367762, 7261500.0 ], [ 530506.242673087399453, 7261510.0 ], [ 530498.448322394862771, 7261519.999107789248228 ], [ 530489.552016110159457, 7261529.9888258241117 ], [ 530479.912851801607758, 7261539.912851801142097 ], [ 530469.988825823529623, 7261549.552016110159457 ], [ 530459.999107789364643, 7261558.448322394862771 ], [ 530450.0, 7261566.242673087865114 ], [ 530440.0, 7261573.222194824367762 ], [ 530430.000000000116415, 7261579.987933613359928 ], [ 530420.0, 7261586.678590590134263 ], [ 530410.0, 7261593.222194824367762 ], [ 530400.0, 7261599.552016111090779 ], [ 530390.0, 7261605.138979372568429 ], [ 530380.0, 7261609.552016110159457 ], [ 530370.0, 7261613.222194824367762 ], [ 530360.0, 7261616.679482800886035 ], [ 530350.0, 7261619.999107789248228 ], [ 530340.0, 7261623.309343023225665 ], [ 530330.0, 7261626.690656976774335 ], [ 530320.0, 7261630.0 ], [ 530310.0, 7261633.309343023225665 ], [ 530300.0, 7261636.689764766953886 ], [ 530290.0, 7261639.9888258241117 ], [ 530280.0, 7261643.222194824367762 ], [ 530270.0, 7261646.242673087865114 ], [ 530260.0, 7261648.448322394862771 ], [ 530250.0, 7261649.552016111090779 ], [ 530240.0, 7261649.912851802073419 ], [ 530230.0, 7261649.9888258241117 ], [ 530220.000892210635357, 7261649.999107790179551 ], [ 530210.012066387105733, 7261650.0 ], [ 530200.099214585497975, 7261650.0 ], [ 530190.546306264819577, 7261650.0 ], [ 530182.08680969348643, 7261650.0 ], [ 530175.756988407694735, 7261650.0 ] ] } }
]
}
