{
"type": "FeatureCollection",
"name": "crests_2019_03_2019-03-01",
"crs": { "type": "name", "properties": { "name": "urn:ogc:def:crs:EPSG::32733" } },
"features": [
{ "type": "Feature", "properties": { "id": 0, "reference_id": 8, "dune_id": 8, "dune_name": "Inverted Y Dune", "acquisition_date": "2019-03-01", "length_m": 425.54056620656365 }, "geometry": { "type": "LineString", "coordinates": [ [ 530264.243011592421681, 7261221.639718014746904 ], [ 530257.913190306629986, 7261224.216484978795052 ], [ 530249.453693735180423, 7261228.416630979627371 ], [ 530239.900785414502025, 7261234.216484978795052 ], [ 530229.987933612777852, 7261241.639718014746904 ], [ 530219.999107789248228, 7261250.459158066660166 ], [ 530210.000892210751772, 7261260.088040409609675 ], [ 530200.011174176586792, 7261270.011174176819623 ], [ 530190.088040409144014, 7261280.000892210751772 ], [ 530180.45915806631092, 7261290.0 ], [ 530171.638825803645886, 7261300.0 ], [ 530164.20531080244109, 7261310.000000000931323 ], [ 530158.329482780885883, 7261320.0 ], [ 530153.768501089187339, 7261330.0 ], [ 530150.088040409144014, 7261340.0 ], [ 530146.701831153710373, 7261350.0 ], [ 530143.311127444263548, 7261360.0 ], [ 530140.01028196583502, 7261370.0 ], [ 530136.766630999278277, 7261380.0 ], [ 530133.670178714208305, 7261390.0 ], [ 530131.104585926048458, 7261400.0 ], [ 530128.907480461173691, 7261410.0 ], [ 530126.416969484183937, 7261420.0 ], [ 530123.680460680043325, 7261430.0 ], [ 530121.530221462948248, 7261440.0 ], [ 530120.359943480812944, 7261450.0 ], [ 530119.640056519303471, 7261460.0 ], [ 530118.470670747803524, 7261470.000000000931323 ], [ 530116.330713496543467, 7261480.0 ], [ 530113.670178714208305, 7261490.0 ], [ 530111.540503428666852, 7261500.0 ], [ 530110.447091679205187, 7261510.0 ], [ 530110.087148198392242, 7261520.0 ], [ 530110.01028196583502, 7261530.0 ], [ 530109.989718034281395, 7261539.999553894624114 ], [ 530109.912851801607758, 7261549.993520701304078 ], [ 530109.552908320911229, 7261559.944359513930976 ], [ 530108.459496571333148, 7261569.6772395754233 ], [ 530106.329821285791695, 7261578.683442020788789 ], [ 530103.670178714208305, 7261586.078100949525833 ], [ 530101.540503428783268, 7261591.078100949525833 ] ] } },
{ "type": "Feature", "properties": { "id": 1, "reference_id": 8, "dune_id": 8, "dune_name": "Inverted Y Dune", "acquisition_date": "2019-03-01", "length_m": 58.486023184726946 }, "geometry": { "type": "LineString", "coordinates": [ [ 530454.243011592421681, 7261210.000000000931323 ], [ 530447.913190306629986, 7261210.000000000931323 ], [ 530439.454585945932195, 7261210.000000000931323 ], [ 530429.912851801607758, 7261210.000000000931323 ], [ 530420.087148198508658, 7261210.000000000931323 ], [ 530410.545414054067805, 7261210.000000000931323 ], [ 530402.08680969348643, 7261210.000000000931323 ], [ 530395.756988407694735, 7261210.000000000931323 ] ] } },
{ "type": "Feature", "properties": { "id": 2, "reference_id": 8, "dune_id": 8, "dune_name": "Inverted Y Dune", "acquisition_date": "2019-03-01", "length_m": 60.433255638092646 }, "geometry": { "type": "LineString", "coordinates": [ [ 530505.756988407694735, 7261207.914082517847419 ], [ 530512.085917482851073, 7261204.255077979527414 ], [ 530520.534239877597429, 7261198.012404892593622 ], [ 530530.0, 7261190.0 ], [ 530539.465760122402571, 7261181.987595107406378 ], [ 530547.914082517265342, 7261175.744922020472586 ], [ 530554.243011592305265, 7261172.085917483083904 ] ] } },
{ "type": "Feature", "properties": { "id": 3, "reference_id": 9, "dune_id": 9, "dune_name": "Inverted Y Dune", "acquisition_date": "2019-03-01", "length_m": 181.50915758398639 }, "geometry": { "type": "LineString", "coordinates": [ [ 529671.551677605253644, 7262174.243011591956019 ], [ 529673.758219123352319, 7262167.913190307095647 ], [ 529676.788087141467258, 7262159.453693735413253 ], [ 529680.087148198508658, 7262149.900785414502025 ], [ 529683.671070924843661, 7262139.987933613359928 ], [ 529687.795242903288454, 7262129.999107789248228 ], [ 529692.216823483933695, 7262120.0 ], [ 529696.416077273548581, 7262110.0 ], [ 529700.360835691448301, 7262100.0 ], [ 529704.763590463786386, 7262090.0 ], [ 529709.999107789248228, 7262080.0 ], [ 529715.226127570495009, 7262070.0 ], [ 529719.563190286629833, 7262060.0 ], [ 529723.223087035003118, 7262050.000892210751772 ], [ 529726.678590590134263, 7262040.012066386640072 ], [ 529729.987933612894267, 7262030.099214585497975 ], [ 529733.222194824367762, 7262020.546306265518069 ], [ 529736.242673087399453, 7262012.086809693835676 ], [ 529738.448322394862771, 7262005.756988408043981 ] ] } },
{ "type": "Feature", "properties": { "id": 4, "reference_id": 9, "dune_id": 9, "dune_name": "Inverted Y Dune", "acquisition_date": "2019-03-01", "length_m": 513.76064981648688 }, "geometry": { "type": "LineString", "coordinates": [ [ 530097.91319030651357, 7261598.910724874585867 ], [ 530094.243011592421681, 7261603.833858641795814 ], [ 530087.913190306629986, 7261610.858292123302817 ], [ 530079.453693735180423, 7261618.695108798332512 ], [ 530069.900785414502025, 7261625.937477882951498 ], [ 530059.987933612894267, 7261632.12498040869832 ], [ 530049.999107789364643, 7261637.782730410806835 ], [ 530040.0, 7261643.659004538320005 ], [ 530030.0, 7261650.0 ], [ 530020.0, 7261656.340103251859546 ], [ 530010.0, 7261662.206541518680751 ], [ 530000.0, 7261667.794350693002343 ], [ 529990.0, 7261673.670178714208305 ], [ 529980.0, 7261680.075974022038281 ], [ 529970.0, 7261686.700938943773508 ], [ 529960.0, 7261693.311127444729209 ], [ 529950.0, 7261700.011174177750945 ], [ 529940.0, 7261706.777805175632238 ], [ 529930.0, 7261713.757326913066208 ], [ 529920.0, 7261721.551677605137229 ], [ 529910.0, 7261730.447983890771866 ], [ 529900.0, 7261740.087148198857903 ], [ 529890.0, 7261750.011174176819623 ], [ 529880.0, 7261760.000892210751772 ], [ 529870.000892210751772, 7261770.0 ], [ 529860.011174176470377, 7261780.0 ], [ 529850.087148198392242, 7261790.0 ], [ 529840.447091679205187, 7261800.0 ], [ 529831.541395639418624, 7261810.0 ], [ 529823.682245101314038, 7261820.0 ], [ 529816.428143660770729, 7261830.0 ], [ 529808.994628659682348, 7261840.000000000931323 ], [ 529801.552569815889001, 7261850.0 ], [ 529795.222748530097306, 7261860.0 ], [ 529790.534239877597429, 7261870.0 ], [ 529786.864061163389124, 7261880.0 ], [ 529783.682245101314038, 7261890.0 ], [ 529781.104585926048458, 7261900.0 ], [ 529778.896306284703314, 7261910.0 ], [ 529776.329821285791695, 7261919.999107790179551 ], [ 529773.234261211473495, 7261929.987933613359928 ], [ 529770.000892210751772, 7261939.900785414502025 ], [ 529766.776912964996882, 7261949.453693736344576 ], [ 529763.757326912600547, 7261957.913190307095647 ], [ 529761.551677605137229, 7261964.243011592887342 ] ] } },
{ "type": "Feature", "properties": { "id": 5, "reference_id": 3, "dune_id": 3, "dune_name": "Big Mommy Dune", "acquisition_date": "2019-03-01", "length_m": 308.48602318461053 }, "geometry": { "type": "LineString", "coordinates": [ [ 529735.756988407694735, 7260610.0 ], [ 529742.08680969348643, 7260610.0 ], [ 529750.546306264819577, 7260610.0 ], [ 529760.099214585614391, 7260610.0 ], [ 529770.012066387222148, 7260610.0 ], [ 529780.000892210751772, 7260610.0 ], [ 529790.0, 7260610.0 ], [ 529800.0, 7260610.0 ], [ 529810.0, 7260610.0 ], [ 529820.0, 7260610.0 ], [ 529830.0, 7260610.0 ], [ 529840.0, 7260610.0 ], [ 529850.0, 7260610.0 ], [ 529860.0, 7260610.0 ], [ 529870.0, 7260610.0 ], [ 529880.0, 7260610.0 ], [ 529890.0, 7260610.0 ], [ 529900.0, 7260610.0 ], [ 529910.0, 7260610.0 ], [ 529920.0, 7260610.0 ], [ 529930.0, 7260610.0 ], [ 529940.0, 7260610.0 ], [ 529950.0, 7260610.0 ], [ 529960.0, 7260610.0 ], [ 529970.0, 7260610.0 ], [ 529980.0, 7260610.0 ], [ 529990.0, 7260610.0 ], [ 529999.999107789364643, 7260610.0 ], [ 530009.987933612894267, 7260610.0 ], [ 530019.900785414502025, 7260610.0 ], [ 530029.453693735180423, 7260610.0 ], [ 530037.91319030651357, 7260610.0 ], [ 530044.243011592305265, 7260610.0 ] ] } },
{ "type": "Feature", "properties": { "id": 6, "reference_id": 3, "dune_id": 3, "dune_name": "Big Mommy Dune", "acquisition_date": "2019-03-01", "length_m": 161.73201234061065 }, "geometry": { "type": "LineString", "coordinates": [ [ 530085.756988407694735, 7260599.9888258241117 ], [ 530092.08680969348643, 7260599.912851802073419 ], [ 530100.546306264819577, 7260599.552908321842551 ], [ 530110.099214585614391, 7260598.458604360930622 ], [ 530120.012066387222148, 7260596.318647108972073 ], [ 530130.000892210751772, 7260593.583030516281724 ], [ 530140.0, 7260591.093411749228835 ], [ 530150.0, 7260588.906588250771165 ], [ 530160.0, 7260586.416077273897827 ], [ 530170.000000000116415, 7260583.670178714208305 ], [ 530180.0, 7260581.454247441142797 ], [ 530190.0, 7260580.0 ], [ 530199.999107789248228, 7260578.546644769608974 ], [ 530209.987933612894267, 7260576.340995462611318 ], [ 530219.900785414385609, 7260573.671070925891399 ], [ 530229.453693735180423, 7260571.540503429248929 ], [ 530237.91319030651357, 7260570.447091680020094 ], [ 530244.243011592421681, 7260570.087148198857903 ] ] } },
{ "type": "Feature", "properties": { "id": 7, "reference_id": 3, "dune_id": 3, "dune_name": "Big Mommy Dune", "acquisition_date": "2019-03-01", "length_m": 357.50654654689635 }, "geometry": { "type": "LineString", "coordinates": [ [ 529374.243011592305265, 7260695.756988408043981 ], [ 529367.91319030651357, 7260702.086809693835676 ], [ 529359.453693735180423, 7260710.546306265518069 ], [ 529349.901677625253797, 7260720.099214585497975 ], [ 529339.999107789364643, 7260730.012066388502717 ], [ 529330.086255987756886, 7260740.000892210751772 ], [ 529320.447983889956959, 7260750.0 ], [ 529311.551677605253644, 7260760.0 ], [ 529303.757326912600547, 7260770.0 ], [ 529296.777805175632238, 7260780.000000000931323 ], [ 529290.011174176470377, 7260790.0 ], [ 529283.311127444263548, 7260800.0 ], [ 529276.700938943075016, 7260810.0 ], [ 529270.075974022038281, 7260820.0 ], [ 529263.670178714208305, 7260830.0 ], [ 529257.794350692653097, 7260840.0 ], [ 529252.205649307463318, 7260850.0 ], [ 529246.32982128590811, 7260860.0 ], [ 529239.924025977961719, 7260870.0 ], [ 529233.299953267676756, 7260880.0 ], [ 529226.700046732323244, 7260890.0 ], [ 529220.076866232557222, 7260900.0 ], [ 529213.680460680043325, 7260910.0 ], [ 529207.871216925210319, 7260920.0 ], [ 529202.57765917526558, 7260930.0 ], [ 529197.521555410232395, 7260939.999553894624114 ], [ 529192.588833351852372, 7260949.993520701304078 ], [ 529187.958365123718977, 7260959.944359514862299 ], [ 529184.128444569883868, 7260969.6772395754233 ], [ 529181.628543837927282, 7260978.683442020788789 ], [ 529180.458265855675563, 7260986.078100949525833 ], [ 529180.088040409144014, 7260991.078100949525833 ] ] } },
{ "type": "Feature", "properties": { "id": 8, "reference_id": 3, "dune_id": 3, "dune_name": "Big Mommy Dune", "acquisition_date": "2019-03-01", "length_m": 214.83426852579146 }, "geometry": { "type": "LineString", "coordinates": [ [ 529405.756988407694735, 7260679.552016109228134 ], [ 529412.08680969348643, 7260678.448322394862771 ], [ 529420.546306264819577, 7260676.242673087865114 ], [ 529430.099214585614391, 7260673.223087035119534 ], [ 529440.012066387222148, 7260669.999107789248228 ], [ 529450.000892210751772, 7260666.765738788992167 ], [ 529460.0, 7260663.670178714208305 ], [ 529470.0, 7260661.10458592697978 ], [ 529480.0, 7260658.906588250771165 ], [ 529490.0, 7260656.405795307829976 ], [ 529500.000000000116415, 7260653.594204692170024 ], [ 529510.0, 7260651.094303959980607 ], [ 529520.0, 7260648.905696040019393 ], [ 529530.0, 7260646.405795307829976 ], [ 529540.0, 7260643.594204693101346 ], [ 529550.0, 7260641.094303959980607 ], [ 529560.0, 7260638.906588250771165 ], [ 529569.999107789248228, 7260636.416969483718276 ], [ 529579.987933612894267, 7260633.681352891027927 ], [ 529589.900785414502025, 7260631.541395640000701 ], [ 529599.453693735180423, 7260630.447091680020094 ], [ 529607.91319030651357, 7260630.087148198857903 ], [ 529614.243011592421681, 7260630.011174176819623 ] ] } },
{ "type": "Feature", "properties": { "id": 9, "reference_id": 1, "dune_id": 1, "dune_name": "Big Mommy Dune", "acquisition_date": "2019-03-01", "length_m": 710.02371456175933 }, "geometry": { "type": "LineString", "coordinates": [ [ 529020.0, 7261565.756988408043981 ], [ 529020.0, 7261572.086809693835676 ], [ 529020.0, 7261580.546306265518069 ], [ 529020.0, 7261590.099214585497975 ], [ 529020.0, 7261600.012066387571394 ], [ 529020.0, 7261610.000892210751772 ], [ 529020.000892210751772, 7261620.0 ], [ 529020.011174176470377, 7261630.0 ], [ 529020.087148198508658, 7261640.0 ], [ 529020.447983889840543, 7261650.0 ], [ 529021.551677605137229, 7261660.0 ], [ 529023.758219123352319, 7261670.0 ], [ 529026.788087141467258, 7261680.0 ], [ 529030.088040409144014, 7261690.0 ], [ 529033.681352890795097, 7261700.0 ], [ 529037.871216925210319, 7261710.0 ], [ 529042.577659175381996, 7261720.0 ], [ 529047.520663199597038, 7261730.000000000931323 ], [ 529052.577659175381996, 7261740.0 ], [ 529057.870324714574963, 7261750.0 ], [ 529063.670178714208305, 7261760.0 ], [ 529070.0, 7261770.0 ], [ 529076.329821285791695, 7261780.0 ], [ 529082.129675285425037, 7261790.0 ], [ 529087.42234082473442, 7261800.0 ], [ 529092.477552379132248, 7261810.0 ], [ 529097.399992471793666, 7261820.0 ], [ 529101.953594467253424, 7261830.0 ], [ 529105.413289574556984, 7261840.000000000931323 ], [ 529106.742912324378267, 7261850.0 ], [ 529105.413289574556984, 7261860.0 ], [ 529101.953594467253424, 7261870.0 ], [ 529097.399992471793666, 7261880.0 ], [ 529092.476660168496892, 7261890.0 ], [ 529087.4120588588994, 7261900.0 ], [ 529082.052809052867815, 7261910.0 ], [ 529075.959595839260146, 7261920.0 ], [ 529068.829722017864697, 7261930.0 ], [ 529061.169385771499947, 7261940.0 ], [ 529054.030122194904834, 7261950.0 ], [ 529047.871216925210319, 7261960.0 ], [ 529042.227105449652299, 7261970.0 ], [ 529036.417861694935709, 7261980.0 ], [ 529030.372009867918678, 7261990.0 ], [ 529024.850738662178628, 7262000.0 ], [ 529020.447091679205187, 7262010.0 ], [ 529016.777805175632238, 7262020.0 ], [ 529013.320517199346796, 7262030.0 ], [ 529010.0, 7262040.0 ], [ 529006.67948280076962, 7262050.0 ], [ 529003.222194824367762, 7262060.0 ], [ 528999.552908320911229, 7262070.0 ], [ 528995.149261337821372, 7262080.0 ], [ 528989.628882342833094, 7262090.0 ], [ 528983.593312481534667, 7262100.0 ], [ 528977.859150538104586, 7262110.0 ], [ 528972.564700577524491, 7262120.0 ], [ 528967.42234082473442, 7262130.0 ], [ 528962.042527087032795, 7262139.999107789248228 ], [ 528955.871555430116132, 7262149.9888258241117 ], [ 528948.37234837282449, 7262159.911959590390325 ], [ 528939.553800531546585, 7262169.540841934271157 ], [ 528930.011174176470377, 7262178.360281986184418 ], [ 528920.535132088349201, 7262185.783515021204948 ], [ 528912.085917482851073, 7262191.583369020372629 ], [ 528905.756988407694735, 7262195.783515021204948 ] ] } },
{ "type": "Feature", "properties": { "id": 10, "reference_id": 1, "dune_id": 1, "dune_name": "Big Mommy Dune", "acquisition_date": "2019-03-01", "length_m": 445.95607455396652 }, "geometry": { "type": "LineString", "coordinates": [ [ 529179.912851801607758, 7261105.756988408043981 ], [ 529179.552016110159457, 7261112.086809692904353 ], [ 529178.448322394862771, 7261120.546306265518069 ], [ 529176.242673087399453, 7261130.099214586429298 ], [ 529173.222194824367762, 7261140.012066387571394 ], [ 529169.988825823529623, 7261150.000892210751772 ], [ 529166.689764766488224, 7261160.0 ], [ 529163.309343022760004, 7261170.0 ], [ 529160.0, 7261180.0 ], [ 529156.68976476660464, 7261190.0 ], [ 529153.299061057041399, 7261200.0 ], [ 529149.923133767442778, 7261210.000000000931323 ], [ 529146.319539319956675, 7261220.0 ], [ 529142.129675285425037, 7261230.0 ], [ 529137.433515001088381, 7261240.0 ], [ 529132.566484998911619, 7261250.0 ], [ 529127.869432503939606, 7261260.0 ], [ 529123.670178714208305, 7261270.0 ], [ 529120.000000000116415, 7261280.0 ], [ 529116.329821285791695, 7261290.0 ], [ 529112.129675285541452, 7261300.0 ], [ 529107.423233035369776, 7261310.000000000931323 ], [ 529102.490510976873338, 7261320.0 ], [ 529097.510381233878434, 7261330.0 ], [ 529092.587048930465244, 7261340.0 ], [ 529087.947190947132185, 7261350.0 ], [ 529084.040404160739854, 7261360.0 ], [ 529081.170277982251719, 7261370.0 ], [ 529078.830614228500053, 7261380.0 ], [ 529075.969877805095166, 7261390.0 ], [ 529072.129675285425037, 7261400.0 ], [ 529067.783176516066305, 7261410.0 ], [ 529063.659004537737928, 7261420.0 ], [ 529060.0, 7261430.0 ], [ 529056.340995462262072, 7261440.0 ], [ 529052.216823483933695, 7261450.0 ], [ 529047.870324714458548, 7261460.0 ], [ 529044.031014405540191, 7261470.000000000931323 ], [ 529041.180559947970323, 7261479.999107789248228 ], [ 529038.917762426892295, 7261489.987933613359928 ], [ 529036.417861694935709, 7261499.900785414502025 ], [ 529033.681352890795097, 7261509.453693735413253 ], [ 529031.54139563953504, 7261517.913190307095647 ], [ 529030.447091679205187, 7261524.243011592887342 ] ] } },
{ "type": "Feature", "properties": { "id": 11, "reference_id": 1, "dune_id": 1, "dune_name": "Big Mommy Dune", "acquisition_date": "2019-03-01", "length_m": 76.281445203293146 }, "geometry": { "type": "LineString", "coordinates": [ [ 529180.000892210751772, 7260998.921899050474167 ], [ 529180.011174176470377, 7261003.921899050474167 ], [ 529180.087148198392242, 7261011.316557979211211 ], [ 529180.447091679205187, 7261020.322760425508022 ], [ 529181.540503428783268, 7261030.054748276248574 ], [ 529183.670178714208305, 7261039.99441291205585 ], [ 529186.329821285791695, 7261049.901231519877911 ], [ 529188.459496571333148, 7261059.453693735413253 ], [ 529189.552908320911229, 7261067.913190307095647 ], [ 529189.912851801607758, 7261074.243011591956019 ] ] } },
{ "type": "Feature", "properties": { "id": 12, "reference_id": 4, "dune_id": 4, "dune_name": "The Star Dune", "acquisition_date": "2019-03-01", "length_m": 587.07129611322273 }, "geometry": { "type": "LineString", "coordinates": [ [ 533564.243011592421681, 7262038.01151268184185 ], [ 533557.91319030651357, 7262034.778143680654466 ], [ 533549.453693735296838, 7262029.912851801142097 ], [ 533539.900785414502025, 7262024.762698253616691 ], [ 533529.987933612894267, 7262020.435917503200471 ], [ 533519.999107789364643, 7262016.776912964880466 ], [ 533510.0, 7262013.320517199113965 ], [ 533500.0, 7262010.000892210751772 ], [ 533490.0, 7262006.690656977705657 ], [ 533480.0, 7262003.309343023225665 ], [ 533470.0, 7262000.0 ], [ 533460.0, 7261996.690656976774335 ], [ 533450.0, 7261993.309343023225665 ], [ 533440.0, 7261990.0 ], [ 533430.0, 7261986.690656976774335 ], [ 533420.0, 7261983.310235233977437 ], [ 533410.0, 7261980.010281965136528 ], [ 533400.000000000116415, 7261976.766630999743938 ], [ 533390.0, 7261973.670178714208305 ], [ 533380.000000000116415, 7261971.10458592697978 ], [ 533370.0, 7261968.906588250771165 ], [ 533360.0, 7261966.405795308761299 ], [ 533350.0, 7261963.594204693101346 ], [ 533340.0, 7261961.093411749228835 ], [ 533330.0, 7261958.895414074882865 ], [ 533320.0, 7261956.329821286723018 ], [ 533310.0, 7261953.233369001187384 ], [ 533300.0, 7261949.989718034863472 ], [ 533290.0, 7261946.689764766022563 ], [ 533280.0, 7261943.309343023225665 ], [ 533270.0, 7261940.0 ], [ 533260.0, 7261936.690656976774335 ], [ 533250.0, 7261933.309343023225665 ], [ 533240.0, 7261930.0 ], [ 533230.0, 7261926.690656977705657 ], [ 533220.0, 7261923.310235233977437 ], [ 533210.0, 7261920.010281966067851 ], [ 533200.0, 7261916.766630999743938 ], [ 533190.0, 7261913.670178715139627 ], [ 533180.0, 7261911.103693716228008 ], [ 533170.0, 7261908.896306285634637 ], [ 533160.0, 7261906.329821286723018 ], [ 533150.0, 7261903.234261211939156 ], [ 533140.0, 7261900.0 ], [ 533130.0, 7261896.765738788992167 ], [ 533120.0, 7261893.670178715139627 ], [ 533110.0, 7261891.10458592697978 ], [ 533100.0, 7261888.907480461522937 ], [ 533090.0, 7261886.416077273897827 ], [ 533080.0, 7261883.670178714208305 ], [ 533070.0, 7261881.453355230391026 ], [ 533060.0, 7261879.9888258241117 ], [ 533050.000892210751772, 7261878.459496571682394 ], [ 533040.012066387105733, 7261875.893903783522546 ], [ 533030.099214585614391, 7261872.13056749664247 ], [ 533020.546306264819577, 7261867.870324715040624 ], [ 533012.08680969348643, 7261864.117270393297076 ], [ 533005.756988407694735, 7261861.627651628106833 ] ] } },
{ "type": "Feature", "properties": { "id": 13, "reference_id": 5, "dune_id": 5, "dune_name": "The Star Dune", "acquisition_date": "2019-03-01", "length_m": 1136.2208818325182 }, "geometry": { "type": "LineString", "coordinates": [ [ 534334.789317857124843, 7261305.756988408043981 ], [ 534330.0, 7261312.086809693835676 ], [ 534325.210682142991573, 7261320.546306264586747 ], [ 534321.987595107872039, 7261330.099214585497975 ], [ 534320.534239877597429, 7261340.012066386640072 ], [ 534320.098322374862619, 7261350.000892210751772 ], [ 534320.012066387105733, 7261360.0 ], [ 534320.001784421387129, 7261370.0 ], [ 534320.011174176470377, 7261380.0 ], [ 534320.087148198392242, 7261390.0 ], [ 534320.447091679205187, 7261400.0 ], [ 534321.540503428666852, 7261410.0 ], [ 534323.670178714208305, 7261420.0 ], [ 534326.329821285791695, 7261430.0 ], [ 534328.459496571333148, 7261440.0 ], [ 534329.552908320794813, 7261450.0 ], [ 534329.912851801607758, 7261460.0 ], [ 534329.988825823529623, 7261470.000000000931323 ], [ 534329.999107789364643, 7261480.0 ], [ 534330.0, 7261490.0 ], [ 534329.999107789364643, 7261500.0 ], [ 534329.987933612894267, 7261510.0 ], [ 534329.900785414385609, 7261520.0 ], [ 534329.453693735296838, 7261530.0 ], [ 534327.91319030651357, 7261540.0 ], [ 534324.243011592421681, 7261550.0 ], [ 534317.91319030651357, 7261560.000000000931323 ], [ 534309.453693735296838, 7261569.999107789248228 ], [ 534299.900785414502025, 7261579.9888258241117 ], [ 534289.987933612894267, 7261589.912851802073419 ], [ 534279.999107789248228, 7261599.552016111090779 ], [ 534270.0, 7261608.448322394862771 ], [ 534260.0, 7261616.242673087865114 ], [ 534250.0, 7261623.222194824367762 ], [ 534240.0, 7261629.9888258241117 ], [ 534230.0, 7261636.688872556202114 ], [ 534220.0, 7261643.298168847337365 ], [ 534210.0, 7261649.911959591321647 ], [ 534200.0, 7261656.231498911976814 ], [ 534190.0, 7261661.671409429982305 ], [ 534180.0, 7261665.805863374844193 ], [ 534170.0, 7261668.448322394862771 ], [ 534160.0, 7261669.987933613359928 ], [ 534150.0, 7261671.452463019639254 ], [ 534140.0, 7261673.659004537388682 ], [ 534130.0, 7261676.328929075039923 ], [ 534120.0, 7261678.460388781502843 ], [ 534110.0, 7261679.564082497730851 ], [ 534100.0, 7261680.0 ], [ 534090.0, 7261680.435917503200471 ], [ 534080.0, 7261681.539611218497157 ], [ 534070.0, 7261683.670178715139627 ], [ 534060.0, 7261686.33071349747479 ], [ 534050.0, 7261688.470670748502016 ], [ 534040.0, 7261689.64005651883781 ], [ 534030.0, 7261690.35994348116219 ], [ 534020.0, 7261691.529329253360629 ], [ 534010.0, 7261693.670178714208305 ], [ 534000.0, 7261696.340995462611318 ], [ 533990.0, 7261698.546644769608974 ], [ 533980.0, 7261700.000892210751772 ], [ 533970.0, 7261701.464529407210648 ], [ 533960.0, 7261703.747044946998358 ], [ 533950.0, 7261706.787194930948317 ], [ 533940.0, 7261710.088040409609675 ], [ 533930.0, 7261713.681352891027927 ], [ 533920.0, 7261717.871216924861073 ], [ 533910.0, 7261722.576766964048147 ], [ 533900.0, 7261727.510381233878434 ], [ 533890.0, 7261732.500792942941189 ], [ 533880.0, 7261737.500099267810583 ], [ 533870.0, 7261742.499900732189417 ], [ 533860.0, 7261747.500099267810583 ], [ 533850.0, 7261752.500792942941189 ], [ 533840.0, 7261757.511273443698883 ], [ 533830.0, 7261762.587941141799092 ], [ 533820.0, 7261767.958365123718977 ], [ 533810.000892210635357, 7261774.128444570116699 ], [ 533800.012066387105733, 7261781.628543838858604 ], [ 533790.098322374979034, 7261790.458265855908394 ], [ 533780.535132088232785, 7261800.088040409609675 ], [ 533771.999661495094188, 7261810.011174177750945 ], [ 533765.309004517854191, 7261820.000892210751772 ], [ 533760.535132088349201, 7261830.0 ], [ 533756.788087141467258, 7261840.000000000931323 ], [ 533753.311127444147132, 7261850.0 ], [ 533749.924025978078134, 7261860.0 ], [ 533746.31953932007309, 7261870.0 ], [ 533742.129675285541452, 7261880.0 ], [ 533737.433515001088381, 7261890.0 ], [ 533732.566484998911619, 7261900.0 ], [ 533727.869432503823191, 7261910.0 ], [ 533723.669286503456533, 7261920.0 ], [ 533719.989718034281395, 7261930.0 ], [ 533716.252955053234473, 7261940.0 ], [ 533711.759449839009903, 7261950.0 ], [ 533706.252955053234473, 7261960.0 ], [ 533699.988825823529623, 7261970.0 ], [ 533693.659004537737928, 7261980.0 ], [ 533687.794350692536682, 7261989.999553894624114 ], [ 533682.217715694569051, 7261999.993520701304078 ], [ 533676.428143660770729, 7262009.944359513930976 ], [ 533670.45915806631092, 7262019.677239574491978 ], [ 533665.298722552135587, 7262028.683442020788789 ], [ 533661.998769284458831, 7262036.078100949525833 ], [ 533660.535132088232785, 7262041.078100949525833 ] ] } },
{ "type": "Feature", "properties": { "id": 14, "reference_id": 6, "dune_id": 6, "dune_name": "The Star Dune", "acquisition_date": "2019-03-01", "length_m": 895.94081253525451 }, "geometry": { "type": "LineString", "coordinates": [ [ 533658.470670747803524, 7262048.921899050474167 ], [ 533656.416969484300353, 7262053.921899050474167 ], [ 533654.117270393413492, 7262061.316557979211211 ], [ 533653.08100685745012, 7262070.322760425508022 ], [ 533654.117270393413492, 7262080.055640487000346 ], [ 533656.416969484300353, 7262090.006479298695922 ], [ 533658.470670747803524, 7262100.000446105375886 ], [ 533659.553800531546585, 7262110.0 ], [ 533659.912851801607758, 7262120.0 ], [ 533659.988825823529623, 7262130.0 ], [ 533659.999107789248228, 7262140.0 ], [ 533660.0, 7262150.0 ], [ 533660.0, 7262160.0 ], [ 533660.0, 7262170.0 ], [ 533660.000892210751772, 7262180.0 ], [ 533660.011174176470377, 7262190.0 ], [ 533660.087148198392242, 7262200.0 ], [ 533660.447091679088771, 7262210.0 ], [ 533661.540503428783268, 7262220.0 ], [ 533663.671070924960077, 7262230.0 ], [ 533666.340995462378487, 7262240.0 ], [ 533668.546644769841805, 7262250.0 ], [ 533670.0, 7262260.0 ], [ 533671.453355230391026, 7262270.0 ], [ 533673.659004537737928, 7262280.0 ], [ 533676.328929075156339, 7262290.0 ], [ 533678.459496571333148, 7262300.0 ], [ 533679.552016110159457, 7262310.0 ], [ 533679.901677625137381, 7262320.0 ], [ 533679.901677625137381, 7262330.0 ], [ 533679.552016110159457, 7262340.000000000931323 ], [ 533678.459496571333148, 7262350.0 ], [ 533676.328929075156339, 7262360.0 ], [ 533673.659004537737928, 7262370.0 ], [ 533671.453355230391026, 7262380.0 ], [ 533669.999107789364643, 7262390.0 ], [ 533668.535470593255013, 7262400.0 ], [ 533666.253847263869829, 7262410.0 ], [ 533663.223087035119534, 7262420.0 ], [ 533659.988825823529623, 7262430.0 ], [ 533656.689764766488224, 7262440.0 ], [ 533653.310235233511776, 7262450.0 ], [ 533650.01028196583502, 7262460.0 ], [ 533646.766630999161862, 7262470.0 ], [ 533643.670178714208305, 7262480.0 ], [ 533641.104585926048458, 7262490.0 ], [ 533638.906588250538334, 7262500.0 ], [ 533636.405795307829976, 7262510.0 ], [ 533633.594204692286439, 7262520.0 ], [ 533631.094303960213438, 7262530.0 ], [ 533628.905696039786562, 7262540.0 ], [ 533626.405795307713561, 7262550.0 ], [ 533623.594204692170024, 7262560.0 ], [ 533621.094303960213438, 7262570.0 ], [ 533618.906588250421919, 7262580.0 ], [ 533616.416969484183937, 7262590.0 ], [ 533613.680460680043325, 7262600.000000000931323 ], [ 533611.530221462948248, 7262610.0 ], [ 533610.359943480696529, 7262620.0 ], [ 533609.640056519303471, 7262630.0 ], [ 533608.470670747803524, 7262640.0 ], [ 533606.330713496543467, 7262650.0 ], [ 533603.670178714208305, 7262660.0 ], [ 533601.540503428783268, 7262670.0 ], [ 533600.44619946856983, 7262680.0 ], [ 533600.075974022038281, 7262690.0 ], [ 533599.924025978078134, 7262700.0 ], [ 533599.553800531546585, 7262710.0 ], [ 533598.459496571216732, 7262720.0 ], [ 533596.328929075039923, 7262730.0 ], [ 533593.659004537737928, 7262740.0 ], [ 533591.452463019639254, 7262750.0 ], [ 533589.988825823529623, 7262760.0 ], [ 533588.459496571216732, 7262770.0 ], [ 533585.893011572421528, 7262780.0 ], [ 533582.119393319706433, 7262790.0 ], [ 533577.783176516182721, 7262800.0 ], [ 533573.669286503572948, 7262810.0 ], [ 533570.075974022038281, 7262820.0 ], [ 533566.700938943075016, 7262830.0 ], [ 533563.311127444147132, 7262840.0 ], [ 533560.011174176470377, 7262850.0 ], [ 533556.777805175632238, 7262860.0 ], [ 533553.757326912600547, 7262870.000000000931323 ], [ 533551.551677605253644, 7262879.999107789248228 ], [ 533550.447983889840543, 7262889.987933613359928 ], [ 533550.087148198392242, 7262899.900785414502025 ], [ 533550.011174176470377, 7262909.453693736344576 ], [ 533550.000892210751772, 7262917.913190307095647 ], [ 533550.0, 7262924.243011591956019 ] ] } },
{ "type": "Feature", "properties": { "id": 15, "reference_id": 2, "dune_id": 2, "dune_name": "Big Mommy Dune", "acquisition_date": "2019-03-01", "length_m": 161.90633567031759 }, "geometry": { "type": "LineString", "coordinates": [ [ 529014.243011592421681, 7260919.9888258241117 ], [ 529007.91319030651357, 7260919.912851801142097 ], [ 528999.453693735296838, 7260919.552908321842551 ], [ 528989.900785414385609, 7260918.458604359999299 ], [ 528979.987933612894267, 7260916.318647108972073 ], [ 528969.999107789248228, 7260913.583030516281724 ], [ 528960.0, 7260911.093411749228835 ], [ 528950.0, 7260908.905696040019393 ], [ 528940.0, 7260906.405795308761299 ], [ 528930.0, 7260903.594204693101346 ], [ 528920.0, 7260901.094303959980607 ], [ 528910.0, 7260898.906588250771165 ], [ 528900.000892210751772, 7260896.416969484649599 ], [ 528890.012066387105733, 7260893.681352891027927 ], [ 528880.099214585614391, 7260891.541395640000701 ], [ 528870.546306264703162, 7260890.447091679088771 ], [ 528862.08680969348643, 7260890.087148198857903 ], [ 528855.756988407694735, 7260890.011174176819623 ] ] } },
{ "type": "Feature", "properties": { "id": 16, "reference_id": 2, "dune_id": 2, "dune_name": "Big Mommy Dune", "acquisition_date": "2019-03-01", "length_m": 357.03189766066947 }, "geometry": { "type": "LineString", "coordinates": [ [ 528734.243011592305265, 7260829.552016110159457 ], [ 528727.913190306629986, 7260828.448322394862771 ], [ 528719.453693735180423, 7260826.241780877113342 ], [ 528709.900785414385609, 7260823.211912859231234 ], [ 528699.987933612894267, 7260819.91195959225297 ], [ 528689.999107789364643, 7260816.318647108972073 ], [ 528680.0, 7260812.128783075138927 ], [ 528670.0, 7260807.423233035951853 ], [ 528660.0, 7260802.489618767052889 ], [ 528650.0, 7260797.499207057990134 ], [ 528640.0, 7260792.499900732189417 ], [ 528630.0, 7260787.499207057058811 ], [ 528620.0, 7260782.489618767052889 ], [ 528610.0, 7260777.423233035951853 ], [ 528600.0, 7260772.128783075138927 ], [ 528590.0, 7260766.319539319723845 ], [ 528580.0, 7260759.92313376814127 ], [ 528570.0, 7260753.299061057157815 ], [ 528560.0, 7260746.689764766953886 ], [ 528550.0, 7260740.0 ], [ 528540.0, 7260733.309343023225665 ], [ 528530.0, 7260726.689764766022563 ], [ 528520.0, 7260719.989718034863472 ], [ 528510.0, 7260713.233369000256062 ], [ 528500.0, 7260706.329821286723018 ], [ 528490.0, 7260698.896306284703314 ], [ 528480.0, 7260691.103693715296686 ], [ 528470.000892210751772, 7260683.671070925891399 ], [ 528460.012066387105733, 7260676.777805175632238 ], [ 528450.099214585614391, 7260670.098322374746203 ], [ 528440.546306264819577, 7260663.76939329970628 ], [ 528432.08680969348643, 7260658.329482780769467 ], [ 528425.756988407694735, 7260654.205310802906752 ] ] } },
{ "type": "Feature", "properties": { "id": 17, "reference_id": 7, "dune_id": 7, "dune_name": "Inverted Y Dune", "acquisition_date": "2019-03-01", "length_m": 569.78575155966598 }, "geometry": { "type": "LineString", "coordinates": [ [ 530215.756988407694735, 7261649.9888258241117 ], [ 530222.08680969348643, 7261649.912851802073419 ], [ 530230.546306264703162, 7261649.552908321842551 ], [ 530240.099214585614391, 7261648.459496572613716 ], [ 530250.012066387105733, 7261646.328929075971246 ], [ 530260.000892210751772, 7261643.659004538320005 ], [ 530270.0, 7261641.453355230391026 ], [ 530280.0, 7261639.999107789248228 ], [ 530290.0, 7261638.535470593720675 ], [ 530300.0, 7261636.253847263753414 ], [ 530310.0, 7261633.223087035119534 ], [ 530320.0, 7261629.9888258241117 ], [ 530330.0, 7261626.689764766022563 ], [ 530340.0, 7261623.309343023225665 ], [ 530350.0, 7261619.999107789248228 ], [ 530360.0, 7261616.679482800886035 ], [ 530370.0, 7261613.222194824367762 ], [ 530380.0, 7261609.552908320911229 ], [ 530390.0, 7261605.149261338636279 ], [ 530400.0, 7261599.627990132197738 ], [ 530410.0, 7261593.582138305529952 ], [ 530420.0, 7261587.772002339363098 ], [ 530430.000000000116415, 7261582.117608899250627 ], [ 530440.0, 7261575.881837395951152 ], [ 530450.0, 7261568.372348373755813 ], [ 530460.0, 7261559.541734145022929 ], [ 530469.999107789364643, 7261549.911959590390325 ], [ 530479.988825823529623, 7261539.9888258241117 ], [ 530489.912851801607758, 7261529.999107789248228 ], [ 530499.552016110159457, 7261520.0 ], [ 530508.448322394862771, 7261510.0 ], [ 530516.242673087399453, 7261500.0 ], [ 530523.222194824367762, 7261490.0 ], [ 530529.988825823529623, 7261480.0 ], [ 530536.689764766488224, 7261470.000000000931323 ], [ 530543.309343022760004, 7261460.0 ], [ 530550.0, 7261450.0 ], [ 530556.690656977239996, 7261440.0 ], [ 530563.310235233511776, 7261430.0 ], [ 530570.011174176470377, 7261420.0 ], [ 530576.777805175632238, 7261410.0 ], [ 530583.757326912600547, 7261400.0 ], [ 530591.551677605137229, 7261390.0 ], [ 530600.447983889840543, 7261380.0 ], [ 530610.086255987756886, 7261370.000892210751772 ], [ 530619.999107789364643, 7261360.012066386640072 ], [ 530629.901677625137381, 7261350.099214585497975 ], [ 530639.453693735296838, 7261340.546306265518069 ], [ 530647.913190306629986, 7261332.086809693835676 ], [ 530654.243011592305265, 7261325.756988408043981 ] ] } }
]
}
