{
"type": "FeatureCollection",
"name": "crests_2023_06_2023-06-23",
"crs": { "type": "name", "properties": { "name": "urn:ogc:def:crs:EPSG::32733" } },
"features": [
{ "type": "Feature", "properties": { "id": 0, "reference_id": 1, "dune_id": 1, "dune_name": "Big Mommy Dune", "acquisition_date": "2023-06-23", "length_m": 636.7602895592097 }, "geometry": { "type": "LineString", "coordinates": [ [ 528835.756988407694735, 7262235.870663220062852 ], [ 528842.086809693370014, 7262232.031352911144495 ], [ 528850.546306264819577, 7262227.335192626342177 ], [ 528860.099214585614391, 7262222.117608898319304 ], [ 528870.012066387105733, 7262216.317754899151623 ], [ 528880.000892210751772, 7262209.91195959225297 ], [ 528890.0, 7262203.211912859231234 ], [ 528900.0, 7262196.241780877113342 ], [ 528910.0, 7262188.448322394862771 ], [ 528919.999107789364643, 7262179.552016110159457 ], [ 528929.988825823529623, 7262169.912851802073419 ], [ 528939.911959590972401, 7262159.9888258241117 ], [ 528949.541734144324437, 7262149.999107789248228 ], [ 528958.371456162189133, 7262140.0 ], [ 528965.871555430116132, 7262130.0 ], [ 528972.041634876397438, 7262120.0 ], [ 528977.4120588588994, 7262110.0 ], [ 528982.488726555602625, 7262100.0 ], [ 528987.498314846656285, 7262090.0 ], [ 528992.489618766237982, 7262080.0 ], [ 528997.423233035369776, 7262070.0 ], [ 529002.129675285541452, 7262060.0 ], [ 529006.32982128590811, 7262050.0 ], [ 529010.0, 7262040.0 ], [ 529013.670178714208305, 7262030.0 ], [ 529017.870324714574963, 7262020.0 ], [ 529022.577659175381996, 7262010.0 ], [ 529027.520663199597038, 7262000.0 ], [ 529032.577659175381996, 7261990.0 ], [ 529037.871216925210319, 7261980.0 ], [ 529043.68046067992691, 7261970.0 ], [ 529050.076866232673638, 7261960.0 ], [ 529056.700938943075016, 7261950.0 ], [ 529063.310235233511776, 7261940.0 ], [ 529069.999107789364643, 7261930.0 ], [ 529076.678590590134263, 7261920.0 ], [ 529083.211020647897385, 7261910.0 ], [ 529089.464867911767215, 7261900.0 ], [ 529094.690995482262224, 7261890.0 ], [ 529098.000338505022228, 7261880.0 ], [ 529099.463975701015443, 7261870.0 ], [ 529099.889611237915233, 7261860.0 ], [ 529099.889611237915233, 7261850.0 ], [ 529099.463975701015443, 7261840.000000000931323 ], [ 529098.000338505022228, 7261830.0 ], [ 529094.690103271510452, 7261820.0 ], [ 529089.454585945932195, 7261810.0 ], [ 529083.135046625859104, 7261800.0 ], [ 529076.317754898685962, 7261790.0 ], [ 529068.895414073951542, 7261780.0 ], [ 529061.104585926048458, 7261770.0 ], [ 529053.682245101314038, 7261760.000892210751772 ], [ 529046.864953374140896, 7261750.012066386640072 ], [ 529040.545414054067805, 7261740.099214586429298 ], [ 529035.309896728489548, 7261730.546306265518069 ], [ 529031.999661494977772, 7261722.086809692904353 ], [ 529030.535132088232785, 7261715.756988408043981 ] ] } },
{ "type": "Feature", "properties": { "id": 1, "reference_id": 1, "dune_id": 1, "dune_name": "Big Mommy Dune", "acquisition_date": "2023-06-23", "length_m": 109.49967554869748 }, "geometry": { "type": "LineString", "coordinates": [ [ 529020.0, 7261575.756988408043981 ], [ 529020.0, 7261582.086809693835676 ], [ 529020.0, 7261590.546306264586747 ], [ 529020.0, 7261600.099214585497975 ], [ 529020.000892210751772, 7261610.012066386640072 ], [ 529020.011174176470377, 7261620.000892210751772 ], [ 529020.087148198508658, 7261630.0 ], [ 529020.447091679205187, 7261639.999107789248228 ], [ 529021.540503428783268, 7261649.987933613359928 ], [ 529023.670178714208305, 7261659.900785414502025 ], [ 529026.329821285791695, 7261669.453693735413253 ], [ 529028.459496571333148, 7261677.913190307095647 ], [ 529029.552908320911229, 7261684.243011591956019 ] ] } },
{ "type": "Feature", "properties": { "id": 2, "reference_id": 1, "dune_id": 1, "dune_name": "Big Mommy Dune", "acquisition_date": "2023-06-23", "length_m": 552.78478554468791 }, "geometry": { "type": "LineString", "coordinates": [ [ 529180.0, 7260998.921899050474167 ], [ 529180.000892210751772, 7261003.921899050474167 ], [ 529180.011174176470377, 7261011.316557979211211 ], [ 529180.086255987756886, 7261020.322760425508022 ], [ 529180.43591750273481, 7261030.055640487000346 ], [ 529181.453355230391026, 7261040.006479299627244 ], [ 529183.223087035119534, 7261050.000446105375886 ], [ 529184.789317857124843, 7261060.0 ], [ 529184.788425646489486, 7261070.0 ], [ 529183.211912858532742, 7261080.0 ], [ 529181.366207031882368, 7261090.0 ], [ 529179.987933612894267, 7261100.0 ], [ 529178.534578382619657, 7261110.0 ], [ 529176.253847263869829, 7261120.000000000931323 ], [ 529173.223087035003118, 7261130.0 ], [ 529169.988825823529623, 7261140.0 ], [ 529166.689764766488224, 7261150.0 ], [ 529163.309343022760004, 7261160.0 ], [ 529160.0, 7261170.0 ], [ 529156.690656977239996, 7261180.0 ], [ 529153.309343022760004, 7261190.0 ], [ 529149.999107789364643, 7261200.0 ], [ 529146.67948280076962, 7261210.000000000931323 ], [ 529143.223087035119534, 7261220.0 ], [ 529139.563190286629833, 7261230.0 ], [ 529135.226127570495009, 7261240.0 ], [ 529130.0, 7261250.0 ], [ 529124.773872429504991, 7261260.0 ], [ 529120.436809713370167, 7261270.0 ], [ 529116.776020754361525, 7261280.0 ], [ 529113.310235233511776, 7261290.0 ], [ 529109.924025978078134, 7261300.0 ], [ 529106.319539319956675, 7261310.000000000931323 ], [ 529102.129675285541452, 7261320.0 ], [ 529097.433515001204796, 7261330.0 ], [ 529092.566484998911619, 7261340.0 ], [ 529087.869432503823191, 7261350.0 ], [ 529083.670178714208305, 7261360.0 ], [ 529080.000892210751772, 7261370.0 ], [ 529076.340103251626715, 7261380.0 ], [ 529072.20654151821509, 7261390.0 ], [ 529067.794350692536682, 7261400.0 ], [ 529063.671070924843661, 7261410.0 ], [ 529060.086255987756886, 7261420.0 ], [ 529056.776912964996882, 7261430.0 ], [ 529053.671070924960077, 7261440.0 ], [ 529051.103693715296686, 7261450.0 ], [ 529048.896306284703314, 7261460.0 ], [ 529046.329821285791695, 7261470.000000000931323 ], [ 529043.234261211473495, 7261479.999107789248228 ], [ 529040.000892210751772, 7261489.987933613359928 ], [ 529036.776912964996882, 7261499.900785414502025 ], [ 529033.757326912600547, 7261509.453693735413253 ], [ 529031.551677605253644, 7261517.913190307095647 ], [ 529030.447983889840543, 7261524.243011592887342 ] ] } },
{ "type": "Feature", "properties": { "id": 3, "reference_id": 5, "dune_id": 5, "dune_name": "The Star Dune", "acquisition_date": "2023-06-23", "length_m": 1051.383555366293 }, "geometry": { "type": "LineString", "coordinates": [ [ 533657.294247423415072, 7262041.078100949525833 ], [ 533659.803736446541734, 7262036.078100949525833 ], [ 533663.435059088165872, 7262028.683442020788789 ], [ 533668.105044730589725, 7262019.677239574491978 ], [ 533673.714645024156198, 7262009.944359513930976 ], [ 533680.005587088293396, 7261999.993520701304078 ], [ 533686.330267391167581, 7261989.999553894624114 ], [ 533692.129675285541452, 7261980.0 ], [ 533697.423233035369776, 7261970.0 ], [ 533702.489618766237982, 7261960.0 ], [ 533707.499207057408057, 7261950.0 ], [ 533712.499900731956586, 7261940.0 ], [ 533717.499207057291642, 7261930.0 ], [ 533722.489618766237982, 7261920.0 ], [ 533727.423233035253361, 7261910.0 ], [ 533732.129675285425037, 7261900.0 ], [ 533736.329821285791695, 7261890.0 ], [ 533739.999107789364643, 7261880.0 ], [ 533743.659896748373285, 7261870.0 ], [ 533747.794350692536682, 7261860.0 ], [ 533752.217715694569051, 7261850.0 ], [ 533756.428143660770729, 7261840.000000000931323 ], [ 533760.45915806631092, 7261830.0 ], [ 533765.298722552019171, 7261820.0 ], [ 533771.998769284342416, 7261810.000892210751772 ], [ 533780.535132088232785, 7261800.011174176819623 ], [ 533790.098322374979034, 7261790.088040409609675 ], [ 533800.012066387105733, 7261780.458265855908394 ], [ 533810.000892210635357, 7261771.628543837927282 ], [ 533820.0, 7261764.128444569185376 ], [ 533830.0, 7261757.958365123718977 ], [ 533840.0, 7261752.58794114086777 ], [ 533850.0, 7261747.511273445561528 ], [ 533860.0, 7261742.501685153692961 ], [ 533870.0, 7261737.510381234809756 ], [ 533880.0, 7261732.576766965910792 ], [ 533890.0, 7261727.871216925792396 ], [ 533900.0, 7261723.680460680276155 ], [ 533910.0, 7261720.076866232790053 ], [ 533920.0, 7261716.700938943773508 ], [ 533930.0, 7261713.311127444729209 ], [ 533940.0, 7261710.010281965136528 ], [ 533950.0, 7261706.766630999743938 ], [ 533960.0, 7261703.670178714208305 ], [ 533970.0, 7261701.10458592697978 ], [ 533980.0, 7261698.907480461522937 ], [ 533990.0, 7261696.416969484649599 ], [ 534000.0, 7261693.680460680276155 ], [ 534010.0, 7261691.530221464112401 ], [ 534020.0, 7261690.35994348116219 ], [ 534030.0, 7261689.64005651883781 ], [ 534040.0, 7261688.470670748502016 ], [ 534050.0, 7261686.329821286723018 ], [ 534060.0, 7261683.659004537388682 ], [ 534070.0, 7261681.453355230391026 ], [ 534080.0, 7261680.0 ], [ 534090.0, 7261678.546644769608974 ], [ 534100.0, 7261676.340995462611318 ], [ 534110.0, 7261673.670178714208305 ], [ 534120.0, 7261671.529329252429307 ], [ 534130.0, 7261670.35994348116219 ], [ 534140.0, 7261669.63916430901736 ], [ 534150.0, 7261668.459496571682394 ], [ 534160.0, 7261666.242673087865114 ], [ 534170.0, 7261663.211020648479462 ], [ 534180.0, 7261659.901677625253797 ], [ 534190.0, 7261656.241780877113342 ], [ 534200.0, 7261651.757665418088436 ], [ 534210.0, 7261646.242673087865114 ], [ 534220.0, 7261639.912851801142097 ], [ 534230.0, 7261633.298168846406043 ], [ 534240.0, 7261626.688872555270791 ], [ 534250.0, 7261619.9888258241117 ], [ 534260.0, 7261613.222194824367762 ], [ 534269.999107789248228, 7261606.242673087865114 ], [ 534279.988825823529623, 7261598.448322394862771 ], [ 534289.911959590855986, 7261589.552016110159457 ], [ 534299.54084193368908, 7261579.912851802073419 ], [ 534308.360281985718757, 7261569.9888258241117 ], [ 534315.783515021088533, 7261559.999107790179551 ], [ 534321.583369020721875, 7261550.0 ], [ 534325.783515021088533, 7261540.0 ], [ 534328.360281985718757, 7261530.0 ], [ 534329.54084193368908, 7261520.0 ], [ 534329.911959590855986, 7261510.0 ], [ 534329.988825823529623, 7261500.0 ], [ 534329.998215578729287, 7261490.0 ], [ 534329.988825823529623, 7261480.0 ], [ 534329.912851801607758, 7261470.000000000931323 ], [ 534329.552908320794813, 7261460.0 ], [ 534328.459496571333148, 7261450.0 ], [ 534326.329821285791695, 7261440.0 ], [ 534323.670178714208305, 7261430.000892210751772 ], [ 534321.540503428666852, 7261420.012066387571394 ], [ 534320.447091679205187, 7261410.099214585497975 ], [ 534320.087148198392242, 7261400.546306264586747 ], [ 534320.011174176470377, 7261392.086809693835676 ], [ 534320.000892210751772, 7261385.756988408043981 ] ] } },
{ "type": "Feature", "properties": { "id": 4, "reference_id": 4, "dune_id": 4, "dune_name": "The Star Dune", "acquisition_date": "2023-06-23", "length_m": 655.02125355833562 }, "geometry": { "type": "LineString", "coordinates": [ [ 533005.756988407694735, 7261870.011174177750945 ], [ 533012.08680969348643, 7261870.087148198857903 ], [ 533020.546306264819577, 7261870.447091680020094 ], [ 533030.099214585614391, 7261871.541395640000701 ], [ 533040.012066387105733, 7261873.681352891027927 ], [ 533050.000892210751772, 7261876.416969484649599 ], [ 533060.0, 7261878.906588250771165 ], [ 533070.0, 7261881.093411749228835 ], [ 533080.0, 7261883.583922726102173 ], [ 533090.0, 7261886.329821285791695 ], [ 533100.0, 7261888.545752558857203 ], [ 533110.0, 7261890.000892210751772 ], [ 533120.0, 7261891.464529407210648 ], [ 533130.0, 7261893.746152736246586 ], [ 533140.0, 7261896.776912964880466 ], [ 533150.0, 7261900.0111741758883 ], [ 533160.0, 7261903.310235233977437 ], [ 533170.0, 7261906.689764766953886 ], [ 533180.0, 7261909.989718034863472 ], [ 533190.0, 7261913.233369002118707 ], [ 533200.0, 7261916.329821286723018 ], [ 533210.0, 7261918.895414073951542 ], [ 533220.0, 7261921.093411749228835 ], [ 533230.0, 7261923.594204692170024 ], [ 533240.0, 7261926.405795307829976 ], [ 533250.0, 7261928.906588250771165 ], [ 533260.0, 7261931.104585926048458 ], [ 533270.0, 7261933.670178715139627 ], [ 533280.0, 7261936.766630999743938 ], [ 533290.0, 7261940.010281966067851 ], [ 533300.0, 7261943.310235233977437 ], [ 533310.0, 7261946.689764766022563 ], [ 533320.0, 7261949.989718034863472 ], [ 533330.0, 7261953.233369001187384 ], [ 533340.0, 7261956.329821286723018 ], [ 533350.0, 7261958.896306285634637 ], [ 533360.0, 7261961.103693716228008 ], [ 533370.0, 7261963.670178714208305 ], [ 533380.000000000116415, 7261966.766630999743938 ], [ 533390.0, 7261970.010281966067851 ], [ 533400.000000000116415, 7261973.310235233977437 ], [ 533410.0, 7261976.690656977705657 ], [ 533420.0, 7261980.0 ], [ 533430.0, 7261983.309343023225665 ], [ 533440.0, 7261986.690656976774335 ], [ 533450.0, 7261990.000892210751772 ], [ 533460.0, 7261993.320517199113965 ], [ 533470.0, 7261996.777805175632238 ], [ 533480.0, 7262000.447091680020094 ], [ 533490.0, 7262004.850738663226366 ], [ 533500.0, 7262010.37111765705049 ], [ 533510.0, 7262016.405795307829976 ], [ 533520.0, 7262022.129675285890698 ], [ 533530.0, 7262027.347259012982249 ], [ 533540.0, 7262032.118501109071076 ], [ 533550.0, 7262036.317754899151623 ], [ 533560.0, 7262039.911959590390325 ], [ 533570.0, 7262043.211912859231234 ], [ 533579.999553894740529, 7262046.242226982489228 ], [ 533589.993520701071247, 7262048.453909482806921 ], [ 533599.94435951358173, 7262049.595590209588408 ], [ 533609.677239574841224, 7262050.136397641152143 ], [ 533618.683442020905204, 7262050.759077537804842 ], [ 533626.078100949409418, 7262051.834197146818042 ], [ 533631.078100949525833, 7262053.164910643361509 ] ] } },
{ "type": "Feature", "properties": { "id": 5, "reference_id": 2, "dune_id": 2, "dune_name": "Big Mommy Dune", "acquisition_date": "2023-06-23", "length_m": 800.64608712015229 }, "geometry": { "type": "LineString", "coordinates": [ [ 529151.078100949409418, 7260978.448322394862771 ], [ 529146.078100949409418, 7260976.241780877113342 ], [ 529138.683442020905204, 7260973.211912859231234 ], [ 529129.677239574841224, 7260969.911959590390325 ], [ 529119.944359513698146, 7260966.318647108972073 ], [ 529109.993520701071247, 7260962.129675285890698 ], [ 529099.999553894624114, 7260957.433515002019703 ], [ 529090.0, 7260952.566484998911619 ], [ 529080.0, 7260947.870324715040624 ], [ 529070.0, 7260943.680460680276155 ], [ 529060.0, 7260940.076866232790053 ], [ 529050.0, 7260936.700938942842185 ], [ 529040.0, 7260933.310235233977437 ], [ 529030.0, 7260930.0 ], [ 529020.0, 7260926.690656977705657 ], [ 529010.0, 7260923.310235233977437 ], [ 529000.0, 7260920.010281965136528 ], [ 528990.0, 7260916.766630999743938 ], [ 528980.0, 7260913.670178714208305 ], [ 528970.0, 7260911.10458592697978 ], [ 528960.0, 7260908.906588250771165 ], [ 528950.0, 7260906.405795308761299 ], [ 528940.0, 7260903.594204693101346 ], [ 528930.0, 7260901.093411750160158 ], [ 528920.0, 7260898.895414073951542 ], [ 528910.0, 7260896.329821285791695 ], [ 528900.0, 7260893.234261211939156 ], [ 528890.0, 7260890.0 ], [ 528880.0, 7260886.765738788992167 ], [ 528870.0, 7260883.670178715139627 ], [ 528860.0, 7260881.103693716228008 ], [ 528850.0, 7260878.896306285634637 ], [ 528840.0, 7260876.329821286723018 ], [ 528830.0, 7260873.233369001187384 ], [ 528820.0, 7260869.989718034863472 ], [ 528810.0, 7260866.688872557133436 ], [ 528800.0, 7260863.299061058089137 ], [ 528790.0, 7260859.924025978893042 ], [ 528780.0, 7260856.329821285791695 ], [ 528770.0, 7260852.205649306997657 ], [ 528760.0, 7260847.793458482250571 ], [ 528750.0, 7260843.659896748140454 ], [ 528740.0, 7260839.999107789248228 ], [ 528730.0, 7260836.329821286723018 ], [ 528720.0, 7260832.129675285890698 ], [ 528710.0, 7260827.423233035951853 ], [ 528700.0, 7260822.489618766121566 ], [ 528690.0, 7260817.499207057058811 ], [ 528680.0, 7260812.499900732189417 ], [ 528670.0, 7260807.500099267810583 ], [ 528660.0, 7260802.499900732189417 ], [ 528650.0, 7260797.499207057990134 ], [ 528640.0, 7260792.489618767052889 ], [ 528630.0, 7260787.423233035951853 ], [ 528620.0, 7260782.129675285890698 ], [ 528610.0, 7260776.329821286723018 ], [ 528600.0, 7260769.999107789248228 ], [ 528590.0, 7260763.659896748140454 ], [ 528580.0, 7260757.793458482250571 ], [ 528570.0, 7260752.205649306997657 ], [ 528560.0, 7260746.329821285791695 ], [ 528550.0, 7260739.924025978893042 ], [ 528540.0, 7260733.299061058089137 ], [ 528530.0, 7260726.689764766022563 ], [ 528520.0, 7260720.0 ], [ 528510.0, 7260713.309343023225665 ], [ 528500.0, 7260706.689764766953886 ], [ 528490.0, 7260699.989718034863472 ], [ 528480.0, 7260693.233369000256062 ], [ 528470.000892210751772, 7260686.33071349747479 ], [ 528460.012066387105733, 7260678.907480461522937 ], [ 528450.099214585614391, 7260671.191734123975039 ], [ 528440.546306264819577, 7260664.129336780868471 ], [ 528432.08680969348643, 7260658.405456803739071 ], [ 528425.756988407694735, 7260654.215592768974602 ] ] } },
{ "type": "Feature", "properties": { "id": 6, "reference_id": 8, "dune_id": 8, "dune_name": "Inverted Y Dune", "acquisition_date": "2023-06-23", "length_m": 732.92084770272652 }, "geometry": { "type": "LineString", "coordinates": [ [ 530554.243011592305265, 7261171.999661495909095 ], [ 530547.91319030651357, 7261175.309004518203437 ], [ 530539.453693735296838, 7261180.534239877015352 ], [ 530529.900785414385609, 7261186.776912964880466 ], [ 530519.987933612894267, 7261193.223087035119534 ], [ 530509.999107789248228, 7261199.465760122984648 ], [ 530500.0, 7261204.690995481796563 ], [ 530490.0, 7261208.00033850595355 ], [ 530480.0, 7261209.464867912232876 ], [ 530470.0, 7261209.901677625253797 ], [ 530460.0, 7261209.987933613359928 ], [ 530450.0, 7261209.998215579427779 ], [ 530440.0, 7261209.9888258241117 ], [ 530430.000000000116415, 7261209.912851802073419 ], [ 530420.0, 7261209.552908320911229 ], [ 530410.0, 7261208.459496571682394 ], [ 530400.0, 7261206.329821285791695 ], [ 530390.0, 7261203.670178713276982 ], [ 530380.0, 7261201.540503428317606 ], [ 530370.0, 7261200.447983888909221 ], [ 530360.0, 7261200.098322374746203 ], [ 530350.0, 7261200.098322374746203 ], [ 530340.0, 7261200.447983888909221 ], [ 530330.0, 7261201.541395639069378 ], [ 530320.0, 7261203.681352891027927 ], [ 530310.0, 7261206.417861694470048 ], [ 530300.0, 7261208.917762426659465 ], [ 530290.0, 7261211.181452158838511 ], [ 530280.0, 7261214.041296372190118 ], [ 530270.0, 7261217.947190947830677 ], [ 530260.0, 7261222.587941141799092 ], [ 530250.0, 7261227.522447621449828 ], [ 530240.0, 7261232.588833352550864 ], [ 530230.0, 7261237.958365123718977 ], [ 530220.000892210635357, 7261244.128444569185376 ], [ 530210.011174176470377, 7261251.628543837927282 ], [ 530200.087148198392242, 7261260.458265855908394 ], [ 530190.447983889840543, 7261270.088040409609675 ], [ 530181.552569815889001, 7261280.0111741758883 ], [ 530173.768501089187339, 7261290.000892210751772 ], [ 530166.864953374140896, 7261300.0 ], [ 530160.45915806631092, 7261310.000000000931323 ], [ 530154.861912838649005, 7261320.0 ], [ 530150.447983889840543, 7261330.0 ], [ 530146.777805175632238, 7261340.0 ], [ 530143.321409409982152, 7261350.0 ], [ 530140.011174176586792, 7261360.0 ], [ 530136.766630999278277, 7261370.0 ], [ 530133.670178714208305, 7261380.0 ], [ 530131.104585926048458, 7261390.0 ], [ 530128.907480461173691, 7261400.0 ], [ 530126.416969484183937, 7261410.0 ], [ 530123.680460680043325, 7261420.0 ], [ 530121.530221462948248, 7261430.0 ], [ 530120.359943480812944, 7261440.0 ], [ 530119.640056519303471, 7261450.0 ], [ 530118.470670747803524, 7261460.0 ], [ 530116.330713496543467, 7261470.000000000931323 ], [ 530113.670178714208305, 7261480.0 ], [ 530111.540503428666852, 7261490.0 ], [ 530110.447091679205187, 7261500.0 ], [ 530110.086255987756886, 7261510.0 ], [ 530110.0, 7261520.0 ], [ 530109.913744012243114, 7261530.0 ], [ 530109.552908320911229, 7261539.999553894624114 ], [ 530108.459496571333148, 7261549.993520701304078 ], [ 530106.329821285791695, 7261559.944359513930976 ], [ 530103.670178714208305, 7261569.6772395754233 ], [ 530101.540503428783268, 7261578.683442020788789 ], [ 530100.447091679205187, 7261586.078100949525833 ], [ 530100.087148198508658, 7261591.078100949525833 ] ] } },
{ "type": "Feature", "properties": { "id": 7, "reference_id": 9, "dune_id": 9, "dune_name": "Inverted Y Dune", "acquisition_date": "2023-06-23", "length_m": 764.45457063999754 }, "geometry": { "type": "LineString", "coordinates": [ [ 530097.91319030651357, 7261598.910724874585867 ], [ 530094.243011592421681, 7261603.833858641795814 ], [ 530087.913190306629986, 7261610.858292123302817 ], [ 530079.453693735180423, 7261618.69421658758074 ], [ 530069.900785414502025, 7261625.927195916883647 ], [ 530059.987933612894267, 7261632.049006385728717 ], [ 530049.999107789364643, 7261637.422786930575967 ], [ 530040.0, 7261642.565592788159847 ], [ 530030.0, 7261647.869432505220175 ], [ 530020.0, 7261653.670178714208305 ], [ 530010.0, 7261660.000892210751772 ], [ 530000.0, 7261666.340995462611318 ], [ 529990.0, 7261672.216823484748602 ], [ 529980.0, 7261677.870324714109302 ], [ 529970.0, 7261684.031014405190945 ], [ 529960.0, 7261691.180559948086739 ], [ 529950.0, 7261698.917762426659465 ], [ 529940.0, 7261706.417861695401371 ], [ 529930.0, 7261713.681352891027927 ], [ 529920.0, 7261721.541395640000701 ], [ 529910.0, 7261730.447091680020094 ], [ 529900.0, 7261740.087148198857903 ], [ 529890.0, 7261750.011174176819623 ], [ 529880.0, 7261760.000892210751772 ], [ 529870.0, 7261770.0 ], [ 529860.000892210751772, 7261780.0 ], [ 529850.011174176470377, 7261790.0 ], [ 529840.088040409144014, 7261800.0 ], [ 529830.458265855675563, 7261810.0 ], [ 529821.628543837927282, 7261820.0 ], [ 529814.129336780519225, 7261830.0 ], [ 529807.968647089437582, 7261840.000000000931323 ], [ 529802.664807373774238, 7261850.0 ], [ 529797.881498891045339, 7261860.0 ], [ 529793.671070924843661, 7261870.0 ], [ 529790.000892210751772, 7261880.0 ], [ 529786.340103251626715, 7261890.0 ], [ 529782.206541518098675, 7261900.0 ], [ 529777.794350692536682, 7261910.0 ], [ 529773.670178714208305, 7261920.0 ], [ 529770.075974022038281, 7261930.0 ], [ 529766.700046732323244, 7261940.0 ], [ 529763.299953267676756, 7261950.0 ], [ 529759.923133767326362, 7261960.0 ], [ 529756.319539319956675, 7261970.0 ], [ 529752.128783074789681, 7261980.0 ], [ 529747.423233035369776, 7261990.0 ], [ 529742.490510976989754, 7262000.0 ], [ 529737.509489023126662, 7262010.0 ], [ 529732.576766964630224, 7262020.0 ], [ 529727.870324714574963, 7262030.0 ], [ 529723.670178714208305, 7262040.0 ], [ 529720.0, 7262050.0 ], [ 529716.329821285791695, 7262060.0 ], [ 529712.130567496176809, 7262070.0 ], [ 529707.433515001088381, 7262080.0 ], [ 529702.566484998911619, 7262090.0 ], [ 529697.870324714574963, 7262100.0 ], [ 529693.680460680043325, 7262110.0 ], [ 529690.076866232673638, 7262120.0 ], [ 529686.700046732323244, 7262130.0 ], [ 529683.299953267676756, 7262140.0 ], [ 529679.924025978078134, 7262149.999107789248228 ], [ 529676.330713496543467, 7262159.987933613359928 ], [ 529672.216823483933695, 7262169.900785414502025 ], [ 529667.881498891045339, 7262179.453693735413253 ], [ 529664.118162604048848, 7262187.913190307095647 ], [ 529661.62765162717551, 7262194.243011591956019 ] ] } },
{ "type": "Feature", "properties": { "id": 8, "reference_id": 3, "dune_id": 3, "dune_name": "Big Mommy Dune", "acquisition_date": "2023-06-23", "length_m": 1017.3595203725539 }, "geometry": { "type": "LineString", "coordinates": [ [ 529181.638825803645886, 7260964.243011592887342 ], [ 529184.205310802557506, 7260957.913190307095647 ], [ 529188.328590570250526, 7260949.453693735413253 ], [ 529193.758219123352319, 7260939.900785414502025 ], [ 529200.012066387105733, 7260929.987933613359928 ], [ 529206.340995462262072, 7260919.999107789248228 ], [ 529212.206541518098675, 7260910.0 ], [ 529217.794350692536682, 7260900.0 ], [ 529223.670178714208305, 7260890.0 ], [ 529230.075974021921866, 7260880.0 ], [ 529236.700046732323244, 7260870.0 ], [ 529243.299953267676756, 7260860.0 ], [ 529249.924025978078134, 7260850.0 ], [ 529256.32982128590811, 7260840.0 ], [ 529262.205649307463318, 7260830.0 ], [ 529267.794350692536682, 7260820.0 ], [ 529273.671070924960077, 7260810.0 ], [ 529280.087148198392242, 7260800.0 ], [ 529286.788087141467258, 7260790.0 ], [ 529293.758219123352319, 7260780.000000000931323 ], [ 529301.551677605253644, 7260770.0 ], [ 529310.447983889956959, 7260760.0 ], [ 529320.087148198508658, 7260750.0 ], [ 529330.011174176470377, 7260740.0 ], [ 529340.000892210751772, 7260730.000892210751772 ], [ 529350.0, 7260720.012066386640072 ], [ 529360.0, 7260710.098322374746203 ], [ 529370.0, 7260700.535132088698447 ], [ 529380.0, 7260691.999661494977772 ], [ 529390.0, 7260685.309004518203437 ], [ 529400.0, 7260680.535132087767124 ], [ 529410.0, 7260676.788979351520538 ], [ 529420.0, 7260673.321409409865737 ], [ 529430.0, 7260670.000892210751772 ], [ 529440.000000000116415, 7260666.690656977705657 ], [ 529450.0, 7260663.310235233977437 ], [ 529460.0, 7260660.010281966067851 ], [ 529470.0, 7260656.766630999743938 ], [ 529480.0, 7260653.670178714208305 ], [ 529490.0, 7260651.10458592697978 ], [ 529500.000000000116415, 7260648.906588250771165 ], [ 529510.0, 7260646.405795307829976 ], [ 529520.0, 7260643.594204693101346 ], [ 529530.0, 7260641.094303959980607 ], [ 529540.0, 7260638.906588250771165 ], [ 529550.0, 7260636.416969483718276 ], [ 529560.0, 7260633.680460680276155 ], [ 529570.0, 7260631.530221463181078 ], [ 529580.0, 7260630.35994348116219 ], [ 529590.0, 7260629.64005651883781 ], [ 529600.0, 7260628.470670747570693 ], [ 529610.0, 7260626.330713496543467 ], [ 529620.0, 7260623.670178714208305 ], [ 529630.0, 7260621.539611218497157 ], [ 529640.0, 7260620.435917503200471 ], [ 529650.0, 7260620.0 ], [ 529660.0, 7260619.564082497730851 ], [ 529670.0, 7260618.460388782434165 ], [ 529680.0, 7260616.329821286723018 ], [ 529690.0, 7260613.670178715139627 ], [ 529700.0, 7260611.540503429248929 ], [ 529710.0, 7260610.447091680020094 ], [ 529720.0, 7260610.087148198857903 ], [ 529730.0, 7260610.011174176819623 ], [ 529740.0, 7260610.000892210751772 ], [ 529750.0, 7260610.0 ], [ 529760.0, 7260609.999107789248228 ], [ 529770.0, 7260609.9888258241117 ], [ 529780.0, 7260609.912851802073419 ], [ 529790.0, 7260609.552908320911229 ], [ 529800.0, 7260608.460388782434165 ], [ 529810.0, 7260606.340995462611318 ], [ 529820.0, 7260603.757326912134886 ], [ 529830.0, 7260601.986702897585928 ], [ 529840.0, 7260601.976420931518078 ], [ 529850.0, 7260603.671070925891399 ], [ 529860.0, 7260605.905077960342169 ], [ 529870.0, 7260607.00703355204314 ], [ 529880.0, 7260606.329821286723018 ], [ 529890.0, 7260605.12353394459933 ], [ 529900.0, 7260605.199507966637611 ], [ 529910.0, 7260606.776020754128695 ], [ 529920.0, 7260608.546644770540297 ], [ 529930.0, 7260609.564082497730851 ], [ 529940.0, 7260609.913744012825191 ], [ 529950.0, 7260609.9888258241117 ], [ 529960.0, 7260609.999107789248228 ], [ 529970.0, 7260610.0 ], [ 529980.0, 7260610.0 ], [ 529990.0, 7260610.0 ], [ 529999.999107789364643, 7260610.0 ], [ 530009.987933612894267, 7260610.0 ], [ 530019.900785414502025, 7260610.0 ], [ 530029.453693735180423, 7260610.0 ], [ 530037.91319030651357, 7260610.0 ], [ 530044.243011592305265, 7260610.0 ] ] } },
{ "type": "Feature", "properties": { "id": 9, "reference_id": 3, "dune_id": 3, "dune_name": "Big Mommy Dune", "acquisition_date": "2023-06-23", "length_m": 121.03676006596244 }, "geometry": { "type": "LineString", "coordinates": [ [ 530194.243011592421681, 7260580.087148198857903 ], [ 530187.91319030651357, 7260580.447983889840543 ], [ 530179.453693735296838, 7260581.551677605137229 ], [ 530169.900785414385609, 7260583.757326913066208 ], [ 530159.987933612894267, 7260586.776912964880466 ], [ 530149.999107789364643, 7260590.0 ], [ 530140.0, 7260593.223087035119534 ], [ 530130.0, 7260596.242673087865114 ], [ 530120.000892210751772, 7260598.448322394862771 ], [ 530110.012066387222148, 7260599.552016111090779 ], [ 530100.099214585614391, 7260599.912851802073419 ], [ 530090.546306264819577, 7260599.9888258241117 ], [ 530082.08680969348643, 7260599.999107789248228 ], [ 530075.756988407694735, 7260600.0 ] ] } },
{ "type": "Feature", "properties": { "id": 10, "reference_id": 7, "dune_id": 7, "dune_name": "Inverted Y Dune", "acquisition_date": "2023-06-23", "length_m": 651.16025981918744 }, "geometry": { "type": "LineString", "coordinates": [ [ 530135.756988407694735, 7261640.0111741758883 ], [ 530142.08680969348643, 7261640.087148198857903 ], [ 530150.546306264819577, 7261640.447091680020094 ], [ 530160.099214585614391, 7261641.540503429248929 ], [ 530170.012066387222148, 7261643.670178715139627 ], [ 530180.000892210751772, 7261646.329821286723018 ], [ 530190.0, 7261648.459496572613716 ], [ 530200.0, 7261649.552016111090779 ], [ 530210.0, 7261649.901677625253797 ], [ 530220.0, 7261649.901677625253797 ], [ 530230.0, 7261649.552016111090779 ], [ 530240.0, 7261648.459496572613716 ], [ 530250.0, 7261646.329821286723018 ], [ 530260.0, 7261643.669286504387856 ], [ 530270.0, 7261641.529329252429307 ], [ 530280.0, 7261640.359051270410419 ], [ 530290.0, 7261639.62888234294951 ], [ 530300.0, 7261638.383522549644113 ], [ 530310.0, 7261635.882729606702924 ], [ 530320.0, 7261632.118501109071076 ], [ 530330.0, 7261627.783176516182721 ], [ 530340.0, 7261623.669286503456533 ], [ 530350.0, 7261620.075081812217832 ], [ 530360.0, 7261616.689764766953886 ], [ 530370.0, 7261613.223087035119534 ], [ 530380.0, 7261609.552016110159457 ], [ 530390.0, 7261605.138979372568429 ], [ 530400.0, 7261599.552016111090779 ], [ 530410.0, 7261593.222194824367762 ], [ 530420.0, 7261586.678590590134263 ], [ 530430.000000000116415, 7261579.987933613359928 ], [ 530440.0, 7261573.222194824367762 ], [ 530450.0, 7261566.242673087865114 ], [ 530460.0, 7261558.448322394862771 ], [ 530469.999107789364643, 7261549.552016110159457 ], [ 530479.988825823529623, 7261539.912851801142097 ], [ 530489.911959590855986, 7261529.9888258241117 ], [ 530499.541734144324437, 7261519.999107789248228 ], [ 530508.37234837282449, 7261510.0 ], [ 530515.881837395951152, 7261500.0 ], [ 530522.118501109071076, 7261490.0 ], [ 530527.783176516182721, 7261480.0 ], [ 530533.669286503456533, 7261470.000000000931323 ], [ 530540.075974021921866, 7261460.0 ], [ 530546.700938943075016, 7261450.0 ], [ 530553.311127444147132, 7261440.0 ], [ 530560.011174176470377, 7261430.0 ], [ 530566.777805175632238, 7261420.0 ], [ 530573.757326912600547, 7261410.0 ], [ 530581.551677605253644, 7261400.0 ], [ 530590.447983889840543, 7261390.0 ], [ 530600.087148198392242, 7261380.0 ], [ 530610.01028196583502, 7261370.000892210751772 ], [ 530619.988825823646039, 7261360.012066386640072 ], [ 530629.900785414502025, 7261350.099214585497975 ], [ 530639.453693735296838, 7261340.546306265518069 ], [ 530647.913190306629986, 7261332.086809693835676 ], [ 530654.243011592305265, 7261325.756988408043981 ] ] } },
{ "type": "Feature", "properties": { "id": 11, "reference_id": 6, "dune_id": 6, "dune_name": "The Star Dune", "acquisition_date": "2023-06-23", "length_m": 777.57117459923495 }, "geometry": { "type": "LineString", "coordinates": [ [ 533561.628543837810867, 7262834.243011592887342 ], [ 533564.128444569883868, 7262827.913190307095647 ], [ 533567.957472912967205, 7262819.453693736344576 ], [ 533572.576766964746639, 7262809.900785414502025 ], [ 533577.424125246121548, 7262799.987933613359928 ], [ 533582.053701263619587, 7262789.999107789248228 ], [ 533585.958703628624789, 7262780.0 ], [ 533588.81854784139432, 7262770.0 ], [ 533591.082237573107705, 7262760.0 ], [ 533593.582138305064291, 7262750.0 ], [ 533596.319539319956675, 7262740.0 ], [ 533598.469778537051752, 7262730.0 ], [ 533599.640056519303471, 7262720.0 ], [ 533600.359943480696529, 7262710.0 ], [ 533601.529329252312891, 7262700.0 ], [ 533603.669286503456533, 7262690.0 ], [ 533606.329821285791695, 7262680.0 ], [ 533608.459496571333148, 7262670.0 ], [ 533609.553800531546585, 7262660.0 ], [ 533609.924025978078134, 7262650.0 ], [ 533610.075974022038281, 7262640.0 ], [ 533610.44619946856983, 7262630.0 ], [ 533611.540503428783268, 7262620.0 ], [ 533613.671070924960077, 7262610.0 ], [ 533616.340995462378487, 7262600.000000000931323 ], [ 533618.54664476972539, 7262590.0 ], [ 533620.000892210635357, 7262580.0 ], [ 533621.464529406744987, 7262570.0 ], [ 533623.746152736130171, 7262560.0 ], [ 533626.77602075424511, 7262550.0 ], [ 533630.000892210751772, 7262540.0 ], [ 533633.234261211473495, 7262530.0 ], [ 533636.329821285791695, 7262520.0 ], [ 533638.895414074067958, 7262510.0 ], [ 533641.093411749578081, 7262500.0 ], [ 533643.594204692286439, 7262490.0 ], [ 533646.405795307829976, 7262480.0 ], [ 533648.906588250538334, 7262470.0 ], [ 533651.104585926048458, 7262460.0 ], [ 533653.670178714208305, 7262450.0 ], [ 533656.765738788526505, 7262440.0 ], [ 533659.999107789248228, 7262430.0 ], [ 533663.223087035119534, 7262420.0 ], [ 533666.243565298151225, 7262410.0 ], [ 533668.459496571333148, 7262400.0 ], [ 533669.639164308551699, 7262390.0 ], [ 533670.359943480696529, 7262380.0 ], [ 533671.529329252196476, 7262370.0 ], [ 533673.668394292821176, 7262360.0 ], [ 533676.318647109437734, 7262350.0 ], [ 533678.37234837282449, 7262340.000000000931323 ], [ 533679.105816641706042, 7262330.0 ], [ 533678.37234837282449, 7262320.0 ], [ 533676.318647109437734, 7262310.0 ], [ 533673.668394292821176, 7262300.0 ], [ 533671.529329252196476, 7262290.0 ], [ 533670.359943480696529, 7262280.0 ], [ 533669.640056519303471, 7262270.0 ], [ 533668.470670747803524, 7262260.0 ], [ 533666.330713496543467, 7262250.0 ], [ 533663.670178714208305, 7262240.0 ], [ 533661.540503428783268, 7262230.0 ], [ 533660.447091679088771, 7262220.0 ], [ 533660.087148198392242, 7262210.0 ], [ 533660.011174176470377, 7262200.0 ], [ 533660.000892210751772, 7262190.0 ], [ 533660.0, 7262180.0 ], [ 533660.0, 7262170.0 ], [ 533660.0, 7262160.0 ], [ 533660.0, 7262150.0 ], [ 533660.0, 7262140.0 ], [ 533659.999107789248228, 7262130.0 ], [ 533659.988825823529623, 7262120.000892210751772 ], [ 533659.912851801607758, 7262110.012066386640072 ], [ 533659.552908320911229, 7262100.099214585497975 ], [ 533658.459496571216732, 7262090.546306265518069 ], [ 533656.329821285791695, 7262082.086809693835676 ], [ 533653.670178714208305, 7262075.756988408043981 ] ] } }
]
}
