{
"type": "FeatureCollection",
"name": "crests_2025_01_2025-01-20",
"crs": { "type": "name", "properties": { "name": "urn:ogc:def:crs:EPSG::32733" } },
"features": [
{ "type": "Feature", "properties": { "id": 0, "reference_id": 3, "dune_id": 3, "dune_name": "Big Mommy Dune", "acquisition_date": "2025-01-20", "length_m": 363.0856213827239 }, "geometry": { "type": "LineString", "coordinates": [ [ 529374.243011592305265, 7260695.756988408043981 ], [ 529367.91319030651357, 7260702.086809693835676 ], [ 529359.453693735180423, 7260710.546306265518069 ], [ 529349.900785414502025, 7260720.099214585497975 ], [ 529339.988825823529623, 7260730.012066388502717 ], [ 529330.01028196583502, 7260740.000892210751772 ], [ 529320.087148198508658, 7260750.0 ], [ 529310.447091679205187, 7260760.0 ], [ 529301.541395639418624, 7260770.0 ], [ 529293.681352890678681, 7260780.000000000931323 ], [ 529286.416969484183937, 7260790.0 ], [ 529278.907480461173691, 7260800.0 ], [ 529271.104585926048458, 7260810.0 ], [ 529263.671070924960077, 7260820.0 ], [ 529256.776912964996882, 7260830.0 ], [ 529250.086255987756886, 7260840.0 ], [ 529243.671070924960077, 7260850.0 ], [ 529237.794350692536682, 7260860.0 ], [ 529232.206541518098675, 7260870.0 ], [ 529226.340103251626715, 7260880.0 ], [ 529220.0, 7260890.0 ], [ 529213.659896748373285, 7260900.0 ], [ 529207.79345848178491, 7260910.0 ], [ 529202.206541518098675, 7260920.0 ], [ 529196.340995462262072, 7260930.0 ], [ 529190.012066387222148, 7260939.999553894624114 ], [ 529183.758219123352319, 7260949.993520701304078 ], [ 529178.328590570134111, 7260959.944359514862299 ], [ 529174.20531080244109, 7260969.6772395754233 ], [ 529171.638825803645886, 7260978.683442020788789 ], [ 529170.45915806631092, 7260986.078100949525833 ], [ 529170.088040409144014, 7260991.078100949525833 ] ] } },
{ "type": "Feature", "properties": { "id": 1, "reference_id": 3, "dune_id": 3, "dune_name": "Big Mommy Dune", "acquisition_date": "2025-01-20", "length_m": 306.3563825928955 }, "geometry": { "type": "LineString", "coordinates": [ [ 529405.756988407694735, 7260679.552016109228134 ], [ 529412.08680969348643, 7260678.448322394862771 ], [ 529420.546306264819577, 7260676.242673087865114 ], [ 529430.099214585614391, 7260673.222194824367762 ], [ 529440.012066387222148, 7260669.9888258241117 ], [ 529450.000892210751772, 7260666.689764766953886 ], [ 529460.0, 7260663.309343023225665 ], [ 529470.0, 7260660.0 ], [ 529480.0, 7260656.690656977705657 ], [ 529490.0, 7260653.310235233977437 ], [ 529500.000000000116415, 7260650.0111741758883 ], [ 529510.0, 7260646.776912964880466 ], [ 529520.0, 7260643.746152736246586 ], [ 529530.0, 7260641.464529407210648 ], [ 529540.0, 7260640.000892210751772 ], [ 529550.0, 7260638.546644769608974 ], [ 529560.0, 7260636.340995462611318 ], [ 529570.0, 7260633.670178715139627 ], [ 529580.0, 7260631.529329252429307 ], [ 529590.0, 7260630.35994348116219 ], [ 529600.0, 7260629.64005651883781 ], [ 529610.0, 7260628.470670747570693 ], [ 529620.0, 7260626.330713496543467 ], [ 529630.0, 7260623.670178714208305 ], [ 529640.0, 7260621.540503429248929 ], [ 529650.0, 7260620.447091679088771 ], [ 529659.999107789364643, 7260620.087148198857903 ], [ 529669.987933612894267, 7260620.011174176819623 ], [ 529679.900785414502025, 7260620.000892210751772 ], [ 529689.453693735296838, 7260620.0 ], [ 529697.91319030651357, 7260620.0 ], [ 529704.243011592305265, 7260620.0 ] ] } },
{ "type": "Feature", "properties": { "id": 2, "reference_id": 3, "dune_id": 3, "dune_name": "Big Mommy Dune", "acquisition_date": "2025-01-20", "length_m": 308.68341621619095 }, "geometry": { "type": "LineString", "coordinates": [ [ 529735.756988407694735, 7260610.0 ], [ 529742.08680969348643, 7260610.0 ], [ 529750.546306264819577, 7260610.0 ], [ 529760.099214585614391, 7260609.999107789248228 ], [ 529770.012066387222148, 7260609.989718034863472 ], [ 529780.000892210751772, 7260609.924025978893042 ], [ 529790.0, 7260609.640056519769132 ], [ 529800.0, 7260608.906588250771165 ], [ 529810.0, 7260607.870324715040624 ], [ 529820.0, 7260607.34035742841661 ], [ 529830.0, 7260607.870324715040624 ], [ 529840.0, 7260608.906588250771165 ], [ 529850.0, 7260609.640056519769132 ], [ 529860.0, 7260609.924025978893042 ], [ 529870.0, 7260609.989718034863472 ], [ 529880.0, 7260609.999107789248228 ], [ 529890.0, 7260610.0 ], [ 529900.0, 7260610.0 ], [ 529910.0, 7260610.0 ], [ 529920.0, 7260610.0 ], [ 529930.0, 7260610.0 ], [ 529940.0, 7260610.0 ], [ 529950.0, 7260610.0 ], [ 529960.0, 7260610.0 ], [ 529970.0, 7260610.0 ], [ 529980.0, 7260610.0 ], [ 529990.0, 7260610.0 ], [ 529999.999107789364643, 7260610.0 ], [ 530009.987933612894267, 7260610.0 ], [ 530019.900785414502025, 7260610.0 ], [ 530029.453693735180423, 7260610.0 ], [ 530037.91319030651357, 7260610.0 ], [ 530044.243011592305265, 7260610.0 ] ] } },
{ "type": "Feature", "properties": { "id": 3, "reference_id": 3, "dune_id": 3, "dune_name": "Big Mommy Dune", "acquisition_date": "2025-01-20", "length_m": 152.28368492068853 }, "geometry": { "type": "LineString", "coordinates": [ [ 530244.243011592421681, 7260570.000892210751772 ], [ 530237.91319030651357, 7260570.011174176819623 ], [ 530229.453693735180423, 7260570.087148198857903 ], [ 530219.900785414385609, 7260570.447091680020094 ], [ 530209.987933612894267, 7260571.541395640000701 ], [ 530199.999107789248228, 7260573.681352891027927 ], [ 530190.0, 7260576.416969484649599 ], [ 530180.0, 7260578.907480461522937 ], [ 530170.000000000116415, 7260581.104585926048458 ], [ 530160.0, 7260583.670178714208305 ], [ 530150.0, 7260586.765738788992167 ], [ 530140.000892210751772, 7260589.999107789248228 ], [ 530130.012066387222148, 7260593.223087035119534 ], [ 530120.099214585614391, 7260596.242673087865114 ], [ 530110.546306264819577, 7260598.448322394862771 ], [ 530102.08680969348643, 7260599.552016111090779 ], [ 530095.756988407694735, 7260599.912851802073419 ] ] } },
{ "type": "Feature", "properties": { "id": 4, "reference_id": 8, "dune_id": 8, "dune_name": "Inverted Y Dune", "acquisition_date": "2025-01-20", "length_m": 430.1479004583453 }, "geometry": { "type": "LineString", "coordinates": [ [ 530264.243011592421681, 7261221.628543838858604 ], [ 530257.913190306629986, 7261224.129336780868471 ], [ 530249.453693735180423, 7261227.969539299607277 ], [ 530239.900785414502025, 7261232.675981549546123 ], [ 530229.987933612777852, 7261237.969539300538599 ], [ 530220.0, 7261244.129336779937148 ], [ 530210.011174176470377, 7261251.628543837927282 ], [ 530200.087148198392242, 7261260.458265855908394 ], [ 530190.447983889840543, 7261270.088040409609675 ], [ 530181.552569815889001, 7261280.0111741758883 ], [ 530173.768501089187339, 7261290.000892210751772 ], [ 530166.864953374140896, 7261300.0 ], [ 530160.458265855675563, 7261310.000000000931323 ], [ 530154.851630872813985, 7261320.0 ], [ 530150.372009867918678, 7261330.0 ], [ 530146.416969484300353, 7261340.0 ], [ 530142.216823483933695, 7261350.0 ], [ 530137.795242903288454, 7261360.0 ], [ 530133.671070924960077, 7261370.0 ], [ 530130.087148198392242, 7261380.0 ], [ 530126.787194930715486, 7261390.0 ], [ 530123.747044946881942, 7261400.0 ], [ 530121.464529406744987, 7261410.0 ], [ 530120.000892210751772, 7261420.0 ], [ 530118.54664476972539, 7261430.0 ], [ 530116.340995462262072, 7261440.0 ], [ 530113.671070924960077, 7261450.0 ], [ 530111.539611218031496, 7261460.0 ], [ 530110.43591750273481, 7261470.000000000931323 ], [ 530110.0, 7261480.0 ], [ 530109.564082497381605, 7261490.0 ], [ 530108.460388781968504, 7261500.0 ], [ 530106.329821285791695, 7261510.0 ], [ 530103.670178714208305, 7261520.0 ], [ 530101.540503428783268, 7261530.0 ], [ 530100.446645573829301, 7261539.999553894624114 ], [ 530100.081561110215262, 7261549.993520701304078 ], [ 530099.967600077274255, 7261559.944359513930976 ], [ 530099.777346371090971, 7261569.6772395754233 ], [ 530099.229748285608366, 7261578.683442020788789 ], [ 530098.164910642895848, 7261586.078100949525833 ], [ 530096.835089357104152, 7261591.078100949525833 ] ] } },
{ "type": "Feature", "properties": { "id": 5, "reference_id": 8, "dune_id": 8, "dune_name": "Inverted Y Dune", "acquisition_date": "2025-01-20", "length_m": 154.97107195509489 }, "geometry": { "type": "LineString", "coordinates": [ [ 530395.756988407694735, 7261210.000000000931323 ], [ 530402.08680969348643, 7261210.000000000931323 ], [ 530410.546306264819577, 7261210.000000000931323 ], [ 530420.099214585614391, 7261210.000000000931323 ], [ 530430.012066387222148, 7261210.000000000931323 ], [ 530440.000892210751772, 7261210.000000000931323 ], [ 530450.0, 7261209.999107790179551 ], [ 530460.0, 7261209.9888258241117 ], [ 530470.0, 7261209.911959591321647 ], [ 530480.0, 7261209.540841934271157 ], [ 530490.0, 7261208.36117419693619 ], [ 530499.999107789248228, 7261205.79558140784502 ], [ 530509.987933612894267, 7261201.682583605870605 ], [ 530519.900785414385609, 7261196.329821285791695 ], [ 530529.453693735296838, 7261190.447091679088771 ], [ 530537.91319030651357, 7261185.297830341383815 ], [ 530544.243011592305265, 7261181.998769285157323 ] ] } },
{ "type": "Feature", "properties": { "id": 6, "reference_id": 9, "dune_id": 9, "dune_name": "Inverted Y Dune", "acquisition_date": "2025-01-20", "length_m": 800.82483883858595 }, "geometry": { "type": "LineString", "coordinates": [ [ 530091.078100949525833, 7261598.910724874585867 ], [ 530086.078100949409418, 7261603.834750852547586 ], [ 530078.683442020905204, 7261610.868574090301991 ], [ 530069.677239574841224, 7261618.771082820370793 ], [ 530059.944359513698146, 7261626.297421364113688 ], [ 530049.993520701071247, 7261633.218392157927155 ], [ 530039.999553894624114, 7261639.913297906517982 ], [ 530030.0, 7261646.328929075971246 ], [ 530020.0, 7261652.205649306997657 ], [ 530010.0, 7261657.794350693002343 ], [ 530000.0, 7261663.670178715139627 ], [ 529990.0, 7261670.075974022038281 ], [ 529980.0, 7261676.700938943773508 ], [ 529970.0, 7261683.311127444729209 ], [ 529960.0, 7261690.011174176819623 ], [ 529950.0, 7261696.777805175632238 ], [ 529940.0, 7261703.757326913066208 ], [ 529930.0, 7261711.551677605137229 ], [ 529920.0, 7261720.447983889840543 ], [ 529910.0, 7261730.087148198857903 ], [ 529900.0, 7261740.011174176819623 ], [ 529890.0, 7261750.000892210751772 ], [ 529880.0, 7261760.0 ], [ 529870.0, 7261770.0 ], [ 529860.000892210751772, 7261780.0 ], [ 529850.011174176470377, 7261790.0 ], [ 529840.087148198392242, 7261800.0 ], [ 529830.447983889840543, 7261810.0 ], [ 529821.552569815889001, 7261820.0 ], [ 529813.768501089187339, 7261830.0 ], [ 529806.864953374140896, 7261840.000000000931323 ], [ 529800.458265855675563, 7261850.0 ], [ 529794.8516308729304, 7261860.0 ], [ 529790.372009867918678, 7261870.0 ], [ 529786.416969484300353, 7261880.0 ], [ 529782.216823483933695, 7261890.0 ], [ 529777.795242903288454, 7261900.0 ], [ 529773.670178714208305, 7261910.0 ], [ 529770.075974022038281, 7261920.0 ], [ 529766.700046732323244, 7261930.0 ], [ 529763.299953267676756, 7261940.0 ], [ 529759.923133767326362, 7261950.0 ], [ 529756.319539319956675, 7261960.0 ], [ 529752.129675285425037, 7261970.0 ], [ 529747.433515001204796, 7261980.0 ], [ 529742.566484998911619, 7261990.0 ], [ 529737.869432503823191, 7262000.0 ], [ 529733.670178714208305, 7262010.0 ], [ 529730.000892210635357, 7262020.0 ], [ 529726.340103251626715, 7262030.0 ], [ 529722.20654151821509, 7262040.0 ], [ 529717.793458481901325, 7262050.0 ], [ 529713.659896748373285, 7262060.0 ], [ 529709.999107789248228, 7262070.0 ], [ 529706.329821285791695, 7262080.0 ], [ 529702.130567496176809, 7262090.0 ], [ 529697.433515001088381, 7262100.0 ], [ 529692.566484998911619, 7262110.0 ], [ 529687.870324714458548, 7262120.0 ], [ 529683.680460680043325, 7262130.0 ], [ 529680.076866232673638, 7262140.0 ], [ 529676.700046732323244, 7262150.0 ], [ 529673.299953267676756, 7262160.0 ], [ 529669.924025978078134, 7262170.0 ], [ 529666.330713496543467, 7262180.0 ], [ 529662.216823483933695, 7262189.999107789248228 ], [ 529657.881498891045339, 7262199.987933613359928 ], [ 529654.118162604048848, 7262209.900785414502025 ], [ 529651.62765162717551, 7262219.453693735413253 ], [ 529650.458265855675563, 7262227.913190307095647 ], [ 529650.088040409144014, 7262234.243011592887342 ] ] } },
{ "type": "Feature", "properties": { "id": 7, "reference_id": 5, "dune_id": 5, "dune_name": "The Star Dune", "acquisition_date": "2025-01-20", "length_m": 1144.4927791749831 }, "geometry": { "type": "LineString", "coordinates": [ [ 534334.342226177919656, 7261305.756988408043981 ], [ 534328.459496571333148, 7261312.086809693835676 ], [ 534321.540503428666852, 7261320.546306264586747 ], [ 534315.657773822080344, 7261330.099214585497975 ], [ 534312.075635517016053, 7261340.012066386640072 ], [ 534310.556588230538182, 7261350.000892210751772 ], [ 534310.186362784006633, 7261360.0 ], [ 534310.45915806631092, 7261370.0 ], [ 534311.541395639418624, 7261380.0 ], [ 534313.670178714208305, 7261390.0 ], [ 534316.329821285791695, 7261400.0 ], [ 534318.459496571216732, 7261410.0 ], [ 534319.552908320794813, 7261420.0 ], [ 534319.912851801607758, 7261430.0 ], [ 534319.989718034281395, 7261440.0 ], [ 534320.01028196583502, 7261450.0 ], [ 534320.087148198392242, 7261460.0 ], [ 534320.446199468453415, 7261470.000000000931323 ], [ 534321.529329252196476, 7261480.0 ], [ 534323.583030515816063, 7261490.0 ], [ 534325.882729606702924, 7261500.0 ], [ 534326.918100931914523, 7261510.0 ], [ 534325.870663219480775, 7261520.0 ], [ 534323.483815930201672, 7261530.0 ], [ 534320.983022987493314, 7261540.0 ], [ 534318.359389774966985, 7261550.0 ], [ 534314.330159790813923, 7261559.999107790179551 ], [ 534307.924364482983947, 7261569.9888258241117 ], [ 534299.454585945932195, 7261579.912851802073419 ], [ 534289.900785414502025, 7261589.552016110159457 ], [ 534279.987933612894267, 7261598.448322394862771 ], [ 534269.999107789248228, 7261606.242673087865114 ], [ 534260.0, 7261613.222194824367762 ], [ 534250.0, 7261619.9888258241117 ], [ 534240.0, 7261626.689764766022563 ], [ 534230.0, 7261633.309343023225665 ], [ 534220.0, 7261639.999107789248228 ], [ 534210.0, 7261646.678590590134263 ], [ 534200.0, 7261653.211020648479462 ], [ 534190.0, 7261659.464867912232876 ], [ 534180.0, 7261664.691887693479657 ], [ 534170.0, 7261668.01151268184185 ], [ 534160.0, 7261669.552016110159457 ], [ 534150.0, 7261670.34876930527389 ], [ 534140.0, 7261671.528437041677535 ], [ 534130.0, 7261673.669286503456533 ], [ 534120.0, 7261676.330713496543467 ], [ 534110.0, 7261678.470670748502016 ], [ 534100.0, 7261679.640056519769132 ], [ 534090.0, 7261680.35994348116219 ], [ 534080.0, 7261681.529329252429307 ], [ 534070.0, 7261683.669286504387856 ], [ 534060.0, 7261686.33071349747479 ], [ 534050.0, 7261688.470670748502016 ], [ 534040.0, 7261689.64005651883781 ], [ 534030.0, 7261690.35994348116219 ], [ 534020.0, 7261691.529329253360629 ], [ 534010.0, 7261693.670178714208305 ], [ 534000.0, 7261696.340995462611318 ], [ 533990.0, 7261698.546644769608974 ], [ 533980.0, 7261700.000892210751772 ], [ 533970.0, 7261701.464529407210648 ], [ 533960.0, 7261703.746152736246586 ], [ 533950.0, 7261706.776912964880466 ], [ 533940.0, 7261710.0111741758883 ], [ 533930.0, 7261713.311127444729209 ], [ 533920.0, 7261716.700938943773508 ], [ 533910.0, 7261720.076866232790053 ], [ 533900.0, 7261723.680460680276155 ], [ 533890.0, 7261727.871216925792396 ], [ 533880.0, 7261732.576766965910792 ], [ 533870.0, 7261737.510381234809756 ], [ 533860.0, 7261742.500792942941189 ], [ 533850.0, 7261747.500099267810583 ], [ 533840.0, 7261752.500792942941189 ], [ 533830.0, 7261757.511273443698883 ], [ 533820.0, 7261762.587941141799092 ], [ 533810.000892210635357, 7261767.958365123718977 ], [ 533800.011174176470377, 7261774.128444570116699 ], [ 533790.088040409144014, 7261781.628543838858604 ], [ 533780.45915806631092, 7261790.458265855908394 ], [ 533771.638825803645886, 7261800.088040409609675 ], [ 533764.205310802557506, 7261810.011174177750945 ], [ 533758.329482780885883, 7261820.000892210751772 ], [ 533753.768501089187339, 7261830.0 ], [ 533750.088040409144014, 7261840.000000000931323 ], [ 533746.700938942958601, 7261850.0 ], [ 533743.299953267676756, 7261860.0 ], [ 533739.923133767442778, 7261870.0 ], [ 533736.31953932007309, 7261880.0 ], [ 533732.128783074906096, 7261890.0 ], [ 533727.423233035253361, 7261900.0 ], [ 533722.489618766237982, 7261910.0 ], [ 533717.499207057291642, 7261920.0 ], [ 533712.499900731956586, 7261930.0 ], [ 533707.499207057408057, 7261940.0 ], [ 533702.489618766237982, 7261950.0 ], [ 533697.423233035369776, 7261960.0 ], [ 533692.129675285541452, 7261970.0 ], [ 533686.329821285791695, 7261980.0 ], [ 533680.0, 7261989.999553894624114 ], [ 533673.671070924960077, 7261999.993520701304078 ], [ 533667.881498891045339, 7262009.944359513930976 ], [ 533662.664807373774238, 7262019.677239574491978 ], [ 533657.968647089437582, 7262028.683442020788789 ], [ 533654.129336780519225, 7262036.078100949525833 ], [ 533651.628543837927282, 7262041.078100949525833 ] ] } },
{ "type": "Feature", "properties": { "id": 8, "reference_id": 6, "dune_id": 6, "dune_name": "The Star Dune", "acquisition_date": "2025-01-20", "length_m": 893.16471717099807 }, "geometry": { "type": "LineString", "coordinates": [ [ 533650.0, 7262048.921899050474167 ], [ 533650.0, 7262053.921899050474167 ], [ 533650.0, 7262061.316557979211211 ], [ 533650.0, 7262070.322760425508022 ], [ 533650.0, 7262080.055640487000346 ], [ 533650.0, 7262090.006479298695922 ], [ 533650.0, 7262100.000446105375886 ], [ 533650.0, 7262110.0 ], [ 533650.0, 7262120.0 ], [ 533650.000892210751772, 7262130.0 ], [ 533650.011174176470377, 7262140.0 ], [ 533650.087148198508658, 7262150.0 ], [ 533650.447091679205187, 7262160.0 ], [ 533651.540503428783268, 7262170.0 ], [ 533653.670178714208305, 7262180.0 ], [ 533656.329821285791695, 7262190.0 ], [ 533658.460388781968504, 7262200.0 ], [ 533659.56408249726519, 7262210.0 ], [ 533660.0, 7262220.0 ], [ 533660.43591750273481, 7262230.0 ], [ 533661.539611218031496, 7262240.0 ], [ 533663.670178714208305, 7262250.0 ], [ 533666.329821285791695, 7262260.0 ], [ 533668.459496571333148, 7262270.0 ], [ 533669.552908320911229, 7262280.0 ], [ 533669.912851801607758, 7262290.0 ], [ 533669.988825823646039, 7262300.0 ], [ 533669.999107789364643, 7262310.0 ], [ 533670.0, 7262320.0 ], [ 533670.0, 7262330.0 ], [ 533669.999107789364643, 7262340.000000000931323 ], [ 533669.988825823646039, 7262350.0 ], [ 533669.912851801607758, 7262360.0 ], [ 533669.552016110159457, 7262370.0 ], [ 533668.448322394862771, 7262380.0 ], [ 533666.242673087399453, 7262390.0 ], [ 533663.223087035119534, 7262400.0 ], [ 533659.999107789248228, 7262410.0 ], [ 533656.765738788526505, 7262420.0 ], [ 533653.670178714208305, 7262430.0 ], [ 533651.103693715413101, 7262440.0 ], [ 533648.896306284703314, 7262450.0 ], [ 533646.329821285791695, 7262460.0 ], [ 533643.233369000838138, 7262470.0 ], [ 533639.989718034281395, 7262480.0 ], [ 533636.68976476660464, 7262490.0 ], [ 533633.310235233511776, 7262500.0 ], [ 533630.01028196583502, 7262510.0 ], [ 533626.766630999161862, 7262520.0 ], [ 533623.670178714208305, 7262530.0 ], [ 533621.104585925932042, 7262540.0 ], [ 533618.907480461173691, 7262550.0 ], [ 533616.416077273664996, 7262560.0 ], [ 533613.670178714208305, 7262570.0 ], [ 533611.454247441026382, 7262580.0 ], [ 533610.0, 7262590.0 ], [ 533608.54664476972539, 7262600.000000000931323 ], [ 533606.340995462378487, 7262610.0 ], [ 533603.671070924960077, 7262620.0 ], [ 533601.540503428783268, 7262630.0 ], [ 533600.44619946856983, 7262640.0 ], [ 533600.075974022038281, 7262650.0 ], [ 533599.924025978078134, 7262660.0 ], [ 533599.553800531546585, 7262670.0 ], [ 533598.459496571216732, 7262680.0 ], [ 533596.329821285791695, 7262690.0 ], [ 533593.670178714208305, 7262700.0 ], [ 533591.540503428783268, 7262710.0 ], [ 533590.44619946856983, 7262720.0 ], [ 533590.075974022038281, 7262730.0 ], [ 533589.924025977961719, 7262740.0 ], [ 533589.552908320911229, 7262750.0 ], [ 533588.448322394862771, 7262760.0 ], [ 533586.242673087399453, 7262770.0 ], [ 533583.222194824367762, 7262780.0 ], [ 533579.988825823529623, 7262790.0 ], [ 533576.68976476660464, 7262800.0 ], [ 533573.309343022876419, 7262810.0 ], [ 533570.0, 7262820.0 ], [ 533566.690656977239996, 7262830.0 ], [ 533563.310235233511776, 7262840.0 ], [ 533560.011174176470377, 7262850.0 ], [ 533556.777805175632238, 7262860.0 ], [ 533553.757326912600547, 7262870.000000000931323 ], [ 533551.551677605253644, 7262879.999107789248228 ], [ 533550.447983889840543, 7262889.987933613359928 ], [ 533550.087148198392242, 7262899.900785414502025 ], [ 533550.011174176470377, 7262909.453693736344576 ], [ 533550.000892210751772, 7262917.913190307095647 ], [ 533550.0, 7262924.243011591956019 ] ] } },
{ "type": "Feature", "properties": { "id": 9, "reference_id": 7, "dune_id": 7, "dune_name": "Inverted Y Dune", "acquisition_date": "2025-01-20", "length_m": 93.283214724871357 }, "geometry": { "type": "LineString", "coordinates": [ [ 530105.756988407694735, 7261628.328590570017695 ], [ 530112.08680969348643, 7261628.968009056523442 ], [ 530120.546306264819577, 7261631.987595107406378 ], [ 530130.099214585614391, 7261636.776912964880466 ], [ 530140.012066387222148, 7261641.768839593976736 ], [ 530150.0, 7261645.795581408776343 ], [ 530159.987933612894267, 7261648.274918209761381 ], [ 530169.900785414385609, 7261649.093750255182385 ], [ 530179.453693735296838, 7261648.371456163004041 ], [ 530187.91319030651357, 7261646.318647109903395 ], [ 530194.243011592421681, 7261643.669286504387856 ] ] } },
{ "type": "Feature", "properties": { "id": 10, "reference_id": 7, "dune_id": 7, "dune_name": "Inverted Y Dune", "acquisition_date": "2025-01-20", "length_m": 489.81893065147733 }, "geometry": { "type": "LineString", "coordinates": [ [ 530604.330159790813923, 7261375.756988408043981 ], [ 530598.361174196354114, 7261382.086809692904353 ], [ 530591.005371340434067, 7261390.546306265518069 ], [ 530583.658112327102572, 7261400.099214585497975 ], [ 530576.765738788526505, 7261410.012066386640072 ], [ 530570.01028196583502, 7261420.000892210751772 ], [ 530563.310235233511776, 7261430.0 ], [ 530556.68976476660464, 7261440.0 ], [ 530549.989718034281395, 7261450.0 ], [ 530543.233369000838138, 7261460.0 ], [ 530536.329821285791695, 7261470.000000000931323 ], [ 530528.895414074067958, 7261480.0 ], [ 530521.092519538942724, 7261490.0 ], [ 530513.583030515816063, 7261500.0 ], [ 530506.318647109321319, 7261510.0 ], [ 530498.458604360697791, 7261520.0 ], [ 530489.552908320911229, 7261529.999107789248228 ], [ 530479.912851801607758, 7261539.9888258241117 ], [ 530469.988825823529623, 7261549.912851801142097 ], [ 530459.999107789364643, 7261559.552016111090779 ], [ 530450.0, 7261568.448322394862771 ], [ 530440.0, 7261576.241780877113342 ], [ 530430.000000000116415, 7261583.211020648479462 ], [ 530420.0, 7261589.901677625253797 ], [ 530410.0, 7261596.241780877113342 ], [ 530400.0, 7261601.757665418088436 ], [ 530390.0, 7261606.242673087865114 ], [ 530380.0, 7261609.912851801142097 ], [ 530370.0, 7261613.298168847337365 ], [ 530360.0, 7261616.689764766953886 ], [ 530350.0, 7261620.0 ], [ 530340.0, 7261623.309343023225665 ], [ 530330.0, 7261626.689764766022563 ], [ 530320.0, 7261629.989718034863472 ], [ 530310.0, 7261633.233369001187384 ], [ 530300.0, 7261636.329821285791695 ], [ 530290.0, 7261638.894521864131093 ], [ 530280.0, 7261641.081345362588763 ], [ 530270.000892210751772, 7261643.49588231742382 ], [ 530260.012066387105733, 7261645.871555430814624 ], [ 530250.099214585614391, 7261646.918100932613015 ], [ 530240.546306264703162, 7261645.882729606702924 ], [ 530232.08680969348643, 7261643.583030516281724 ], [ 530225.756988407694735, 7261641.529329252429307 ] ] } },
{ "type": "Feature", "properties": { "id": 11, "reference_id": 4, "dune_id": 4, "dune_name": "The Star Dune", "acquisition_date": "2025-01-20", "length_m": 80.827302581287825 }, "geometry": { "type": "LineString", "coordinates": [ [ 533294.243011592305265, 7261939.552908320911229 ], [ 533287.91319030651357, 7261938.458604360930622 ], [ 533279.453693735180423, 7261936.318647108972073 ], [ 533269.900785414502025, 7261933.583030516281724 ], [ 533259.988825823646039, 7261931.093411750160158 ], [ 533250.011174176470377, 7261928.906588250771165 ], [ 533240.099214585730806, 7261926.416969484649599 ], [ 533230.546306264819577, 7261923.681352891027927 ], [ 533222.08680969348643, 7261921.541395640000701 ], [ 533215.756988407694735, 7261920.447091680020094 ] ] } },
{ "type": "Feature", "properties": { "id": 12, "reference_id": 1, "dune_id": 1, "dune_name": "Big Mommy Dune", "acquisition_date": "2025-01-20", "length_m": 1257.069596416937 }, "geometry": { "type": "LineString", "coordinates": [ [ 529180.0, 7261025.756988408043981 ], [ 529180.0, 7261032.086809692904353 ], [ 529180.0, 7261040.546306265518069 ], [ 529180.0, 7261050.099214585497975 ], [ 529179.999107789364643, 7261060.012066387571394 ], [ 529179.988825823529623, 7261070.000892210751772 ], [ 529179.912851801607758, 7261080.0 ], [ 529179.552908320794813, 7261090.0 ], [ 529178.458604360581376, 7261100.0 ], [ 529176.318647109321319, 7261110.0 ], [ 529173.583030515816063, 7261120.000000000931323 ], [ 529171.092519538942724, 7261130.0 ], [ 529168.895414074067958, 7261140.0 ], [ 529166.328929075156339, 7261150.0 ], [ 529163.223087035119534, 7261160.0 ], [ 529159.91374401235953, 7261170.0 ], [ 529156.328929075156339, 7261180.0 ], [ 529152.205649307463318, 7261190.0 ], [ 529147.794350692536682, 7261200.0 ], [ 529143.670178714208305, 7261210.000000000931323 ], [ 529140.075081811286509, 7261220.0 ], [ 529136.689764766488224, 7261230.0 ], [ 529133.22397924575489, 7261240.0 ], [ 529129.563190286629833, 7261250.0 ], [ 529125.226127570495009, 7261260.0 ], [ 529120.000000000116415, 7261270.0 ], [ 529114.773872429504991, 7261280.0 ], [ 529110.436809713370167, 7261290.0 ], [ 529106.77602075424511, 7261300.0 ], [ 529103.31023523339536, 7261310.000000000931323 ], [ 529099.924025978078134, 7261320.0 ], [ 529096.31953932007309, 7261330.0 ], [ 529092.129675285541452, 7261340.0 ], [ 529087.433515001088381, 7261350.0 ], [ 529082.566484998911619, 7261360.0 ], [ 529077.869432503823191, 7261370.0 ], [ 529073.670178714208305, 7261380.0 ], [ 529070.0, 7261390.0 ], [ 529066.329821285791695, 7261400.0 ], [ 529062.130567496176809, 7261410.0 ], [ 529057.434407211840153, 7261420.0 ], [ 529052.576766964630224, 7261430.0 ], [ 529047.946298736496828, 7261440.0 ], [ 529044.041296371375211, 7261450.0 ], [ 529041.18145215860568, 7261460.0 ], [ 529038.916870216256939, 7261470.000000000931323 ], [ 529036.406687518465333, 7261480.0 ], [ 529033.594204692286439, 7261490.0 ], [ 529031.094303960213438, 7261500.0 ], [ 529028.906588250538334, 7261510.0 ], [ 529026.416969484183937, 7261520.0 ], [ 529023.680460680043325, 7261530.0 ], [ 529021.530221462948248, 7261540.0 ], [ 529020.359943480812944, 7261550.0 ], [ 529019.640056519303471, 7261560.000000000931323 ], [ 529018.470670747803524, 7261570.0 ], [ 529016.330713496543467, 7261580.0 ], [ 529013.670178714208305, 7261590.0 ], [ 529011.541395639418624, 7261600.0 ], [ 529010.458265855675563, 7261610.0 ], [ 529010.1742963969009, 7261620.0 ], [ 529010.458265855675563, 7261630.0 ], [ 529011.542287850053981, 7261640.0 ], [ 529013.681352890795097, 7261650.0 ], [ 529016.416969484183937, 7261660.0 ], [ 529018.907480461173691, 7261670.0 ], [ 529021.10547813680023, 7261680.0 ], [ 529023.681352890678681, 7261690.0 ], [ 529026.853779197670519, 7261700.0 ], [ 529030.458265855675563, 7261710.0 ], [ 529034.861912838649005, 7261720.0 ], [ 529040.447983889840543, 7261730.000000000931323 ], [ 529046.776912964880466, 7261740.0 ], [ 529053.310235233511776, 7261750.0 ], [ 529059.924918188713491, 7261760.0 ], [ 529066.329821285791695, 7261770.0 ], [ 529072.204757096711546, 7261780.0 ], [ 529077.783176516066305, 7261790.0 ], [ 529083.583030515816063, 7261800.0 ], [ 529089.627990132197738, 7261810.0 ], [ 529095.147476916550659, 7261820.0 ], [ 529099.530559967970476, 7261830.0 ], [ 529103.047006216831505, 7261840.000000000931323 ], [ 529105.772340844618157, 7261850.0 ], [ 529106.808604380581528, 7261860.0 ], [ 529105.346705307718366, 7261870.0 ], [ 529101.584261231473647, 7261880.0 ], [ 529096.23060670029372, 7261890.0 ], [ 529089.987041402142495, 7261900.0 ], [ 529083.658112327102572, 7261910.0 ], [ 529077.783176516066305, 7261920.0 ], [ 529072.129675285425037, 7261930.0 ], [ 529065.969877805095166, 7261940.0 ], [ 529058.830614228500053, 7261950.0 ], [ 529051.170277982251719, 7261960.0 ], [ 529044.040404160623439, 7261970.0 ], [ 529037.947190947132185, 7261980.0 ], [ 529032.5879411411006, 7261990.0 ], [ 529027.522447620984167, 7262000.0 ], [ 529022.5879411411006, 7262010.0 ], [ 529017.947190947132185, 7262020.0 ], [ 529014.040404160739854, 7262030.0 ], [ 529011.170277982251719, 7262040.0 ], [ 529008.829722017864697, 7262050.0 ], [ 529005.959595839376561, 7262060.0 ], [ 529002.052809052867815, 7262070.0 ], [ 528997.4120588588994, 7262080.0 ], [ 528992.478444589767605, 7262090.0 ], [ 528987.42234082473442, 7262100.0 ], [ 528982.128783074789681, 7262110.0 ], [ 528976.318647109437734, 7262120.0 ], [ 528969.911959590855986, 7262129.999107789248228 ], [ 528963.212805069284514, 7262139.987933613359928 ], [ 528956.253847263869829, 7262149.900785414502025 ], [ 528948.547536980360746, 7262159.453693735413253 ], [ 528940.098322374979034, 7262167.913190307095647 ], [ 528931.999661495094188, 7262174.243011591956019 ], [ 528925.745814231224358, 7262177.913190307095647 ] ] } },
{ "type": "Feature", "properties": { "id": 13, "reference_id": 2, "dune_id": 2, "dune_name": "Big Mommy Dune", "acquisition_date": "2025-01-20", "length_m": 382.68630199646049 }, "geometry": { "type": "LineString", "coordinates": [ [ 528754.243011592305265, 7260848.448322394862771 ], [ 528747.91319030651357, 7260846.241780877113342 ], [ 528739.453693735180423, 7260843.211912859231234 ], [ 528729.900785414502025, 7260839.911959590390325 ], [ 528719.987933612894267, 7260836.318647108972073 ], [ 528709.999107789248228, 7260832.128783075138927 ], [ 528700.0, 7260827.423233035951853 ], [ 528690.0, 7260822.489618766121566 ], [ 528680.0, 7260817.499207057058811 ], [ 528670.0, 7260812.499900732189417 ], [ 528660.0, 7260807.499207057058811 ], [ 528650.0, 7260802.489618767052889 ], [ 528640.0, 7260797.423233035951853 ], [ 528630.0, 7260792.129675285890698 ], [ 528620.0, 7260786.329821286723018 ], [ 528610.0, 7260779.999107790179551 ], [ 528600.0, 7260773.659896748140454 ], [ 528590.0, 7260767.793458482250571 ], [ 528580.0, 7260762.205649306997657 ], [ 528570.0, 7260756.329821286723018 ], [ 528560.0, 7260749.924025977961719 ], [ 528550.0, 7260743.299061057157815 ], [ 528540.0, 7260736.688872556202114 ], [ 528530.0, 7260729.989718034863472 ], [ 528520.0, 7260723.233369001187384 ], [ 528510.0, 7260716.329821286723018 ], [ 528500.0, 7260708.896306284703314 ], [ 528490.0, 7260701.103693716228008 ], [ 528480.0, 7260693.670178715139627 ], [ 528470.000892210751772, 7260686.766630999743938 ], [ 528460.012066387105733, 7260680.0111741758883 ], [ 528450.099214585614391, 7260673.322301620617509 ], [ 528440.546306264819577, 7260666.788979352451861 ], [ 528432.08680969348643, 7260660.535132088698447 ], [ 528425.756988407694735, 7260655.309004518203437 ] ] } }
]
}
