{
"type": "FeatureCollection",
"name": "crests_2024_03_2024-03-06",
"crs": { "type": "name", "properties": { "name": "urn:ogc:def:crs:EPSG::32733" } },
"features": [
{ "type": "Feature", "properties": { "id": 0, "reference_id": 3, "dune_id": 3, "dune_name": "Big Mommy Dune", "acquisition_date": "2024-03-06", "length_m": 362.51257094926689 }, "geometry": { "type": "LineString", "coordinates": [ [ 529374.243011592305265, 7260695.756988408043981 ], [ 529367.91319030651357, 7260702.086809693835676 ], [ 529359.453693735180423, 7260710.546306265518069 ], [ 529349.900785414502025, 7260720.099214585497975 ], [ 529339.988825823529623, 7260730.012066388502717 ], [ 529330.01028196583502, 7260740.000892210751772 ], [ 529320.087148198508658, 7260750.0 ], [ 529310.447983889956959, 7260760.0 ], [ 529301.551677605253644, 7260770.0 ], [ 529293.757326912600547, 7260780.000000000931323 ], [ 529286.777805175632238, 7260790.0 ], [ 529280.011174176470377, 7260800.0 ], [ 529273.310235233511776, 7260810.0 ], [ 529266.690656977239996, 7260820.0 ], [ 529260.0, 7260830.0 ], [ 529253.310235233511776, 7260840.0 ], [ 529246.700938943075016, 7260850.0 ], [ 529240.075974021921866, 7260860.0 ], [ 529233.670178714208305, 7260870.0 ], [ 529227.794350692536682, 7260880.0 ], [ 529222.206541518098675, 7260890.0 ], [ 529216.340103251626715, 7260900.0 ], [ 529210.0, 7260910.0 ], [ 529203.659896748373285, 7260920.0 ], [ 529197.794350692536682, 7260930.0 ], [ 529192.217715694685467, 7260939.999553894624114 ], [ 529186.428143660770729, 7260949.993520701304078 ], [ 529180.45915806631092, 7260959.944359514862299 ], [ 529175.298722552019171, 7260969.6772395754233 ], [ 529171.998769284342416, 7260978.683442020788789 ], [ 529170.535132088349201, 7260986.078100949525833 ], [ 529170.098322374979034, 7260991.078100949525833 ] ] } },
{ "type": "Feature", "properties": { "id": 1, "reference_id": 3, "dune_id": 3, "dune_name": "Big Mommy Dune", "acquisition_date": "2024-03-06", "length_m": 215.0215565901816 }, "geometry": { "type": "LineString", "coordinates": [ [ 529405.756988407694735, 7260679.552016109228134 ], [ 529412.08680969348643, 7260678.448322394862771 ], [ 529420.546306264819577, 7260676.242673087865114 ], [ 529430.099214585614391, 7260673.222194824367762 ], [ 529440.012066387222148, 7260669.9888258241117 ], [ 529450.000892210751772, 7260666.689764766953886 ], [ 529460.0, 7260663.310235233977437 ], [ 529470.0, 7260660.010281966067851 ], [ 529480.0, 7260656.766630999743938 ], [ 529490.0, 7260653.670178714208305 ], [ 529500.000000000116415, 7260651.10458592697978 ], [ 529510.0, 7260648.907480461522937 ], [ 529520.0, 7260646.416077273897827 ], [ 529530.0, 7260643.670178715139627 ], [ 529540.0, 7260641.454247441142797 ], [ 529550.0, 7260640.0 ], [ 529560.0, 7260638.546644769608974 ], [ 529569.999107789248228, 7260636.340995462611318 ], [ 529579.987933612894267, 7260633.671070925891399 ], [ 529589.900785414502025, 7260631.540503429248929 ], [ 529599.453693735180423, 7260630.447091680020094 ], [ 529607.91319030651357, 7260630.087148198857903 ], [ 529614.243011592421681, 7260630.011174176819623 ] ] } },
{ "type": "Feature", "properties": { "id": 2, "reference_id": 3, "dune_id": 3, "dune_name": "Big Mommy Dune", "acquisition_date": "2024-03-06", "length_m": 58.486023184610531 }, "geometry": { "type": "LineString", "coordinates": [ [ 529704.243011592305265, 7260620.0 ], [ 529697.91319030651357, 7260620.0 ], [ 529689.454585945932195, 7260620.0 ], [ 529679.912851801607758, 7260620.0 ], [ 529670.087148198508658, 7260620.0 ], [ 529660.545414054067805, 7260620.0 ], [ 529652.08680969348643, 7260620.0 ], [ 529645.756988407694735, 7260620.0 ] ] } },
{ "type": "Feature", "properties": { "id": 3, "reference_id": 3, "dune_id": 3, "dune_name": "Big Mommy Dune", "acquisition_date": "2024-03-06", "length_m": 308.48602318461053 }, "geometry": { "type": "LineString", "coordinates": [ [ 529735.756988407694735, 7260610.0 ], [ 529742.08680969348643, 7260610.0 ], [ 529750.546306264819577, 7260610.0 ], [ 529760.099214585614391, 7260610.0 ], [ 529770.012066387222148, 7260610.0 ], [ 529780.000892210751772, 7260610.0 ], [ 529790.0, 7260610.0 ], [ 529800.0, 7260610.0 ], [ 529810.0, 7260610.0 ], [ 529820.0, 7260610.0 ], [ 529830.0, 7260610.0 ], [ 529840.0, 7260610.0 ], [ 529850.0, 7260610.0 ], [ 529860.0, 7260610.0 ], [ 529870.0, 7260610.0 ], [ 529880.0, 7260610.0 ], [ 529890.0, 7260610.0 ], [ 529900.0, 7260610.0 ], [ 529910.0, 7260610.0 ], [ 529920.0, 7260610.0 ], [ 529930.0, 7260610.0 ], [ 529940.0, 7260610.0 ], [ 529950.0, 7260610.0 ], [ 529960.0, 7260610.0 ], [ 529970.0, 7260610.0 ], [ 529980.0, 7260610.0 ], [ 529990.0, 7260610.0 ], [ 529999.999107789364643, 7260610.0 ], [ 530009.987933612894267, 7260610.0 ], [ 530019.900785414502025, 7260610.0 ], [ 530029.453693735180423, 7260610.0 ], [ 530037.91319030651357, 7260610.0 ], [ 530044.243011592305265, 7260610.0 ] ] } },
{ "type": "Feature", "properties": { "id": 4, "reference_id": 3, "dune_id": 3, "dune_name": "Big Mommy Dune", "acquisition_date": "2024-03-06", "length_m": 162.08132794891512 }, "geometry": { "type": "LineString", "coordinates": [ [ 530085.756988407694735, 7260599.999107789248228 ], [ 530092.08680969348643, 7260599.9888258241117 ], [ 530100.546306264819577, 7260599.912851802073419 ], [ 530110.099214585614391, 7260599.552016111090779 ], [ 530120.012066387222148, 7260598.448322394862771 ], [ 530130.000892210751772, 7260596.242673087865114 ], [ 530140.0, 7260593.223087035119534 ], [ 530150.0, 7260590.0 ], [ 530160.0, 7260586.776020754128695 ], [ 530170.000000000116415, 7260583.746152736246586 ], [ 530180.0, 7260581.464529406279325 ], [ 530190.0, 7260580.000892210751772 ], [ 530199.999107789248228, 7260578.546644769608974 ], [ 530209.987933612894267, 7260576.340995462611318 ], [ 530219.900785414385609, 7260573.671070925891399 ], [ 530229.453693735180423, 7260571.540503429248929 ], [ 530237.91319030651357, 7260570.447091680020094 ], [ 530244.243011592421681, 7260570.087148198857903 ] ] } },
{ "type": "Feature", "properties": { "id": 5, "reference_id": 8, "dune_id": 8, "dune_name": "Inverted Y Dune", "acquisition_date": "2024-03-06", "length_m": 429.91909007812541 }, "geometry": { "type": "LineString", "coordinates": [ [ 530264.243011592421681, 7261221.638825803995132 ], [ 530257.913190306629986, 7261224.205310802906752 ], [ 530249.453693735180423, 7261228.329482780769467 ], [ 530239.900785414502025, 7261233.76939329970628 ], [ 530229.987933612777852, 7261240.099214585497975 ], [ 530220.0, 7261246.788979351520538 ], [ 530210.011174176470377, 7261253.75821912381798 ], [ 530200.087148198392242, 7261261.551677605137229 ], [ 530190.447983889840543, 7261270.447983890771866 ], [ 530181.552569815889001, 7261280.087148198857903 ], [ 530173.768501089187339, 7261290.0111741758883 ], [ 530166.864953374140896, 7261300.000892210751772 ], [ 530160.458265855675563, 7261310.000000000931323 ], [ 530154.851630872813985, 7261320.0 ], [ 530150.372009867918678, 7261330.0 ], [ 530146.416969484300353, 7261340.0 ], [ 530142.216823483933695, 7261350.0 ], [ 530137.795242903288454, 7261360.0 ], [ 530133.671070924960077, 7261370.0 ], [ 530130.086255987756886, 7261380.0 ], [ 530126.776912964996882, 7261390.0 ], [ 530123.671070924960077, 7261400.0 ], [ 530121.104585926048458, 7261410.0 ], [ 530118.907480461173691, 7261420.0 ], [ 530116.416969484300353, 7261430.0 ], [ 530113.680460680043325, 7261440.0 ], [ 530111.530221462948248, 7261450.0 ], [ 530110.359943480812944, 7261460.0 ], [ 530109.640056519303471, 7261470.000000000931323 ], [ 530108.470670747803524, 7261480.0 ], [ 530106.330713496543467, 7261490.0 ], [ 530103.670178714208305, 7261500.0 ], [ 530101.540503428783268, 7261510.0 ], [ 530100.447091679205187, 7261520.0 ], [ 530100.087148198508658, 7261530.0 ], [ 530100.010728071210906, 7261539.999553894624114 ], [ 530099.995305122458376, 7261549.993520701304078 ], [ 530099.956425900803879, 7261559.944359513930976 ], [ 530099.776454160455614, 7261569.6772395754233 ], [ 530099.229748285608366, 7261578.683442020788789 ], [ 530098.164910642895848, 7261586.078100949525833 ], [ 530096.835089357104152, 7261591.078100949525833 ] ] } },
{ "type": "Feature", "properties": { "id": 6, "reference_id": 8, "dune_id": 8, "dune_name": "Inverted Y Dune", "acquisition_date": "2024-03-06", "length_m": 54.916103574002022 }, "geometry": { "type": "LineString", "coordinates": [ [ 530534.243011592305265, 7261185.297830341383815 ], [ 530527.914082517265342, 7261190.447091679088771 ], [ 530519.465760122402571, 7261196.329821285791695 ], [ 530510.0, 7261201.682583605870605 ], [ 530500.534239877713844, 7261205.79558140784502 ], [ 530492.085917482851073, 7261208.36117419693619 ], [ 530485.756988407694735, 7261209.540841934271157 ] ] } },
{ "type": "Feature", "properties": { "id": 7, "reference_id": 9, "dune_id": 9, "dune_name": "Inverted Y Dune", "acquisition_date": "2024-03-06", "length_m": 800.7032321684527 }, "geometry": { "type": "LineString", "coordinates": [ [ 530091.078100949525833, 7261598.910724874585867 ], [ 530086.078100949409418, 7261603.834750852547586 ], [ 530078.683442020905204, 7261610.868574090301991 ], [ 530069.677239574841224, 7261618.771082820370793 ], [ 530059.944359513698146, 7261626.298313573934138 ], [ 530049.993520701071247, 7261633.228674123063684 ], [ 530039.999553894624114, 7261639.989271929487586 ], [ 530030.0, 7261646.688872557133436 ], [ 530020.0, 7261653.299061057157815 ], [ 530010.0, 7261659.924025978893042 ], [ 530000.0, 7261666.33071349747479 ], [ 529990.0, 7261672.21593127399683 ], [ 529980.0, 7261677.870324714109302 ], [ 529970.0, 7261684.031014405190945 ], [ 529960.0, 7261691.180559948086739 ], [ 529950.0, 7261698.917762426659465 ], [ 529940.0, 7261706.417861695401371 ], [ 529930.0, 7261713.681352891027927 ], [ 529920.0, 7261721.541395640000701 ], [ 529910.0, 7261730.447091680020094 ], [ 529900.0, 7261740.087148198857903 ], [ 529890.0, 7261750.011174176819623 ], [ 529880.0, 7261760.000892210751772 ], [ 529870.0, 7261770.0 ], [ 529860.000892210751772, 7261780.0 ], [ 529850.011174176470377, 7261790.0 ], [ 529840.087148198392242, 7261800.0 ], [ 529830.447983889840543, 7261810.0 ], [ 529821.552569815889001, 7261820.0 ], [ 529813.768501089187339, 7261830.0 ], [ 529806.864953374140896, 7261840.000000000931323 ], [ 529800.45915806631092, 7261850.0 ], [ 529794.861912838649005, 7261860.0 ], [ 529790.447983889840543, 7261870.0 ], [ 529786.777805175632238, 7261880.0 ], [ 529783.32051719923038, 7261890.0 ], [ 529780.000892210751772, 7261900.0 ], [ 529776.690656977239996, 7261910.0 ], [ 529773.309343022760004, 7261920.0 ], [ 529770.0, 7261930.0 ], [ 529766.689764766488224, 7261940.0 ], [ 529763.299061056924984, 7261950.0 ], [ 529759.923133767326362, 7261960.0 ], [ 529756.319539319956675, 7261970.0 ], [ 529752.128783074789681, 7261980.0 ], [ 529747.423233035369776, 7261990.0 ], [ 529742.490510976989754, 7262000.0 ], [ 529737.509489023126662, 7262010.0 ], [ 529732.576766964630224, 7262020.0 ], [ 529727.870324714574963, 7262030.0 ], [ 529723.670178714208305, 7262040.0 ], [ 529720.0, 7262050.0 ], [ 529716.329821285791695, 7262060.0 ], [ 529712.130567496176809, 7262070.0 ], [ 529707.433515001088381, 7262080.0 ], [ 529702.566484998911619, 7262090.0 ], [ 529697.869432503823191, 7262100.0 ], [ 529693.670178714208305, 7262110.0 ], [ 529690.000892210751772, 7262120.0 ], [ 529686.340103251626715, 7262130.0 ], [ 529682.20654151821509, 7262140.0 ], [ 529677.793458481901325, 7262150.0 ], [ 529673.6598967484897, 7262160.0 ], [ 529670.0, 7262170.0 ], [ 529666.340995462262072, 7262180.0 ], [ 529662.217715694569051, 7262189.999107789248228 ], [ 529657.881498891045339, 7262199.987933613359928 ], [ 529654.118162604048848, 7262209.900785414502025 ], [ 529651.62765162717551, 7262219.453693735413253 ], [ 529650.458265855675563, 7262227.913190307095647 ], [ 529650.088040409144014, 7262234.243011592887342 ] ] } },
{ "type": "Feature", "properties": { "id": 8, "reference_id": 4, "dune_id": 4, "dune_name": "The Star Dune", "acquisition_date": "2024-03-06", "length_m": 553.19579891172305 }, "geometry": { "type": "LineString", "coordinates": [ [ 533005.756988407694735, 7261870.447091680020094 ], [ 533012.08680969348643, 7261871.540503429248929 ], [ 533020.546306264819577, 7261873.671070925891399 ], [ 533030.099214585614391, 7261876.340995462611318 ], [ 533040.012066387105733, 7261878.546644769608974 ], [ 533050.000892210751772, 7261880.0 ], [ 533060.0, 7261881.454247441142797 ], [ 533070.0, 7261883.670178714208305 ], [ 533080.0, 7261886.416077273897827 ], [ 533090.0, 7261888.906588250771165 ], [ 533100.0, 7261891.094303959980607 ], [ 533110.0, 7261893.594204692170024 ], [ 533120.0, 7261896.405795307829976 ], [ 533130.0, 7261898.905696040019393 ], [ 533140.0, 7261901.094303959980607 ], [ 533150.0, 7261903.594204692170024 ], [ 533160.0, 7261906.406687518581748 ], [ 533170.0, 7261908.916870216839015 ], [ 533180.0, 7261911.180559948086739 ], [ 533190.0, 7261914.030122194439173 ], [ 533200.0, 7261917.859150538221002 ], [ 533210.0, 7261922.129675285890698 ], [ 533220.0, 7261925.893903783522546 ], [ 533230.0, 7261928.459496571682394 ], [ 533240.0, 7261929.989718034863472 ], [ 533250.0, 7261931.463637196458876 ], [ 533260.0, 7261933.746152736246586 ], [ 533270.0, 7261936.776912964880466 ], [ 533280.0, 7261940.011174176819623 ], [ 533290.0, 7261943.310235233977437 ], [ 533300.0, 7261946.689764766022563 ], [ 533310.0, 7261949.989718034863472 ], [ 533320.0, 7261953.233369001187384 ], [ 533330.0, 7261956.329821286723018 ], [ 533340.0, 7261958.895414074882865 ], [ 533350.0, 7261961.093411749228835 ], [ 533360.0, 7261963.594204693101346 ], [ 533370.0, 7261966.406687518581748 ], [ 533380.000000000116415, 7261968.916870215907693 ], [ 533390.0, 7261971.180559948086739 ], [ 533400.000000000116415, 7261974.031014406122267 ], [ 533410.0, 7261977.870324715040624 ], [ 533420.0, 7261982.216823483817279 ], [ 533430.0, 7261986.340995462611318 ], [ 533440.0, 7261990.0 ], [ 533450.0, 7261993.659896748140454 ], [ 533460.0, 7261997.793458482250571 ], [ 533470.0, 7262002.206541518680751 ], [ 533480.0, 7262006.340103251859546 ], [ 533489.999107789364643, 7262010.0 ], [ 533499.987933612777852, 7262013.659004537388682 ], [ 533509.900785414385609, 7262017.782284305430949 ], [ 533519.453693735296838, 7262022.118501109071076 ], [ 533527.913190306629986, 7262025.881837395951152 ], [ 533534.243011592421681, 7262028.37234837282449 ] ] } },
{ "type": "Feature", "properties": { "id": 9, "reference_id": 4, "dune_id": 4, "dune_name": "The Star Dune", "acquisition_date": "2024-03-06", "length_m": 50.5384967085336 }, "geometry": { "type": "LineString", "coordinates": [ [ 533575.756988407694735, 7262043.756434702314436 ], [ 533582.085917482851073, 7262046.765738788992167 ], [ 533590.534239877713844, 7262049.912851801142097 ], [ 533600.0, 7262052.775995356030762 ], [ 533609.465760122402571, 7262054.702169658616185 ], [ 533617.914082517265342, 7262054.778143681585789 ], [ 533624.243011592305265, 7262053.222194824367762 ] ] } },
{ "type": "Feature", "properties": { "id": 10, "reference_id": 2, "dune_id": 2, "dune_name": "Big Mommy Dune", "acquisition_date": "2024-03-06", "length_m": 404.28455064842814 }, "geometry": { "type": "LineString", "coordinates": [ [ 528755.756988407694735, 7260834.128444570116699 ], [ 528762.08680969348643, 7260837.958365123718977 ], [ 528770.546306264819577, 7260842.58794114086777 ], [ 528780.099214585614391, 7260847.511273444630206 ], [ 528790.012066387105733, 7260852.500792942941189 ], [ 528800.000892210751772, 7260857.499207057058811 ], [ 528810.0, 7260862.489618767052889 ], [ 528820.0, 7260867.423233035951853 ], [ 528830.0, 7260872.128783075138927 ], [ 528840.0, 7260876.318647108972073 ], [ 528850.0, 7260879.912851802073419 ], [ 528860.0, 7260883.223087035119534 ], [ 528870.0, 7260886.328929075971246 ], [ 528880.0, 7260888.895414073951542 ], [ 528890.0, 7260891.093411749228835 ], [ 528900.0, 7260893.594204692170024 ], [ 528910.0, 7260896.405795307829976 ], [ 528920.0, 7260898.906588250771165 ], [ 528930.0, 7260901.104585926048458 ], [ 528940.0, 7260903.670178715139627 ], [ 528950.0, 7260906.765738788992167 ], [ 528960.0, 7260909.999107789248228 ], [ 528970.0, 7260913.223979245871305 ], [ 528980.0, 7260916.253847263753414 ], [ 528990.0, 7260918.536362804472446 ], [ 529000.0, 7260920.010281965136528 ], [ 529010.0, 7260921.540503429248929 ], [ 529020.0, 7260924.106096217408776 ], [ 529030.0, 7260927.870324715040624 ], [ 529040.0, 7260932.14174167253077 ], [ 529050.0, 7260935.981051981449127 ], [ 529060.0, 7260938.907480461522937 ], [ 529070.0, 7260941.540503429248929 ], [ 529080.0, 7260945.209789931774139 ], [ 529089.999107789248228, 7260950.435917503200471 ], [ 529099.987933612894267, 7260956.328929075971246 ], [ 529109.900785414385609, 7260961.682583606801927 ], [ 529119.453693735296838, 7260965.79558140784502 ], [ 529127.91319030651357, 7260968.36117419693619 ], [ 529134.243011592421681, 7260969.540841933339834 ] ] } },
{ "type": "Feature", "properties": { "id": 11, "reference_id": 2, "dune_id": 2, "dune_name": "Big Mommy Dune", "acquisition_date": "2024-03-06", "length_m": 243.39837048894279 }, "geometry": { "type": "LineString", "coordinates": [ [ 528644.243011592421681, 7260805.794689197093248 ], [ 528637.913190306629986, 7260801.670517219230533 ], [ 528629.453693735296838, 7260796.231498911976814 ], [ 528619.900785414385609, 7260789.911959591321647 ], [ 528609.987933612777852, 7260783.298168847337365 ], [ 528599.999107789364643, 7260776.689764767885208 ], [ 528590.0, 7260770.0 ], [ 528580.0, 7260763.309343023225665 ], [ 528570.0, 7260756.690656976774335 ], [ 528560.0, 7260750.0 ], [ 528550.0, 7260743.309343023225665 ], [ 528540.0, 7260736.689764766953886 ], [ 528530.0, 7260729.9888258241117 ], [ 528520.0, 7260723.223087035119534 ], [ 528510.0, 7260716.253847263753414 ], [ 528500.0, 7260708.535470593720675 ], [ 528490.000892210751772, 7260700.000000000931323 ], [ 528480.012066387222148, 7260691.46542161796242 ], [ 528470.099214585614391, 7260683.758219122886658 ], [ 528460.546306264819577, 7260676.87523533962667 ], [ 528452.08680969348643, 7260670.546306265518069 ], [ 528445.756988407694735, 7260665.309896728955209 ] ] } },
{ "type": "Feature", "properties": { "id": 12, "reference_id": 5, "dune_id": 5, "dune_name": "The Star Dune", "acquisition_date": "2024-03-06", "length_m": 1143.7784498868939 }, "geometry": { "type": "LineString", "coordinates": [ [ 534334.342226177919656, 7261305.756988408043981 ], [ 534328.459496571333148, 7261312.086809693835676 ], [ 534321.540503428666852, 7261320.546306264586747 ], [ 534315.657773822080344, 7261330.099214585497975 ], [ 534312.074743306264281, 7261340.012066386640072 ], [ 534310.546306264703162, 7261350.000892210751772 ], [ 534310.110388762084767, 7261360.0 ], [ 534310.099214585614391, 7261370.0 ], [ 534310.447983889840543, 7261380.0 ], [ 534311.540503428666852, 7261390.0 ], [ 534313.670178714208305, 7261400.0 ], [ 534316.329821285791695, 7261410.0 ], [ 534318.459496571216732, 7261420.0 ], [ 534319.553800531546585, 7261430.0 ], [ 534319.924025978078134, 7261440.0 ], [ 534320.075974021921866, 7261450.0 ], [ 534320.446199468453415, 7261460.0 ], [ 534321.539611218031496, 7261470.000000000931323 ], [ 534323.659004537737928, 7261480.0 ], [ 534326.242673087399453, 7261490.0 ], [ 534328.012404892127961, 7261500.0 ], [ 534328.011512681492604, 7261510.0 ], [ 534326.23060670029372, 7261520.0 ], [ 534323.559789952239953, 7261530.0 ], [ 534320.993304953328334, 7261540.0 ], [ 534318.360281985718757, 7261550.0 ], [ 534314.330159790813923, 7261559.999107790179551 ], [ 534307.924364482983947, 7261569.9888258241117 ], [ 534299.454585945932195, 7261579.912851802073419 ], [ 534289.900785414502025, 7261589.552016110159457 ], [ 534279.987933612894267, 7261598.448322394862771 ], [ 534269.999107789248228, 7261606.242673087865114 ], [ 534260.0, 7261613.222194824367762 ], [ 534250.0, 7261619.9888258241117 ], [ 534240.0, 7261626.688872555270791 ], [ 534230.0, 7261633.299061057157815 ], [ 534220.0, 7261639.92313376814127 ], [ 534210.0, 7261646.318647109903395 ], [ 534200.0, 7261652.117608899250627 ], [ 534190.0, 7261657.336084837093949 ], [ 534180.0, 7261662.042527087032795 ], [ 534170.0, 7261665.957811418920755 ], [ 534160.0, 7261668.818547842092812 ], [ 534150.0, 7261671.082237573340535 ], [ 534140.0, 7261673.582138305529952 ], [ 534130.0, 7261676.319539319723845 ], [ 534120.0, 7261678.469778537750244 ], [ 534110.0, 7261679.640056519769132 ], [ 534100.0, 7261680.35994348116219 ], [ 534090.0, 7261681.529329252429307 ], [ 534080.0, 7261683.669286504387856 ], [ 534070.0, 7261686.329821286723018 ], [ 534060.0, 7261688.460388783365488 ], [ 534050.0, 7261689.564082497730851 ], [ 534040.0, 7261690.0 ], [ 534030.0, 7261690.435917503200471 ], [ 534020.0, 7261691.539611218497157 ], [ 534010.0, 7261693.671070924960077 ], [ 534000.0, 7261696.340995462611318 ], [ 533990.0, 7261698.546644769608974 ], [ 533980.0, 7261700.000892210751772 ], [ 533970.0, 7261701.464529407210648 ], [ 533960.0, 7261703.746152736246586 ], [ 533950.0, 7261706.776912964880466 ], [ 533940.0, 7261710.0111741758883 ], [ 533930.0, 7261713.311127444729209 ], [ 533920.0, 7261716.700938943773508 ], [ 533910.0, 7261720.076866232790053 ], [ 533900.0, 7261723.680460680276155 ], [ 533890.0, 7261727.871216925792396 ], [ 533880.0, 7261732.576766965910792 ], [ 533870.0, 7261737.510381234809756 ], [ 533860.0, 7261742.501685153692961 ], [ 533850.0, 7261747.510381234809756 ], [ 533840.0, 7261752.57676696497947 ], [ 533830.0, 7261757.871216924861073 ], [ 533820.0, 7261763.681352891027927 ], [ 533810.000892210635357, 7261770.088040409609675 ], [ 533800.011174176470377, 7261776.788087141700089 ], [ 533790.088040409144014, 7261783.75821912381798 ], [ 533780.45915806631092, 7261791.551677605137229 ], [ 533771.638825803645886, 7261800.447983889840543 ], [ 533764.205310802557506, 7261810.087148198857903 ], [ 533758.329482780885883, 7261820.011174176819623 ], [ 533753.768501089187339, 7261830.000892210751772 ], [ 533750.088040409144014, 7261840.000000000931323 ], [ 533746.700938942958601, 7261850.0 ], [ 533743.299953267676756, 7261860.0 ], [ 533739.923133767442778, 7261870.0 ], [ 533736.31953932007309, 7261880.0 ], [ 533732.128783074906096, 7261890.0 ], [ 533727.423233035253361, 7261900.0 ], [ 533722.489618766237982, 7261910.0 ], [ 533717.499207057291642, 7261920.0 ], [ 533712.499900731956586, 7261930.0 ], [ 533707.499207057408057, 7261940.0 ], [ 533702.489618766237982, 7261950.0 ], [ 533697.423233035369776, 7261960.0 ], [ 533692.129675285541452, 7261970.0 ], [ 533686.329821285791695, 7261980.0 ], [ 533680.0, 7261989.999553894624114 ], [ 533673.671070924960077, 7261999.993520701304078 ], [ 533667.881498891045339, 7262009.944359513930976 ], [ 533662.664807373774238, 7262019.677239574491978 ], [ 533657.968647089437582, 7262028.683442020788789 ], [ 533654.129336780519225, 7262036.078100949525833 ], [ 533651.628543837927282, 7262041.078100949525833 ] ] } },
{ "type": "Feature", "properties": { "id": 13, "reference_id": 6, "dune_id": 6, "dune_name": "The Star Dune", "acquisition_date": "2024-03-06", "length_m": 811.80697047521392 }, "geometry": { "type": "LineString", "coordinates": [ [ 533650.0, 7262048.921899050474167 ], [ 533650.0, 7262053.921899050474167 ], [ 533650.0, 7262061.316557979211211 ], [ 533650.0, 7262070.322760425508022 ], [ 533650.0, 7262080.055640487000346 ], [ 533650.0, 7262090.006479298695922 ], [ 533650.0, 7262100.000446105375886 ], [ 533650.0, 7262110.0 ], [ 533650.000892210751772, 7262120.0 ], [ 533650.011174176470377, 7262130.0 ], [ 533650.087148198508658, 7262140.0 ], [ 533650.447091679205187, 7262150.0 ], [ 533651.540503428783268, 7262160.0 ], [ 533653.670178714208305, 7262170.0 ], [ 533656.329821285791695, 7262180.0 ], [ 533658.459496571216732, 7262190.0 ], [ 533659.553800531546585, 7262200.0 ], [ 533659.924025977961719, 7262210.0 ], [ 533660.075974022038281, 7262220.0 ], [ 533660.44619946856983, 7262230.0 ], [ 533661.540503428783268, 7262240.0 ], [ 533663.670178714208305, 7262250.0 ], [ 533666.329821285791695, 7262260.0 ], [ 533668.459496571333148, 7262270.0 ], [ 533669.552908320911229, 7262280.0 ], [ 533669.912851801607758, 7262290.0 ], [ 533669.988825823646039, 7262300.0 ], [ 533669.999107789364643, 7262310.0 ], [ 533670.0, 7262320.0 ], [ 533670.0, 7262330.0 ], [ 533669.999107789364643, 7262340.000000000931323 ], [ 533669.988825823646039, 7262350.0 ], [ 533669.912851801607758, 7262360.0 ], [ 533669.552908320911229, 7262370.0 ], [ 533668.458604360697791, 7262380.0 ], [ 533666.318647109437734, 7262390.0 ], [ 533663.583030515816063, 7262400.0 ], [ 533661.092519538942724, 7262410.0 ], [ 533658.895414073951542, 7262420.0 ], [ 533656.329821285791695, 7262430.0 ], [ 533653.233369000838138, 7262440.0 ], [ 533649.989718034281395, 7262450.0 ], [ 533646.689764766488224, 7262460.0 ], [ 533643.309343022760004, 7262470.0 ], [ 533640.000000000116415, 7262480.0 ], [ 533636.690656977239996, 7262490.0 ], [ 533633.310235233511776, 7262500.0 ], [ 533630.01028196583502, 7262510.0 ], [ 533626.766630999161862, 7262520.0 ], [ 533623.670178714208305, 7262530.0 ], [ 533621.104585925932042, 7262540.0 ], [ 533618.907480461173691, 7262550.0 ], [ 533616.416077273664996, 7262560.0 ], [ 533613.670178714208305, 7262570.0 ], [ 533611.454247441026382, 7262580.0 ], [ 533610.0, 7262590.0 ], [ 533608.54664476972539, 7262600.000000000931323 ], [ 533606.340995462378487, 7262610.0 ], [ 533603.671070924960077, 7262620.0 ], [ 533601.540503428783268, 7262630.0 ], [ 533600.44619946856983, 7262640.0 ], [ 533600.075974022038281, 7262650.0 ], [ 533599.924025978078134, 7262660.0 ], [ 533599.553800531546585, 7262670.0 ], [ 533598.459496571216732, 7262680.0 ], [ 533596.329821285791695, 7262690.0 ], [ 533593.670178714208305, 7262700.0 ], [ 533591.539611218031496, 7262710.0 ], [ 533590.43591750273481, 7262720.0 ], [ 533590.0, 7262730.0 ], [ 533589.56408249726519, 7262740.0 ], [ 533588.459496571216732, 7262750.0 ], [ 533586.318647109437734, 7262760.0 ], [ 533583.582138305064291, 7262770.0 ], [ 533581.082237573107705, 7262780.0 ], [ 533578.819440052029677, 7262790.0 ], [ 533575.969877805095166, 7262799.999107789248228 ], [ 533572.140849462011829, 7262809.987933613359928 ], [ 533567.871216925210319, 7262819.900785414502025 ], [ 533564.117270393413492, 7262829.453693736344576 ], [ 533561.62765162717551, 7262837.913190307095647 ], [ 533560.458265855675563, 7262844.243011592887342 ] ] } },
{ "type": "Feature", "properties": { "id": 14, "reference_id": 1, "dune_id": 1, "dune_name": "Big Mommy Dune", "acquisition_date": "2024-03-06", "length_m": 1262.3063558422912 }, "geometry": { "type": "LineString", "coordinates": [ [ 529180.0, 7261015.756988408043981 ], [ 529180.0, 7261022.086809692904353 ], [ 529180.0, 7261030.546306265518069 ], [ 529180.0, 7261040.099214586429298 ], [ 529180.0, 7261050.012066387571394 ], [ 529180.0, 7261060.000892210751772 ], [ 529179.999107789364643, 7261070.0 ], [ 529179.988825823529623, 7261080.0 ], [ 529179.912851801607758, 7261090.0 ], [ 529179.552016110159457, 7261100.0 ], [ 529178.448322394862771, 7261110.0 ], [ 529176.242673087399453, 7261120.000000000931323 ], [ 529173.222194824367762, 7261130.0 ], [ 529169.988825823529623, 7261140.0 ], [ 529166.689764766488224, 7261150.0 ], [ 529163.309343022760004, 7261160.0 ], [ 529160.0, 7261170.0 ], [ 529156.68976476660464, 7261180.0 ], [ 529153.299061057041399, 7261190.0 ], [ 529149.924025978078134, 7261200.0 ], [ 529146.329821285791695, 7261210.000000000931323 ], [ 529142.204757096711546, 7261220.0 ], [ 529137.783176516182721, 7261230.0 ], [ 529133.583922726567835, 7261240.0 ], [ 529129.639164308551699, 7261250.0 ], [ 529125.236409536330029, 7261260.0 ], [ 529120.000892210751772, 7261270.0 ], [ 529114.773872429504991, 7261280.0 ], [ 529110.436809713370167, 7261290.0 ], [ 529106.77602075424511, 7261300.0 ], [ 529103.31023523339536, 7261310.000000000931323 ], [ 529099.924918188713491, 7261320.0 ], [ 529096.329821285791695, 7261330.0 ], [ 529092.205649307463318, 7261340.0 ], [ 529087.793458481901325, 7261350.0 ], [ 529083.659896748373285, 7261360.0 ], [ 529079.999107789248228, 7261370.0 ], [ 529076.329821285791695, 7261380.0 ], [ 529072.130567496176809, 7261390.0 ], [ 529067.433515001088381, 7261400.0 ], [ 529062.566484998911619, 7261410.0 ], [ 529057.870324714574963, 7261420.0 ], [ 529053.681352890678681, 7261430.0 ], [ 529050.087148198508658, 7261440.0 ], [ 529046.776912964880466, 7261450.0 ], [ 529043.671070924843661, 7261460.0 ], [ 529041.103693715296686, 7261470.000000000931323 ], [ 529038.896306284703314, 7261480.0 ], [ 529036.329821285791695, 7261490.0 ], [ 529033.234261211473495, 7261500.0 ], [ 529030.000892210751772, 7261510.0 ], [ 529026.776912964996882, 7261520.0 ], [ 529023.757326912600547, 7261530.0 ], [ 529021.550785394501872, 7261540.0 ], [ 529020.436809713486582, 7261550.0 ], [ 529020.0, 7261560.000000000931323 ], [ 529019.564082497381605, 7261570.0 ], [ 529018.460388781968504, 7261580.0 ], [ 529016.330713496543467, 7261590.0 ], [ 529013.681352890795097, 7261600.0 ], [ 529011.62765162717551, 7261610.0 ], [ 529010.894183358410373, 7261620.0 ], [ 529011.62765162717551, 7261630.0 ], [ 529013.682245101314038, 7261640.0 ], [ 529016.341887672897428, 7261650.0 ], [ 529018.547536980360746, 7261660.0 ], [ 529020.011174176470377, 7261670.0 ], [ 529021.541395639418624, 7261680.0 ], [ 529024.117270393297076, 7261690.0 ], [ 529027.957472912967205, 7261700.0 ], [ 529032.588833351852372, 7261710.0 ], [ 529037.521555410232395, 7261720.0 ], [ 529042.577659175381996, 7261730.000000000931323 ], [ 529047.870324714458548, 7261740.0 ], [ 529053.670178714208305, 7261750.0 ], [ 529060.0, 7261760.0 ], [ 529066.329821285791695, 7261770.0 ], [ 529072.129675285425037, 7261780.0 ], [ 529077.42234082473442, 7261790.0 ], [ 529082.479336800519377, 7261800.0 ], [ 529087.421448613982648, 7261810.0 ], [ 529092.117608898319304, 7261820.0 ], [ 529096.231498910929076, 7261830.0 ], [ 529099.463975701015443, 7261840.000000000931323 ], [ 529101.659343042760156, 7261850.0 ], [ 529102.473279787693173, 7261860.0 ], [ 529101.58336902083829, 7261870.0 ], [ 529099.092858043964952, 7261880.0 ], [ 529095.050938962958753, 7261890.0 ], [ 529089.54084193368908, 7261900.0 ], [ 529083.22130261361599, 7261910.0 ], [ 529076.67948280076962, 7261920.0 ], [ 529069.999107789364643, 7261930.0 ], [ 529063.310235233511776, 7261940.0 ], [ 529056.700938943075016, 7261950.0 ], [ 529050.076866232673638, 7261960.0 ], [ 529043.68046067992691, 7261970.0 ], [ 529037.871216925210319, 7261980.0 ], [ 529032.577659175381996, 7261990.0 ], [ 529027.520663199597038, 7262000.0 ], [ 529022.577659175381996, 7262010.0 ], [ 529017.871216925326735, 7262020.0 ], [ 529013.680460680043325, 7262030.0 ], [ 529010.075974022038281, 7262040.0 ], [ 529006.68976476660464, 7262050.0 ], [ 529003.223087035119534, 7262060.0 ], [ 528999.552908320911229, 7262070.0 ], [ 528995.149261337821372, 7262080.0 ], [ 528989.628882342833094, 7262090.0 ], [ 528983.593312481534667, 7262100.0 ], [ 528977.859150538104586, 7262110.0 ], [ 528972.564700577524491, 7262120.0 ], [ 528967.42234082473442, 7262129.999107789248228 ], [ 528962.043419297784567, 7262139.987933613359928 ], [ 528955.88362181733828, 7262149.900785414502025 ], [ 528948.470670747803524, 7262159.453693735413253 ], [ 528940.088040409144014, 7262167.913190307095647 ], [ 528931.998769284342416, 7262174.243011591956019 ], [ 528925.745814231224358, 7262177.913190307095647 ] ] } },
{ "type": "Feature", "properties": { "id": 15, "reference_id": 7, "dune_id": 7, "dune_name": "Inverted Y Dune", "acquisition_date": "2024-03-06", "length_m": 530.10166034020051 }, "geometry": { "type": "LineString", "coordinates": [ [ 530185.756988407694735, 7261650.0 ], [ 530192.086809693370014, 7261650.0 ], [ 530200.546306264819577, 7261650.0 ], [ 530210.099214585614391, 7261650.0 ], [ 530220.012066387105733, 7261649.999107790179551 ], [ 530230.000892210635357, 7261649.9888258241117 ], [ 530240.0, 7261649.912851802073419 ], [ 530250.0, 7261649.552908321842551 ], [ 530260.0, 7261648.458604361861944 ], [ 530270.0, 7261646.318647109903395 ], [ 530280.0, 7261643.583030516281724 ], [ 530290.0, 7261641.092519538477063 ], [ 530300.0, 7261638.895414074882865 ], [ 530310.0, 7261636.328929075971246 ], [ 530320.0, 7261633.223087035119534 ], [ 530330.0, 7261629.913744011893868 ], [ 530340.0, 7261626.328929075039923 ], [ 530350.0, 7261622.205649307928979 ], [ 530360.0, 7261617.793458482250571 ], [ 530370.0, 7261613.659004538320005 ], [ 530380.0, 7261609.9888258241117 ], [ 530390.0, 7261606.252955053001642 ], [ 530400.0, 7261601.758557628840208 ], [ 530410.0, 7261596.241780877113342 ], [ 530420.0, 7261589.901677625253797 ], [ 530430.000000000116415, 7261583.211020648479462 ], [ 530440.0, 7261576.241780877113342 ], [ 530450.0, 7261568.448322394862771 ], [ 530459.999107789364643, 7261559.552016111090779 ], [ 530469.988825823529623, 7261549.912851801142097 ], [ 530479.912851801607758, 7261539.9888258241117 ], [ 530489.552908320911229, 7261529.999107789248228 ], [ 530498.458604360697791, 7261520.0 ], [ 530506.318647109321319, 7261510.0 ], [ 530513.583030515816063, 7261500.0 ], [ 530521.092519538942724, 7261490.0 ], [ 530528.895414074067958, 7261480.0 ], [ 530536.329821285791695, 7261470.000000000931323 ], [ 530543.233369000838138, 7261460.0 ], [ 530549.989718034281395, 7261450.0 ], [ 530556.68976476660464, 7261440.0 ], [ 530563.310235233511776, 7261430.0 ], [ 530570.01028196583502, 7261420.000892210751772 ], [ 530576.765738788526505, 7261410.012066386640072 ], [ 530583.658112327102572, 7261400.099214585497975 ], [ 530591.005371340434067, 7261390.546306265518069 ], [ 530598.361174196354114, 7261382.086809692904353 ], [ 530604.330159790813923, 7261375.756988408043981 ] ] } }
]
}
