{
"type": "FeatureCollection",
"name": "crests_2026_05_2026-05-23",
"crs": { "type": "name", "properties": { "name": "urn:ogc:def:crs:EPSG::32733" } },
"features": [
{ "type": "Feature", "properties": { "id": 0, "reference_id": 7, "dune_id": 7, "dune_name": "Inverted Y Dune", "acquisition_date": "2026-05-23", "length_m": 599.8356166134796 }, "geometry": { "type": "LineString", "coordinates": [ [ 530185.756988407694735, 7261648.460388782434165 ], [ 530192.086809693370014, 7261646.340103251859546 ], [ 530200.546306264819577, 7261643.746152737177908 ], [ 530210.099214585614391, 7261641.900446910411119 ], [ 530220.012066387105733, 7261641.540503429248929 ], [ 530230.000892210635357, 7261642.216823484748602 ], [ 530240.0, 7261642.67081674747169 ], [ 530250.0, 7261642.129675285890698 ], [ 530260.0, 7261641.082237573340535 ], [ 530270.0, 7261640.272795282304287 ], [ 530280.0, 7261639.627990132197738 ], [ 530290.0, 7261638.458604361861944 ], [ 530300.0, 7261636.243565298616886 ], [ 530310.0, 7261633.222194824367762 ], [ 530320.0, 7261629.9888258241117 ], [ 530330.0, 7261626.688872555270791 ], [ 530340.0, 7261623.299061057157815 ], [ 530350.0, 7261619.924025978893042 ], [ 530360.0, 7261616.329821286723018 ], [ 530370.0, 7261612.204757097177207 ], [ 530380.0, 7261607.783176516182721 ], [ 530390.0, 7261603.583030516281724 ], [ 530400.0, 7261599.627990132197738 ], [ 530410.0, 7261595.148369127884507 ], [ 530420.0, 7261589.541734145022929 ], [ 530430.000000000116415, 7261583.135046625509858 ], [ 530440.0, 7261576.231498911976814 ], [ 530450.0, 7261568.447430184110999 ], [ 530460.0, 7261559.552016111090779 ], [ 530469.999107789364643, 7261549.912851801142097 ], [ 530479.988825823529623, 7261539.9888258241117 ], [ 530489.912851801607758, 7261529.999107789248228 ], [ 530499.552016110159457, 7261520.0 ], [ 530508.448322394862771, 7261510.0 ], [ 530516.242673087399453, 7261500.0 ], [ 530523.222194824367762, 7261490.0 ], [ 530529.988825823529623, 7261480.0 ], [ 530536.689764766488224, 7261470.000000000931323 ], [ 530543.309343022760004, 7261460.0 ], [ 530550.0, 7261450.0 ], [ 530556.690656977239996, 7261440.0 ], [ 530563.310235233511776, 7261430.0 ], [ 530570.011174176470377, 7261420.0 ], [ 530576.777805175632238, 7261410.0 ], [ 530583.757326912600547, 7261400.0 ], [ 530591.551677605137229, 7261390.0 ], [ 530600.447983889840543, 7261380.0 ], [ 530610.086255987756886, 7261370.000892210751772 ], [ 530619.999107789364643, 7261360.012066386640072 ], [ 530629.901677625137381, 7261350.099214585497975 ], [ 530639.453693735296838, 7261340.546306265518069 ], [ 530647.913190306629986, 7261332.086809693835676 ], [ 530654.243011592305265, 7261325.756988408043981 ] ] } },
{ "type": "Feature", "properties": { "id": 1, "reference_id": 1, "dune_id": 1, "dune_name": "Big Mommy Dune", "acquisition_date": "2026-05-23", "length_m": 545.85967680234444 }, "geometry": { "type": "LineString", "coordinates": [ [ 529084.128444569883868, 7261795.756988408043981 ], [ 529087.957472912967205, 7261802.086809692904353 ], [ 529092.576766964746639, 7261810.546306265518069 ], [ 529097.42234082473442, 7261820.099214586429298 ], [ 529102.031352910562418, 7261830.012066387571394 ], [ 529105.783515021088533, 7261840.000892211683095 ], [ 529107.91319030651357, 7261850.0 ], [ 529107.91319030651357, 7261860.0 ], [ 529105.782622810336761, 7261870.0 ], [ 529102.020178734092042, 7261880.0 ], [ 529097.334300415590405, 7261890.0 ], [ 529092.117608898319304, 7261900.0 ], [ 529086.317754898685962, 7261910.0 ], [ 529079.912851801607758, 7261920.0 ], [ 529073.223087035003118, 7261930.0 ], [ 529066.329821285791695, 7261940.0 ], [ 529058.906588250538334, 7261950.0 ], [ 529051.180559947970323, 7261960.0 ], [ 529044.042188582010567, 7261970.0 ], [ 529037.957472912967205, 7261980.0 ], [ 529032.663915163138881, 7261990.0 ], [ 529027.881498891045339, 7262000.0 ], [ 529023.671070924960077, 7262010.0 ], [ 529020.000892210751772, 7262020.0 ], [ 529016.340103251626715, 7262030.0 ], [ 529012.20654151821509, 7262040.0 ], [ 529007.793458481901325, 7262050.0 ], [ 529003.659004537854344, 7262060.0 ], [ 528999.988825823529623, 7262070.0 ], [ 528996.252955053234473, 7262080.0 ], [ 528991.758557628258131, 7262090.0 ], [ 528986.241780876647681, 7262100.0 ], [ 528979.901677625253797, 7262110.0 ], [ 528973.211020647897385, 7262120.0 ], [ 528966.241780876647681, 7262130.0 ], [ 528958.448322394862771, 7262140.0 ], [ 528949.552016110159457, 7262149.999107789248228 ], [ 528939.912851801607758, 7262159.9888258241117 ], [ 528929.988825823529623, 7262169.912851802073419 ], [ 528919.999107789364643, 7262179.552016110159457 ], [ 528910.0, 7262188.448322394862771 ], [ 528900.0, 7262196.241780877113342 ], [ 528890.0, 7262203.211912859231234 ], [ 528880.000892210751772, 7262209.91195959225297 ], [ 528870.012066387105733, 7262216.317754899151623 ], [ 528860.099214585614391, 7262222.117608898319304 ], [ 528850.546306264819577, 7262227.335192626342177 ], [ 528842.086809693370014, 7262232.031352911144495 ], [ 528835.756988407694735, 7262235.870663220062852 ] ] } },
{ "type": "Feature", "properties": { "id": 2, "reference_id": 1, "dune_id": 1, "dune_name": "Big Mommy Dune", "acquisition_date": "2026-05-23", "length_m": 795.97248971682302 }, "geometry": { "type": "LineString", "coordinates": [ [ 529064.701277447980829, 7261754.243011591956019 ], [ 529059.541734144440852, 7261747.913190307095647 ], [ 529053.583030515699647, 7261739.453693736344576 ], [ 529047.869432503823191, 7261729.900785415433347 ], [ 529042.652740986552089, 7261719.987933613359928 ], [ 529037.881498890928924, 7261709.999107789248228 ], [ 529033.682245101314038, 7261700.0 ], [ 529030.088040409144014, 7261690.0 ], [ 529026.788087141467258, 7261680.0 ], [ 529023.758219123352319, 7261670.0 ], [ 529021.551677605137229, 7261660.0 ], [ 529020.447983889840543, 7261650.0 ], [ 529020.087148198508658, 7261640.0 ], [ 529020.011174176470377, 7261630.0 ], [ 529020.000892210751772, 7261620.0 ], [ 529020.0, 7261610.0 ], [ 529020.0, 7261600.0 ], [ 529020.000892210751772, 7261590.0 ], [ 529020.011174176470377, 7261580.0 ], [ 529020.087148198508658, 7261570.0 ], [ 529020.447091679205187, 7261560.000000000931323 ], [ 529021.541395639418624, 7261550.0 ], [ 529023.681352890678681, 7261540.0 ], [ 529026.416969484183937, 7261530.0 ], [ 529028.907480461173691, 7261520.0 ], [ 529031.104585926048458, 7261510.0 ], [ 529033.670178714208305, 7261500.0 ], [ 529036.766630999278277, 7261490.0 ], [ 529040.01028196583502, 7261480.0 ], [ 529043.311127444147132, 7261470.000000000931323 ], [ 529046.700938942958601, 7261460.0 ], [ 529050.075974021921866, 7261450.0 ], [ 529053.670178714208305, 7261440.0 ], [ 529057.794350692536682, 7261430.0 ], [ 529062.205649307463318, 7261420.0 ], [ 529066.329821285791695, 7261410.0 ], [ 529069.924025978078134, 7261400.0 ], [ 529073.299953267676756, 7261390.0 ], [ 529076.700046732323244, 7261380.0 ], [ 529080.076866232557222, 7261370.0 ], [ 529083.680460680043325, 7261360.0 ], [ 529087.870324714574963, 7261350.0 ], [ 529092.566484998911619, 7261340.0 ], [ 529097.433515001204796, 7261330.0 ], [ 529102.130567496176809, 7261320.0 ], [ 529106.329821285791695, 7261310.000000000931323 ], [ 529110.0, 7261300.0 ], [ 529113.670178714208305, 7261290.0 ], [ 529117.869432503939606, 7261280.0 ], [ 529122.566484998911619, 7261270.0 ], [ 529127.433515001204796, 7261260.0 ], [ 529132.129675285425037, 7261250.0 ], [ 529136.319539319956675, 7261240.0 ], [ 529139.923133767326362, 7261230.0 ], [ 529143.299953267676756, 7261220.0 ], [ 529146.700046732323244, 7261210.000000000931323 ], [ 529150.075974022038281, 7261200.0 ], [ 529153.669286503572948, 7261190.0 ], [ 529157.784068726818077, 7261180.0 ], [ 529162.129675285541452, 7261170.0 ], [ 529165.968985594343394, 7261160.0 ], [ 529168.819440052029677, 7261150.0 ], [ 529171.083129783859476, 7261140.0 ], [ 529173.593312481534667, 7261130.0 ], [ 529176.405795307829976, 7261120.000000000931323 ], [ 529178.905696039786562, 7261110.0 ], [ 529181.092519538942724, 7261100.0 ], [ 529183.571856339345686, 7261090.0 ], [ 529186.231498910929076, 7261080.0 ], [ 529188.011512681492604, 7261070.0 ], [ 529188.012404892127961, 7261060.0 ], [ 529186.242673087399453, 7261050.000446105375886 ], [ 529183.659004537737928, 7261040.006479299627244 ], [ 529181.539611218031496, 7261030.055640487000346 ], [ 529180.447091679205187, 7261020.322760425508022 ], [ 529180.087148198392242, 7261011.316557979211211 ], [ 529180.011174176470377, 7261003.921899050474167 ], [ 529180.000892210751772, 7260998.921899050474167 ] ] } },
{ "type": "Feature", "properties": { "id": 3, "reference_id": 8, "dune_id": 8, "dune_name": "Inverted Y Dune", "acquisition_date": "2026-05-23", "length_m": 732.52375660963719 }, "geometry": { "type": "LineString", "coordinates": [ [ 530554.243011592305265, 7261171.999661495909095 ], [ 530547.91319030651357, 7261175.309004518203437 ], [ 530539.453693735296838, 7261180.534239877015352 ], [ 530529.900785414385609, 7261186.776912964880466 ], [ 530519.987933612894267, 7261193.223087035119534 ], [ 530509.999107789248228, 7261199.465760122984648 ], [ 530500.0, 7261204.690995481796563 ], [ 530490.0, 7261208.00033850595355 ], [ 530480.0, 7261209.464867912232876 ], [ 530470.0, 7261209.901677625253797 ], [ 530460.0, 7261209.987933613359928 ], [ 530450.0, 7261209.998215579427779 ], [ 530440.0, 7261209.9888258241117 ], [ 530430.000000000116415, 7261209.912851802073419 ], [ 530420.0, 7261209.552908320911229 ], [ 530410.0, 7261208.459496571682394 ], [ 530400.0, 7261206.329821285791695 ], [ 530390.0, 7261203.670178713276982 ], [ 530380.0, 7261201.540503428317606 ], [ 530370.0, 7261200.447983888909221 ], [ 530360.0, 7261200.098322374746203 ], [ 530350.0, 7261200.098322374746203 ], [ 530340.0, 7261200.447983888909221 ], [ 530330.0, 7261201.541395639069378 ], [ 530320.0, 7261203.681352891027927 ], [ 530310.0, 7261206.417861694470048 ], [ 530300.0, 7261208.917762426659465 ], [ 530290.0, 7261211.181452158838511 ], [ 530280.0, 7261214.041296372190118 ], [ 530270.0, 7261217.947190947830677 ], [ 530260.0, 7261222.587941141799092 ], [ 530250.0, 7261227.522447621449828 ], [ 530240.0, 7261232.588833352550864 ], [ 530230.0, 7261237.958365123718977 ], [ 530220.000892210635357, 7261244.128444569185376 ], [ 530210.011174176470377, 7261251.628543837927282 ], [ 530200.088040409144014, 7261260.458265855908394 ], [ 530190.458265855675563, 7261270.088040409609675 ], [ 530181.628543837810867, 7261280.0111741758883 ], [ 530174.128444569883868, 7261290.000892210751772 ], [ 530167.958365123602562, 7261300.0 ], [ 530162.588833351852372, 7261310.000000000931323 ], [ 530157.521555410232395, 7261320.0 ], [ 530152.577659175381996, 7261330.0 ], [ 530147.871216925326735, 7261340.0 ], [ 530143.681352890678681, 7261350.0 ], [ 530140.087148198392242, 7261360.0 ], [ 530136.776912964996882, 7261370.0 ], [ 530133.671070924960077, 7261380.0 ], [ 530131.104585926048458, 7261390.0 ], [ 530128.907480461173691, 7261400.0 ], [ 530126.416969484183937, 7261410.0 ], [ 530123.680460680043325, 7261420.0 ], [ 530121.530221462948248, 7261430.0 ], [ 530120.359943480812944, 7261440.0 ], [ 530119.640056519303471, 7261450.0 ], [ 530118.470670747803524, 7261460.0 ], [ 530116.330713496543467, 7261470.000000000931323 ], [ 530113.670178714208305, 7261480.0 ], [ 530111.540503428666852, 7261490.0 ], [ 530110.447091679205187, 7261500.0 ], [ 530110.086255987756886, 7261510.0 ], [ 530110.0, 7261520.0 ], [ 530109.913744012243114, 7261530.0 ], [ 530109.552908320911229, 7261539.999553894624114 ], [ 530108.459496571333148, 7261549.993520701304078 ], [ 530106.329821285791695, 7261559.944359513930976 ], [ 530103.670178714208305, 7261569.6772395754233 ], [ 530101.540503428783268, 7261578.683442020788789 ], [ 530100.447091679205187, 7261586.078100949525833 ], [ 530100.087148198508658, 7261591.078100949525833 ] ] } },
{ "type": "Feature", "properties": { "id": 4, "reference_id": 9, "dune_id": 9, "dune_name": "Inverted Y Dune", "acquisition_date": "2026-05-23", "length_m": 764.95611234856767 }, "geometry": { "type": "LineString", "coordinates": [ [ 530097.91319030651357, 7261598.833858641795814 ], [ 530094.243011592421681, 7261603.463633195497096 ], [ 530087.913190306629986, 7261609.688906352967024 ], [ 530079.453693735180423, 7261616.204597821459174 ], [ 530069.900785414502025, 7261622.174141596071422 ], [ 530059.987933612894267, 7261627.788763605058193 ], [ 530049.999107789364643, 7261633.659450643695891 ], [ 530040.0, 7261640.0 ], [ 530030.0, 7261646.340103251859546 ], [ 530020.0, 7261652.206541517749429 ], [ 530010.0, 7261657.794350693002343 ], [ 530000.0, 7261663.670178715139627 ], [ 529990.0, 7261670.075974022038281 ], [ 529980.0, 7261676.700938943773508 ], [ 529970.0, 7261683.311127444729209 ], [ 529960.0, 7261690.011174176819623 ], [ 529950.0, 7261696.777805175632238 ], [ 529940.0, 7261703.757326913066208 ], [ 529930.0, 7261711.551677605137229 ], [ 529920.0, 7261720.447983889840543 ], [ 529910.0, 7261730.087148198857903 ], [ 529900.0, 7261740.011174176819623 ], [ 529890.0, 7261750.000892210751772 ], [ 529880.0, 7261760.0 ], [ 529870.0, 7261770.0 ], [ 529860.000892210751772, 7261780.0 ], [ 529850.011174176470377, 7261790.0 ], [ 529840.087148198392242, 7261800.0 ], [ 529830.447983889840543, 7261810.0 ], [ 529821.552569815889001, 7261820.0 ], [ 529813.768501089187339, 7261830.0 ], [ 529806.864953374140896, 7261840.000000000931323 ], [ 529800.45915806631092, 7261850.0 ], [ 529794.861912838649005, 7261860.0 ], [ 529790.447983889840543, 7261870.0 ], [ 529786.777805175632238, 7261880.0 ], [ 529783.32051719923038, 7261890.0 ], [ 529780.000892210751772, 7261900.0 ], [ 529776.690656977239996, 7261910.0 ], [ 529773.309343022760004, 7261920.0 ], [ 529770.0, 7261930.0 ], [ 529766.689764766488224, 7261940.0 ], [ 529763.299061056924984, 7261950.0 ], [ 529759.923133767326362, 7261960.0 ], [ 529756.319539319956675, 7261970.0 ], [ 529752.129675285425037, 7261980.0 ], [ 529747.433515001204796, 7261990.0 ], [ 529742.566484998911619, 7262000.0 ], [ 529737.869432503823191, 7262010.0 ], [ 529733.670178714208305, 7262020.0 ], [ 529730.000892210635357, 7262030.0 ], [ 529726.340103251626715, 7262040.0 ], [ 529722.205649307463318, 7262050.0 ], [ 529717.783176516066305, 7262060.0 ], [ 529713.583030515699647, 7262070.0 ], [ 529709.628882342833094, 7262080.0 ], [ 529705.160435514291748, 7262090.0 ], [ 529699.640056519303471, 7262100.0 ], [ 529693.670178714208305, 7262110.0 ], [ 529688.231160405906849, 7262120.0 ], [ 529683.75643470196519, 7262130.0 ], [ 529680.087148198508658, 7262140.0 ], [ 529676.701831153710373, 7262149.999107789248228 ], [ 529673.311127444147132, 7262159.987933613359928 ], [ 529670.011174176470377, 7262169.900785414502025 ], [ 529666.777805175632238, 7262179.453693735413253 ], [ 529663.757326912600547, 7262187.913190307095647 ], [ 529661.551677605137229, 7262194.243011591956019 ] ] } },
{ "type": "Feature", "properties": { "id": 5, "reference_id": 4, "dune_id": 4, "dune_name": "The Star Dune", "acquisition_date": "2026-05-23", "length_m": 648.12652334739073 }, "geometry": { "type": "LineString", "coordinates": [ [ 533005.756988407694735, 7261870.011174177750945 ], [ 533012.08680969348643, 7261870.087148198857903 ], [ 533020.546306264819577, 7261870.447091680020094 ], [ 533030.099214585614391, 7261871.541395640000701 ], [ 533040.012066387105733, 7261873.681352891027927 ], [ 533050.000892210751772, 7261876.416969484649599 ], [ 533060.0, 7261878.906588250771165 ], [ 533070.0, 7261881.094303959980607 ], [ 533080.0, 7261883.594204692170024 ], [ 533090.0, 7261886.405795307829976 ], [ 533100.0, 7261888.905696040019393 ], [ 533110.0, 7261891.094303959980607 ], [ 533120.0, 7261893.594204692170024 ], [ 533130.0, 7261896.405795307829976 ], [ 533140.0, 7261898.906588250771165 ], [ 533150.0, 7261901.104585926048458 ], [ 533160.0, 7261903.670178715139627 ], [ 533170.0, 7261906.765738788992167 ], [ 533180.0, 7261910.0 ], [ 533190.0, 7261913.234261212870479 ], [ 533200.0, 7261916.329821286723018 ], [ 533210.0, 7261918.896306284703314 ], [ 533220.0, 7261921.103693716228008 ], [ 533230.0, 7261923.670178715139627 ], [ 533240.0, 7261926.765738788992167 ], [ 533250.0, 7261930.0 ], [ 533260.0, 7261933.234261211007833 ], [ 533270.0, 7261936.329821286723018 ], [ 533280.0, 7261938.895414073951542 ], [ 533290.0, 7261941.093411749228835 ], [ 533300.0, 7261943.594204692170024 ], [ 533310.0, 7261946.405795307829976 ], [ 533320.0, 7261948.906588250771165 ], [ 533330.0, 7261951.104585926048458 ], [ 533340.0, 7261953.670178715139627 ], [ 533350.0, 7261956.766630999743938 ], [ 533360.0, 7261960.010281966999173 ], [ 533370.0, 7261963.310235233977437 ], [ 533380.000000000116415, 7261966.690656977705657 ], [ 533390.0, 7261970.0 ], [ 533400.000000000116415, 7261973.309343023225665 ], [ 533410.0, 7261976.690656977705657 ], [ 533420.0, 7261980.0 ], [ 533430.0, 7261983.310235233977437 ], [ 533440.0, 7261986.700938943773508 ], [ 533450.0, 7261990.076866232790053 ], [ 533460.0, 7261993.680460680276155 ], [ 533470.0, 7261997.871216925792396 ], [ 533480.0, 7262002.57676696497947 ], [ 533490.0, 7262007.510381234809756 ], [ 533500.0, 7262012.500792942941189 ], [ 533510.0, 7262017.500099267810583 ], [ 533520.0, 7262022.499900732189417 ], [ 533530.0, 7262027.499207057058811 ], [ 533540.0, 7262032.488726556301117 ], [ 533550.0, 7262037.41205885913223 ], [ 533560.0, 7262042.041634876281023 ], [ 533570.0, 7262045.871555430814624 ], [ 533579.999107789364643, 7262048.371456163004041 ], [ 533589.987933612894267, 7262049.541734144091606 ], [ 533599.900785414385609, 7262049.911959591321647 ], [ 533609.453693735180423, 7262049.9888258241117 ], [ 533617.91319030651357, 7262049.999107789248228 ], [ 533624.243011592305265, 7262050.0 ] ] } },
{ "type": "Feature", "properties": { "id": 6, "reference_id": 6, "dune_id": 6, "dune_name": "The Star Dune", "acquisition_date": "2026-05-23", "length_m": 856.0721979723138 }, "geometry": { "type": "LineString", "coordinates": [ [ 533550.447091679205187, 7262884.243011591956019 ], [ 533551.54139563953504, 7262877.913190307095647 ], [ 533553.682245101314038, 7262869.453693735413253 ], [ 533556.428143660770729, 7262859.900785414502025 ], [ 533558.993736448930576, 7262849.987933613359928 ], [ 533561.541395639418624, 7262839.999107789248228 ], [ 533565.134708120953292, 7262830.0 ], [ 533570.075974022038281, 7262820.0 ], [ 533575.235517325578257, 7262810.0 ], [ 533579.553800531546585, 7262800.0 ], [ 533583.147113013081253, 7262790.0 ], [ 533586.318647109437734, 7262780.0 ], [ 533588.894521863316186, 7262770.0 ], [ 533591.092519538942724, 7262760.0 ], [ 533593.583030515816063, 7262750.0 ], [ 533596.318647109321319, 7262740.0 ], [ 533598.458604360581376, 7262730.0 ], [ 533599.552908320794813, 7262720.0 ], [ 533599.913744012243114, 7262710.0 ], [ 533600.0, 7262700.0 ], [ 533600.086255987756886, 7262690.0 ], [ 533600.447091679205187, 7262680.0 ], [ 533601.540503428783268, 7262670.0 ], [ 533603.670178714208305, 7262660.0 ], [ 533606.330713496543467, 7262650.0 ], [ 533608.470670747803524, 7262640.0 ], [ 533609.640056519303471, 7262630.0 ], [ 533610.359943480696529, 7262620.0 ], [ 533611.529329252312891, 7262610.0 ], [ 533613.670178714208305, 7262600.000000000931323 ], [ 533616.340995462378487, 7262590.0 ], [ 533618.54664476972539, 7262580.0 ], [ 533620.0, 7262570.0 ], [ 533621.454247440909967, 7262560.0 ], [ 533623.670178714208305, 7262550.0 ], [ 533626.416077273548581, 7262540.0 ], [ 533628.907480461173691, 7262530.0 ], [ 533631.104585926048458, 7262520.0 ], [ 533633.670178714208305, 7262510.0 ], [ 533636.766630999278277, 7262500.0 ], [ 533640.01028196583502, 7262490.0 ], [ 533643.310235233511776, 7262480.0 ], [ 533646.689764766488224, 7262470.0 ], [ 533649.989718034281395, 7262460.0 ], [ 533653.233369000838138, 7262450.0 ], [ 533656.329821285791695, 7262440.0 ], [ 533658.895414073951542, 7262430.0 ], [ 533661.093411749578081, 7262420.0 ], [ 533663.594204692286439, 7262410.0 ], [ 533666.405795307829976, 7262400.0 ], [ 533668.905696039786562, 7262390.0 ], [ 533671.093411749578081, 7262380.0 ], [ 533673.583030515816063, 7262370.0 ], [ 533676.318647109437734, 7262360.0 ], [ 533678.458604360697791, 7262350.0 ], [ 533679.552016110159457, 7262340.000000000931323 ], [ 533679.901677625137381, 7262330.0 ], [ 533679.901677625137381, 7262320.0 ], [ 533679.552016110159457, 7262310.0 ], [ 533678.459496571333148, 7262300.0 ], [ 533676.328929075156339, 7262290.0 ], [ 533673.659004537737928, 7262280.0 ], [ 533671.453355230391026, 7262270.0 ], [ 533670.0, 7262260.0 ], [ 533668.546644769841805, 7262250.0 ], [ 533666.340995462378487, 7262240.0 ], [ 533663.671070924960077, 7262230.0 ], [ 533661.540503428783268, 7262220.0 ], [ 533660.447091679088771, 7262210.0 ], [ 533660.087148198392242, 7262200.0 ], [ 533660.011174176470377, 7262190.0 ], [ 533660.000892210751772, 7262180.0 ], [ 533660.0, 7262170.0 ], [ 533659.999107789248228, 7262160.0 ], [ 533659.988825823529623, 7262150.0 ], [ 533659.912851801607758, 7262140.0 ], [ 533659.552908320911229, 7262130.0 ], [ 533658.459496571216732, 7262120.0 ], [ 533656.329821285791695, 7262110.0 ], [ 533653.670178714208305, 7262100.000446105375886 ], [ 533651.540503428783268, 7262090.006479298695922 ], [ 533650.447091679205187, 7262080.055640487000346 ], [ 533650.087148198508658, 7262070.322760425508022 ], [ 533650.011174176470377, 7262061.316557979211211 ], [ 533650.000892210751772, 7262053.921899050474167 ], [ 533650.0, 7262048.921899050474167 ] ] } },
{ "type": "Feature", "properties": { "id": 7, "reference_id": 5, "dune_id": 5, "dune_name": "The Star Dune", "acquisition_date": "2026-05-23", "length_m": 1146.4209748724479 }, "geometry": { "type": "LineString", "coordinates": [ [ 533651.638825803645886, 7262041.078100949525833 ], [ 533654.20531080244109, 7262036.078100949525833 ], [ 533658.329482780769467, 7262028.683442020788789 ], [ 533663.768501089187339, 7262019.677239574491978 ], [ 533670.088040409144014, 7262009.944359513930976 ], [ 533676.700938943075016, 7261999.993520701304078 ], [ 533683.299953267676756, 7261989.999553894624114 ], [ 533689.923133767326362, 7261980.0 ], [ 533696.31953932007309, 7261970.0 ], [ 533702.128783074789681, 7261960.0 ], [ 533707.423233035369776, 7261950.0 ], [ 533712.489618766237982, 7261940.0 ], [ 533717.49831484653987, 7261930.0 ], [ 533722.489618766237982, 7261920.0 ], [ 533727.423233035253361, 7261910.0 ], [ 533732.128783074906096, 7261900.0 ], [ 533736.31953932007309, 7261890.0 ], [ 533739.923133767442778, 7261880.0 ], [ 533743.299953267676756, 7261870.0 ], [ 533746.700046732323244, 7261860.0 ], [ 533750.076866232673638, 7261850.0 ], [ 533753.681352890678681, 7261840.000000000931323 ], [ 533757.882391101680696, 7261830.0 ], [ 533762.664807373774238, 7261820.000892210751772 ], [ 533767.968647089437582, 7261810.011174177750945 ], [ 533774.129336780519225, 7261800.088040409609675 ], [ 533781.628543837927282, 7261790.458265855908394 ], [ 533790.458265855675563, 7261781.628543838858604 ], [ 533800.088040409144014, 7261774.128444570116699 ], [ 533810.011174176470377, 7261767.958365123718977 ], [ 533820.000892210635357, 7261762.587941141799092 ], [ 533830.0, 7261757.511273443698883 ], [ 533840.0, 7261752.500792942941189 ], [ 533850.0, 7261747.500099267810583 ], [ 533860.0, 7261742.499900732189417 ], [ 533870.0, 7261737.500099267810583 ], [ 533880.0, 7261732.500792942941189 ], [ 533890.0, 7261727.510381233878434 ], [ 533900.0, 7261722.576766964048147 ], [ 533910.0, 7261717.871216924861073 ], [ 533920.0, 7261713.681352891027927 ], [ 533930.0, 7261710.087148198857903 ], [ 533940.0, 7261706.776912964880466 ], [ 533950.0, 7261703.671070924960077 ], [ 533960.0, 7261701.10458592697978 ], [ 533970.0, 7261698.907480461522937 ], [ 533980.0, 7261696.416077273897827 ], [ 533990.0, 7261693.670178714208305 ], [ 534000.0, 7261691.454247441142797 ], [ 534010.0, 7261690.0 ], [ 534020.0, 7261688.546644769608974 ], [ 534030.0, 7261686.340995462611318 ], [ 534040.0, 7261683.670178715139627 ], [ 534050.0, 7261681.529329252429307 ], [ 534060.0, 7261680.35994348116219 ], [ 534070.0, 7261679.640056519769132 ], [ 534080.0, 7261678.470670748502016 ], [ 534090.0, 7261676.330713496543467 ], [ 534100.0, 7261673.670178714208305 ], [ 534110.0, 7261671.540503429248929 ], [ 534120.0, 7261670.446199468336999 ], [ 534130.0, 7261670.075974022038281 ], [ 534140.0, 7261669.923133767209947 ], [ 534150.0, 7261669.542626355774701 ], [ 534160.0, 7261668.371456162072718 ], [ 534170.0, 7261665.870663220062852 ], [ 534180.0, 7261662.031352911144495 ], [ 534190.0, 7261657.335192626342177 ], [ 534200.0, 7261652.117608899250627 ], [ 534210.0, 7261646.318647109903395 ], [ 534220.0, 7261639.92313376814127 ], [ 534230.0, 7261633.299061057157815 ], [ 534240.0, 7261626.689764766022563 ], [ 534250.0, 7261620.0 ], [ 534260.0, 7261613.309343023225665 ], [ 534270.0, 7261606.689764766953886 ], [ 534279.999107789248228, 7261599.9888258241117 ], [ 534289.987933612894267, 7261593.222194824367762 ], [ 534299.900785414502025, 7261586.242673087865114 ], [ 534309.453693735296838, 7261578.448322394862771 ], [ 534317.91319030651357, 7261569.552016110159457 ], [ 534324.243011592421681, 7261559.912851802073419 ], [ 534327.91319030651357, 7261549.9888258241117 ], [ 534329.453693735296838, 7261539.999107789248228 ], [ 534329.900785414385609, 7261530.0 ], [ 534329.987933612894267, 7261520.0 ], [ 534329.999107789364643, 7261510.0 ], [ 534330.0, 7261500.0 ], [ 534330.0, 7261490.0 ], [ 534329.999107789364643, 7261480.0 ], [ 534329.988825823529623, 7261470.000000000931323 ], [ 534329.912851801607758, 7261460.0 ], [ 534329.552908320794813, 7261450.0 ], [ 534328.459496571333148, 7261440.0 ], [ 534326.329821285791695, 7261430.0 ], [ 534323.670178714208305, 7261420.0 ], [ 534321.540503428666852, 7261410.0 ], [ 534320.447091679205187, 7261400.0 ], [ 534320.087148198392242, 7261390.0 ], [ 534320.011174176470377, 7261380.0 ], [ 534320.001784421387129, 7261370.0 ], [ 534320.012066387105733, 7261360.0 ], [ 534320.098322374862619, 7261350.000892210751772 ], [ 534320.534239877597429, 7261340.012066386640072 ], [ 534321.987595107872039, 7261330.099214585497975 ], [ 534325.210682142991573, 7261320.546306264586747 ], [ 534330.0, 7261312.086809693835676 ], [ 534334.789317857124843, 7261305.756988408043981 ] ] } },
{ "type": "Feature", "properties": { "id": 8, "reference_id": 2, "dune_id": 2, "dune_name": "Big Mommy Dune", "acquisition_date": "2026-05-23", "length_m": 781.33155818541218 }, "geometry": { "type": "LineString", "coordinates": [ [ 528425.756988407694735, 7260655.309004518203437 ], [ 528432.08680969348643, 7260660.535132088698447 ], [ 528440.546306264819577, 7260666.788979352451861 ], [ 528450.099214585614391, 7260673.321409409865737 ], [ 528460.012066387105733, 7260680.000892210751772 ], [ 528470.000892210751772, 7260686.690656976774335 ], [ 528480.0, 7260693.309343023225665 ], [ 528490.0, 7260700.000000000931323 ], [ 528500.0, 7260706.690656977705657 ], [ 528510.0, 7260713.309343023225665 ], [ 528520.0, 7260720.0 ], [ 528530.0, 7260726.690656976774335 ], [ 528540.0, 7260733.309343023225665 ], [ 528550.0, 7260740.0 ], [ 528560.0, 7260746.689764766953886 ], [ 528570.0, 7260753.299061057157815 ], [ 528580.0, 7260759.92313376814127 ], [ 528590.0, 7260766.319539319723845 ], [ 528600.0, 7260772.128783075138927 ], [ 528610.0, 7260777.423233035951853 ], [ 528620.0, 7260782.489618767052889 ], [ 528630.0, 7260787.499207057058811 ], [ 528640.0, 7260792.499900732189417 ], [ 528650.0, 7260797.500099267810583 ], [ 528660.0, 7260802.499900732189417 ], [ 528670.0, 7260807.500099267810583 ], [ 528680.0, 7260812.499900732189417 ], [ 528690.0, 7260817.499207057058811 ], [ 528700.0, 7260822.489618766121566 ], [ 528710.0, 7260827.423233035951853 ], [ 528720.0, 7260832.129675285890698 ], [ 528730.0, 7260836.329821286723018 ], [ 528740.0, 7260839.999107789248228 ], [ 528750.0, 7260843.659896748140454 ], [ 528760.0, 7260847.793458482250571 ], [ 528770.0, 7260852.205649306997657 ], [ 528780.0, 7260856.329821285791695 ], [ 528790.0, 7260859.924025978893042 ], [ 528800.0, 7260863.299061058089137 ], [ 528810.0, 7260866.689764767885208 ], [ 528820.0, 7260870.0 ], [ 528830.0, 7260873.309343023225665 ], [ 528840.0, 7260876.689764766953886 ], [ 528850.0, 7260879.989718034863472 ], [ 528860.0, 7260883.233369002118707 ], [ 528870.0, 7260886.329821286723018 ], [ 528880.0, 7260888.895414073951542 ], [ 528890.0, 7260891.093411749228835 ], [ 528900.0, 7260893.594204692170024 ], [ 528910.0, 7260896.405795307829976 ], [ 528920.0, 7260898.906588250771165 ], [ 528930.0, 7260901.104585926048458 ], [ 528940.0, 7260903.670178715139627 ], [ 528950.0, 7260906.765738788992167 ], [ 528960.0, 7260910.0 ], [ 528970.0, 7260913.234261211939156 ], [ 528980.0, 7260916.329821285791695 ], [ 528990.0, 7260918.896306285634637 ], [ 529000.0, 7260921.103693715296686 ], [ 529010.0, 7260923.670178715139627 ], [ 529020.0, 7260926.766630999743938 ], [ 529030.0, 7260930.010281965136528 ], [ 529040.0, 7260933.311127443797886 ], [ 529050.0, 7260936.700938942842185 ], [ 529060.0, 7260940.076866232790053 ], [ 529070.0, 7260943.680460680276155 ], [ 529080.0, 7260947.870324715040624 ], [ 529089.999107789248228, 7260952.565592788159847 ], [ 529099.987933612894267, 7260957.422340825200081 ], [ 529109.900785414385609, 7260962.042527087032795 ], [ 529119.453693735296838, 7260965.871555430814624 ], [ 529127.91319030651357, 7260968.371456163004041 ], [ 529134.243011592421681, 7260969.541734144091606 ] ] } },
{ "type": "Feature", "properties": { "id": 9, "reference_id": 3, "dune_id": 3, "dune_name": "Big Mommy Dune", "acquisition_date": "2026-05-23", "length_m": 1248.4806892792569 }, "geometry": { "type": "LineString", "coordinates": [ [ 529180.011174176470377, 7260991.078100949525833 ], [ 529180.088040409144014, 7260986.078100949525833 ], [ 529180.458265855675563, 7260978.683442020788789 ], [ 529181.628543837927282, 7260969.6772395754233 ], [ 529184.129336780519225, 7260959.944359514862299 ], [ 529187.968647089437582, 7260949.993520701304078 ], [ 529192.664807373774238, 7260939.999553894624114 ], [ 529197.882391101680696, 7260930.0 ], [ 529203.681352890562266, 7260920.0 ], [ 529210.076866232557222, 7260910.0 ], [ 529216.700938943075016, 7260900.0 ], [ 529223.310235233511776, 7260890.0 ], [ 529230.0, 7260880.0 ], [ 529236.689764766488224, 7260870.0 ], [ 529243.299061057041399, 7260860.0 ], [ 529249.924025978078134, 7260850.0 ], [ 529256.32982128590811, 7260840.0 ], [ 529262.205649307463318, 7260830.0 ], [ 529267.794350692536682, 7260820.0 ], [ 529273.671070924960077, 7260810.0 ], [ 529280.087148198392242, 7260800.0 ], [ 529286.788087141467258, 7260790.0 ], [ 529293.758219123352319, 7260780.000000000931323 ], [ 529301.551677605253644, 7260770.0 ], [ 529310.447983889956959, 7260760.0 ], [ 529320.087148198508658, 7260750.0 ], [ 529330.011174176470377, 7260740.0 ], [ 529340.000892210751772, 7260730.000892210751772 ], [ 529350.0, 7260720.012066386640072 ], [ 529360.0, 7260710.098322374746203 ], [ 529370.0, 7260700.535132088698447 ], [ 529380.0, 7260691.999661494977772 ], [ 529390.0, 7260685.309004518203437 ], [ 529400.0, 7260680.535132087767124 ], [ 529410.0, 7260676.788979351520538 ], [ 529420.0, 7260673.321409409865737 ], [ 529430.0, 7260670.000892210751772 ], [ 529440.000000000116415, 7260666.690656977705657 ], [ 529450.0, 7260663.310235233977437 ], [ 529460.0, 7260660.010281966067851 ], [ 529470.0, 7260656.766630999743938 ], [ 529480.0, 7260653.670178714208305 ], [ 529490.0, 7260651.10458592697978 ], [ 529500.000000000116415, 7260648.906588250771165 ], [ 529510.0, 7260646.405795307829976 ], [ 529520.0, 7260643.594204693101346 ], [ 529530.0, 7260641.094303959980607 ], [ 529540.0, 7260638.906588250771165 ], [ 529550.0, 7260636.416969483718276 ], [ 529560.0, 7260633.680460680276155 ], [ 529570.0, 7260631.530221463181078 ], [ 529580.0, 7260630.35994348116219 ], [ 529590.0, 7260629.64005651883781 ], [ 529600.0, 7260628.470670747570693 ], [ 529610.0, 7260626.330713496543467 ], [ 529620.0, 7260623.669286503456533 ], [ 529630.0, 7260621.529329252429307 ], [ 529640.0, 7260620.35994348116219 ], [ 529650.0, 7260619.640056519769132 ], [ 529660.0, 7260618.470670748502016 ], [ 529670.0, 7260616.33071349747479 ], [ 529680.0, 7260613.670178715139627 ], [ 529690.0, 7260611.540503429248929 ], [ 529700.0, 7260610.447091680020094 ], [ 529710.0, 7260610.086255988106132 ], [ 529720.0, 7260610.0 ], [ 529730.0, 7260609.913744012825191 ], [ 529740.0, 7260609.552908320911229 ], [ 529750.0, 7260608.459496571682394 ], [ 529760.0, 7260606.329821286723018 ], [ 529770.0, 7260603.670178715139627 ], [ 529780.0, 7260601.540503429248929 ], [ 529790.0, 7260600.447091680020094 ], [ 529800.0, 7260600.087148198857903 ], [ 529810.0, 7260600.011174176819623 ], [ 529820.0, 7260600.000892210751772 ], [ 529830.0, 7260600.0 ], [ 529840.0, 7260600.0 ], [ 529850.0, 7260600.0 ], [ 529860.0, 7260600.0 ], [ 529870.0, 7260600.000892210751772 ], [ 529880.0, 7260600.011174176819623 ], [ 529890.0, 7260600.087148198857903 ], [ 529900.0, 7260600.447091680020094 ], [ 529910.0, 7260601.540503429248929 ], [ 529920.0, 7260603.670178715139627 ], [ 529930.0, 7260606.329821286723018 ], [ 529940.0, 7260608.459496571682394 ], [ 529950.0, 7260609.552908320911229 ], [ 529960.0, 7260609.912851802073419 ], [ 529970.0, 7260609.9888258241117 ], [ 529980.0, 7260609.999107789248228 ], [ 529990.0, 7260610.0 ], [ 530000.0, 7260609.999107789248228 ], [ 530010.0, 7260609.9888258241117 ], [ 530020.0, 7260609.912851802073419 ], [ 530030.0, 7260609.552908320911229 ], [ 530040.0, 7260608.459496571682394 ], [ 530050.0, 7260606.329821286723018 ], [ 530060.0, 7260603.669286504387856 ], [ 530070.0, 7260601.529329252429307 ], [ 530080.0, 7260600.35994348116219 ], [ 530090.0, 7260599.640056519769132 ], [ 530100.0, 7260598.469778537750244 ], [ 530110.0, 7260596.319539319723845 ], [ 530120.0, 7260593.583030516281724 ], [ 530130.0, 7260591.093411749228835 ], [ 530140.0, 7260588.906588250771165 ], [ 530150.0, 7260586.416077273897827 ], [ 530160.0, 7260583.670178714208305 ], [ 530170.000000000116415, 7260581.454247441142797 ], [ 530180.0, 7260580.0 ], [ 530190.0, 7260578.546644769608974 ], [ 530199.999107789248228, 7260576.340995462611318 ], [ 530209.987933612894267, 7260573.671070925891399 ], [ 530219.900785414385609, 7260571.540503429248929 ], [ 530229.453693735180423, 7260570.447091680020094 ], [ 530237.91319030651357, 7260570.087148198857903 ], [ 530244.243011592421681, 7260570.011174176819623 ] ] } }
]
}
