{
"type": "FeatureCollection",
"name": "crests_2024_05_2024-05-03",
"crs": { "type": "name", "properties": { "name": "urn:ogc:def:crs:EPSG::32733" } },
"features": [
{ "type": "Feature", "properties": { "id": 0, "reference_id": 4, "dune_id": 4, "dune_name": "The Star Dune", "acquisition_date": "2024-05-03", "length_m": 340.7866017856847 }, "geometry": { "type": "LineString", "coordinates": [ [ 533334.243011592421681, 7261959.552016111090779 ], [ 533327.91319030651357, 7261958.448322394862771 ], [ 533319.453693735296838, 7261956.242673087865114 ], [ 533309.900785414502025, 7261953.222194824367762 ], [ 533299.987933612894267, 7261949.9888258241117 ], [ 533289.999107789248228, 7261946.689764766022563 ], [ 533280.0, 7261943.310235233977437 ], [ 533270.0, 7261940.010281966067851 ], [ 533260.0, 7261936.766630999743938 ], [ 533250.0, 7261933.670178715139627 ], [ 533240.0, 7261931.103693715296686 ], [ 533230.0, 7261928.896306285634637 ], [ 533220.0, 7261926.329821286723018 ], [ 533210.0, 7261923.234261211939156 ], [ 533200.0, 7261920.0 ], [ 533190.0, 7261916.765738788992167 ], [ 533180.0, 7261913.670178715139627 ], [ 533170.0, 7261911.103693716228008 ], [ 533160.0, 7261908.896306285634637 ], [ 533150.0, 7261906.329821286723018 ], [ 533140.0, 7261903.234261211939156 ], [ 533130.0, 7261900.000892210751772 ], [ 533120.0, 7261896.776020754128695 ], [ 533110.0, 7261893.746152736246586 ], [ 533100.0, 7261891.464529407210648 ], [ 533090.0, 7261890.000892210751772 ], [ 533080.0, 7261888.545752558857203 ], [ 533070.0, 7261886.329821285791695 ], [ 533060.0, 7261883.583922726102173 ], [ 533050.000892210751772, 7261881.093411749228835 ], [ 533040.012066387105733, 7261878.906588250771165 ], [ 533030.099214585614391, 7261876.416969484649599 ], [ 533020.546306264819577, 7261873.681352891027927 ], [ 533012.08680969348643, 7261871.541395640000701 ], [ 533005.756988407694735, 7261870.447091680020094 ] ] } },
{ "type": "Feature", "properties": { "id": 1, "reference_id": 4, "dune_id": 4, "dune_name": "The Star Dune", "acquisition_date": "2024-05-03", "length_m": 51.346874423411407 }, "geometry": { "type": "LineString", "coordinates": [ [ 533484.243011592421681, 7262008.448322394862771 ], [ 533477.914082517265342, 7262006.242673087865114 ], [ 533469.465760122402571, 7262003.223087035119534 ], [ 533460.0, 7262000.0 ], [ 533450.534239877597429, 7261996.776912964880466 ], [ 533442.085917482734658, 7261993.757326913997531 ], [ 533435.756988407694735, 7261991.551677605137229 ] ] } },
{ "type": "Feature", "properties": { "id": 2, "reference_id": 4, "dune_id": 4, "dune_name": "The Star Dune", "acquisition_date": "2024-05-03", "length_m": 115.43328572703994 }, "geometry": { "type": "LineString", "coordinates": [ [ 533624.243011592305265, 7262059.552908321842551 ], [ 533617.91319030651357, 7262058.458604361861944 ], [ 533609.453693735180423, 7262056.318647109903395 ], [ 533599.900785414385609, 7262053.582138305529952 ], [ 533589.987933612894267, 7262051.082237573340535 ], [ 533579.999107789364643, 7262048.818547841161489 ], [ 533570.0, 7262045.958703628741205 ], [ 533560.000892210635357, 7262042.053701263852417 ], [ 533550.012066387105733, 7262037.424125246703625 ], [ 533540.099214585614391, 7262032.57676696497947 ], [ 533530.546306264819577, 7262027.957472912967205 ], [ 533522.08680969348643, 7262024.128444569185376 ], [ 533515.756988407694735, 7262021.628543837927282 ] ] } },
{ "type": "Feature", "properties": { "id": 3, "reference_id": 8, "dune_id": 8, "dune_name": "Inverted Y Dune", "acquisition_date": "2024-05-03", "length_m": 428.37856041801575 }, "geometry": { "type": "LineString", "coordinates": [ [ 530264.243011592421681, 7261221.638825803995132 ], [ 530257.913190306629986, 7261224.205310802906752 ], [ 530249.453693735180423, 7261228.329482780769467 ], [ 530239.900785414502025, 7261233.76939329970628 ], [ 530229.987933612777852, 7261240.099214585497975 ], [ 530220.0, 7261246.788979351520538 ], [ 530210.011174176470377, 7261253.75821912381798 ], [ 530200.087148198392242, 7261261.551677605137229 ], [ 530190.447983889840543, 7261270.447983890771866 ], [ 530181.552569815889001, 7261280.087148198857903 ], [ 530173.768501089187339, 7261290.0111741758883 ], [ 530166.864953374140896, 7261300.000892210751772 ], [ 530160.45915806631092, 7261310.000000000931323 ], [ 530154.861912838649005, 7261320.0 ], [ 530150.447983889840543, 7261330.0 ], [ 530146.777805175632238, 7261340.0 ], [ 530143.321409409982152, 7261350.0 ], [ 530140.011174176586792, 7261360.0 ], [ 530136.766630999278277, 7261370.0 ], [ 530133.670178714208305, 7261380.0 ], [ 530131.104585926048458, 7261390.0 ], [ 530128.907480461173691, 7261400.0 ], [ 530126.416969484183937, 7261410.0 ], [ 530123.680460680043325, 7261420.0 ], [ 530121.530221462948248, 7261430.0 ], [ 530120.359943480812944, 7261440.0 ], [ 530119.640056519303471, 7261450.0 ], [ 530118.470670747803524, 7261460.0 ], [ 530116.330713496543467, 7261470.000000000931323 ], [ 530113.670178714208305, 7261480.0 ], [ 530111.540503428666852, 7261490.0 ], [ 530110.447091679205187, 7261500.0 ], [ 530110.086255987756886, 7261510.0 ], [ 530110.0, 7261520.0 ], [ 530109.913744012243114, 7261530.0 ], [ 530109.552908320911229, 7261539.999553894624114 ], [ 530108.459496571333148, 7261549.993520701304078 ], [ 530106.329821285791695, 7261559.944359513930976 ], [ 530103.670178714208305, 7261569.6772395754233 ], [ 530101.540503428783268, 7261578.683442020788789 ], [ 530100.447091679205187, 7261586.078100949525833 ], [ 530100.087148198508658, 7261591.078100949525833 ] ] } },
{ "type": "Feature", "properties": { "id": 4, "reference_id": 8, "dune_id": 8, "dune_name": "Inverted Y Dune", "acquisition_date": "2024-05-03", "length_m": 122.00030110483559 }, "geometry": { "type": "LineString", "coordinates": [ [ 530514.243011592421681, 7261195.210682143457234 ], [ 530507.91319030651357, 7261200.0 ], [ 530499.453693735296838, 7261204.789317857474089 ], [ 530489.900785414385609, 7261208.012404892593622 ], [ 530479.987933612894267, 7261209.465760122984648 ], [ 530469.999107789364643, 7261209.901677625253797 ], [ 530460.0, 7261209.987933613359928 ], [ 530450.0, 7261209.999107790179551 ], [ 530440.000892210751772, 7261210.000000000931323 ], [ 530430.012066387222148, 7261210.000000000931323 ], [ 530420.099214585614391, 7261210.000000000931323 ], [ 530410.546306264819577, 7261210.000000000931323 ], [ 530402.08680969348643, 7261210.000000000931323 ], [ 530395.756988407694735, 7261210.000000000931323 ] ] } },
{ "type": "Feature", "properties": { "id": 5, "reference_id": 9, "dune_id": 9, "dune_name": "Inverted Y Dune", "acquisition_date": "2024-05-03", "length_m": 763.99404929661466 }, "geometry": { "type": "LineString", "coordinates": [ [ 530097.91319030651357, 7261598.910724874585867 ], [ 530094.243011592421681, 7261603.833858641795814 ], [ 530087.913190306629986, 7261610.858292123302817 ], [ 530079.453693735180423, 7261618.69421658758074 ], [ 530069.900785414502025, 7261625.927195916883647 ], [ 530059.987933612894267, 7261632.049006385728717 ], [ 530049.999107789364643, 7261637.422786930575967 ], [ 530040.0, 7261642.565592788159847 ], [ 530030.0, 7261647.870324714109302 ], [ 530020.0, 7261653.680460680276155 ], [ 530010.0, 7261660.076866233721375 ], [ 530000.0, 7261666.700938943773508 ], [ 529990.0, 7261673.310235233977437 ], [ 529980.0, 7261680.0 ], [ 529970.0, 7261686.690656976774335 ], [ 529960.0, 7261693.310235233977437 ], [ 529950.0, 7261700.011174177750945 ], [ 529940.0, 7261706.777805175632238 ], [ 529930.0, 7261713.757326913066208 ], [ 529920.0, 7261721.551677605137229 ], [ 529910.0, 7261730.447983890771866 ], [ 529900.0, 7261740.087148198857903 ], [ 529890.0, 7261750.011174176819623 ], [ 529880.0, 7261760.000892210751772 ], [ 529870.000892210751772, 7261770.0 ], [ 529860.011174176470377, 7261780.0 ], [ 529850.087148198392242, 7261790.0 ], [ 529840.447983889840543, 7261800.0 ], [ 529831.551677605137229, 7261810.0 ], [ 529823.758219123352319, 7261820.0 ], [ 529816.78897935221903, 7261830.0 ], [ 529810.098322374979034, 7261840.000000000931323 ], [ 529803.758219123352319, 7261850.0 ], [ 529798.241442371741869, 7261860.0 ], [ 529793.747044946881942, 7261870.0 ], [ 529790.011174176470377, 7261880.0 ], [ 529786.340995462262072, 7261890.0 ], [ 529782.206541518098675, 7261900.0 ], [ 529777.794350692536682, 7261910.0 ], [ 529773.670178714208305, 7261920.0 ], [ 529770.075974022038281, 7261930.0 ], [ 529766.700046732323244, 7261940.0 ], [ 529763.299953267676756, 7261950.0 ], [ 529759.923133767326362, 7261960.0 ], [ 529756.319539319956675, 7261970.0 ], [ 529752.129675285425037, 7261980.0 ], [ 529747.433515001204796, 7261990.0 ], [ 529742.566484998911619, 7262000.0 ], [ 529737.869432503823191, 7262010.0 ], [ 529733.670178714208305, 7262020.0 ], [ 529730.0, 7262030.0 ], [ 529726.329821285791695, 7262040.0 ], [ 529722.129675285541452, 7262050.0 ], [ 529717.423233035369776, 7262060.0 ], [ 529712.489618766121566, 7262070.0 ], [ 529707.499207057291642, 7262080.0 ], [ 529702.500792942708358, 7262090.0 ], [ 529697.510381233762018, 7262100.0 ], [ 529692.576766964630224, 7262110.0 ], [ 529687.871216925210319, 7262120.0 ], [ 529683.680460680043325, 7262130.0 ], [ 529680.076866232673638, 7262140.0 ], [ 529676.700938943075016, 7262149.999107789248228 ], [ 529673.311127444147132, 7262159.987933613359928 ], [ 529670.011174176470377, 7262169.900785414502025 ], [ 529666.777805175632238, 7262179.453693735413253 ], [ 529663.757326912600547, 7262187.913190307095647 ], [ 529661.551677605137229, 7262194.243011591956019 ] ] } },
{ "type": "Feature", "properties": { "id": 6, "reference_id": 3, "dune_id": 3, "dune_name": "Big Mommy Dune", "acquisition_date": "2024-05-03", "length_m": 361.73183737112663 }, "geometry": { "type": "LineString", "coordinates": [ [ 529374.243011592305265, 7260695.756988408043981 ], [ 529367.91319030651357, 7260702.086809693835676 ], [ 529359.453693735180423, 7260710.546306265518069 ], [ 529349.900785414502025, 7260720.099214585497975 ], [ 529339.988825823529623, 7260730.012066388502717 ], [ 529330.01028196583502, 7260740.000892210751772 ], [ 529320.087148198508658, 7260750.0 ], [ 529310.447983889956959, 7260760.0 ], [ 529301.551677605253644, 7260770.0 ], [ 529293.758219123352319, 7260780.000000000931323 ], [ 529286.788087141467258, 7260790.0 ], [ 529280.087148198392242, 7260800.0 ], [ 529273.671070924960077, 7260810.0 ], [ 529267.794350692536682, 7260820.0 ], [ 529262.205649307463318, 7260830.0 ], [ 529256.32982128590811, 7260840.0 ], [ 529249.924025978078134, 7260850.0 ], [ 529243.299953267676756, 7260860.0 ], [ 529236.700046732323244, 7260870.0 ], [ 529230.075974021921866, 7260880.0 ], [ 529223.670178714208305, 7260890.0 ], [ 529217.794350692536682, 7260900.0 ], [ 529212.206541518098675, 7260910.0 ], [ 529206.3401032515103, 7260920.0 ], [ 529200.000892210751772, 7260930.0 ], [ 529193.671070924960077, 7260939.999553894624114 ], [ 529187.881498891045339, 7260949.993520701304078 ], [ 529182.664807373774238, 7260959.944359514862299 ], [ 529177.968647089437582, 7260969.6772395754233 ], [ 529174.129336780519225, 7260978.683442020788789 ], [ 529171.628543837927282, 7260986.078100949525833 ], [ 529170.458265855675563, 7260991.078100949525833 ] ] } },
{ "type": "Feature", "properties": { "id": 7, "reference_id": 3, "dune_id": 3, "dune_name": "Big Mommy Dune", "acquisition_date": "2024-05-03", "length_m": 617.1029097846681 }, "geometry": { "type": "LineString", "coordinates": [ [ 529405.756988407694735, 7260679.552016109228134 ], [ 529412.08680969348643, 7260678.448322394862771 ], [ 529420.546306264819577, 7260676.242673087865114 ], [ 529430.099214585614391, 7260673.222194824367762 ], [ 529440.012066387222148, 7260669.9888258241117 ], [ 529450.000892210751772, 7260666.689764766953886 ], [ 529460.0, 7260663.310235233977437 ], [ 529470.0, 7260660.010281966067851 ], [ 529480.0, 7260656.766630999743938 ], [ 529490.0, 7260653.670178714208305 ], [ 529500.000000000116415, 7260651.10458592697978 ], [ 529510.0, 7260648.906588250771165 ], [ 529520.0, 7260646.405795307829976 ], [ 529530.0, 7260643.594204693101346 ], [ 529540.0, 7260641.094303959980607 ], [ 529550.0, 7260638.906588250771165 ], [ 529560.0, 7260636.416969483718276 ], [ 529570.0, 7260633.680460680276155 ], [ 529580.0, 7260631.530221463181078 ], [ 529590.0, 7260630.35994348116219 ], [ 529600.0, 7260629.64005651883781 ], [ 529610.0, 7260628.470670747570693 ], [ 529620.0, 7260626.330713496543467 ], [ 529630.0, 7260623.670178714208305 ], [ 529640.0, 7260621.540503429248929 ], [ 529650.0, 7260620.447091679088771 ], [ 529660.0, 7260620.086255988106132 ], [ 529670.0, 7260620.0 ], [ 529680.0, 7260619.913744012825191 ], [ 529690.0, 7260619.552908320911229 ], [ 529700.0, 7260618.459496571682394 ], [ 529710.0, 7260616.329821286723018 ], [ 529720.0, 7260613.670178715139627 ], [ 529730.0, 7260611.540503429248929 ], [ 529740.0, 7260610.447091680020094 ], [ 529750.0, 7260610.087148198857903 ], [ 529760.0, 7260610.011174176819623 ], [ 529770.0, 7260610.000892210751772 ], [ 529780.0, 7260610.0 ], [ 529790.0, 7260610.0 ], [ 529800.0, 7260610.0 ], [ 529810.0, 7260610.0 ], [ 529820.0, 7260610.0 ], [ 529830.0, 7260610.0 ], [ 529840.0, 7260610.0 ], [ 529850.0, 7260610.0 ], [ 529860.0, 7260610.0 ], [ 529870.0, 7260610.0 ], [ 529880.0, 7260610.0 ], [ 529890.0, 7260610.0 ], [ 529900.0, 7260610.0 ], [ 529910.0, 7260610.0 ], [ 529920.0, 7260610.0 ], [ 529930.0, 7260610.0 ], [ 529940.0, 7260610.0 ], [ 529950.0, 7260610.0 ], [ 529960.0, 7260610.0 ], [ 529969.999107789364643, 7260610.0 ], [ 529979.987933612894267, 7260610.0 ], [ 529989.900785414502025, 7260610.0 ], [ 529999.453693735296838, 7260610.0 ], [ 530007.913190306629986, 7260610.0 ], [ 530014.243011592305265, 7260610.0 ] ] } },
{ "type": "Feature", "properties": { "id": 8, "reference_id": 3, "dune_id": 3, "dune_name": "Big Mommy Dune", "acquisition_date": "2024-05-03", "length_m": 110.74153566742544 }, "geometry": { "type": "LineString", "coordinates": [ [ 530085.756988407694735, 7260599.999107789248228 ], [ 530092.08680969348643, 7260599.9888258241117 ], [ 530100.546306264819577, 7260599.912851802073419 ], [ 530110.099214585614391, 7260599.552908321842551 ], [ 530120.012066387222148, 7260598.458604360930622 ], [ 530130.000892210751772, 7260596.318647108972073 ], [ 530140.0, 7260593.583030516281724 ], [ 530149.999107789364643, 7260591.093411749228835 ], [ 530159.987933612894267, 7260588.906588250771165 ], [ 530169.900785414385609, 7260586.416969484649599 ], [ 530179.453693735296838, 7260583.681352891027927 ], [ 530187.91319030651357, 7260581.541395640000701 ], [ 530194.243011592421681, 7260580.447091679088771 ] ] } },
{ "type": "Feature", "properties": { "id": 9, "reference_id": 1, "dune_id": 1, "dune_name": "Big Mommy Dune", "acquisition_date": "2024-05-03", "length_m": 1392.2928631325133 }, "geometry": { "type": "LineString", "coordinates": [ [ 529171.541395639418624, 7260998.921899050474167 ], [ 529173.681352890678681, 7261003.921899050474167 ], [ 529176.416969484300353, 7261011.316557979211211 ], [ 529178.906588250538334, 7261020.322760425508022 ], [ 529181.092519538942724, 7261030.055640487000346 ], [ 529183.571856339345686, 7261040.006479299627244 ], [ 529186.231498910929076, 7261050.000446105375886 ], [ 529188.011512681492604, 7261060.0 ], [ 529188.012404892127961, 7261070.0 ], [ 529186.241780876764096, 7261080.0 ], [ 529183.647830361267552, 7261090.0 ], [ 529181.452463019639254, 7261100.0 ], [ 529179.999107789364643, 7261110.0 ], [ 529178.535470593255013, 7261120.000000000931323 ], [ 529176.252955053118058, 7261130.0 ], [ 529173.212805069284514, 7261140.0 ], [ 529169.912851801607758, 7261150.0 ], [ 529166.328929075156339, 7261160.0 ], [ 529162.205649307463318, 7261170.0 ], [ 529157.794350692536682, 7261180.0 ], [ 529153.670178714208305, 7261190.0 ], [ 529150.075081811286509, 7261200.0 ], [ 529146.689764766488224, 7261210.000000000931323 ], [ 529143.223979245638475, 7261220.0 ], [ 529139.563190286629833, 7261230.0 ], [ 529135.226127570495009, 7261240.0 ], [ 529129.999107789364643, 7261250.0 ], [ 529124.763590463786386, 7261260.0 ], [ 529120.360835691448301, 7261270.0 ], [ 529116.416077273548581, 7261280.0 ], [ 529112.216823483933695, 7261290.0 ], [ 529107.794350692536682, 7261300.0 ], [ 529103.659896748373285, 7261310.000000000931323 ], [ 529100.0, 7261320.0 ], [ 529096.340103251626715, 7261330.0 ], [ 529092.20654151821509, 7261340.0 ], [ 529087.793458481901325, 7261350.0 ], [ 529083.659896748373285, 7261360.0 ], [ 529079.999107789248228, 7261370.0 ], [ 529076.329821285791695, 7261380.0 ], [ 529072.130567496176809, 7261390.0 ], [ 529067.433515001088381, 7261400.0 ], [ 529062.566484998911619, 7261410.0 ], [ 529057.870324714574963, 7261420.0 ], [ 529053.681352890678681, 7261430.0 ], [ 529050.087148198508658, 7261440.0 ], [ 529046.776912964880466, 7261450.0 ], [ 529043.671070924843661, 7261460.0 ], [ 529041.104585926048458, 7261470.000000000931323 ], [ 529038.906588250538334, 7261480.0 ], [ 529036.405795307829976, 7261490.0 ], [ 529033.594204692286439, 7261500.0 ], [ 529031.094303960213438, 7261510.0 ], [ 529028.906588250538334, 7261520.0 ], [ 529026.416969484183937, 7261530.0 ], [ 529023.681352890678681, 7261540.0 ], [ 529021.541395639418624, 7261550.0 ], [ 529020.447091679205187, 7261560.000000000931323 ], [ 529020.087148198508658, 7261570.0 ], [ 529020.011174176470377, 7261580.0 ], [ 529020.000892210751772, 7261590.0 ], [ 529020.0, 7261600.0 ], [ 529020.0, 7261610.0 ], [ 529020.0, 7261620.0 ], [ 529020.000892210751772, 7261630.0 ], [ 529020.011174176470377, 7261640.0 ], [ 529020.087148198508658, 7261650.0 ], [ 529020.447983889840543, 7261660.0 ], [ 529021.552569815889001, 7261670.0 ], [ 529023.768501089187339, 7261680.0 ], [ 529026.864953374140896, 7261690.0 ], [ 529030.458265855675563, 7261700.0 ], [ 529034.851630872813985, 7261710.0 ], [ 529040.372009867918678, 7261720.0 ], [ 529046.416969484183937, 7261730.000000000931323 ], [ 529052.216823483933695, 7261740.0 ], [ 529057.794350692536682, 7261750.0 ], [ 529063.659896748373285, 7261760.0 ], [ 529069.999107789364643, 7261770.0 ], [ 529076.328929075039923, 7261780.0 ], [ 529082.119393319706433, 7261790.0 ], [ 529087.346366802696139, 7261800.0 ], [ 529092.118501109071076, 7261810.0 ], [ 529096.316862688050605, 7261820.0 ], [ 529099.900785414502025, 7261830.0 ], [ 529103.123872449388728, 7261840.000000000931323 ], [ 529105.782622810336761, 7261850.0 ], [ 529106.809496591216885, 7261860.0 ], [ 529105.346705307718366, 7261870.0 ], [ 529101.58336902083829, 7261880.0 ], [ 529096.2203247344587, 7261890.0 ], [ 529089.911067380220629, 7261900.0 ], [ 529083.298168846289627, 7261910.0 ], [ 529076.689764766488224, 7261920.0 ], [ 529070.0, 7261930.0 ], [ 529063.309343022760004, 7261940.0 ], [ 529056.690656977239996, 7261950.0 ], [ 529050.000892210635357, 7261960.0 ], [ 529043.32051719923038, 7261970.0 ], [ 529036.777805175632238, 7261980.0 ], [ 529030.447983889840543, 7261990.0 ], [ 529024.861020627897233, 7262000.0 ], [ 529020.447983889840543, 7262010.0 ], [ 529016.776912965113297, 7262020.0 ], [ 529013.310235233511776, 7262030.0 ], [ 529009.924025978078134, 7262040.0 ], [ 529006.31953932007309, 7262050.0 ], [ 529002.128783074789681, 7262060.0 ], [ 528997.423233035369776, 7262070.0 ], [ 528992.489618766237982, 7262080.0 ], [ 528987.499207057291642, 7262090.0 ], [ 528982.499900732073002, 7262100.0 ], [ 528977.499207057291642, 7262110.0 ], [ 528972.488726555602625, 7262120.0 ], [ 528967.4120588588994, 7262130.0 ], [ 528962.041634876397438, 7262139.999107789248228 ], [ 528955.871555430116132, 7262149.9888258241117 ], [ 528948.371456162189133, 7262159.912851801142097 ], [ 528939.541734144440852, 7262169.552016111090779 ], [ 528929.911959590972401, 7262178.448322394862771 ], [ 528919.988825823529623, 7262186.241780877113342 ], [ 528909.999107789248228, 7262193.211912859231234 ], [ 528900.0, 7262199.912851802073419 ], [ 528890.0, 7262206.328929075039923 ], [ 528880.000892210751772, 7262212.204757097177207 ], [ 528870.012066387105733, 7262217.782284306362271 ], [ 528860.099214585614391, 7262223.571856339462101 ], [ 528850.546306264819577, 7262229.540841933339834 ], [ 528842.086809693370014, 7262234.701277447864413 ], [ 528835.756988407694735, 7262238.001230715774 ] ] } },
{ "type": "Feature", "properties": { "id": 10, "reference_id": 5, "dune_id": 5, "dune_name": "The Star Dune", "acquisition_date": "2024-05-03", "length_m": 1137.4572381704056 }, "geometry": { "type": "LineString", "coordinates": [ [ 534334.779035891406238, 7261305.756988408043981 ], [ 534329.924025978078134, 7261312.086809693835676 ], [ 534324.850738662178628, 7261320.546306264586747 ], [ 534320.894183358410373, 7261330.099214585497975 ], [ 534318.404564592172392, 7261340.012066386640072 ], [ 534317.438679803279229, 7261350.000892210751772 ], [ 534317.882391101680696, 7261360.0 ], [ 534318.907480461173691, 7261370.0 ], [ 534319.640948729938827, 7261380.0 ], [ 534319.935200154548511, 7261390.0 ], [ 534320.076866232673638, 7261400.0 ], [ 534320.446199468453415, 7261410.0 ], [ 534321.540503428666852, 7261420.0 ], [ 534323.670178714208305, 7261430.0 ], [ 534326.329821285791695, 7261440.0 ], [ 534328.459496571333148, 7261450.0 ], [ 534329.552908320794813, 7261460.0 ], [ 534329.912851801607758, 7261470.000000000931323 ], [ 534329.988825823529623, 7261480.0 ], [ 534329.998215578729287, 7261490.0 ], [ 534329.988825823529623, 7261500.0 ], [ 534329.911959590855986, 7261510.0 ], [ 534329.54084193368908, 7261520.0 ], [ 534328.360281985718757, 7261530.0 ], [ 534325.783515021088533, 7261540.0 ], [ 534321.583369020721875, 7261550.0 ], [ 534315.783515021088533, 7261559.999107790179551 ], [ 534308.360281985718757, 7261569.9888258241117 ], [ 534299.54084193368908, 7261579.912851802073419 ], [ 534289.911959590855986, 7261589.552016110159457 ], [ 534279.988825823529623, 7261598.448322394862771 ], [ 534269.999107789248228, 7261606.242673087865114 ], [ 534260.0, 7261613.222194824367762 ], [ 534250.0, 7261619.9888258241117 ], [ 534240.0, 7261626.689764766022563 ], [ 534230.0, 7261633.309343023225665 ], [ 534220.0, 7261639.999107789248228 ], [ 534210.0, 7261646.678590590134263 ], [ 534200.0, 7261653.211020648479462 ], [ 534190.0, 7261659.464867912232876 ], [ 534180.0, 7261664.690995482727885 ], [ 534170.0, 7261668.001230715774 ], [ 534160.0, 7261669.476042088121176 ], [ 534150.0, 7261669.9888258241117 ], [ 534140.0, 7261670.435025292448699 ], [ 534130.0, 7261671.539611218497157 ], [ 534120.0, 7261673.670178714208305 ], [ 534110.0, 7261676.330713496543467 ], [ 534100.0, 7261678.470670748502016 ], [ 534090.0, 7261679.640056519769132 ], [ 534080.0, 7261680.35994348116219 ], [ 534070.0, 7261681.529329252429307 ], [ 534060.0, 7261683.669286504387856 ], [ 534050.0, 7261686.33071349747479 ], [ 534040.0, 7261688.470670748502016 ], [ 534030.0, 7261689.64005651883781 ], [ 534020.0, 7261690.35994348116219 ], [ 534010.0, 7261691.530221464112401 ], [ 534000.0, 7261693.680460680276155 ], [ 533990.0, 7261696.416969484649599 ], [ 533980.0, 7261698.906588250771165 ], [ 533970.0, 7261701.094303959980607 ], [ 533960.0, 7261703.594204692170024 ], [ 533950.0, 7261706.406687518581748 ], [ 533940.0, 7261708.916870215907693 ], [ 533930.0, 7261711.181452158838511 ], [ 533920.0, 7261714.041296371258795 ], [ 533910.0, 7261717.947190947830677 ], [ 533900.0, 7261722.58704893104732 ], [ 533890.0, 7261727.511273444630206 ], [ 533880.0, 7261732.500792942941189 ], [ 533870.0, 7261737.500099267810583 ], [ 533860.0, 7261742.500792942941189 ], [ 533850.0, 7261747.511273445561528 ], [ 533840.0, 7261752.58794114086777 ], [ 533830.0, 7261757.958365123718977 ], [ 533820.0, 7261764.128444569185376 ], [ 533810.000892210635357, 7261771.628543837927282 ], [ 533800.012066387105733, 7261780.458265855908394 ], [ 533790.098322374979034, 7261790.088040409609675 ], [ 533780.535132088232785, 7261800.011174176819623 ], [ 533771.998769284342416, 7261810.000892210751772 ], [ 533765.298722552019171, 7261820.0 ], [ 533760.45915806631092, 7261830.0 ], [ 533756.428143660770729, 7261840.000000000931323 ], [ 533752.217715694569051, 7261850.0 ], [ 533747.794350692536682, 7261860.0 ], [ 533743.659896748373285, 7261870.0 ], [ 533739.999107789364643, 7261880.0 ], [ 533736.329821285791695, 7261890.0 ], [ 533732.129675285425037, 7261900.0 ], [ 533727.423233035253361, 7261910.0 ], [ 533722.489618766237982, 7261920.0 ], [ 533717.499207057291642, 7261930.0 ], [ 533712.499900731956586, 7261940.0 ], [ 533707.499207057408057, 7261950.0 ], [ 533702.489618766237982, 7261960.0 ], [ 533697.423233035369776, 7261970.0 ], [ 533692.129675285541452, 7261980.0 ], [ 533686.330267391167581, 7261989.999553894624114 ], [ 533680.005587088293396, 7261999.993520701304078 ], [ 533673.714645024156198, 7262009.944359513930976 ], [ 533668.105044730589725, 7262019.677239574491978 ], [ 533663.435059088165872, 7262028.683442020788789 ], [ 533659.803736446541734, 7262036.078100949525833 ], [ 533657.294247423415072, 7262041.078100949525833 ] ] } },
{ "type": "Feature", "properties": { "id": 11, "reference_id": 6, "dune_id": 6, "dune_name": "The Star Dune", "acquisition_date": "2024-05-03", "length_m": 815.04708012532024 }, "geometry": { "type": "LineString", "coordinates": [ [ 533653.164910642895848, 7262048.921899050474167 ], [ 533651.835981567739509, 7262053.921899050474167 ], [ 533650.78142589086201, 7262061.316557979211211 ], [ 533650.310694038053043, 7262070.322760425508022 ], [ 533650.490665778401308, 7262080.055640487000346 ], [ 533651.546090516960248, 7262090.006479298695922 ], [ 533653.670624819584191, 7262100.000446105375886 ], [ 533656.329821285791695, 7262110.0 ], [ 533658.459496571216732, 7262120.0 ], [ 533659.552908320911229, 7262130.0 ], [ 533659.912851801607758, 7262140.0 ], [ 533659.988825823529623, 7262150.0 ], [ 533659.999107789248228, 7262160.0 ], [ 533660.0, 7262170.0 ], [ 533660.000892210751772, 7262180.0 ], [ 533660.011174176470377, 7262190.0 ], [ 533660.087148198392242, 7262200.0 ], [ 533660.447091679088771, 7262210.0 ], [ 533661.540503428783268, 7262220.0 ], [ 533663.671070924960077, 7262230.0 ], [ 533666.340995462378487, 7262240.0 ], [ 533668.546644769841805, 7262250.0 ], [ 533670.0, 7262260.0 ], [ 533671.453355230391026, 7262270.0 ], [ 533673.659004537737928, 7262280.0 ], [ 533676.328929075156339, 7262290.0 ], [ 533678.459496571333148, 7262300.0 ], [ 533679.552016110159457, 7262310.0 ], [ 533679.901677625137381, 7262320.0 ], [ 533679.901677625137381, 7262330.0 ], [ 533679.552016110159457, 7262340.000000000931323 ], [ 533678.458604360697791, 7262350.0 ], [ 533676.318647109437734, 7262360.0 ], [ 533673.583030515816063, 7262370.0 ], [ 533671.093411749578081, 7262380.0 ], [ 533668.905696039786562, 7262390.0 ], [ 533666.405795307829976, 7262400.0 ], [ 533663.594204692286439, 7262410.0 ], [ 533661.093411749578081, 7262420.0 ], [ 533658.895414073951542, 7262430.0 ], [ 533656.329821285791695, 7262440.0 ], [ 533653.233369000838138, 7262450.0 ], [ 533649.989718034281395, 7262460.0 ], [ 533646.689764766488224, 7262470.0 ], [ 533643.310235233511776, 7262480.0 ], [ 533640.011174176470377, 7262490.0 ], [ 533636.776912964996882, 7262500.0 ], [ 533633.746152736246586, 7262510.0 ], [ 533631.464529406744987, 7262520.0 ], [ 533630.000892210751772, 7262530.0 ], [ 533628.545752558973618, 7262540.0 ], [ 533626.329821285791695, 7262550.0 ], [ 533623.583922726451419, 7262560.0 ], [ 533621.093411749578081, 7262570.0 ], [ 533618.906588250421919, 7262580.0 ], [ 533616.416969484183937, 7262590.0 ], [ 533613.681352890795097, 7262600.000000000931323 ], [ 533611.540503428783268, 7262610.0 ], [ 533610.43591750273481, 7262620.0 ], [ 533610.0, 7262630.0 ], [ 533609.56408249726519, 7262640.0 ], [ 533608.460388781968504, 7262650.0 ], [ 533606.329821285791695, 7262660.0 ], [ 533603.670178714208305, 7262670.0 ], [ 533601.540503428783268, 7262680.0 ], [ 533600.44619946856983, 7262690.0 ], [ 533600.075974022038281, 7262700.0 ], [ 533599.924025978078134, 7262710.0 ], [ 533599.553800531546585, 7262720.0 ], [ 533598.458604360581376, 7262730.0 ], [ 533596.318647109321319, 7262740.0 ], [ 533593.582138305064291, 7262750.0 ], [ 533591.082237573107705, 7262760.0 ], [ 533588.81854784139432, 7262770.0 ], [ 533585.958703628624789, 7262780.0 ], [ 533582.053701263619587, 7262790.0 ], [ 533577.424125246121548, 7262799.999107789248228 ], [ 533572.576766964746639, 7262809.987933613359928 ], [ 533567.957472912967205, 7262819.900785414502025 ], [ 533564.128444569883868, 7262829.453693736344576 ], [ 533561.628543837810867, 7262837.913190307095647 ], [ 533560.458265855675563, 7262844.243011592887342 ] ] } },
{ "type": "Feature", "properties": { "id": 12, "reference_id": 2, "dune_id": 2, "dune_name": "Big Mommy Dune", "acquisition_date": "2024-05-03", "length_m": 401.02177792994115 }, "geometry": { "type": "LineString", "coordinates": [ [ 528645.756988407578319, 7260801.628543837927282 ], [ 528652.086809693602845, 7260804.128444569185376 ], [ 528660.546306264819577, 7260807.958365123718977 ], [ 528670.099214585614391, 7260812.587941141799092 ], [ 528680.012066387222148, 7260817.510381232947111 ], [ 528690.000892210751772, 7260822.490510976873338 ], [ 528700.0, 7260827.423233035951853 ], [ 528710.0, 7260832.128783075138927 ], [ 528720.0, 7260836.319539319723845 ], [ 528730.0, 7260839.92313376814127 ], [ 528740.0, 7260843.299953267909586 ], [ 528750.0, 7260846.700046733021736 ], [ 528760.0, 7260850.076866232790053 ], [ 528770.0, 7260853.680460680276155 ], [ 528780.0, 7260857.870324714109302 ], [ 528790.0, 7260862.566484998911619 ], [ 528800.0, 7260867.433515001088381 ], [ 528810.0, 7260872.129675285890698 ], [ 528820.0, 7260876.318647108972073 ], [ 528830.0, 7260879.912851802073419 ], [ 528840.0, 7260883.223087035119534 ], [ 528850.0, 7260886.328929075971246 ], [ 528860.0, 7260888.895414073951542 ], [ 528870.0, 7260891.093411749228835 ], [ 528880.0, 7260893.594204692170024 ], [ 528890.0, 7260896.405795307829976 ], [ 528900.0, 7260898.905696040019393 ], [ 528910.0, 7260901.094303959980607 ], [ 528920.0, 7260903.594204693101346 ], [ 528930.0, 7260906.405795308761299 ], [ 528940.0, 7260908.905696040019393 ], [ 528950.0, 7260911.094303959980607 ], [ 528960.0, 7260913.594204692170024 ], [ 528970.0, 7260916.405795307829976 ], [ 528979.999107789248228, 7260918.905696040019393 ], [ 528989.987933612894267, 7260921.093411749228835 ], [ 528999.900785414502025, 7260923.583030516281724 ], [ 529009.453693735296838, 7260926.318647108972073 ], [ 529017.913190306629986, 7260928.458604360930622 ], [ 529024.243011592421681, 7260929.552908321842551 ] ] } },
{ "type": "Feature", "properties": { "id": 13, "reference_id": 7, "dune_id": 7, "dune_name": "Inverted Y Dune", "acquisition_date": "2024-05-03", "length_m": 580.84087172770307 }, "geometry": { "type": "LineString", "coordinates": [ [ 530654.243011592305265, 7261325.756988408043981 ], [ 530647.913190306629986, 7261332.086809693835676 ], [ 530639.453693735296838, 7261340.546306265518069 ], [ 530629.901677625137381, 7261350.099214585497975 ], [ 530619.999107789364643, 7261360.012066386640072 ], [ 530610.086255987756886, 7261370.000892210751772 ], [ 530600.447091679205187, 7261380.0 ], [ 530591.541395639418624, 7261390.0 ], [ 530583.681352890795097, 7261400.0 ], [ 530576.416969484183937, 7261410.0 ], [ 530568.907480461057276, 7261420.0 ], [ 530561.104585926048458, 7261430.0 ], [ 530553.671070924960077, 7261440.0 ], [ 530546.776912964996882, 7261450.0 ], [ 530540.086255987756886, 7261460.0 ], [ 530533.670178714208305, 7261470.000000000931323 ], [ 530527.783176516182721, 7261480.0 ], [ 530522.118501109071076, 7261490.0 ], [ 530515.881837395951152, 7261500.0 ], [ 530508.37234837282449, 7261510.0 ], [ 530499.541734144324437, 7261520.0 ], [ 530489.911959590855986, 7261529.999107789248228 ], [ 530479.988825823529623, 7261539.9888258241117 ], [ 530469.999107789364643, 7261549.912851801142097 ], [ 530460.0, 7261559.552016111090779 ], [ 530450.0, 7261568.448322394862771 ], [ 530440.0, 7261576.241780877113342 ], [ 530430.000000000116415, 7261583.211020648479462 ], [ 530420.0, 7261589.901677625253797 ], [ 530410.0, 7261596.241780877113342 ], [ 530400.0, 7261601.758557628840208 ], [ 530390.0, 7261606.252955053001642 ], [ 530380.0, 7261609.9888258241117 ], [ 530370.0, 7261613.659004538320005 ], [ 530360.0, 7261617.793458482250571 ], [ 530350.0, 7261622.205649307928979 ], [ 530340.0, 7261626.328929075039923 ], [ 530330.0, 7261629.912851801142097 ], [ 530320.0, 7261633.212805069051683 ], [ 530310.0, 7261636.252955053932965 ], [ 530300.0, 7261638.535470593720675 ], [ 530290.0, 7261639.999107789248228 ], [ 530280.0, 7261641.453355230391026 ], [ 530270.0, 7261643.659004538320005 ], [ 530260.0, 7261646.328929075971246 ], [ 530250.000892210635357, 7261648.459496572613716 ], [ 530240.012066387222148, 7261649.552908321842551 ], [ 530230.099214585614391, 7261649.912851802073419 ], [ 530220.546306264819577, 7261649.9888258241117 ], [ 530212.08680969348643, 7261649.999107790179551 ], [ 530205.756988407694735, 7261650.0 ] ] } }
]
}
