{
"type": "FeatureCollection",
"name": "crests_2019_11_2019-11-26",
"crs": { "type": "name", "properties": { "name": "urn:ogc:def:crs:EPSG::32733" } },
"features": [
{ "type": "Feature", "properties": { "id": 0, "reference_id": 1, "dune_id": 1, "dune_name": "Big Mommy Dune", "acquisition_date": "2019-11-26", "length_m": 680.10303965207663 }, "geometry": { "type": "LineString", "coordinates": [ [ 529020.0, 7261555.756988408043981 ], [ 529020.0, 7261562.086809693835676 ], [ 529020.0, 7261570.546306264586747 ], [ 529020.0, 7261580.099214585497975 ], [ 529020.0, 7261590.012066387571394 ], [ 529020.0, 7261600.000892210751772 ], [ 529020.0, 7261610.0 ], [ 529020.0, 7261620.0 ], [ 529020.000892210751772, 7261630.0 ], [ 529020.011174176470377, 7261640.0 ], [ 529020.088040409144014, 7261650.0 ], [ 529020.458265855675563, 7261660.0 ], [ 529021.628543837927282, 7261670.0 ], [ 529024.128444569883868, 7261680.0 ], [ 529027.958365123718977, 7261690.0 ], [ 529032.588833351852372, 7261700.0 ], [ 529037.521555410232395, 7261710.0 ], [ 529042.577659175381996, 7261720.0 ], [ 529047.870324714458548, 7261730.000000000931323 ], [ 529053.670178714208305, 7261740.0 ], [ 529060.0, 7261750.0 ], [ 529066.329821285791695, 7261760.0 ], [ 529072.129675285425037, 7261770.0 ], [ 529077.42234082473442, 7261780.0 ], [ 529082.478444589767605, 7261790.0 ], [ 529087.411166648147628, 7261800.0 ], [ 529092.041634876397438, 7261810.0 ], [ 529095.871555430232547, 7261820.0 ], [ 529098.370563951553777, 7261830.0 ], [ 529099.530559967970476, 7261840.000000000931323 ], [ 529099.823919181828387, 7261850.0 ], [ 529099.530559967970476, 7261860.0 ], [ 529098.370563951553777, 7261870.0 ], [ 529095.870663219597191, 7261880.0 ], [ 529092.030460699927062, 7261890.0 ], [ 529087.324910660507157, 7261900.0 ], [ 529082.041634876281023, 7261910.0 ], [ 529075.958703628624789, 7261920.0 ], [ 529068.829722017864697, 7261930.0 ], [ 529061.169385771499947, 7261940.0 ], [ 529054.030122194904834, 7261950.0 ], [ 529047.871216925210319, 7261960.0 ], [ 529042.227105449652299, 7261970.0 ], [ 529036.417861694935709, 7261980.0 ], [ 529030.372009867918678, 7261990.0 ], [ 529024.850738662178628, 7262000.0 ], [ 529020.447091679205187, 7262010.0 ], [ 529016.777805175632238, 7262020.0 ], [ 529013.320517199346796, 7262030.0 ], [ 529010.0, 7262040.0 ], [ 529006.67948280076962, 7262050.0 ], [ 529003.222194824367762, 7262060.0 ], [ 528999.552908320911229, 7262070.0 ], [ 528995.149261337821372, 7262080.0 ], [ 528989.628882342833094, 7262090.0 ], [ 528983.593312481534667, 7262100.0 ], [ 528977.859150538104586, 7262110.0 ], [ 528972.564700577524491, 7262120.0 ], [ 528967.423233035369776, 7262129.999107789248228 ], [ 528962.054593474254943, 7262139.987933613359928 ], [ 528955.970770015846938, 7262149.900785414502025 ], [ 528948.917762426892295, 7262159.453693735413253 ], [ 528941.628543837810867, 7262167.913190307095647 ], [ 528935.668947998550721, 7262174.243011591956019 ] ] } },
{ "type": "Feature", "properties": { "id": 1, "reference_id": 1, "dune_id": 1, "dune_name": "Big Mommy Dune", "acquisition_date": "2019-11-26", "length_m": 525.21640922521487 }, "geometry": { "type": "LineString", "coordinates": [ [ 529180.0, 7261025.756988408043981 ], [ 529180.0, 7261032.086809692904353 ], [ 529180.0, 7261040.546306265518069 ], [ 529180.0, 7261050.099214585497975 ], [ 529180.0, 7261060.012066387571394 ], [ 529179.999107789364643, 7261070.000892210751772 ], [ 529179.988825823529623, 7261080.0 ], [ 529179.912851801607758, 7261090.0 ], [ 529179.552908320794813, 7261100.0 ], [ 529178.458604360581376, 7261110.0 ], [ 529176.318647109321319, 7261120.000000000931323 ], [ 529173.582138305064291, 7261130.0 ], [ 529171.082237573107705, 7261140.0 ], [ 529168.819440052029677, 7261150.0 ], [ 529165.968985594343394, 7261160.0 ], [ 529162.129675285541452, 7261170.0 ], [ 529157.784068726818077, 7261180.0 ], [ 529153.669286503572948, 7261190.0 ], [ 529150.075974022038281, 7261200.0 ], [ 529146.700046732323244, 7261210.000000000931323 ], [ 529143.299953267676756, 7261220.0 ], [ 529139.923133767326362, 7261230.0 ], [ 529136.319539319956675, 7261240.0 ], [ 529132.129675285425037, 7261250.0 ], [ 529127.433515001204796, 7261260.0 ], [ 529122.566484998911619, 7261270.0 ], [ 529117.869432503939606, 7261280.0 ], [ 529113.670178714208305, 7261290.0 ], [ 529110.000892210751772, 7261300.0 ], [ 529106.3401032515103, 7261310.000000000931323 ], [ 529102.206541518098675, 7261320.0 ], [ 529097.793458481901325, 7261330.0 ], [ 529093.6598967484897, 7261340.0 ], [ 529090.0, 7261350.0 ], [ 529086.340103251626715, 7261360.0 ], [ 529082.206541518098675, 7261370.0 ], [ 529077.79345848178491, 7261380.0 ], [ 529073.659896748373285, 7261390.0 ], [ 529070.0, 7261400.0 ], [ 529066.340103251626715, 7261410.0 ], [ 529062.206541518098675, 7261420.0 ], [ 529057.794350692536682, 7261430.0 ], [ 529053.671070924960077, 7261440.0 ], [ 529050.086255987756886, 7261450.0 ], [ 529046.776912964880466, 7261460.0 ], [ 529043.671070924843661, 7261470.000000000931323 ], [ 529041.104585926048458, 7261479.999107789248228 ], [ 529038.907480461057276, 7261489.987933613359928 ], [ 529036.416969484183937, 7261499.900785414502025 ], [ 529033.681352890795097, 7261509.453693735413253 ], [ 529031.54139563953504, 7261517.913190307095647 ], [ 529030.447091679205187, 7261524.243011592887342 ] ] } },
{ "type": "Feature", "properties": { "id": 2, "reference_id": 3, "dune_id": 3, "dune_name": "Big Mommy Dune", "acquisition_date": "2019-11-26", "length_m": 352.7561955128827 }, "geometry": { "type": "LineString", "coordinates": [ [ 529374.243011592305265, 7260695.309896729886532 ], [ 529367.914082517265342, 7260700.546306265518069 ], [ 529359.464867911650799, 7260706.876127550378442 ], [ 529349.987933612894267, 7260713.769393300637603 ], [ 529340.43591750273481, 7260721.552569815889001 ], [ 529331.550785394618288, 7260730.447983890771866 ], [ 529323.757326912600547, 7260740.087148198857903 ], [ 529316.777805175632238, 7260750.011174176819623 ], [ 529310.011174176470377, 7260760.000892210751772 ], [ 529303.310235233511776, 7260770.0 ], [ 529296.690656977239996, 7260780.000000000931323 ], [ 529290.0, 7260790.0 ], [ 529283.310235233511776, 7260800.0 ], [ 529276.700938943075016, 7260810.0 ], [ 529270.075974022038281, 7260820.0 ], [ 529263.670178714208305, 7260830.0 ], [ 529257.794350692653097, 7260840.0 ], [ 529252.205649307463318, 7260850.0 ], [ 529246.32982128590811, 7260860.0 ], [ 529239.924025977961719, 7260870.0 ], [ 529233.299953267676756, 7260880.0 ], [ 529226.700046732323244, 7260890.0 ], [ 529220.075974022038281, 7260900.0 ], [ 529213.670178714208305, 7260910.0 ], [ 529207.795242903288454, 7260920.0 ], [ 529202.217715694569051, 7260930.0 ], [ 529196.428143660654314, 7260939.999107789248228 ], [ 529190.45915806631092, 7260949.987933613359928 ], [ 529185.298722552019171, 7260959.900785414502025 ], [ 529181.998769284342416, 7260969.453693735413253 ], [ 529180.535132088349201, 7260977.913190307095647 ], [ 529180.098322374862619, 7260984.243011591956019 ] ] } },
{ "type": "Feature", "properties": { "id": 3, "reference_id": 3, "dune_id": 3, "dune_name": "Big Mommy Dune", "acquisition_date": "2019-11-26", "length_m": 306.17378647186894 }, "geometry": { "type": "LineString", "coordinates": [ [ 529405.756988407694735, 7260679.552016109228134 ], [ 529412.08680969348643, 7260678.448322394862771 ], [ 529420.546306264819577, 7260676.242673087865114 ], [ 529430.099214585614391, 7260673.222194824367762 ], [ 529440.012066387222148, 7260669.9888258241117 ], [ 529450.000892210751772, 7260666.689764766953886 ], [ 529460.0, 7260663.310235233977437 ], [ 529470.0, 7260660.010281966067851 ], [ 529480.0, 7260656.766630999743938 ], [ 529490.0, 7260653.670178714208305 ], [ 529500.000000000116415, 7260651.10458592697978 ], [ 529510.0, 7260648.906588250771165 ], [ 529520.0, 7260646.405795307829976 ], [ 529530.0, 7260643.594204693101346 ], [ 529540.0, 7260641.094303959980607 ], [ 529550.0, 7260638.906588250771165 ], [ 529560.0, 7260636.416969483718276 ], [ 529570.0, 7260633.680460680276155 ], [ 529580.0, 7260631.530221463181078 ], [ 529590.0, 7260630.35994348116219 ], [ 529600.0, 7260629.64005651883781 ], [ 529610.0, 7260628.470670747570693 ], [ 529620.0, 7260626.330713496543467 ], [ 529630.0, 7260623.670178714208305 ], [ 529640.0, 7260621.540503429248929 ], [ 529650.0, 7260620.447091679088771 ], [ 529659.999107789364643, 7260620.087148198857903 ], [ 529669.987933612894267, 7260620.011174176819623 ], [ 529679.900785414502025, 7260620.000892210751772 ], [ 529689.453693735296838, 7260620.0 ], [ 529697.91319030651357, 7260620.0 ], [ 529704.243011592305265, 7260620.0 ] ] } },
{ "type": "Feature", "properties": { "id": 4, "reference_id": 3, "dune_id": 3, "dune_name": "Big Mommy Dune", "acquisition_date": "2019-11-26", "length_m": 89.326360128683902 }, "geometry": { "type": "LineString", "coordinates": [ [ 529735.756988407694735, 7260609.92313376814127 ], [ 529742.08680969348643, 7260609.62888234294951 ], [ 529750.546306264819577, 7260608.820332263596356 ], [ 529760.099214585614391, 7260607.434407211840153 ], [ 529770.012066387222148, 7260605.887002198025584 ], [ 529780.0, 7260604.647237679921091 ], [ 529789.987933612894267, 7260604.117270393297076 ], [ 529799.900785414502025, 7260604.850738662295043 ], [ 529809.453693735296838, 7260606.700938943773508 ], [ 529817.91319030651357, 7260608.536362804472446 ], [ 529824.243011592421681, 7260609.563190286979079 ] ] } },
{ "type": "Feature", "properties": { "id": 5, "reference_id": 3, "dune_id": 3, "dune_name": "Big Mommy Dune", "acquisition_date": "2019-11-26", "length_m": 71.735271748105234 }, "geometry": { "type": "LineString", "coordinates": [ [ 530084.243011592421681, 7260591.62765162717551 ], [ 530077.91319030651357, 7260594.117270393297076 ], [ 530069.453693735180423, 7260597.870324714109302 ], [ 530059.901677625137381, 7260602.129675285890698 ], [ 530050.0, 7260605.882729606702924 ], [ 530040.098322374979034, 7260608.372348373755813 ], [ 530030.546306264819577, 7260609.541734145022929 ], [ 530022.08680969348643, 7260609.911959591321647 ], [ 530015.756988407694735, 7260609.9888258241117 ] ] } },
{ "type": "Feature", "properties": { "id": 6, "reference_id": 5, "dune_id": 5, "dune_name": "The Star Dune", "acquisition_date": "2019-11-26", "length_m": 1136.2193275462187 }, "geometry": { "type": "LineString", "coordinates": [ [ 534334.702169658616185, 7261305.756988408043981 ], [ 534329.552908320794813, 7261312.086809693835676 ], [ 534323.671070924843661, 7261320.546306264586747 ], [ 534318.328590570134111, 7261330.099214585497975 ], [ 534314.291566790314391, 7261340.012066386640072 ], [ 534312.085917482734658, 7261350.000892210751772 ], [ 534311.999661494977772, 7261360.0 ], [ 534313.758219123352319, 7261370.0 ], [ 534316.340995462262072, 7261380.0 ], [ 534318.461280992603861, 7261390.0 ], [ 534319.56408249726519, 7261400.0 ], [ 534320.0, 7261410.0 ], [ 534320.43591750273481, 7261420.0 ], [ 534321.539611218031496, 7261430.0 ], [ 534323.670178714208305, 7261440.0 ], [ 534326.329821285791695, 7261450.0 ], [ 534328.459496571333148, 7261460.0 ], [ 534329.552908320794813, 7261470.000000000931323 ], [ 534329.911959590855986, 7261480.0 ], [ 534329.977651647059247, 7261490.0 ], [ 534329.911959590855986, 7261500.0 ], [ 534329.552016110159457, 7261510.0 ], [ 534328.447430184110999, 7261520.0 ], [ 534326.23060670029372, 7261530.0 ], [ 534323.123872449505143, 7261540.0 ], [ 534319.453693735296838, 7261550.0 ], [ 534314.690103271510452, 7261559.999107790179551 ], [ 534308.000338505022228, 7261569.9888258241117 ], [ 534299.464867911767215, 7261579.912851802073419 ], [ 534289.901677625020966, 7261589.552016110159457 ], [ 534279.987933612894267, 7261598.448322394862771 ], [ 534269.999107789248228, 7261606.242673087865114 ], [ 534260.0, 7261613.222194824367762 ], [ 534250.0, 7261619.9888258241117 ], [ 534240.0, 7261626.688872555270791 ], [ 534230.0, 7261633.298168846406043 ], [ 534220.0, 7261639.912851801142097 ], [ 534210.0, 7261646.242673087865114 ], [ 534200.0, 7261651.757665418088436 ], [ 534190.0, 7261656.241780877113342 ], [ 534180.0, 7261659.901677625253797 ], [ 534170.0, 7261663.211912859231234 ], [ 534160.0, 7261666.252955053001642 ], [ 534150.0, 7261668.535470593720675 ], [ 534140.0, 7261669.999107789248228 ], [ 534130.0, 7261671.453355230391026 ], [ 534120.0, 7261673.659004537388682 ], [ 534110.0, 7261676.328929075039923 ], [ 534100.0, 7261678.460388781502843 ], [ 534090.0, 7261679.564082497730851 ], [ 534080.0, 7261680.0 ], [ 534070.0, 7261680.435917503200471 ], [ 534060.0, 7261681.539611218497157 ], [ 534050.0, 7261683.671070925891399 ], [ 534040.0, 7261686.340995462611318 ], [ 534030.0, 7261688.546644769608974 ], [ 534020.0, 7261690.0 ], [ 534010.0, 7261691.454247441142797 ], [ 534000.0, 7261693.670178714208305 ], [ 533990.0, 7261696.416077273897827 ], [ 533980.0, 7261698.907480461522937 ], [ 533970.0, 7261701.10458592697978 ], [ 533960.0, 7261703.670178714208305 ], [ 533950.0, 7261706.766630999743938 ], [ 533940.0, 7261710.010281965136528 ], [ 533930.0, 7261713.311127444729209 ], [ 533920.0, 7261716.700938943773508 ], [ 533910.0, 7261720.076866232790053 ], [ 533900.0, 7261723.680460680276155 ], [ 533890.0, 7261727.871216925792396 ], [ 533880.0, 7261732.576766965910792 ], [ 533870.0, 7261737.510381234809756 ], [ 533860.0, 7261742.501685153692961 ], [ 533850.0, 7261747.511273445561528 ], [ 533840.0, 7261752.58794114086777 ], [ 533830.0, 7261757.958365123718977 ], [ 533820.0, 7261764.128444569185376 ], [ 533810.000892210635357, 7261771.628543837927282 ], [ 533800.012066387105733, 7261780.458265855908394 ], [ 533790.098322374979034, 7261790.088040409609675 ], [ 533780.535132088232785, 7261800.011174176819623 ], [ 533771.999661495094188, 7261810.000892210751772 ], [ 533765.309004517854191, 7261820.0 ], [ 533760.535132088349201, 7261830.0 ], [ 533756.788087141467258, 7261840.000000000931323 ], [ 533753.311127444147132, 7261850.0 ], [ 533749.924025978078134, 7261860.0 ], [ 533746.31953932007309, 7261870.0 ], [ 533742.128783074789681, 7261880.0 ], [ 533737.423233035369776, 7261890.0 ], [ 533732.489618766354397, 7261900.0 ], [ 533727.499207057291642, 7261910.0 ], [ 533722.499900731956586, 7261920.0 ], [ 533717.500099268043414, 7261930.0 ], [ 533712.499900731956586, 7261940.0 ], [ 533707.499207057408057, 7261950.0 ], [ 533702.489618766237982, 7261960.0 ], [ 533697.423233035369776, 7261970.0 ], [ 533692.129675285541452, 7261980.0 ], [ 533686.330713496543467, 7261989.999553894624114 ], [ 533680.011174176470377, 7261999.993520701304078 ], [ 533673.758219123352319, 7262009.944359513930976 ], [ 533668.328590570250526, 7262019.677239574491978 ], [ 533664.20531080244109, 7262028.683442020788789 ], [ 533661.638825803645886, 7262036.078100949525833 ], [ 533660.45915806631092, 7262041.078100949525833 ] ] } },
{ "type": "Feature", "properties": { "id": 7, "reference_id": 6, "dune_id": 6, "dune_name": "The Star Dune", "acquisition_date": "2019-11-26", "length_m": 749.19547361131276 }, "geometry": { "type": "LineString", "coordinates": [ [ 533658.459496571216732, 7262048.921899050474167 ], [ 533656.330713496543467, 7262053.921899050474167 ], [ 533653.681352890678681, 7262061.316557979211211 ], [ 533651.62765162717551, 7262070.322760425508022 ], [ 533650.894183358410373, 7262080.055640487000346 ], [ 533651.62765162717551, 7262090.006479298695922 ], [ 533653.681352890678681, 7262100.000446105375886 ], [ 533656.330713496543467, 7262110.0 ], [ 533658.459496571216732, 7262120.0 ], [ 533659.552908320911229, 7262130.0 ], [ 533659.912851801607758, 7262140.0 ], [ 533659.988825823529623, 7262150.0 ], [ 533659.999107789248228, 7262160.0 ], [ 533660.0, 7262170.0 ], [ 533660.0, 7262180.0 ], [ 533660.000892210751772, 7262190.0 ], [ 533660.011174176470377, 7262200.0 ], [ 533660.087148198392242, 7262210.0 ], [ 533660.447091679088771, 7262220.0 ], [ 533661.540503428783268, 7262230.0 ], [ 533663.670178714208305, 7262240.0 ], [ 533666.329821285791695, 7262250.0 ], [ 533668.459496571333148, 7262260.0 ], [ 533669.552908320911229, 7262270.0 ], [ 533669.912851801607758, 7262280.0 ], [ 533669.988825823646039, 7262290.0 ], [ 533669.999107789364643, 7262300.0 ], [ 533670.0, 7262310.0 ], [ 533670.0, 7262320.0 ], [ 533670.0, 7262330.0 ], [ 533670.0, 7262340.000000000931323 ], [ 533669.999107789364643, 7262350.0 ], [ 533669.988825823646039, 7262360.0 ], [ 533669.912851801607758, 7262370.0 ], [ 533669.552016110159457, 7262380.0 ], [ 533668.448322394862771, 7262390.0 ], [ 533666.242673087399453, 7262400.0 ], [ 533663.223087035119534, 7262410.0 ], [ 533659.999107789248228, 7262420.0 ], [ 533656.765738788526505, 7262430.0 ], [ 533653.670178714208305, 7262440.0 ], [ 533651.103693715413101, 7262450.0 ], [ 533648.896306284703314, 7262460.0 ], [ 533646.329821285791695, 7262470.0 ], [ 533643.234261211473495, 7262480.0 ], [ 533640.000000000116415, 7262490.0 ], [ 533636.765738788526505, 7262500.0 ], [ 533633.670178714208305, 7262510.0 ], [ 533631.104585926048458, 7262520.0 ], [ 533628.906588250421919, 7262530.0 ], [ 533626.405795307713561, 7262540.0 ], [ 533623.594204692170024, 7262550.0 ], [ 533621.094303960213438, 7262560.0 ], [ 533618.906588250421919, 7262570.0 ], [ 533616.416969484183937, 7262580.0 ], [ 533613.680460680043325, 7262590.0 ], [ 533611.530221462948248, 7262600.000000000931323 ], [ 533610.359943480696529, 7262610.0 ], [ 533609.640056519303471, 7262620.0 ], [ 533608.470670747803524, 7262630.0 ], [ 533606.330713496543467, 7262640.0 ], [ 533603.670178714208305, 7262650.0 ], [ 533601.540503428783268, 7262660.0 ], [ 533600.44619946856983, 7262670.0 ], [ 533600.075974022038281, 7262680.0 ], [ 533599.924025978078134, 7262690.0 ], [ 533599.553800531546585, 7262700.0 ], [ 533598.459496571216732, 7262710.0 ], [ 533596.328929075039923, 7262720.0 ], [ 533593.659004537737928, 7262730.0 ], [ 533591.45335523027461, 7262739.999107789248228 ], [ 533590.0, 7262749.987933613359928 ], [ 533588.54664476972539, 7262759.900785414502025 ], [ 533586.340995462262072, 7262769.453693735413253 ], [ 533583.671070924960077, 7262777.913190307095647 ], [ 533581.540503428783268, 7262784.243011591956019 ] ] } },
{ "type": "Feature", "properties": { "id": 8, "reference_id": 4, "dune_id": 4, "dune_name": "The Star Dune", "acquisition_date": "2019-11-26", "length_m": 51.145727783866647 }, "geometry": { "type": "LineString", "coordinates": [ [ 533534.243011592421681, 7262019.552016110159457 ], [ 533527.914082517148927, 7262018.448322394862771 ], [ 533519.465760122402571, 7262016.242673087865114 ], [ 533510.0, 7262013.223087035119534 ], [ 533500.534239877597429, 7262010.0 ], [ 533492.085917482851073, 7262006.776912964880466 ], [ 533485.756988407694735, 7262003.757326913066208 ] ] } },
{ "type": "Feature", "properties": { "id": 9, "reference_id": 4, "dune_id": 4, "dune_name": "The Star Dune", "acquisition_date": "2019-11-26", "length_m": 195.94191087865735 }, "geometry": { "type": "LineString", "coordinates": [ [ 533204.243011592305265, 7261918.012404892593622 ], [ 533197.91319030651357, 7261914.789317857474089 ], [ 533189.453693735296838, 7261909.999107789248228 ], [ 533179.900785414502025, 7261905.199507966637611 ], [ 533169.987933612894267, 7261901.900446909479797 ], [ 533159.999107789364643, 7261900.086255988106132 ], [ 533150.0, 7261898.546644769608974 ], [ 533140.0, 7261896.254739474505186 ], [ 533130.0, 7261893.223979245871305 ], [ 533120.0, 7261890.0 ], [ 533110.0, 7261886.776912964880466 ], [ 533100.0, 7261883.756434702314436 ], [ 533090.0, 7261881.540503429248929 ], [ 533080.0, 7261880.360835691913962 ], [ 533070.0, 7261879.640056519769132 ], [ 533060.000892210751772, 7261878.470670748502016 ], [ 533050.012066387105733, 7261876.33071349747479 ], [ 533040.099214585614391, 7261873.670178715139627 ], [ 533030.546306264819577, 7261871.540503429248929 ], [ 533022.08680969348643, 7261870.447091680020094 ], [ 533015.756988407694735, 7261870.087148198857903 ] ] } },
{ "type": "Feature", "properties": { "id": 10, "reference_id": 2, "dune_id": 2, "dune_name": "Big Mommy Dune", "acquisition_date": "2019-11-26", "length_m": 185.59202082576772 }, "geometry": { "type": "LineString", "coordinates": [ [ 528422.08680969348643, 7260645.6698402101174 ], [ 528425.756988407694735, 7260651.638825803995132 ], [ 528432.08680969348643, 7260658.99462866038084 ], [ 528440.546306264819577, 7260666.34188767336309 ], [ 528450.099214585614391, 7260673.235153421759605 ], [ 528460.012066387105733, 7260680.0 ], [ 528470.000892210751772, 7260686.765738788992167 ], [ 528480.0, 7260693.670178715139627 ], [ 528490.0, 7260701.103693716228008 ], [ 528500.0, 7260708.896306284703314 ], [ 528510.0, 7260716.328929075971246 ], [ 528520.0, 7260723.22130261361599 ], [ 528529.999107789364643, 7260729.890503449365497 ], [ 528539.987933612894267, 7260736.143458502367139 ], [ 528549.900785414385609, 7260741.223425541073084 ], [ 528559.453693735296838, 7260744.254185769706964 ], [ 528567.91319030651357, 7260744.690995482727885 ], [ 528574.243011592305265, 7260743.211020647548139 ] ] } },
{ "type": "Feature", "properties": { "id": 11, "reference_id": 8, "dune_id": 8, "dune_name": "Inverted Y Dune", "acquisition_date": "2019-11-26", "length_m": 519.73281466195817 }, "geometry": { "type": "LineString", "coordinates": [ [ 530354.243011592305265, 7261200.087148198857903 ], [ 530347.91319030651357, 7261200.447091678157449 ], [ 530339.453693735180423, 7261201.540503428317606 ], [ 530329.900785414502025, 7261203.671070924028754 ], [ 530319.987933612894267, 7261206.340995462611318 ], [ 530309.999107789364643, 7261208.547536980360746 ], [ 530300.0, 7261210.011174176819623 ], [ 530290.0, 7261211.541395640000701 ], [ 530280.0, 7261214.118162604048848 ], [ 530270.0, 7261217.968647089786828 ], [ 530260.0, 7261222.675981550477445 ], [ 530250.0, 7261227.969539299607277 ], [ 530240.0, 7261234.129336780868471 ], [ 530230.0, 7261241.628543837927282 ], [ 530220.0, 7261250.458265855908394 ], [ 530210.000892210751772, 7261260.088040409609675 ], [ 530200.011174176586792, 7261270.011174176819623 ], [ 530190.088040409144014, 7261280.000892210751772 ], [ 530180.458265855675563, 7261290.0 ], [ 530171.628543837927282, 7261300.0 ], [ 530164.129336780519225, 7261310.000000000931323 ], [ 530157.968647089553997, 7261320.0 ], [ 530152.664807373890653, 7261330.0 ], [ 530147.882391101680696, 7261340.0 ], [ 530143.682245101314038, 7261350.0 ], [ 530140.087148198392242, 7261360.0 ], [ 530136.776912964996882, 7261370.0 ], [ 530133.671070924960077, 7261380.0 ], [ 530131.104585926048458, 7261390.0 ], [ 530128.907480461173691, 7261400.0 ], [ 530126.416969484183937, 7261410.0 ], [ 530123.680460680043325, 7261420.0 ], [ 530121.530221462948248, 7261430.0 ], [ 530120.359943480812944, 7261440.0 ], [ 530119.640056519303471, 7261450.0 ], [ 530118.470670747803524, 7261460.0 ], [ 530116.330713496543467, 7261470.000000000931323 ], [ 530113.670178714208305, 7261480.0 ], [ 530111.540503428666852, 7261490.0 ], [ 530110.44619946856983, 7261500.0 ], [ 530110.075974022038281, 7261510.0 ], [ 530109.924025978078134, 7261520.0 ], [ 530109.553800531546585, 7261530.0 ], [ 530108.459050465957262, 7261539.999553894624114 ], [ 530106.324234197614715, 7261549.993520701304078 ], [ 530103.626604615012184, 7261559.944359513930976 ], [ 530101.316957589122467, 7261569.6772395754233 ], [ 530099.676839964813553, 7261578.683442020788789 ], [ 530098.25205884128809, 7261586.078100949525833 ], [ 530096.846263533574529, 7261591.078100949525833 ] ] } },
{ "type": "Feature", "properties": { "id": 12, "reference_id": 8, "dune_id": 8, "dune_name": "Inverted Y Dune", "acquisition_date": "2019-11-26", "length_m": 168.2762691802854 }, "geometry": { "type": "LineString", "coordinates": [ [ 530554.243011592305265, 7261171.999661495909095 ], [ 530547.91319030651357, 7261175.309004518203437 ], [ 530539.453693735296838, 7261180.534239877015352 ], [ 530529.900785414385609, 7261186.776912964880466 ], [ 530519.987933612894267, 7261193.223087035119534 ], [ 530509.999107789248228, 7261199.465760122984648 ], [ 530500.0, 7261204.690995481796563 ], [ 530490.0, 7261208.00033850595355 ], [ 530480.0, 7261209.464867912232876 ], [ 530470.0, 7261209.901677625253797 ], [ 530460.0, 7261209.987933613359928 ], [ 530450.0, 7261209.999107790179551 ], [ 530440.000892210751772, 7261210.000000000931323 ], [ 530430.012066387222148, 7261210.000000000931323 ], [ 530420.099214585614391, 7261210.000000000931323 ], [ 530410.546306264819577, 7261210.000000000931323 ], [ 530402.08680969348643, 7261210.000000000931323 ], [ 530395.756988407694735, 7261210.000000000931323 ] ] } },
{ "type": "Feature", "properties": { "id": 13, "reference_id": 7, "dune_id": 7, "dune_name": "Inverted Y Dune", "acquisition_date": "2019-11-26", "length_m": 466.77258186713271 }, "geometry": { "type": "LineString", "coordinates": [ [ 530315.756988407694735, 7261629.541734144091606 ], [ 530322.086809693602845, 7261628.372348373755813 ], [ 530330.546306264819577, 7261625.881837395951152 ], [ 530340.099214585614391, 7261622.118501109071076 ], [ 530350.012066387105733, 7261617.782284305430949 ], [ 530360.000892210635357, 7261613.659004538320005 ], [ 530370.0, 7261609.999107789248228 ], [ 530380.0, 7261606.329821285791695 ], [ 530390.0, 7261602.129675285890698 ], [ 530400.0, 7261597.422340825200081 ], [ 530410.0, 7261592.478444589301944 ], [ 530420.0, 7261587.411166649311781 ], [ 530430.000000000116415, 7261582.041634876281023 ], [ 530440.0, 7261575.871555430814624 ], [ 530450.0, 7261568.371456163004041 ], [ 530460.0, 7261559.541734145022929 ], [ 530469.999107789364643, 7261549.911959590390325 ], [ 530479.988825823529623, 7261539.9888258241117 ], [ 530489.912851801607758, 7261529.999107789248228 ], [ 530499.552016110159457, 7261520.0 ], [ 530508.448322394862771, 7261510.0 ], [ 530516.242673087399453, 7261500.0 ], [ 530523.222194824367762, 7261490.0 ], [ 530529.988825823529623, 7261480.0 ], [ 530536.689764766488224, 7261470.000000000931323 ], [ 530543.309343022760004, 7261460.0 ], [ 530550.0, 7261450.0 ], [ 530556.690656977239996, 7261440.0 ], [ 530563.310235233511776, 7261430.0 ], [ 530570.011174176470377, 7261420.0 ], [ 530576.777805175632238, 7261410.0 ], [ 530583.757326912600547, 7261400.0 ], [ 530591.551677605137229, 7261390.0 ], [ 530600.447983889840543, 7261380.0 ], [ 530610.086255987756886, 7261370.000892210751772 ], [ 530619.999107789364643, 7261360.012066386640072 ], [ 530629.901677625137381, 7261350.099214585497975 ], [ 530639.453693735296838, 7261340.546306265518069 ], [ 530647.913190306629986, 7261332.086809693835676 ], [ 530654.243011592305265, 7261325.756988408043981 ] ] } },
{ "type": "Feature", "properties": { "id": 14, "reference_id": 9, "dune_id": 9, "dune_name": "Inverted Y Dune", "acquisition_date": "2019-11-26", "length_m": 760.74270585430861 }, "geometry": { "type": "LineString", "coordinates": [ [ 530092.618604378192686, 7261598.910724874585867 ], [ 530089.748279663734138, 7261603.833858641795814 ], [ 530085.013263306696899, 7261610.858292123302817 ], [ 530078.136736146174371, 7261618.695108798332512 ], [ 530069.497267834376544, 7261625.937477882951498 ], [ 530059.906372502679005, 7261632.12498040869832 ], [ 530049.988379718270153, 7261637.782730410806835 ], [ 530039.999107789364643, 7261643.659004538320005 ], [ 530030.0, 7261650.0 ], [ 530020.0, 7261656.340103251859546 ], [ 530010.0, 7261662.206541518680751 ], [ 530000.0, 7261667.794350693002343 ], [ 529990.0, 7261673.670178714208305 ], [ 529980.0, 7261680.075974022038281 ], [ 529970.0, 7261686.700938943773508 ], [ 529960.0, 7261693.311127444729209 ], [ 529950.0, 7261700.011174177750945 ], [ 529940.0, 7261706.777805175632238 ], [ 529930.0, 7261713.757326913066208 ], [ 529920.0, 7261721.551677605137229 ], [ 529910.0, 7261730.447983890771866 ], [ 529900.0, 7261740.087148198857903 ], [ 529890.0, 7261750.011174176819623 ], [ 529880.0, 7261760.000892210751772 ], [ 529870.000892210751772, 7261770.0 ], [ 529860.011174176470377, 7261780.0 ], [ 529850.087148198392242, 7261790.0 ], [ 529840.447091679205187, 7261800.0 ], [ 529831.541395639418624, 7261810.0 ], [ 529823.682245101314038, 7261820.0 ], [ 529816.428143660770729, 7261830.0 ], [ 529808.994628659682348, 7261840.000000000931323 ], [ 529801.552569815889001, 7261850.0 ], [ 529795.221856319345534, 7261860.0 ], [ 529790.523957911878824, 7261870.0 ], [ 529786.788087141467258, 7261880.0 ], [ 529783.321409409982152, 7261890.0 ], [ 529780.000892210751772, 7261900.0 ], [ 529776.689764766488224, 7261910.0 ], [ 529773.299061056924984, 7261920.0 ], [ 529769.924025978078134, 7261930.0 ], [ 529766.329821285791695, 7261940.0 ], [ 529762.205649307463318, 7261950.0 ], [ 529757.79345848178491, 7261960.0 ], [ 529753.659896748373285, 7261970.0 ], [ 529749.999107789364643, 7261980.0 ], [ 529746.329821285791695, 7261990.0 ], [ 529742.130567496176809, 7262000.0 ], [ 529737.433515001088381, 7262010.0 ], [ 529732.566484998911619, 7262020.0 ], [ 529727.869432503939606, 7262030.0 ], [ 529723.670178714208305, 7262040.0 ], [ 529720.000892210751772, 7262050.0 ], [ 529716.340103251626715, 7262060.0 ], [ 529712.20654151821509, 7262070.0 ], [ 529707.793458481901325, 7262080.0 ], [ 529703.659896748373285, 7262090.0 ], [ 529699.999107789248228, 7262100.0 ], [ 529696.329821285791695, 7262110.0 ], [ 529692.130567496176809, 7262120.0 ], [ 529687.433515001204796, 7262130.0 ], [ 529682.566484998911619, 7262140.0 ], [ 529677.870324714574963, 7262149.999107789248228 ], [ 529673.681352890678681, 7262159.987933613359928 ], [ 529670.088040409144014, 7262169.900785414502025 ], [ 529666.788087141467258, 7262179.453693735413253 ], [ 529663.758219123352319, 7262187.913190307095647 ], [ 529661.551677605137229, 7262194.243011591956019 ] ] } }
]
}
