{
"type": "FeatureCollection",
"name": "crests_2025_07_2025-07-19",
"crs": { "type": "name", "properties": { "name": "urn:ogc:def:crs:EPSG::32733" } },
"features": [
{ "type": "Feature", "properties": { "id": 0, "reference_id": 1, "dune_id": 1, "dune_name": "Big Mommy Dune", "acquisition_date": "2025-07-19", "length_m": 429.31994683986767 }, "geometry": { "type": "LineString", "coordinates": [ [ 529088.361174196470529, 7261905.756988408043981 ], [ 529085.79468919755891, 7261912.086809693835676 ], [ 529081.670517219230533, 7261920.546306264586747 ], [ 529076.231498910812661, 7261930.099214585497975 ], [ 529069.911959590972401, 7261940.012066387571394 ], [ 529063.299061057041399, 7261950.000892210751772 ], [ 529056.700046732323244, 7261960.0 ], [ 529050.076866232673638, 7261970.0 ], [ 529043.68046067992691, 7261980.0 ], [ 529037.871216925210319, 7261990.0 ], [ 529032.577659175381996, 7262000.0 ], [ 529027.520663199597038, 7262010.0 ], [ 529022.577659175381996, 7262020.0 ], [ 529017.870324714574963, 7262030.0 ], [ 529013.670178714208305, 7262040.0 ], [ 529010.0, 7262050.0 ], [ 529006.32982128590811, 7262060.0 ], [ 529002.129675285541452, 7262070.0 ], [ 528997.423233035369776, 7262080.0 ], [ 528992.489618766237982, 7262090.0 ], [ 528987.498314846656285, 7262100.0 ], [ 528982.488726555602625, 7262110.0 ], [ 528977.4120588588994, 7262120.0 ], [ 528972.041634876397438, 7262130.0 ], [ 528965.871555430116132, 7262139.999107789248228 ], [ 528958.371456162189133, 7262149.9888258241117 ], [ 528949.541734144324437, 7262159.912851801142097 ], [ 528939.911959590972401, 7262169.552016111090779 ], [ 528929.988825823529623, 7262178.448322394862771 ], [ 528919.999107789364643, 7262186.241780877113342 ], [ 528910.0, 7262193.211912859231234 ], [ 528900.0, 7262199.912851802073419 ], [ 528890.0, 7262206.328929075039923 ], [ 528880.000892210751772, 7262212.204757097177207 ], [ 528870.012066387105733, 7262217.782284306362271 ], [ 528860.099214585614391, 7262223.571856339462101 ], [ 528850.546306264819577, 7262229.540841933339834 ], [ 528842.086809693370014, 7262234.701277447864413 ], [ 528835.756988407694735, 7262238.001230715774 ] ] } },
{ "type": "Feature", "properties": { "id": 1, "reference_id": 1, "dune_id": 1, "dune_name": "Big Mommy Dune", "acquisition_date": "2025-07-19", "length_m": 597.96243129344396 }, "geometry": { "type": "LineString", "coordinates": [ [ 529016.416969484183937, 7261654.243011591956019 ], [ 529014.117270393413492, 7261647.913190307095647 ], [ 529013.08100685745012, 7261639.453693734481931 ], [ 529014.117270393413492, 7261629.900785414502025 ], [ 529016.416969484183937, 7261619.987933613359928 ], [ 529018.470670747803524, 7261609.999107789248228 ], [ 529019.553800531546585, 7261600.0 ], [ 529019.91374401235953, 7261590.0 ], [ 529020.0, 7261580.0 ], [ 529020.086255987873301, 7261570.0 ], [ 529020.447091679205187, 7261560.000000000931323 ], [ 529021.541395639418624, 7261550.0 ], [ 529023.681352890678681, 7261540.0 ], [ 529026.416969484183937, 7261530.0 ], [ 529028.906588250538334, 7261520.0 ], [ 529031.094303960213438, 7261510.0 ], [ 529033.594204692286439, 7261500.0 ], [ 529036.405795307829976, 7261490.0 ], [ 529038.906588250538334, 7261480.0 ], [ 529041.104585926048458, 7261470.000000000931323 ], [ 529043.671070924843661, 7261460.0 ], [ 529046.776912964880466, 7261450.0 ], [ 529050.086255987756886, 7261440.0 ], [ 529053.671070924960077, 7261430.0 ], [ 529057.794350692536682, 7261420.0 ], [ 529062.206541518098675, 7261410.0 ], [ 529066.340103251626715, 7261400.0 ], [ 529070.000892210751772, 7261390.0 ], [ 529073.670178714208305, 7261380.0 ], [ 529077.869432503823191, 7261370.0 ], [ 529082.566484998911619, 7261360.0 ], [ 529087.433515001088381, 7261350.0 ], [ 529092.130567496176809, 7261340.0 ], [ 529096.329821285791695, 7261330.0 ], [ 529100.0, 7261320.0 ], [ 529103.670178714208305, 7261310.000000000931323 ], [ 529107.869432503823191, 7261300.0 ], [ 529112.566484998911619, 7261290.0 ], [ 529117.433515001204796, 7261280.0 ], [ 529122.129675285541452, 7261270.0 ], [ 529126.31953932007309, 7261260.0 ], [ 529129.923133767326362, 7261250.0 ], [ 529133.299061056924984, 7261240.0 ], [ 529136.689764766488224, 7261230.0 ], [ 529140.0, 7261220.0 ], [ 529143.310235233511776, 7261210.000000000931323 ], [ 529146.700938943075016, 7261200.0 ], [ 529150.075974022038281, 7261190.0 ], [ 529153.670178714208305, 7261180.0 ], [ 529157.794350692536682, 7261170.0 ], [ 529162.205649307463318, 7261160.0 ], [ 529166.328929075156339, 7261150.0 ], [ 529169.912851801607758, 7261140.0 ], [ 529173.211912858532742, 7261130.000892210751772 ], [ 529176.241780876647681, 7261120.012066387571394 ], [ 529178.448322394862771, 7261110.099214585497975 ], [ 529179.552016110159457, 7261100.546306265518069 ], [ 529179.912851801607758, 7261092.086809693835676 ], [ 529179.988825823529623, 7261085.756988408043981 ] ] } },
{ "type": "Feature", "properties": { "id": 2, "reference_id": 1, "dune_id": 1, "dune_name": "Big Mommy Dune", "acquisition_date": "2025-07-19", "length_m": 121.4769851272618 }, "geometry": { "type": "LineString", "coordinates": [ [ 529088.371456162189133, 7261814.243011592887342 ], [ 529085.870663219480775, 7261807.913190307095647 ], [ 529082.031352910562418, 7261799.453693735413253 ], [ 529077.336084836861119, 7261789.900785414502025 ], [ 529072.128783074789681, 7261779.987933613359928 ], [ 529066.405795307713561, 7261769.999107789248228 ], [ 529060.370225446531549, 7261760.0 ], [ 529054.840456696343608, 7261750.000892210751772 ], [ 529050.371117657283321, 7261740.012066387571394 ], [ 529046.417861694935709, 7261730.099214586429298 ], [ 529042.227997660404071, 7261720.546306264586747 ], [ 529037.882391101680696, 7261712.086809692904353 ], [ 529034.118162604048848, 7261705.756988408043981 ] ] } },
{ "type": "Feature", "properties": { "id": 3, "reference_id": 5, "dune_id": 5, "dune_name": "The Star Dune", "acquisition_date": "2025-07-19", "length_m": 873.43751818474482 }, "geometry": { "type": "LineString", "coordinates": [ [ 534307.91319030651357, 7261565.745814232155681 ], [ 534304.243011592305265, 7261571.999661495909095 ], [ 534297.913190306629986, 7261580.098322374746203 ], [ 534289.453693735180423, 7261588.547536980360746 ], [ 534279.900785414502025, 7261596.254739474505186 ], [ 534269.987933612894267, 7261603.223087035119534 ], [ 534259.999107789248228, 7261609.9888258241117 ], [ 534250.0, 7261616.689764766953886 ], [ 534240.0, 7261623.309343023225665 ], [ 534230.0, 7261630.0 ], [ 534220.0, 7261636.689764766953886 ], [ 534210.0, 7261643.298168847337365 ], [ 534200.0, 7261649.911959591321647 ], [ 534190.0, 7261656.231498911976814 ], [ 534180.0, 7261661.670517219230533 ], [ 534170.0, 7261665.794689197093248 ], [ 534160.0, 7261668.362066407687962 ], [ 534150.0, 7261669.552016110159457 ], [ 534140.0, 7261669.999107789248228 ], [ 534130.0, 7261670.435917503200471 ], [ 534120.0, 7261671.539611218497157 ], [ 534110.0, 7261673.671070924960077 ], [ 534100.0, 7261676.340995462611318 ], [ 534090.0, 7261678.546644769608974 ], [ 534080.0, 7261680.0 ], [ 534070.0, 7261681.453355230391026 ], [ 534060.0, 7261683.659004537388682 ], [ 534050.0, 7261686.328929075971246 ], [ 534040.0, 7261688.460388783365488 ], [ 534030.0, 7261689.564082497730851 ], [ 534020.0, 7261690.0 ], [ 534010.0, 7261690.435917503200471 ], [ 534000.0, 7261691.540503429248929 ], [ 533990.0, 7261693.681352891027927 ], [ 533980.0, 7261696.416969484649599 ], [ 533970.0, 7261698.907480461522937 ], [ 533960.0, 7261701.10458592697978 ], [ 533950.0, 7261703.671070924960077 ], [ 533940.0, 7261706.776912964880466 ], [ 533930.0, 7261710.087148198857903 ], [ 533920.0, 7261713.681352891027927 ], [ 533910.0, 7261717.871216924861073 ], [ 533900.0, 7261722.576766964048147 ], [ 533890.0, 7261727.509489023126662 ], [ 533880.0, 7261732.490510977804661 ], [ 533870.0, 7261737.424125246703625 ], [ 533860.0, 7261742.139957251027226 ], [ 533850.0, 7261746.406687518581748 ], [ 533840.0, 7261750.37111765705049 ], [ 533830.0, 7261754.851630872115493 ], [ 533820.0, 7261760.458265855908394 ], [ 533810.0, 7261766.864953374490142 ], [ 533800.000892210751772, 7261773.768501089885831 ], [ 533790.012066387105733, 7261781.552569815889001 ], [ 533780.099214585614391, 7261790.447983890771866 ], [ 533770.545414054067805, 7261800.087148198857903 ], [ 533762.075635517016053, 7261810.011174177750945 ], [ 533755.669840209186077, 7261820.000892210751772 ], [ 533751.638825803645886, 7261830.0 ], [ 533748.994628659565933, 7261840.000000000931323 ], [ 533746.340995462262072, 7261850.0 ], [ 533743.22397924575489, 7261860.0 ], [ 533739.912851801607758, 7261870.0 ], [ 533736.318647109437734, 7261880.0 ], [ 533732.128783074906096, 7261890.0 ], [ 533727.423233035253361, 7261900.0 ], [ 533722.489618766237982, 7261910.0 ], [ 533717.499207057291642, 7261920.0 ], [ 533712.499900731956586, 7261930.0 ], [ 533707.499207057408057, 7261940.0 ], [ 533702.489618766237982, 7261950.0 ], [ 533697.423233035369776, 7261960.0 ], [ 533692.129675285541452, 7261970.0 ], [ 533686.329821285791695, 7261980.0 ], [ 533679.999553894624114, 7261989.999553894624114 ], [ 533673.665483836666681, 7261999.993520701304078 ], [ 533667.837924791732803, 7262009.944359513930976 ], [ 533662.441261534229852, 7262019.677239574491978 ], [ 533657.198395375045948, 7262028.683442020788789 ], [ 533652.294247423415072, 7262036.078100949525833 ], [ 533648.463633195031434, 7262041.078100949525833 ] ] } },
{ "type": "Feature", "properties": { "id": 4, "reference_id": 4, "dune_id": 4, "dune_name": "The Star Dune", "acquisition_date": "2025-07-19", "length_m": 655.71356480365182 }, "geometry": { "type": "LineString", "coordinates": [ [ 533631.078100949525833, 7262056.74794115871191 ], [ 533626.078100949409418, 7262057.717818964272738 ], [ 533618.683442020905204, 7262057.688352646306157 ], [ 533609.677239574841224, 7262056.095101269893348 ], [ 533599.94435951358173, 7262053.538564206101 ], [ 533589.993520701071247, 7262051.076650485396385 ], [ 533579.999553894740529, 7262048.818993946537375 ], [ 533570.0, 7262045.968985594809055 ], [ 533560.0, 7262042.128783075138927 ], [ 533550.0, 7262037.772894551046193 ], [ 533540.0, 7262033.582138305529952 ], [ 533530.0, 7262029.62888234294951 ], [ 533520.0, 7262025.160435514524579 ], [ 533510.0, 7262019.640056519769132 ], [ 533500.0, 7262013.670178714208305 ], [ 533490.0, 7262008.231160406023264 ], [ 533480.0, 7262003.756434702314436 ], [ 533470.0, 7262000.087148198857903 ], [ 533460.0, 7261996.70183115452528 ], [ 533450.0, 7261993.310235233977437 ], [ 533440.0, 7261990.0 ], [ 533430.0, 7261986.690656976774335 ], [ 533420.0, 7261983.309343023225665 ], [ 533410.0, 7261980.0 ], [ 533400.000000000116415, 7261976.690656977705657 ], [ 533390.0, 7261973.309343023225665 ], [ 533380.000000000116415, 7261970.0 ], [ 533370.0, 7261966.690656977705657 ], [ 533360.0, 7261963.309343023225665 ], [ 533350.0, 7261960.0 ], [ 533340.0, 7261956.690656977705657 ], [ 533330.0, 7261953.310235233977437 ], [ 533320.0, 7261950.010281966999173 ], [ 533310.0, 7261946.766630999743938 ], [ 533300.0, 7261943.670178713276982 ], [ 533290.0, 7261941.103693715296686 ], [ 533280.0, 7261938.896306284703314 ], [ 533270.0, 7261936.329821286723018 ], [ 533260.0, 7261933.234261211007833 ], [ 533250.0, 7261930.0 ], [ 533240.0, 7261926.765738788992167 ], [ 533230.0, 7261923.670178715139627 ], [ 533220.0, 7261921.10458592697978 ], [ 533210.0, 7261918.906588250771165 ], [ 533200.0, 7261916.405795307829976 ], [ 533190.0, 7261913.594204692170024 ], [ 533180.0, 7261911.093411750160158 ], [ 533170.0, 7261908.895414074882865 ], [ 533160.0, 7261906.329821286723018 ], [ 533150.0, 7261903.234261211939156 ], [ 533140.0, 7261900.0 ], [ 533130.0, 7261896.765738788992167 ], [ 533120.0, 7261893.670178715139627 ], [ 533110.0, 7261891.10458592697978 ], [ 533100.0, 7261888.907480461522937 ], [ 533090.0, 7261886.416077273897827 ], [ 533080.0, 7261883.670178714208305 ], [ 533070.0, 7261881.454247441142797 ], [ 533060.0, 7261880.0 ], [ 533050.000892210751772, 7261878.546644769608974 ], [ 533040.012066387105733, 7261876.340995462611318 ], [ 533030.099214585614391, 7261873.671070925891399 ], [ 533020.546306264819577, 7261871.540503429248929 ], [ 533012.08680969348643, 7261870.447091680020094 ], [ 533005.756988407694735, 7261870.087148198857903 ] ] } },
{ "type": "Feature", "properties": { "id": 5, "reference_id": 6, "dune_id": 6, "dune_name": "The Star Dune", "acquisition_date": "2025-07-19", "length_m": 68.486023183912039 }, "geometry": { "type": "LineString", "coordinates": [ [ 533660.0, 7262184.243011591956019 ], [ 533660.0, 7262177.913190307095647 ], [ 533660.0, 7262169.453693735413253 ], [ 533660.0, 7262159.901677625253797 ], [ 533660.0, 7262150.0 ], [ 533660.0, 7262140.098322374746203 ], [ 533660.0, 7262130.546306265518069 ], [ 533660.0, 7262122.086809693835676 ], [ 533660.0, 7262115.756988408043981 ] ] } },
{ "type": "Feature", "properties": { "id": 6, "reference_id": 6, "dune_id": 6, "dune_name": "The Star Dune", "acquisition_date": "2025-07-19", "length_m": 525.01344978344866 }, "geometry": { "type": "LineString", "coordinates": [ [ 533550.447091679205187, 7262884.243011591956019 ], [ 533551.54139563953504, 7262877.913190307095647 ], [ 533553.681352890795097, 7262869.453693735413253 ], [ 533556.417861694935709, 7262859.900785414502025 ], [ 533558.917762426892295, 7262849.987933613359928 ], [ 533561.180559947970323, 7262839.999107789248228 ], [ 533564.031014405656606, 7262830.0 ], [ 533567.870324714574963, 7262820.0 ], [ 533572.215931273298338, 7262810.0 ], [ 533576.32982128590811, 7262800.0 ], [ 533579.912851801607758, 7262790.0 ], [ 533583.211912858649157, 7262780.0 ], [ 533586.241780876764096, 7262770.0 ], [ 533588.448322394862771, 7262760.0 ], [ 533589.552908320911229, 7262750.0 ], [ 533589.924025977961719, 7262740.0 ], [ 533590.075974022038281, 7262730.0 ], [ 533590.44619946856983, 7262720.0 ], [ 533591.540503428783268, 7262710.0 ], [ 533593.670178714208305, 7262700.0 ], [ 533596.329821285791695, 7262690.0 ], [ 533598.459496571216732, 7262680.0 ], [ 533599.552908320794813, 7262670.0 ], [ 533599.913744012243114, 7262660.0 ], [ 533600.0, 7262650.0 ], [ 533600.086255987756886, 7262640.0 ], [ 533600.447091679205187, 7262630.0 ], [ 533601.541395639418624, 7262620.0 ], [ 533603.681352890678681, 7262610.0 ], [ 533606.416969484183937, 7262600.000000000931323 ], [ 533608.907480461173691, 7262590.0 ], [ 533611.104585926048458, 7262580.0 ], [ 533613.670178714208305, 7262570.0 ], [ 533616.765738788526505, 7262560.0 ], [ 533620.0, 7262550.0 ], [ 533623.234261211473495, 7262540.0 ], [ 533626.329821285791695, 7262530.0 ], [ 533628.896306284703314, 7262520.0 ], [ 533631.103693715296686, 7262510.0 ], [ 533633.670178714208305, 7262500.0 ], [ 533636.765738788526505, 7262490.0 ], [ 533640.000000000116415, 7262480.0 ], [ 533643.234261211473495, 7262470.0 ], [ 533646.329821285791695, 7262460.0 ], [ 533648.896306284703314, 7262450.0 ], [ 533651.103693715413101, 7262440.0 ], [ 533653.670178714208305, 7262430.0 ], [ 533656.765738788526505, 7262420.000892210751772 ], [ 533659.999107789248228, 7262410.012066387571394 ], [ 533663.223087035119534, 7262400.099214585497975 ], [ 533666.242673087399453, 7262390.546306265518069 ], [ 533668.448322394862771, 7262382.086809693835676 ], [ 533669.552016110159457, 7262375.756988408043981 ] ] } },
{ "type": "Feature", "properties": { "id": 7, "reference_id": 3, "dune_id": 3, "dune_name": "Big Mommy Dune", "acquisition_date": "2025-07-19", "length_m": 1041.5574079135356 }, "geometry": { "type": "LineString", "coordinates": [ [ 530044.243011592305265, 7260610.0 ], [ 530037.91319030651357, 7260610.0 ], [ 530029.453693735180423, 7260610.0 ], [ 530019.900785414502025, 7260610.0 ], [ 530009.987933612894267, 7260610.0 ], [ 529999.999107789364643, 7260610.0 ], [ 529990.0, 7260610.0 ], [ 529980.0, 7260610.0 ], [ 529970.0, 7260610.0 ], [ 529960.0, 7260610.0 ], [ 529950.0, 7260610.0 ], [ 529940.0, 7260610.0 ], [ 529930.0, 7260610.0 ], [ 529920.0, 7260610.0 ], [ 529910.0, 7260610.0 ], [ 529900.0, 7260610.0 ], [ 529890.0, 7260610.0 ], [ 529880.0, 7260610.0 ], [ 529870.0, 7260610.0 ], [ 529860.0, 7260610.0 ], [ 529850.0, 7260610.0 ], [ 529840.0, 7260610.0 ], [ 529830.0, 7260610.0 ], [ 529820.0, 7260610.0 ], [ 529810.0, 7260610.0 ], [ 529800.0, 7260610.0 ], [ 529790.0, 7260610.0 ], [ 529780.0, 7260610.0 ], [ 529770.0, 7260610.0 ], [ 529760.0, 7260610.000892210751772 ], [ 529750.0, 7260610.011174176819623 ], [ 529740.0, 7260610.087148198857903 ], [ 529730.0, 7260610.447091680020094 ], [ 529720.0, 7260611.540503429248929 ], [ 529710.0, 7260613.670178715139627 ], [ 529700.0, 7260616.329821286723018 ], [ 529690.0, 7260618.459496571682394 ], [ 529680.0, 7260619.552908320911229 ], [ 529670.0, 7260619.913744012825191 ], [ 529660.0, 7260620.0 ], [ 529650.0, 7260620.086255988106132 ], [ 529640.0, 7260620.447091679088771 ], [ 529630.0, 7260621.540503429248929 ], [ 529620.0, 7260623.671070924960077 ], [ 529610.0, 7260626.340995462611318 ], [ 529600.0, 7260628.546644769608974 ], [ 529590.0, 7260630.0 ], [ 529580.0, 7260631.453355230391026 ], [ 529570.0, 7260633.659896748140454 ], [ 529560.0, 7260636.340103251859546 ], [ 529550.0, 7260638.546644769608974 ], [ 529540.0, 7260640.000892210751772 ], [ 529530.0, 7260641.464529407210648 ], [ 529520.0, 7260643.746152736246586 ], [ 529510.0, 7260646.776020754128695 ], [ 529500.000000000116415, 7260650.000892210751772 ], [ 529490.0, 7260653.234261211939156 ], [ 529480.0, 7260656.329821285791695 ], [ 529470.0, 7260658.896306285634637 ], [ 529460.0, 7260661.103693716228008 ], [ 529450.0, 7260663.670178714208305 ], [ 529440.000000000116415, 7260666.766630999743938 ], [ 529430.0, 7260670.0111741758883 ], [ 529420.0, 7260673.321409409865737 ], [ 529410.0, 7260676.777805175632238 ], [ 529400.0, 7260680.447983888909221 ], [ 529390.0, 7260684.861912839114666 ], [ 529380.0, 7260690.459158066660166 ], [ 529370.0, 7260696.864953374490142 ], [ 529360.000892210635357, 7260703.768501089885831 ], [ 529350.011174176586792, 7260711.552569815889001 ], [ 529340.087148198392242, 7260720.447983889840543 ], [ 529330.447983889840543, 7260730.087148198857903 ], [ 529321.551677605253644, 7260740.011174176819623 ], [ 529313.757326912716962, 7260750.000892210751772 ], [ 529306.777805175748654, 7260760.0 ], [ 529300.011174176470377, 7260770.0 ], [ 529293.310235233511776, 7260780.000000000931323 ], [ 529286.689764766488224, 7260790.0 ], [ 529279.989718034281395, 7260800.0 ], [ 529273.233369000838138, 7260810.0 ], [ 529266.329821285791695, 7260820.0 ], [ 529258.896306284703314, 7260830.0 ], [ 529251.103693715296686, 7260840.0 ], [ 529243.671070924960077, 7260850.0 ], [ 529236.776912964996882, 7260860.0 ], [ 529230.087148198392242, 7260870.0 ], [ 529223.681352890678681, 7260880.0 ], [ 529217.870324714574963, 7260890.0 ], [ 529212.566484998911619, 7260900.0 ], [ 529207.433515001088381, 7260910.0 ], [ 529202.129675285425037, 7260920.0 ], [ 529196.319093214697205, 7260929.999107789248228 ], [ 529189.918438889784738, 7260939.987933613359928 ], [ 529183.267553344951011, 7260949.900785415433347 ], [ 529176.564541301922873, 7260959.453693736344576 ], [ 529169.764880373957567, 7260967.913190307095647 ], [ 529163.473915160750039, 7260974.243011591956019 ], [ 529158.83475085219834, 7260977.913190307095647 ] ] } },
{ "type": "Feature", "properties": { "id": 8, "reference_id": 3, "dune_id": 3, "dune_name": "Big Mommy Dune", "acquisition_date": "2025-07-19", "length_m": 130.4879536368467 }, "geometry": { "type": "LineString", "coordinates": [ [ 530204.243011592305265, 7260580.087148198857903 ], [ 530197.91319030651357, 7260580.447091679088771 ], [ 530189.453693735180423, 7260581.540503429248929 ], [ 530179.900785414385609, 7260583.671070924960077 ], [ 530169.987933612894267, 7260586.340995462611318 ], [ 530159.999107789364643, 7260588.546644769608974 ], [ 530150.0, 7260590.0 ], [ 530140.0, 7260591.453355230391026 ], [ 530130.0, 7260593.659004537388682 ], [ 530120.000892210751772, 7260596.328929075039923 ], [ 530110.012066387222148, 7260598.459496571682394 ], [ 530100.099214585614391, 7260599.552908321842551 ], [ 530090.546306264819577, 7260599.912851802073419 ], [ 530082.08680969348643, 7260599.9888258241117 ], [ 530075.756988407694735, 7260599.999107789248228 ] ] } },
{ "type": "Feature", "properties": { "id": 9, "reference_id": 2, "dune_id": 2, "dune_name": "Big Mommy Dune", "acquisition_date": "2025-07-19", "length_m": 801.09318054334813 }, "geometry": { "type": "LineString", "coordinates": [ [ 529151.078100949409418, 7260978.448322394862771 ], [ 529146.078100949409418, 7260976.241780877113342 ], [ 529138.683442020905204, 7260973.211912859231234 ], [ 529129.677239574841224, 7260969.911959590390325 ], [ 529119.944359513698146, 7260966.318647108972073 ], [ 529109.993520701071247, 7260962.129675285890698 ], [ 529099.999553894624114, 7260957.433515002019703 ], [ 529090.0, 7260952.566484998911619 ], [ 529080.0, 7260947.870324715040624 ], [ 529070.0, 7260943.680460680276155 ], [ 529060.0, 7260940.076866232790053 ], [ 529050.0, 7260936.700938942842185 ], [ 529040.0, 7260933.311127443797886 ], [ 529030.0, 7260930.010281965136528 ], [ 529020.0, 7260926.766630999743938 ], [ 529010.0, 7260923.670178715139627 ], [ 529000.0, 7260921.104585926048458 ], [ 528990.0, 7260918.906588250771165 ], [ 528980.0, 7260916.405795307829976 ], [ 528970.0, 7260913.594204692170024 ], [ 528960.0, 7260911.094303959980607 ], [ 528950.0, 7260908.905696040019393 ], [ 528940.0, 7260906.405795308761299 ], [ 528930.0, 7260903.594204693101346 ], [ 528920.0, 7260901.093411750160158 ], [ 528910.0, 7260898.895414073951542 ], [ 528900.0, 7260896.329821285791695 ], [ 528890.0, 7260893.234261211939156 ], [ 528880.0, 7260890.0 ], [ 528870.0, 7260886.765738788992167 ], [ 528860.0, 7260883.670178715139627 ], [ 528850.0, 7260881.103693716228008 ], [ 528840.0, 7260878.896306285634637 ], [ 528830.0, 7260876.328929075971246 ], [ 528820.0, 7260873.223087035119534 ], [ 528810.0, 7260869.913744012825191 ], [ 528800.0, 7260866.328929075971246 ], [ 528790.0, 7260862.205649307928979 ], [ 528780.0, 7260857.793458482250571 ], [ 528770.0, 7260853.659896748140454 ], [ 528760.0, 7260849.999107789248228 ], [ 528750.0, 7260846.329821285791695 ], [ 528740.0, 7260842.13056749664247 ], [ 528730.0, 7260837.433515001088381 ], [ 528720.0, 7260832.566484998911619 ], [ 528710.0, 7260827.869432504288852 ], [ 528700.0, 7260823.670178714208305 ], [ 528690.0, 7260820.0 ], [ 528680.0, 7260816.329821285791695 ], [ 528670.0, 7260812.129675285890698 ], [ 528660.0, 7260807.422340825200081 ], [ 528650.0, 7260802.479336800053716 ], [ 528640.0, 7260797.422340825200081 ], [ 528630.0, 7260792.129675285890698 ], [ 528620.0, 7260786.329821286723018 ], [ 528610.0, 7260779.999107790179551 ], [ 528600.0, 7260773.659896748140454 ], [ 528590.0, 7260767.793458482250571 ], [ 528580.0, 7260762.205649306997657 ], [ 528570.0, 7260756.329821286723018 ], [ 528560.0, 7260749.924025977961719 ], [ 528550.0, 7260743.299061057157815 ], [ 528540.0, 7260736.688872556202114 ], [ 528530.0, 7260729.989718034863472 ], [ 528520.0, 7260723.233369001187384 ], [ 528510.0, 7260716.329821286723018 ], [ 528500.0, 7260708.896306284703314 ], [ 528490.0, 7260701.103693716228008 ], [ 528480.0, 7260693.670178715139627 ], [ 528470.000892210751772, 7260686.766630999743938 ], [ 528460.012066387105733, 7260680.0111741758883 ], [ 528450.099214585614391, 7260673.322301620617509 ], [ 528440.546306264819577, 7260666.788979352451861 ], [ 528432.08680969348643, 7260660.535132088698447 ], [ 528425.756988407694735, 7260655.309004518203437 ] ] } },
{ "type": "Feature", "properties": { "id": 10, "reference_id": 8, "dune_id": 8, "dune_name": "Inverted Y Dune", "acquisition_date": "2025-07-19", "length_m": 503.1955055300233 }, "geometry": { "type": "LineString", "coordinates": [ [ 530096.835089357104152, 7261581.078100949525833 ], [ 530098.164910642895848, 7261576.078100949525833 ], [ 530099.230640496360138, 7261568.683442020788789 ], [ 530099.787628336925991, 7261559.6772395754233 ], [ 530100.043574099196121, 7261549.944359513930976 ], [ 530100.441504590911791, 7261539.993520701304078 ], [ 530101.540057323407382, 7261529.999553894624114 ], [ 530103.670178714208305, 7261520.0 ], [ 530106.329821285791695, 7261510.0 ], [ 530108.459496571333148, 7261500.0 ], [ 530109.553800531546585, 7261490.0 ], [ 530109.924025978078134, 7261480.0 ], [ 530110.075974022038281, 7261470.000000000931323 ], [ 530110.44619946856983, 7261460.0 ], [ 530111.541395639418624, 7261450.0 ], [ 530113.681352890678681, 7261440.0 ], [ 530116.416969484300353, 7261430.0 ], [ 530118.907480461173691, 7261420.0 ], [ 530121.104585926048458, 7261410.0 ], [ 530123.670178714208305, 7261400.0 ], [ 530126.766630999278277, 7261390.0 ], [ 530130.01028196583502, 7261380.0 ], [ 530133.311127444147132, 7261370.0 ], [ 530136.700938943075016, 7261360.0 ], [ 530140.076866232673638, 7261350.0 ], [ 530143.681352890678681, 7261340.0 ], [ 530147.882391101680696, 7261330.0 ], [ 530152.664807373890653, 7261320.0 ], [ 530157.968647089553997, 7261310.000000000931323 ], [ 530164.129336780519225, 7261300.0 ], [ 530171.628543837927282, 7261290.000892210751772 ], [ 530180.458265855675563, 7261280.0111741758883 ], [ 530190.088040409144014, 7261270.088040409609675 ], [ 530200.011174176586792, 7261260.458265855908394 ], [ 530210.000892210751772, 7261251.628543837927282 ], [ 530220.0, 7261244.128444569185376 ], [ 530230.0, 7261237.958365123718977 ], [ 530240.0, 7261232.588833352550864 ], [ 530250.0, 7261227.522447621449828 ], [ 530260.0, 7261222.588833352550864 ], [ 530270.0, 7261217.958365123718977 ], [ 530280.0, 7261214.128444571048021 ], [ 530290.0, 7261211.628543838858604 ], [ 530299.999107789364643, 7261210.458265855908394 ], [ 530309.987933612894267, 7261210.088040409609675 ], [ 530319.900785414502025, 7261210.011174176819623 ], [ 530329.453693735180423, 7261210.000892211683095 ], [ 530337.91319030651357, 7261210.000000000931323 ], [ 530344.243011592305265, 7261210.000000000931323 ] ] } },
{ "type": "Feature", "properties": { "id": 11, "reference_id": 8, "dune_id": 8, "dune_name": "Inverted Y Dune", "acquisition_date": "2025-07-19", "length_m": 158.12563819908357 }, "geometry": { "type": "LineString", "coordinates": [ [ 530395.756988407694735, 7261210.000000000931323 ], [ 530402.08680969348643, 7261210.000000000931323 ], [ 530410.546306264819577, 7261210.000000000931323 ], [ 530420.099214585614391, 7261210.000000000931323 ], [ 530430.012066387222148, 7261210.000000000931323 ], [ 530440.000892210751772, 7261210.000000000931323 ], [ 530450.0, 7261209.999107790179551 ], [ 530460.0, 7261209.987933613359928 ], [ 530470.0, 7261209.901677625253797 ], [ 530480.0, 7261209.464867912232876 ], [ 530490.0, 7261208.00033850595355 ], [ 530499.999107789248228, 7261204.690995481796563 ], [ 530509.987933612894267, 7261199.465760122984648 ], [ 530519.900785414385609, 7261193.223087035119534 ], [ 530529.453693735296838, 7261186.776912964880466 ], [ 530537.91319030651357, 7261180.534239877015352 ], [ 530544.243011592305265, 7261175.309004518203437 ] ] } },
{ "type": "Feature", "properties": { "id": 12, "reference_id": 7, "dune_id": 7, "dune_name": "Inverted Y Dune", "acquisition_date": "2025-07-19", "length_m": 603.76556487648634 }, "geometry": { "type": "LineString", "coordinates": [ [ 530604.330159790813923, 7261375.756988408043981 ], [ 530598.361174196354114, 7261382.086809692904353 ], [ 530591.005371340434067, 7261390.546306265518069 ], [ 530583.658112327102572, 7261400.099214585497975 ], [ 530576.765738788526505, 7261410.012066386640072 ], [ 530570.01028196583502, 7261420.000892210751772 ], [ 530563.310235233511776, 7261430.0 ], [ 530556.690656977239996, 7261440.0 ], [ 530550.0, 7261450.0 ], [ 530543.309343022760004, 7261460.0 ], [ 530536.689764766488224, 7261470.000000000931323 ], [ 530529.988825823529623, 7261480.0 ], [ 530523.222194824367762, 7261490.0 ], [ 530516.242673087399453, 7261500.0 ], [ 530508.448322394862771, 7261510.0 ], [ 530499.552016110159457, 7261520.0 ], [ 530489.912851801607758, 7261529.999107789248228 ], [ 530479.988825823529623, 7261539.9888258241117 ], [ 530469.999107789364643, 7261549.912851801142097 ], [ 530460.0, 7261559.552016111090779 ], [ 530450.0, 7261568.448322394862771 ], [ 530440.0, 7261576.241780877113342 ], [ 530430.000000000116415, 7261583.211912859231234 ], [ 530420.0, 7261589.911959591321647 ], [ 530410.0, 7261596.317754898220301 ], [ 530400.0, 7261602.118501110002398 ], [ 530390.0, 7261607.346366802230477 ], [ 530380.0, 7261612.118501109071076 ], [ 530370.0, 7261616.318647109903395 ], [ 530360.0, 7261619.92313376814127 ], [ 530350.0, 7261623.299061057157815 ], [ 530340.0, 7261626.688872555270791 ], [ 530330.0, 7261629.9888258241117 ], [ 530320.0, 7261633.223087035119534 ], [ 530310.0, 7261636.253847263753414 ], [ 530300.0, 7261638.535470593720675 ], [ 530290.0, 7261639.999107789248228 ], [ 530280.0, 7261641.453355230391026 ], [ 530270.0, 7261643.659004538320005 ], [ 530260.0, 7261646.328929075971246 ], [ 530250.0, 7261648.459496572613716 ], [ 530240.0, 7261649.552908321842551 ], [ 530230.0, 7261649.912851802073419 ], [ 530220.0, 7261649.9888258241117 ], [ 530210.0, 7261649.999107790179551 ], [ 530200.0, 7261650.0 ], [ 530190.0, 7261650.0 ], [ 530180.0, 7261649.999107790179551 ], [ 530170.000000000116415, 7261649.987933613359928 ], [ 530160.000892210751772, 7261649.901677625253797 ], [ 530150.012066387222148, 7261649.465760122984648 ], [ 530140.099214585614391, 7261648.012404892593622 ], [ 530130.546306264819577, 7261644.789317857474089 ], [ 530122.08680969348643, 7261640.0 ], [ 530115.756988407694735, 7261635.210682142525911 ] ] } },
{ "type": "Feature", "properties": { "id": 13, "reference_id": 9, "dune_id": 9, "dune_name": "Inverted Y Dune", "acquisition_date": "2025-07-19", "length_m": 809.58112202260759 }, "geometry": { "type": "LineString", "coordinates": [ [ 529650.088040409144014, 7262234.243011592887342 ], [ 529650.458265855675563, 7262227.913190307095647 ], [ 529651.62765162717551, 7262219.453693735413253 ], [ 529654.118162604048848, 7262209.900785414502025 ], [ 529657.881498891045339, 7262199.987933613359928 ], [ 529662.216823483933695, 7262189.999107789248228 ], [ 529666.330713496543467, 7262180.0 ], [ 529669.924025978078134, 7262170.0 ], [ 529673.299953267676756, 7262160.0 ], [ 529676.700046732323244, 7262150.0 ], [ 529680.076866232673638, 7262140.0 ], [ 529683.680460680043325, 7262130.0 ], [ 529687.871216925210319, 7262120.0 ], [ 529692.576766964630224, 7262110.0 ], [ 529697.509489023126662, 7262100.0 ], [ 529702.490510976873338, 7262090.0 ], [ 529707.423233035369776, 7262080.0 ], [ 529712.129675285425037, 7262070.0 ], [ 529716.329821285791695, 7262060.0 ], [ 529720.0, 7262050.0 ], [ 529723.670178714208305, 7262040.0 ], [ 529727.870324714574963, 7262030.0 ], [ 529732.576766964630224, 7262020.0 ], [ 529737.509489023126662, 7262010.0 ], [ 529742.490510976989754, 7262000.0 ], [ 529747.423233035369776, 7261990.0 ], [ 529752.128783074789681, 7261980.0 ], [ 529756.319539319956675, 7261970.0 ], [ 529759.923133767326362, 7261960.0 ], [ 529763.299061056924984, 7261950.0 ], [ 529766.689764766488224, 7261940.0 ], [ 529770.0, 7261930.0 ], [ 529773.309343022760004, 7261920.0 ], [ 529776.690656977239996, 7261910.0 ], [ 529780.000892210751772, 7261900.0 ], [ 529783.32051719923038, 7261890.0 ], [ 529786.777805175632238, 7261880.0 ], [ 529790.447983889840543, 7261870.0 ], [ 529794.861912838649005, 7261860.0 ], [ 529800.45915806631092, 7261850.0 ], [ 529806.864953374140896, 7261840.000000000931323 ], [ 529813.768501089187339, 7261830.0 ], [ 529821.552569815889001, 7261820.0 ], [ 529830.447983889840543, 7261810.0 ], [ 529840.087148198392242, 7261800.0 ], [ 529850.011174176470377, 7261790.0 ], [ 529860.000892210751772, 7261780.0 ], [ 529870.0, 7261770.0 ], [ 529880.0, 7261760.0 ], [ 529890.0, 7261750.000892210751772 ], [ 529900.0, 7261740.011174176819623 ], [ 529910.0, 7261730.087148198857903 ], [ 529920.0, 7261720.447983889840543 ], [ 529930.0, 7261711.551677605137229 ], [ 529940.0, 7261703.757326913066208 ], [ 529950.0, 7261696.777805175632238 ], [ 529960.0, 7261690.011174176819623 ], [ 529970.0, 7261683.311127444729209 ], [ 529980.0, 7261676.700938943773508 ], [ 529990.0, 7261670.075974022038281 ], [ 530000.0, 7261663.670178715139627 ], [ 530010.0, 7261657.794350693002343 ], [ 530020.0, 7261652.205649306997657 ], [ 530030.0, 7261646.328929075971246 ], [ 530039.999107789364643, 7261639.912851801142097 ], [ 530049.988379718270153, 7261633.212358963675797 ], [ 530059.906372502679005, 7261626.248260175809264 ], [ 530069.497267834376544, 7261618.503962881863117 ], [ 530078.136736146174371, 7261609.874776534736156 ], [ 530085.013263306696899, 7261601.22940978128463 ], [ 530089.748279663734138, 7261593.910724874585867 ], [ 530092.618604378192686, 7261588.921006839722395 ] ] } }
]
}
