{
"type": "FeatureCollection",
"name": "crests_2022_09_2022-09-26",
"crs": { "type": "name", "properties": { "name": "urn:ogc:def:crs:EPSG::32733" } },
"features": [
{ "type": "Feature", "properties": { "id": 0, "reference_id": 2, "dune_id": 2, "dune_name": "Big Mommy Dune", "acquisition_date": "2022-09-26", "length_m": 791.23507184809512 }, "geometry": { "type": "LineString", "coordinates": [ [ 529151.078100949409418, 7260969.9888258241117 ], [ 529146.078100949409418, 7260969.911959590390325 ], [ 529138.683442020905204, 7260969.541734144091606 ], [ 529129.677239574841224, 7260968.371456163004041 ], [ 529119.944359513698146, 7260965.871555430814624 ], [ 529109.993520701071247, 7260962.041634876281023 ], [ 529099.999553894624114, 7260957.412058860063553 ], [ 529090.0, 7260952.488726556301117 ], [ 529080.0, 7260947.499207057058811 ], [ 529070.0, 7260942.500792942941189 ], [ 529060.0, 7260937.511273444630206 ], [ 529050.0, 7260932.58794114086777 ], [ 529040.0, 7260927.957472912967205 ], [ 529030.0, 7260924.117270393297076 ], [ 529020.0, 7260921.541395640000701 ], [ 529010.0, 7260920.0111741758883 ], [ 529000.0, 7260918.546644769608974 ], [ 528990.0, 7260916.329821285791695 ], [ 528980.0, 7260913.583922727033496 ], [ 528970.0, 7260911.093411749228835 ], [ 528960.0, 7260908.906588250771165 ], [ 528950.0, 7260906.416077273897827 ], [ 528940.0, 7260903.670178715139627 ], [ 528930.0, 7260901.454247441142797 ], [ 528920.0, 7260899.999107789248228 ], [ 528910.0, 7260898.535470593720675 ], [ 528900.0, 7260896.253847263753414 ], [ 528890.0, 7260893.223087035119534 ], [ 528880.0, 7260889.9888258241117 ], [ 528870.0, 7260886.689764766022563 ], [ 528860.0, 7260883.309343023225665 ], [ 528850.0, 7260880.0 ], [ 528840.0, 7260876.690656977705657 ], [ 528830.0, 7260873.309343023225665 ], [ 528820.0, 7260870.0 ], [ 528810.0, 7260866.690656977705657 ], [ 528800.0, 7260863.309343023225665 ], [ 528790.0, 7260860.0 ], [ 528780.0, 7260856.689764766953886 ], [ 528770.0, 7260853.299061057157815 ], [ 528760.0, 7260849.92313376814127 ], [ 528750.0, 7260846.319539319723845 ], [ 528740.0, 7260842.128783075138927 ], [ 528730.0, 7260837.423233035951853 ], [ 528720.0, 7260832.489618767052889 ], [ 528710.0, 7260827.499207057058811 ], [ 528700.0, 7260822.499900732189417 ], [ 528690.0, 7260817.500099267810583 ], [ 528680.0, 7260812.499900732189417 ], [ 528670.0, 7260807.500099267810583 ], [ 528660.0, 7260802.499900732189417 ], [ 528650.0, 7260797.500099267810583 ], [ 528640.0, 7260792.499900732189417 ], [ 528630.0, 7260787.499207057058811 ], [ 528620.0, 7260782.489618767052889 ], [ 528610.0, 7260777.423233035951853 ], [ 528600.0, 7260772.129675285890698 ], [ 528590.0, 7260766.329821285791695 ], [ 528580.0, 7260759.999107789248228 ], [ 528570.0, 7260753.659896748140454 ], [ 528560.0, 7260747.793458482250571 ], [ 528550.0, 7260742.205649307928979 ], [ 528540.0, 7260736.328929075971246 ], [ 528530.0, 7260729.913744011893868 ], [ 528520.0, 7260723.223087035119534 ], [ 528510.0, 7260716.328929075971246 ], [ 528500.0, 7260708.895414074882865 ], [ 528490.0, 7260701.092519539408386 ], [ 528480.000892210751772, 7260693.583922727033496 ], [ 528470.012066387105733, 7260686.33071349747479 ], [ 528460.099214585614391, 7260678.557818946428597 ], [ 528450.546306264819577, 7260670.099214585497975 ], [ 528442.08680969348643, 7260661.999661495909095 ], [ 528435.756988407694735, 7260655.745814232155681 ] ] } },
{ "type": "Feature", "properties": { "id": 1, "reference_id": 5, "dune_id": 5, "dune_name": "The Star Dune", "acquisition_date": "2022-09-26", "length_m": 1097.5291036492315 }, "geometry": { "type": "LineString", "coordinates": [ [ 534313.670178714208305, 7261345.756988408043981 ], [ 534316.329821285791695, 7261352.086809692904353 ], [ 534318.459496571216732, 7261360.546306265518069 ], [ 534319.553800531546585, 7261370.099214585497975 ], [ 534319.924025978078134, 7261380.012066387571394 ], [ 534320.075974021921866, 7261390.000892210751772 ], [ 534320.446199468453415, 7261400.0 ], [ 534321.540503428666852, 7261410.0 ], [ 534323.670178714208305, 7261420.0 ], [ 534326.329821285791695, 7261430.0 ], [ 534328.459496571333148, 7261440.0 ], [ 534329.552908320794813, 7261450.0 ], [ 534329.912851801607758, 7261460.0 ], [ 534329.988825823529623, 7261470.000000000931323 ], [ 534329.998215578729287, 7261480.0 ], [ 534329.988825823529623, 7261490.0 ], [ 534329.912851801607758, 7261500.0 ], [ 534329.552016110159457, 7261510.0 ], [ 534328.447430184110999, 7261520.0 ], [ 534326.23060670029372, 7261530.0 ], [ 534323.123872449505143, 7261539.999107789248228 ], [ 534319.453693735296838, 7261549.9888258241117 ], [ 534314.690103271510452, 7261559.912851802073419 ], [ 534308.000338505022228, 7261569.552908320911229 ], [ 534299.464867911767215, 7261578.458604360930622 ], [ 534289.901677625020966, 7261586.318647108972073 ], [ 534279.987933612894267, 7261593.583030516281724 ], [ 534269.999107789248228, 7261601.092519540339708 ], [ 534260.0, 7261608.895414074882865 ], [ 534250.0, 7261616.328929075971246 ], [ 534240.0, 7261623.223087035119534 ], [ 534230.0, 7261629.913744011893868 ], [ 534220.0, 7261636.328929075971246 ], [ 534210.0, 7261642.204757097177207 ], [ 534200.0, 7261647.782284306362271 ], [ 534190.0, 7261653.571856340393424 ], [ 534180.0, 7261659.540841933339834 ], [ 534170.0, 7261664.701277447864413 ], [ 534160.0, 7261668.002122926525772 ], [ 534150.0, 7261669.476042088121176 ], [ 534140.0, 7261669.9888258241117 ], [ 534130.0, 7261670.435025292448699 ], [ 534120.0, 7261671.539611218497157 ], [ 534110.0, 7261673.670178714208305 ], [ 534100.0, 7261676.329821285791695 ], [ 534090.0, 7261678.460388781502843 ], [ 534080.0, 7261679.564082497730851 ], [ 534070.0, 7261680.0 ], [ 534060.0, 7261680.435917503200471 ], [ 534050.0, 7261681.539611218497157 ], [ 534040.0, 7261683.670178715139627 ], [ 534030.0, 7261686.33071349747479 ], [ 534020.0, 7261688.470670748502016 ], [ 534010.0, 7261689.64005651883781 ], [ 534000.0, 7261690.35994348116219 ], [ 533990.0, 7261691.530221464112401 ], [ 533980.0, 7261693.680460680276155 ], [ 533970.0, 7261696.417861695401371 ], [ 533960.0, 7261698.917762426659465 ], [ 533950.0, 7261701.180559948086739 ], [ 533940.0, 7261704.031014405190945 ], [ 533930.0, 7261707.871216925792396 ], [ 533920.0, 7261712.22710544988513 ], [ 533910.0, 7261716.417861695401371 ], [ 533900.0, 7261720.37111765705049 ], [ 533890.0, 7261724.840456696227193 ], [ 533880.0, 7261730.370225447230041 ], [ 533870.0, 7261736.406687518581748 ], [ 533860.0, 7261742.140849461778998 ], [ 533850.0, 7261747.434407211840153 ], [ 533840.0, 7261752.566484998911619 ], [ 533830.0, 7261757.870324714109302 ], [ 533820.000892210635357, 7261763.681352891027927 ], [ 533810.011174176470377, 7261770.088040409609675 ], [ 533800.087148198392242, 7261776.788087141700089 ], [ 533790.447983889840543, 7261783.75821912381798 ], [ 533781.552569815889001, 7261791.551677605137229 ], [ 533773.768501089070924, 7261800.447983889840543 ], [ 533766.864953374140896, 7261810.087148198857903 ], [ 533760.45915806631092, 7261820.011174176819623 ], [ 533754.862805049400777, 7261830.000892210751772 ], [ 533750.458265855675563, 7261840.000000000931323 ], [ 533746.853779197670519, 7261850.0 ], [ 533743.68046067992691, 7261860.0 ], [ 533741.094303960213438, 7261870.0 ], [ 533738.819440052029677, 7261880.0 ], [ 533735.958703628624789, 7261890.0 ], [ 533732.052809052867815, 7261900.0 ], [ 533727.412951069651172, 7261910.0 ], [ 533722.488726555602625, 7261920.0 ], [ 533717.49831484653987, 7261930.0 ], [ 533712.489618766237982, 7261940.0 ], [ 533707.423233035369776, 7261950.0 ], [ 533702.129675285541452, 7261960.0 ], [ 533696.32982128590811, 7261970.0 ], [ 533689.999107789364643, 7261980.0 ], [ 533683.659896748373285, 7261989.999553894624114 ], [ 533677.794350692536682, 7261999.993520701304078 ], [ 533672.217715694569051, 7262009.944359513930976 ], [ 533666.428143660770729, 7262019.677239574491978 ], [ 533660.45915806631092, 7262028.683442020788789 ], [ 533655.298722552019171, 7262036.078100949525833 ], [ 533651.998769284458831, 7262041.078100949525833 ] ] } },
{ "type": "Feature", "properties": { "id": 2, "reference_id": 3, "dune_id": 3, "dune_name": "Big Mommy Dune", "acquisition_date": "2022-09-26", "length_m": 879.35328643377909 }, "geometry": { "type": "LineString", "coordinates": [ [ 529894.243011592421681, 7260606.329821286723018 ], [ 529887.91319030651357, 7260603.670178715139627 ], [ 529879.453693735180423, 7260601.540503429248929 ], [ 529869.900785414385609, 7260600.447091680020094 ], [ 529859.987933612894267, 7260600.087148198857903 ], [ 529849.999107789364643, 7260600.011174176819623 ], [ 529840.0, 7260600.000892210751772 ], [ 529830.0, 7260600.0 ], [ 529820.0, 7260600.0 ], [ 529810.0, 7260600.000892210751772 ], [ 529800.0, 7260600.011174176819623 ], [ 529790.0, 7260600.087148198857903 ], [ 529780.0, 7260600.447091680020094 ], [ 529770.0, 7260601.540503429248929 ], [ 529760.0, 7260603.670178715139627 ], [ 529750.0, 7260606.329821286723018 ], [ 529740.0, 7260608.459496571682394 ], [ 529730.0, 7260609.552908320911229 ], [ 529720.0, 7260609.913744012825191 ], [ 529710.0, 7260610.0 ], [ 529700.0, 7260610.086255988106132 ], [ 529690.0, 7260610.447091680020094 ], [ 529680.0, 7260611.540503429248929 ], [ 529670.0, 7260613.670178715139627 ], [ 529660.0, 7260616.329821286723018 ], [ 529650.0, 7260618.460388782434165 ], [ 529640.0, 7260619.564082497730851 ], [ 529630.0, 7260620.0 ], [ 529620.0, 7260620.435917503200471 ], [ 529610.0, 7260621.539611218497157 ], [ 529600.0, 7260623.671070924960077 ], [ 529590.0, 7260626.340995462611318 ], [ 529580.0, 7260628.546644769608974 ], [ 529570.0, 7260630.000892210751772 ], [ 529560.0, 7260631.464529407210648 ], [ 529550.0, 7260633.746152736246586 ], [ 529540.0, 7260636.776020754128695 ], [ 529530.0, 7260640.000892210751772 ], [ 529520.0, 7260643.234261212870479 ], [ 529510.0, 7260646.329821286723018 ], [ 529500.000000000116415, 7260648.896306285634637 ], [ 529490.0, 7260651.103693716228008 ], [ 529480.0, 7260653.670178714208305 ], [ 529470.0, 7260656.766630999743938 ], [ 529460.0, 7260660.010281966067851 ], [ 529450.0, 7260663.310235233977437 ], [ 529440.000000000116415, 7260666.690656977705657 ], [ 529430.0, 7260670.000892210751772 ], [ 529420.0, 7260673.320517199113965 ], [ 529410.0, 7260676.777805175632238 ], [ 529400.0, 7260680.447983888909221 ], [ 529390.0, 7260684.861912839114666 ], [ 529380.0, 7260690.459158066660166 ], [ 529370.0, 7260696.864953374490142 ], [ 529360.000892210635357, 7260703.768501089885831 ], [ 529350.011174176586792, 7260711.552569815889001 ], [ 529340.087148198392242, 7260720.447983889840543 ], [ 529330.447983889840543, 7260730.087148198857903 ], [ 529321.551677605253644, 7260740.011174176819623 ], [ 529313.757326912716962, 7260750.000892210751772 ], [ 529306.777805175748654, 7260760.0 ], [ 529300.011174176470377, 7260770.0 ], [ 529293.311127444147132, 7260780.000000000931323 ], [ 529286.700938943075016, 7260790.0 ], [ 529280.075974022038281, 7260800.0 ], [ 529273.670178714208305, 7260810.0 ], [ 529267.794350692536682, 7260820.0 ], [ 529262.205649307463318, 7260830.0 ], [ 529256.32982128590811, 7260840.0 ], [ 529249.924025978078134, 7260850.0 ], [ 529243.299953267676756, 7260860.0 ], [ 529236.700046732323244, 7260870.0 ], [ 529230.075974021921866, 7260880.0 ], [ 529223.670178714208305, 7260890.0 ], [ 529217.794350692536682, 7260900.0 ], [ 529212.206541518098675, 7260910.0 ], [ 529206.340995462262072, 7260920.0 ], [ 529200.012066387105733, 7260929.999107789248228 ], [ 529193.758219123352319, 7260939.987933613359928 ], [ 529188.328590570250526, 7260949.900785415433347 ], [ 529184.205310802557506, 7260959.453693736344576 ], [ 529181.638825803645886, 7260967.913190307095647 ], [ 529180.45915806631092, 7260974.243011591956019 ] ] } },
{ "type": "Feature", "properties": { "id": 3, "reference_id": 3, "dune_id": 3, "dune_name": "Big Mommy Dune", "acquisition_date": "2022-09-26", "length_m": 323.77107909984193 }, "geometry": { "type": "LineString", "coordinates": [ [ 530244.243011592421681, 7260570.000892210751772 ], [ 530237.91319030651357, 7260570.011174176819623 ], [ 530229.453693735180423, 7260570.087148198857903 ], [ 530219.900785414385609, 7260570.447091680020094 ], [ 530209.987933612894267, 7260571.540503429248929 ], [ 530199.999107789248228, 7260573.671070925891399 ], [ 530190.0, 7260576.340995462611318 ], [ 530180.0, 7260578.546644769608974 ], [ 530170.000000000116415, 7260580.0 ], [ 530160.0, 7260581.454247441142797 ], [ 530150.0, 7260583.670178714208305 ], [ 530140.0, 7260586.416077273897827 ], [ 530130.0, 7260588.906588250771165 ], [ 530120.0, 7260591.093411749228835 ], [ 530110.0, 7260593.583922727033496 ], [ 530100.0, 7260596.329821285791695 ], [ 530090.0, 7260598.545752558857203 ], [ 530080.0, 7260600.0 ], [ 530070.0, 7260601.452463020570576 ], [ 530060.0, 7260603.647830361500382 ], [ 530050.0, 7260606.241780877113342 ], [ 530040.0, 7260608.012404892593622 ], [ 530030.0, 7260608.013297103345394 ], [ 530020.0, 7260606.253847263753414 ], [ 530010.0, 7260603.745260525494814 ], [ 530000.0, 7260601.975528720766306 ], [ 529990.0, 7260601.900446909479797 ], [ 529980.0, 7260603.310235233977437 ], [ 529970.000892210635357, 7260604.800492033362389 ], [ 529960.012066387105733, 7260604.790210068225861 ], [ 529950.099214585614391, 7260603.223087035119534 ], [ 529940.546306264819577, 7260601.453355230391026 ], [ 529932.08680969348643, 7260600.435917503200471 ], [ 529925.756988407694735, 7260600.086255988106132 ] ] } },
{ "type": "Feature", "properties": { "id": 4, "reference_id": 8, "dune_id": 8, "dune_name": "Inverted Y Dune", "acquisition_date": "2022-09-26", "length_m": 733.82800188870294 }, "geometry": { "type": "LineString", "coordinates": [ [ 530554.243011592305265, 7261172.075635517016053 ], [ 530547.91319030651357, 7261175.668947998434305 ], [ 530539.453693735296838, 7261181.627651628106833 ], [ 530529.900785414385609, 7261188.906588250771165 ], [ 530519.987933612894267, 7261195.882729606702924 ], [ 530509.999107789248228, 7261201.595435407944024 ], [ 530500.0, 7261205.78440723195672 ], [ 530490.0, 7261208.360281986184418 ], [ 530480.0, 7261209.540841934271157 ], [ 530470.0, 7261209.911067380569875 ], [ 530460.0, 7261209.977651647292078 ], [ 530450.0, 7261209.911959591321647 ], [ 530440.0, 7261209.552908320911229 ], [ 530430.000000000116415, 7261208.459496571682394 ], [ 530420.0, 7261206.329821285791695 ], [ 530410.0, 7261203.670178713276982 ], [ 530400.0, 7261201.540503428317606 ], [ 530390.0, 7261200.447091678157449 ], [ 530380.0, 7261200.087148198857903 ], [ 530370.0, 7261200.0111741758883 ], [ 530360.0, 7261200.001784421503544 ], [ 530350.0, 7261200.0111741758883 ], [ 530340.0, 7261200.087148198857903 ], [ 530330.0, 7261200.447983888909221 ], [ 530320.0, 7261201.551677605137229 ], [ 530310.0, 7261203.757326912134886 ], [ 530300.0, 7261206.777805175632238 ], [ 530290.0, 7261210.012066387571394 ], [ 530280.0, 7261213.321409409865737 ], [ 530270.0, 7261216.777805175632238 ], [ 530260.0, 7261220.447983890771866 ], [ 530250.0, 7261224.861912839114666 ], [ 530240.0, 7261230.459158066660166 ], [ 530230.0, 7261236.864953374490142 ], [ 530220.000892210635357, 7261243.768501089885831 ], [ 530210.011174176470377, 7261251.552569815889001 ], [ 530200.088040409144014, 7261260.447983890771866 ], [ 530190.458265855675563, 7261270.087148198857903 ], [ 530181.628543837810867, 7261280.0111741758883 ], [ 530174.128444569883868, 7261290.000892210751772 ], [ 530167.958365123602562, 7261300.0 ], [ 530162.588833351852372, 7261310.000000000931323 ], [ 530157.521555410232395, 7261320.0 ], [ 530152.577659175381996, 7261330.0 ], [ 530147.871216925326735, 7261340.0 ], [ 530143.681352890678681, 7261350.0 ], [ 530140.087148198392242, 7261360.0 ], [ 530136.776912964996882, 7261370.0 ], [ 530133.671070924960077, 7261380.0 ], [ 530131.104585926048458, 7261390.0 ], [ 530128.907480461173691, 7261400.0 ], [ 530126.416969484183937, 7261410.0 ], [ 530123.680460680043325, 7261420.0 ], [ 530121.530221462948248, 7261430.0 ], [ 530120.359943480812944, 7261440.0 ], [ 530119.640056519303471, 7261450.0 ], [ 530118.470670747803524, 7261460.0 ], [ 530116.330713496543467, 7261470.000000000931323 ], [ 530113.670178714208305, 7261480.0 ], [ 530111.540503428666852, 7261490.0 ], [ 530110.447091679205187, 7261500.0 ], [ 530110.086255987756886, 7261510.0 ], [ 530110.0, 7261520.0 ], [ 530109.913744012243114, 7261530.0 ], [ 530109.552908320911229, 7261539.999553894624114 ], [ 530108.459496571333148, 7261549.993520701304078 ], [ 530106.329821285791695, 7261559.944359513930976 ], [ 530103.670178714208305, 7261569.6772395754233 ], [ 530101.540503428783268, 7261578.683442020788789 ], [ 530100.447091679205187, 7261586.078100949525833 ], [ 530100.087148198508658, 7261591.078100949525833 ] ] } },
{ "type": "Feature", "properties": { "id": 5, "reference_id": 9, "dune_id": 9, "dune_name": "Inverted Y Dune", "acquisition_date": "2022-09-26", "length_m": 764.59372658690302 }, "geometry": { "type": "LineString", "coordinates": [ [ 530097.91319030651357, 7261598.833858641795814 ], [ 530094.243011592421681, 7261603.463633195497096 ], [ 530087.913190306629986, 7261609.688906352967024 ], [ 530079.453693735180423, 7261616.204597821459174 ], [ 530069.900785414502025, 7261622.174141596071422 ], [ 530059.987933612894267, 7261627.788763605058193 ], [ 530049.999107789364643, 7261633.659450643695891 ], [ 530040.0, 7261640.0 ], [ 530030.0, 7261646.340103251859546 ], [ 530020.0, 7261652.206541517749429 ], [ 530010.0, 7261657.794350693002343 ], [ 530000.0, 7261663.671070925891399 ], [ 529990.0, 7261670.086255988106132 ], [ 529980.0, 7261676.776912964880466 ], [ 529970.0, 7261683.671070925891399 ], [ 529960.0, 7261691.10458592697978 ], [ 529950.0, 7261698.907480461522937 ], [ 529940.0, 7261706.416969484649599 ], [ 529930.0, 7261713.681352891027927 ], [ 529920.0, 7261721.541395640000701 ], [ 529910.0, 7261730.447091680020094 ], [ 529900.0, 7261740.087148198857903 ], [ 529890.0, 7261750.011174176819623 ], [ 529880.0, 7261760.000892210751772 ], [ 529870.0, 7261770.0 ], [ 529860.000892210751772, 7261780.0 ], [ 529850.011174176470377, 7261790.0 ], [ 529840.088040409144014, 7261800.0 ], [ 529830.458265855675563, 7261810.0 ], [ 529821.628543837927282, 7261820.0 ], [ 529814.129336780519225, 7261830.0 ], [ 529807.968647089437582, 7261840.000000000931323 ], [ 529802.664807373774238, 7261850.0 ], [ 529797.881498891045339, 7261860.0 ], [ 529793.671070924843661, 7261870.0 ], [ 529790.000892210751772, 7261880.0 ], [ 529786.340103251626715, 7261890.0 ], [ 529782.206541518098675, 7261900.0 ], [ 529777.79345848178491, 7261910.0 ], [ 529773.659896748373285, 7261920.0 ], [ 529769.999107789364643, 7261930.0 ], [ 529766.329821285791695, 7261940.0 ], [ 529762.130567496176809, 7261950.0 ], [ 529757.433515001088381, 7261960.0 ], [ 529752.566484998911619, 7261970.0 ], [ 529747.869432503823191, 7261980.0 ], [ 529743.670178714208305, 7261990.0 ], [ 529740.000892210751772, 7262000.0 ], [ 529736.340103251626715, 7262010.0 ], [ 529732.20654151821509, 7262020.0 ], [ 529727.794350692536682, 7262030.0 ], [ 529723.670178714208305, 7262040.0 ], [ 529720.075081811286509, 7262050.0 ], [ 529716.689764766488224, 7262060.0 ], [ 529713.223979245638475, 7262070.0 ], [ 529709.563190286629833, 7262080.0 ], [ 529705.226127570495009, 7262090.0 ], [ 529699.999107789248228, 7262100.0 ], [ 529694.763590463669971, 7262110.0 ], [ 529690.359943480812944, 7262120.0 ], [ 529686.405795307713561, 7262130.0 ], [ 529682.140849462011829, 7262140.0 ], [ 529677.435299422475509, 7262149.999107789248228 ], [ 529672.577659175381996, 7262159.987933613359928 ], [ 529667.957472912967205, 7262169.900785414502025 ], [ 529664.128444569883868, 7262179.453693735413253 ], [ 529661.628543837927282, 7262187.913190307095647 ], [ 529660.458265855675563, 7262194.243011591956019 ] ] } },
{ "type": "Feature", "properties": { "id": 6, "reference_id": 1, "dune_id": 1, "dune_name": "Big Mommy Dune", "acquisition_date": "2022-09-26", "length_m": 1362.5267862131209 }, "geometry": { "type": "LineString", "coordinates": [ [ 528825.756988407694735, 7262232.041634876281023 ], [ 528832.08680969348643, 7262232.200484504923224 ], [ 528840.546306264819577, 7262230.490849481895566 ], [ 528850.099214585497975, 7262226.888100947253406 ], [ 528860.012066387222148, 7262222.030460700392723 ], [ 528870.000892210751772, 7262216.306580722332001 ], [ 528880.0, 7262209.911067381501198 ], [ 528890.0, 7262203.211912859231234 ], [ 528900.0, 7262196.241780877113342 ], [ 528910.0, 7262188.448322394862771 ], [ 528919.999107789364643, 7262179.552016110159457 ], [ 528929.988825823529623, 7262169.912851802073419 ], [ 528939.912851801607758, 7262159.9888258241117 ], [ 528949.552016110159457, 7262149.999107789248228 ], [ 528958.447430184110999, 7262140.0 ], [ 528966.231498910929076, 7262130.0 ], [ 528973.135046625975519, 7262120.0 ], [ 528979.540841933805496, 7262110.0 ], [ 528985.138087161350995, 7262100.0 ], [ 528989.552016110159457, 7262090.0 ], [ 528993.222194824367762, 7262080.0 ], [ 528996.67948280076962, 7262070.0 ], [ 528999.999107789364643, 7262060.0 ], [ 529003.310235233511776, 7262050.0 ], [ 529006.701831153710373, 7262040.0 ], [ 529010.087148198508658, 7262030.0 ], [ 529013.757326912600547, 7262020.0 ], [ 529018.241442371741869, 7262010.0 ], [ 529023.747044946881942, 7262000.0 ], [ 529030.011174176586792, 7261990.0 ], [ 529036.340995462378487, 7261980.0 ], [ 529042.206541518098675, 7261970.0 ], [ 529047.794350692536682, 7261960.0 ], [ 529053.670178714208305, 7261950.0 ], [ 529060.075081811286509, 7261940.0 ], [ 529066.68976476660464, 7261930.0 ], [ 529073.223087035003118, 7261920.0 ], [ 529079.552016110159457, 7261910.0 ], [ 529085.138087161350995, 7261900.0 ], [ 529089.54084193368908, 7261890.0 ], [ 529093.135046625975519, 7261880.0 ], [ 529096.23060670029372, 7261870.0 ], [ 529098.436256007757038, 7261860.0 ], [ 529099.463975701015443, 7261850.0 ], [ 529099.454585945932195, 7261840.000000000931323 ], [ 529098.360281985718757, 7261830.0 ], [ 529095.870663219597191, 7261820.0 ], [ 529092.041634876397438, 7261810.0 ], [ 529087.411166648147628, 7261800.0 ], [ 529082.478444589767605, 7261790.0 ], [ 529077.42234082473442, 7261780.0 ], [ 529072.129675285425037, 7261770.0 ], [ 529066.329821285791695, 7261760.0 ], [ 529060.0, 7261750.0 ], [ 529053.670178714208305, 7261740.0 ], [ 529047.870324714458548, 7261730.000000000931323 ], [ 529042.577659175381996, 7261720.0 ], [ 529037.521555410232395, 7261710.0 ], [ 529032.588833351852372, 7261700.0 ], [ 529027.958365123718977, 7261690.0 ], [ 529024.128444569883868, 7261680.0 ], [ 529021.628543837927282, 7261670.0 ], [ 529020.458265855675563, 7261660.0 ], [ 529020.088040409144014, 7261650.0 ], [ 529020.011174176470377, 7261640.0 ], [ 529020.000892210751772, 7261630.0 ], [ 529020.0, 7261620.0 ], [ 529020.0, 7261610.0 ], [ 529020.0, 7261600.0 ], [ 529020.000892210751772, 7261590.0 ], [ 529020.011174176470377, 7261580.0 ], [ 529020.087148198508658, 7261570.0 ], [ 529020.447091679205187, 7261560.000000000931323 ], [ 529021.541395639418624, 7261550.0 ], [ 529023.681352890678681, 7261540.0 ], [ 529026.416969484183937, 7261530.0 ], [ 529028.906588250538334, 7261520.0 ], [ 529031.094303960213438, 7261510.0 ], [ 529033.594204692286439, 7261500.0 ], [ 529036.405795307829976, 7261490.0 ], [ 529038.906588250538334, 7261480.0 ], [ 529041.104585926048458, 7261470.000000000931323 ], [ 529043.671070924843661, 7261460.0 ], [ 529046.776912964880466, 7261450.0 ], [ 529050.087148198508658, 7261440.0 ], [ 529053.681352890678681, 7261430.0 ], [ 529057.870324714574963, 7261420.0 ], [ 529062.566484998911619, 7261410.0 ], [ 529067.433515001088381, 7261400.0 ], [ 529072.130567496176809, 7261390.0 ], [ 529076.329821285791695, 7261380.0 ], [ 529080.0, 7261370.0 ], [ 529083.670178714208305, 7261360.0 ], [ 529087.869432503823191, 7261350.0 ], [ 529092.565592788159847, 7261340.0 ], [ 529097.423233035369776, 7261330.0 ], [ 529102.053701263503172, 7261320.0 ], [ 529105.959595839260146, 7261310.000000000931323 ], [ 529108.829722017748281, 7261300.0 ], [ 529111.170277982251719, 7261290.0 ], [ 529114.040404160739854, 7261280.0 ], [ 529117.946298736496828, 7261270.0 ], [ 529122.576766964630224, 7261260.0 ], [ 529127.434407211840153, 7261250.0 ], [ 529132.130567496176809, 7261240.0 ], [ 529136.329821285791695, 7261230.0 ], [ 529140.0, 7261220.0 ], [ 529143.670178714208305, 7261210.000000000931323 ], [ 529147.869432503823191, 7261200.0 ], [ 529152.566484998911619, 7261190.0 ], [ 529157.433515001088381, 7261180.0 ], [ 529162.129675285541452, 7261170.0 ], [ 529166.318647109437734, 7261160.0 ], [ 529169.911959590855986, 7261150.0 ], [ 529173.212805069284514, 7261140.0 ], [ 529176.252062842482701, 7261130.0 ], [ 529178.524296416784637, 7261120.000000000931323 ], [ 529179.911959590855986, 7261110.0 ], [ 529181.007155761821195, 7261100.0 ], [ 529182.128783074789681, 7261090.0 ], [ 529182.734724382869899, 7261080.0 ], [ 529182.489618766237982, 7261070.000892210751772 ], [ 529182.186823499156162, 7261060.012066387571394 ], [ 529182.489618766237982, 7261050.099214585497975 ], [ 529182.735616593621671, 7261040.546306265518069 ], [ 529182.139957251260057, 7261032.086809692904353 ], [ 529181.094303960213438, 7261025.756988408043981 ] ] } },
{ "type": "Feature", "properties": { "id": 7, "reference_id": 4, "dune_id": 4, "dune_name": "The Star Dune", "acquisition_date": "2022-09-26", "length_m": 542.52010160963005 }, "geometry": { "type": "LineString", "coordinates": [ [ 533524.243011592421681, 7262019.465760122984648 ], [ 533517.91319030651357, 7262018.01151268184185 ], [ 533509.453693735296838, 7262014.778143681585789 ], [ 533499.900785414385609, 7262009.912851802073419 ], [ 533489.987933612894267, 7262004.762698253616691 ], [ 533479.999107789364643, 7262000.435917503200471 ], [ 533470.0, 7261996.776912964880466 ], [ 533460.0, 7261993.320517199113965 ], [ 533450.0, 7261990.000892210751772 ], [ 533440.0, 7261986.690656976774335 ], [ 533430.0, 7261983.309343023225665 ], [ 533420.0, 7261980.0 ], [ 533410.0, 7261976.690656977705657 ], [ 533400.000000000116415, 7261973.310235233977437 ], [ 533390.0, 7261970.010281966067851 ], [ 533380.000000000116415, 7261966.766630999743938 ], [ 533370.0, 7261963.670178714208305 ], [ 533360.0, 7261961.103693716228008 ], [ 533350.0, 7261958.896306285634637 ], [ 533340.0, 7261956.329821286723018 ], [ 533330.0, 7261953.233369001187384 ], [ 533320.0, 7261949.989718034863472 ], [ 533310.0, 7261946.689764766022563 ], [ 533300.0, 7261943.310235233977437 ], [ 533290.0, 7261940.010281966067851 ], [ 533280.0, 7261936.766630999743938 ], [ 533270.0, 7261933.670178715139627 ], [ 533260.0, 7261931.104585926048458 ], [ 533250.0, 7261928.906588250771165 ], [ 533240.0, 7261926.405795307829976 ], [ 533230.0, 7261923.594204692170024 ], [ 533220.0, 7261921.093411749228835 ], [ 533210.0, 7261918.895414073951542 ], [ 533200.0, 7261916.329821286723018 ], [ 533190.0, 7261913.233369002118707 ], [ 533180.0, 7261909.989718034863472 ], [ 533170.0, 7261906.689764766953886 ], [ 533160.0, 7261903.310235233977437 ], [ 533150.0, 7261900.010281965136528 ], [ 533140.0, 7261896.766630999743938 ], [ 533130.0, 7261893.670178715139627 ], [ 533120.0, 7261891.10458592697978 ], [ 533110.0, 7261888.907480461522937 ], [ 533100.0, 7261886.416077273897827 ], [ 533090.0, 7261883.670178714208305 ], [ 533080.0, 7261881.454247441142797 ], [ 533070.0, 7261880.0 ], [ 533060.0, 7261878.545752558857203 ], [ 533050.000892210751772, 7261876.329821286723018 ], [ 533040.012066387105733, 7261873.583922727033496 ], [ 533030.099214585614391, 7261871.093411749228835 ], [ 533020.546306264819577, 7261868.906588250771165 ], [ 533012.08680969348643, 7261866.416969484649599 ], [ 533005.756988407694735, 7261863.681352891027927 ] ] } },
{ "type": "Feature", "properties": { "id": 8, "reference_id": 7, "dune_id": 7, "dune_name": "Inverted Y Dune", "acquisition_date": "2022-09-26", "length_m": 619.50324992630658 }, "geometry": { "type": "LineString", "coordinates": [ [ 530165.756988407694735, 7261641.540503429248929 ], [ 530172.08680969348643, 7261643.670178715139627 ], [ 530180.546306264703162, 7261646.328929075971246 ], [ 530190.099214585614391, 7261648.448322394862771 ], [ 530200.012066387105733, 7261649.465760122984648 ], [ 530210.000892210751772, 7261649.465760122984648 ], [ 530220.0, 7261648.448322394862771 ], [ 530230.0, 7261646.328929075971246 ], [ 530240.0, 7261643.669286504387856 ], [ 530250.0, 7261641.529329252429307 ], [ 530260.0, 7261640.35994348116219 ], [ 530270.0, 7261639.64005651883781 ], [ 530280.0, 7261638.469778537750244 ], [ 530290.0, 7261636.319539320655167 ], [ 530300.0, 7261633.582138305529952 ], [ 530310.0, 7261631.082237573340535 ], [ 530320.0, 7261628.819440051913261 ], [ 530330.0, 7261625.968985594809055 ], [ 530340.0, 7261622.129675285890698 ], [ 530350.0, 7261617.783176516182721 ], [ 530360.0, 7261613.659004538320005 ], [ 530370.0, 7261609.999107789248228 ], [ 530380.0, 7261606.328929075039923 ], [ 530390.0, 7261602.11939332075417 ], [ 530400.0, 7261597.346366802230477 ], [ 530410.0, 7261592.118501108139753 ], [ 530420.0, 7261586.317754898220301 ], [ 530430.000000000116415, 7261579.911959591321647 ], [ 530440.0, 7261573.211912859231234 ], [ 530450.0, 7261566.241780877113342 ], [ 530459.999107789364643, 7261558.448322394862771 ], [ 530469.988825823529623, 7261549.552016110159457 ], [ 530479.912851801607758, 7261539.912851801142097 ], [ 530489.552016110159457, 7261529.9888258241117 ], [ 530498.448322394862771, 7261519.999107789248228 ], [ 530506.242673087399453, 7261510.0 ], [ 530513.222194824367762, 7261500.0 ], [ 530519.988825823529623, 7261490.0 ], [ 530526.689764766488224, 7261480.0 ], [ 530533.309343022760004, 7261470.000000000931323 ], [ 530540.0, 7261460.0 ], [ 530546.690656977239996, 7261450.0 ], [ 530553.310235233511776, 7261440.0 ], [ 530560.011174176470377, 7261430.0 ], [ 530566.777805175632238, 7261420.0 ], [ 530573.757326912600547, 7261410.0 ], [ 530581.551677605253644, 7261400.0 ], [ 530590.447983889840543, 7261390.0 ], [ 530600.087148198392242, 7261380.0 ], [ 530610.01028196583502, 7261370.000892210751772 ], [ 530619.988825823646039, 7261360.012066386640072 ], [ 530629.900785414502025, 7261350.099214585497975 ], [ 530639.453693735296838, 7261340.546306265518069 ], [ 530647.913190306629986, 7261332.086809693835676 ], [ 530654.243011592305265, 7261325.756988408043981 ] ] } },
{ "type": "Feature", "properties": { "id": 9, "reference_id": 6, "dune_id": 6, "dune_name": "The Star Dune", "acquisition_date": "2022-09-26", "length_m": 673.02640619948795 }, "geometry": { "type": "LineString", "coordinates": [ [ 533580.447091679205187, 7262784.243011591956019 ], [ 533581.540503428783268, 7262777.913190307095647 ], [ 533583.671070924960077, 7262769.453693735413253 ], [ 533586.340995462262072, 7262759.900785414502025 ], [ 533588.54664476972539, 7262749.987933613359928 ], [ 533590.0, 7262739.999107789248228 ], [ 533591.45335523027461, 7262730.0 ], [ 533593.659004537737928, 7262720.0 ], [ 533596.328929075039923, 7262710.0 ], [ 533598.460388781968504, 7262700.0 ], [ 533599.56408249726519, 7262690.0 ], [ 533600.0, 7262680.0 ], [ 533600.43591750273481, 7262670.0 ], [ 533601.539611218031496, 7262660.0 ], [ 533603.670178714208305, 7262650.0 ], [ 533606.330713496543467, 7262640.0 ], [ 533608.470670747803524, 7262630.0 ], [ 533609.640056519303471, 7262620.0 ], [ 533610.359943480696529, 7262610.0 ], [ 533611.530221462948248, 7262600.000000000931323 ], [ 533613.680460680043325, 7262590.0 ], [ 533616.416969484183937, 7262580.0 ], [ 533618.906588250421919, 7262570.0 ], [ 533621.094303960213438, 7262560.0 ], [ 533623.594204692170024, 7262550.0 ], [ 533626.405795307713561, 7262540.0 ], [ 533628.906588250421919, 7262530.0 ], [ 533631.104585926048458, 7262520.0 ], [ 533633.670178714208305, 7262510.0 ], [ 533636.765738788526505, 7262500.0 ], [ 533640.000000000116415, 7262490.0 ], [ 533643.234261211473495, 7262480.0 ], [ 533646.329821285791695, 7262470.0 ], [ 533648.896306284703314, 7262460.0 ], [ 533651.103693715413101, 7262450.0 ], [ 533653.670178714208305, 7262440.0 ], [ 533656.765738788526505, 7262430.0 ], [ 533659.999107789248228, 7262420.0 ], [ 533663.223979245638475, 7262410.0 ], [ 533666.253847263869829, 7262400.0 ], [ 533668.535470593255013, 7262390.0 ], [ 533669.999107789364643, 7262380.0 ], [ 533671.453355230391026, 7262370.0 ], [ 533673.659004537737928, 7262360.0 ], [ 533676.328929075156339, 7262350.0 ], [ 533678.458604360697791, 7262340.000000000931323 ], [ 533679.541734144324437, 7262330.0 ], [ 533679.825703603215516, 7262320.0 ], [ 533679.541734144324437, 7262310.0 ], [ 533678.458604360697791, 7262300.0 ], [ 533676.329821285791695, 7262290.0 ], [ 533673.670178714208305, 7262280.0 ], [ 533671.539611218031496, 7262270.0 ], [ 533670.43591750273481, 7262260.0 ], [ 533670.0, 7262250.0 ], [ 533669.56408249726519, 7262240.0 ], [ 533668.460388781968504, 7262230.0 ], [ 533666.329821285791695, 7262220.0 ], [ 533663.669286503572948, 7262210.0 ], [ 533661.529329252196476, 7262200.0 ], [ 533660.360835691448301, 7262190.0 ], [ 533659.651230695773847, 7262180.0 ], [ 533658.557818946195766, 7262170.000892210751772 ], [ 533656.777805175632238, 7262160.012066387571394 ], [ 533655.210682142991573, 7262150.099214585497975 ], [ 533655.210682142991573, 7262140.546306265518069 ], [ 533656.776912964996882, 7262132.086809692904353 ], [ 533658.546644769841805, 7262125.756988408043981 ] ] } }
]
}
