{
"type": "FeatureCollection",
"name": "crests_2017_03_2017-03-11",
"crs": { "type": "name", "properties": { "name": "urn:ogc:def:crs:EPSG::32733" } },
"features": [
{ "type": "Feature", "properties": { "id": 0, "reference_id": 2, "dune_id": 2, "dune_name": "Big Mommy Dune", "acquisition_date": "2017-03-11", "length_m": 388.20753351157754 }, "geometry": { "type": "LineString", "coordinates": [ [ 528774.243011592421681, 7260849.541734144091606 ], [ 528767.91319030651357, 7260848.371456162072718 ], [ 528759.453693735296838, 7260845.871555430814624 ], [ 528749.900785414385609, 7260842.042527087032795 ], [ 528739.987933612894267, 7260837.423233035951853 ], [ 528729.999107789248228, 7260832.575874754227698 ], [ 528720.0, 7260827.946298737078905 ], [ 528710.0, 7260824.040404161438346 ], [ 528700.0, 7260821.169385772198439 ], [ 528690.0, 7260818.819440051913261 ], [ 528680.0, 7260815.882729606702924 ], [ 528670.0, 7260811.682583605870605 ], [ 528660.0, 7260806.242673087865114 ], [ 528650.0, 7260799.987933613359928 ], [ 528640.0, 7260793.659004537388682 ], [ 528630.0, 7260787.793458482250571 ], [ 528620.0, 7260782.206541517749429 ], [ 528610.0, 7260776.340103251859546 ], [ 528600.0, 7260770.0 ], [ 528590.0, 7260763.659896748140454 ], [ 528580.0, 7260757.793458482250571 ], [ 528570.0, 7260752.205649306997657 ], [ 528560.0, 7260746.329821285791695 ], [ 528550.0, 7260739.924025978893042 ], [ 528540.0, 7260733.299061058089137 ], [ 528530.0, 7260726.689764766022563 ], [ 528520.0, 7260720.0 ], [ 528510.0, 7260713.309343023225665 ], [ 528500.0, 7260706.690656977705657 ], [ 528490.0, 7260700.000000000931323 ], [ 528480.000892210751772, 7260693.310235233977437 ], [ 528470.012066387105733, 7260686.70183115452528 ], [ 528460.099214585614391, 7260680.088040409609675 ], [ 528450.546306264819577, 7260673.768501089885831 ], [ 528442.08680969348643, 7260668.329482780769467 ], [ 528435.756988407694735, 7260664.205310802906752 ] ] } },
{ "type": "Feature", "properties": { "id": 1, "reference_id": 2, "dune_id": 2, "dune_name": "Big Mommy Dune", "acquisition_date": "2017-03-11", "length_m": 120.68266650897836 }, "geometry": { "type": "LineString", "coordinates": [ [ 529014.243011592421681, 7260919.912851801142097 ], [ 529007.91319030651357, 7260919.552908321842551 ], [ 528999.453693735296838, 7260918.458604359999299 ], [ 528989.900785414385609, 7260916.318647108972073 ], [ 528979.987933612894267, 7260913.583030516281724 ], [ 528969.999107789248228, 7260911.093411749228835 ], [ 528960.0, 7260908.906588250771165 ], [ 528950.0, 7260906.416969484649599 ], [ 528940.000892210751772, 7260903.681352891027927 ], [ 528930.012066387222148, 7260901.541395640000701 ], [ 528920.099214585614391, 7260900.447091679088771 ], [ 528910.546306264819577, 7260900.087148198857903 ], [ 528902.08680969348643, 7260900.011174176819623 ], [ 528895.756988407578319, 7260900.000892210751772 ] ] } },
{ "type": "Feature", "properties": { "id": 2, "reference_id": 1, "dune_id": 1, "dune_name": "Big Mommy Dune", "acquisition_date": "2017-03-11", "length_m": 682.17688633672014 }, "geometry": { "type": "LineString", "coordinates": [ [ 529020.0, 7261555.756988408043981 ], [ 529020.0, 7261562.086809693835676 ], [ 529020.0, 7261570.546306264586747 ], [ 529020.0, 7261580.099214585497975 ], [ 529020.0, 7261590.012066387571394 ], [ 529020.0, 7261600.000892210751772 ], [ 529020.0, 7261610.0 ], [ 529020.000892210751772, 7261620.0 ], [ 529020.011174176470377, 7261630.0 ], [ 529020.087148198508658, 7261640.0 ], [ 529020.447983889840543, 7261650.0 ], [ 529021.551677605137229, 7261660.0 ], [ 529023.758219123352319, 7261670.0 ], [ 529026.788087141467258, 7261680.0 ], [ 529030.088040409144014, 7261690.0 ], [ 529033.682245101314038, 7261700.0 ], [ 529037.881498890928924, 7261710.0 ], [ 529042.653633197303861, 7261720.0 ], [ 529047.880606680293567, 7261730.000000000931323 ], [ 529053.671070924960077, 7261740.0 ], [ 529060.0, 7261750.0 ], [ 529066.329821285791695, 7261760.0 ], [ 529072.129675285425037, 7261770.0 ], [ 529077.42234082473442, 7261780.0 ], [ 529082.479336800519377, 7261790.0 ], [ 529087.42234082473442, 7261800.0 ], [ 529092.127890864154324, 7261810.0 ], [ 529096.307472932850942, 7261820.0 ], [ 529099.823919181828387, 7261830.0 ], [ 529102.753647002973594, 7261840.000000000931323 ], [ 529104.61323703895323, 7261850.0 ], [ 529104.318985614343546, 7261860.0 ], [ 529101.58336902083829, 7261870.0 ], [ 529097.24804442783352, 7261880.0 ], [ 529092.106434721848927, 7261890.0 ], [ 529086.317754898685962, 7261900.0 ], [ 529079.923133767326362, 7261910.0 ], [ 529073.299061056924984, 7261920.0 ], [ 529066.68976476660464, 7261930.0 ], [ 529060.0, 7261940.0 ], [ 529053.310235233511776, 7261950.0 ], [ 529046.700938942958601, 7261960.0 ], [ 529040.076866232673638, 7261970.0 ], [ 529033.681352890795097, 7261980.0 ], [ 529027.882391101680696, 7261990.0 ], [ 529022.663915163138881, 7262000.0 ], [ 529017.957472912967205, 7262010.0 ], [ 529014.041296371491626, 7262020.0 ], [ 529011.170277982251719, 7262030.0 ], [ 529008.830614228500053, 7262040.0 ], [ 529005.969877805095166, 7262050.0 ], [ 529002.128783074789681, 7262060.0 ], [ 528997.772894550347701, 7262070.0 ], [ 528993.582138305064291, 7262080.0 ], [ 528989.628882342833094, 7262090.0 ], [ 528985.159543303656392, 7262100.0 ], [ 528979.628882342833094, 7262110.0 ], [ 528973.582138305064291, 7262120.0 ], [ 528967.772894550347701, 7262129.999107789248228 ], [ 528962.129675285541452, 7262139.987933613359928 ], [ 528955.981051981565543, 7262149.900785414502025 ], [ 528948.918654637644067, 7262159.453693735413253 ], [ 528941.628543837810867, 7262167.913190307095647 ], [ 528935.668947998550721, 7262174.243011591956019 ] ] } },
{ "type": "Feature", "properties": { "id": 3, "reference_id": 1, "dune_id": 1, "dune_name": "Big Mommy Dune", "acquisition_date": "2017-03-11", "length_m": 555.81537075602694 }, "geometry": { "type": "LineString", "coordinates": [ [ 529171.540503428783268, 7260998.921899050474167 ], [ 529173.671070924843661, 7261003.921899050474167 ], [ 529176.340995462262072, 7261011.316557979211211 ], [ 529178.546644769841805, 7261020.322760425508022 ], [ 529179.999107789364643, 7261030.055640487000346 ], [ 529181.442181053804234, 7261040.006479299627244 ], [ 529183.571856339345686, 7261050.000446105375886 ], [ 529185.881837395951152, 7261060.0 ], [ 529186.918993142666295, 7261070.0 ], [ 529185.881837395951152, 7261080.0 ], [ 529183.571856339345686, 7261090.0 ], [ 529181.442181053804234, 7261100.0 ], [ 529179.998215578612871, 7261110.0 ], [ 529178.535470593255013, 7261120.000000000931323 ], [ 529176.253847263869829, 7261130.0 ], [ 529173.223087035003118, 7261140.0 ], [ 529169.988825823529623, 7261150.0 ], [ 529166.688872555969283, 7261160.0 ], [ 529163.299061057041399, 7261170.0 ], [ 529159.923133767442778, 7261180.0 ], [ 529156.31953932007309, 7261190.0 ], [ 529152.128783074906096, 7261200.0 ], [ 529147.423233035253361, 7261210.000000000931323 ], [ 529142.490510976873338, 7261220.0 ], [ 529137.510381233878434, 7261230.0 ], [ 529132.587048930348828, 7261240.0 ], [ 529127.946298736496828, 7261250.0 ], [ 529124.030122194904834, 7261260.0 ], [ 529121.094303960213438, 7261270.0 ], [ 529118.469778537051752, 7261280.0 ], [ 529114.86618408979848, 7261290.0 ], [ 529109.924025978078134, 7261300.0 ], [ 529104.763590463786386, 7261310.000000000931323 ], [ 529100.43591750273481, 7261320.0 ], [ 529096.776020754361525, 7261330.0 ], [ 529093.310235233511776, 7261340.0 ], [ 529089.924025977961719, 7261350.0 ], [ 529086.319539319956675, 7261360.0 ], [ 529082.129675285425037, 7261370.0 ], [ 529077.433515001088381, 7261380.0 ], [ 529072.566484998911619, 7261390.0 ], [ 529067.870324714574963, 7261400.0 ], [ 529063.68046067992691, 7261410.0 ], [ 529060.076866232673638, 7261420.0 ], [ 529056.700938943075016, 7261430.0 ], [ 529053.310235233511776, 7261440.0 ], [ 529050.0, 7261450.0 ], [ 529046.690656977239996, 7261460.0 ], [ 529043.31023523339536, 7261470.000000000931323 ], [ 529040.011174176470377, 7261479.999107789248228 ], [ 529036.777805175632238, 7261489.987933613359928 ], [ 529033.757326912600547, 7261499.900785414502025 ], [ 529031.551677605253644, 7261509.453693735413253 ], [ 529030.447983889840543, 7261517.913190307095647 ], [ 529030.087148198508658, 7261524.243011592887342 ] ] } },
{ "type": "Feature", "properties": { "id": 4, "reference_id": 3, "dune_id": 3, "dune_name": "Big Mommy Dune", "acquisition_date": "2017-03-11", "length_m": 612.2799931303523 }, "geometry": { "type": "LineString", "coordinates": [ [ 529614.243011592421681, 7260630.011174176819623 ], [ 529607.91319030651357, 7260630.087148198857903 ], [ 529599.453693735180423, 7260630.447091680020094 ], [ 529589.900785414502025, 7260631.540503429248929 ], [ 529579.987933612894267, 7260633.671070925891399 ], [ 529569.999107789248228, 7260636.340995462611318 ], [ 529560.0, 7260638.546644769608974 ], [ 529550.0, 7260640.000892210751772 ], [ 529540.0, 7260641.464529407210648 ], [ 529530.0, 7260643.746152736246586 ], [ 529520.0, 7260646.776020754128695 ], [ 529510.0, 7260650.000892210751772 ], [ 529500.000000000116415, 7260653.234261211939156 ], [ 529490.0, 7260656.329821285791695 ], [ 529480.0, 7260658.896306285634637 ], [ 529470.0, 7260661.103693716228008 ], [ 529460.0, 7260663.670178714208305 ], [ 529450.0, 7260666.765738788992167 ], [ 529440.000000000116415, 7260670.0 ], [ 529430.0, 7260673.235153421759605 ], [ 529420.0, 7260676.34188767336309 ], [ 529410.0, 7260678.994628659449518 ], [ 529400.0, 7260681.638825803995132 ], [ 529390.0, 7260685.669840209186077 ], [ 529380.0, 7260692.075635517016053 ], [ 529370.0, 7260700.545414054766297 ], [ 529360.0, 7260710.099214585497975 ], [ 529350.0, 7260720.012066386640072 ], [ 529340.000892210751772, 7260730.000892210751772 ], [ 529330.011174176470377, 7260740.0 ], [ 529320.087148198508658, 7260750.0 ], [ 529310.447983889956959, 7260760.0 ], [ 529301.551677605253644, 7260770.0 ], [ 529293.758219123352319, 7260780.000000000931323 ], [ 529286.788087141467258, 7260790.0 ], [ 529280.087148198392242, 7260800.0 ], [ 529273.671070924960077, 7260810.0 ], [ 529267.794350692536682, 7260820.0 ], [ 529262.205649307463318, 7260830.0 ], [ 529256.32982128590811, 7260840.0 ], [ 529249.924025978078134, 7260850.0 ], [ 529243.299061057041399, 7260860.0 ], [ 529236.689764766488224, 7260870.0 ], [ 529230.0, 7260880.0 ], [ 529223.310235233511776, 7260890.0 ], [ 529216.700938943075016, 7260900.0 ], [ 529210.076866232557222, 7260910.0 ], [ 529203.68046067992691, 7260920.0 ], [ 529197.871216925210319, 7260930.0 ], [ 529192.577659175381996, 7260939.999553894624114 ], [ 529187.52155541034881, 7260949.993520701304078 ], [ 529182.588833351852372, 7260959.944359514862299 ], [ 529177.958365123602562, 7260969.6772395754233 ], [ 529174.128444569883868, 7260978.683442020788789 ], [ 529171.628543837927282, 7260986.078100949525833 ], [ 529170.458265855675563, 7260991.078100949525833 ] ] } },
{ "type": "Feature", "properties": { "id": 5, "reference_id": 3, "dune_id": 3, "dune_name": "Big Mommy Dune", "acquisition_date": "2017-03-11", "length_m": 58.486023184610531 }, "geometry": { "type": "LineString", "coordinates": [ [ 529704.243011592305265, 7260620.0 ], [ 529697.91319030651357, 7260620.0 ], [ 529689.454585945932195, 7260620.0 ], [ 529679.912851801607758, 7260620.0 ], [ 529670.087148198508658, 7260620.0 ], [ 529660.545414054067805, 7260620.0 ], [ 529652.08680969348643, 7260620.0 ], [ 529645.756988407694735, 7260620.0 ] ] } },
{ "type": "Feature", "properties": { "id": 6, "reference_id": 3, "dune_id": 3, "dune_name": "Big Mommy Dune", "acquisition_date": "2017-03-11", "length_m": 158.48602318472695 }, "geometry": { "type": "LineString", "coordinates": [ [ 529735.756988407694735, 7260610.0 ], [ 529742.08680969348643, 7260610.0 ], [ 529750.546306264819577, 7260610.0 ], [ 529760.099214585614391, 7260610.0 ], [ 529770.012066387222148, 7260610.0 ], [ 529780.000892210751772, 7260610.0 ], [ 529790.0, 7260610.0 ], [ 529800.0, 7260610.0 ], [ 529810.0, 7260610.0 ], [ 529820.0, 7260610.0 ], [ 529830.0, 7260610.0 ], [ 529840.0, 7260610.0 ], [ 529849.999107789364643, 7260610.0 ], [ 529859.987933612894267, 7260610.0 ], [ 529869.900785414385609, 7260610.0 ], [ 529879.453693735180423, 7260610.0 ], [ 529887.91319030651357, 7260610.0 ], [ 529894.243011592421681, 7260610.0 ] ] } },
{ "type": "Feature", "properties": { "id": 7, "reference_id": 3, "dune_id": 3, "dune_name": "Big Mommy Dune", "acquisition_date": "2017-03-11", "length_m": 110.68799225392553 }, "geometry": { "type": "LineString", "coordinates": [ [ 530085.756988407694735, 7260599.9888258241117 ], [ 530092.08680969348643, 7260599.912851802073419 ], [ 530100.546306264819577, 7260599.552908321842551 ], [ 530110.099214585614391, 7260598.458604360930622 ], [ 530120.012066387222148, 7260596.318647108972073 ], [ 530130.000892210751772, 7260593.583030516281724 ], [ 530140.0, 7260591.093411749228835 ], [ 530149.999107789364643, 7260588.906588250771165 ], [ 530159.987933612894267, 7260586.416969484649599 ], [ 530169.900785414385609, 7260583.681352891027927 ], [ 530179.453693735296838, 7260581.541395640000701 ], [ 530187.91319030651357, 7260580.447091679088771 ], [ 530194.243011592421681, 7260580.087148198857903 ] ] } },
{ "type": "Feature", "properties": { "id": 8, "reference_id": 5, "dune_id": 5, "dune_name": "The Star Dune", "acquisition_date": "2017-03-11", "length_m": 1144.3902752405531 }, "geometry": { "type": "LineString", "coordinates": [ [ 534334.342226177919656, 7261305.756988408043981 ], [ 534328.459496571333148, 7261312.086809693835676 ], [ 534321.541395639418624, 7261320.546306264586747 ], [ 534315.668947998550721, 7261330.099214585497975 ], [ 534312.161891504772939, 7261340.012066386640072 ], [ 534310.992505733272992, 7261350.000892210751772 ], [ 534311.639718014281243, 7261360.0 ], [ 534313.682245101430453, 7261370.0 ], [ 534316.331605707178824, 7261380.0 ], [ 534318.470670747687109, 7261390.0 ], [ 534319.640056519303471, 7261400.0 ], [ 534320.359943480696529, 7261410.0 ], [ 534321.529329252196476, 7261420.0 ], [ 534323.669286503572948, 7261430.0 ], [ 534326.329821285791695, 7261440.0 ], [ 534328.459496571333148, 7261450.0 ], [ 534329.552908320794813, 7261460.0 ], [ 534329.912851801607758, 7261470.000000000931323 ], [ 534329.988825823529623, 7261480.0 ], [ 534329.999107789364643, 7261490.0 ], [ 534329.999107789364643, 7261500.0 ], [ 534329.987933612894267, 7261510.0 ], [ 534329.900785414385609, 7261520.0 ], [ 534329.453693735296838, 7261530.0 ], [ 534327.91319030651357, 7261540.0 ], [ 534324.243011592421681, 7261550.0 ], [ 534317.91319030651357, 7261559.999107790179551 ], [ 534309.453693735296838, 7261569.9888258241117 ], [ 534299.900785414502025, 7261579.912851802073419 ], [ 534289.987933612894267, 7261589.552016110159457 ], [ 534279.999107789248228, 7261598.448322394862771 ], [ 534270.0, 7261606.242673087865114 ], [ 534260.0, 7261613.222194824367762 ], [ 534250.0, 7261619.9888258241117 ], [ 534240.0, 7261626.688872555270791 ], [ 534230.0, 7261633.299061057157815 ], [ 534220.0, 7261639.92313376814127 ], [ 534210.0, 7261646.318647109903395 ], [ 534200.0, 7261652.117608899250627 ], [ 534190.0, 7261657.335192626342177 ], [ 534180.0, 7261662.031352911144495 ], [ 534170.0, 7261665.871555430814624 ], [ 534160.0, 7261668.382630338892341 ], [ 534150.0, 7261669.62888234294951 ], [ 534140.0, 7261670.359051270410419 ], [ 534130.0, 7261671.529329252429307 ], [ 534120.0, 7261673.669286503456533 ], [ 534110.0, 7261676.329821285791695 ], [ 534100.0, 7261678.460388781502843 ], [ 534090.0, 7261679.564082497730851 ], [ 534080.0, 7261680.0 ], [ 534070.0, 7261680.435917503200471 ], [ 534060.0, 7261681.539611218497157 ], [ 534050.0, 7261683.671070925891399 ], [ 534040.0, 7261686.340995462611318 ], [ 534030.0, 7261688.546644769608974 ], [ 534020.0, 7261690.0 ], [ 534010.0, 7261691.454247441142797 ], [ 534000.0, 7261693.670178714208305 ], [ 533990.0, 7261696.416077273897827 ], [ 533980.0, 7261698.907480461522937 ], [ 533970.0, 7261701.10458592697978 ], [ 533960.0, 7261703.671070924960077 ], [ 533950.0, 7261706.776912964880466 ], [ 533940.0, 7261710.086255988106132 ], [ 533930.0, 7261713.671070924960077 ], [ 533920.0, 7261717.794350693002343 ], [ 533910.0, 7261722.205649306997657 ], [ 533900.0, 7261726.329821285791695 ], [ 533890.0, 7261729.924025978893042 ], [ 533880.0, 7261733.299953268840909 ], [ 533870.0, 7261736.700938943773508 ], [ 533860.0, 7261740.087148198857903 ], [ 533850.0, 7261743.757326913997531 ], [ 533840.0, 7261748.242334582842886 ], [ 533830.0, 7261753.758219122886658 ], [ 533820.000892210635357, 7261760.098322375677526 ], [ 533810.011174176470377, 7261766.788979351520538 ], [ 533800.088040409144014, 7261773.75821912381798 ], [ 533790.458265855675563, 7261781.551677605137229 ], [ 533781.628543837927282, 7261790.447983890771866 ], [ 533774.129336780519225, 7261800.087148198857903 ], [ 533767.968647089437582, 7261810.011174177750945 ], [ 533762.664807373774238, 7261820.000892210751772 ], [ 533757.882391101680696, 7261830.0 ], [ 533753.681352890678681, 7261840.000000000931323 ], [ 533750.076866232673638, 7261850.0 ], [ 533746.700046732323244, 7261860.0 ], [ 533743.299953267676756, 7261870.0 ], [ 533739.923133767442778, 7261880.0 ], [ 533736.31953932007309, 7261890.0 ], [ 533732.128783074906096, 7261900.0 ], [ 533727.423233035253361, 7261910.0 ], [ 533722.489618766237982, 7261920.0 ], [ 533717.499207057291642, 7261930.0 ], [ 533712.499900731956586, 7261940.0 ], [ 533707.499207057408057, 7261950.0 ], [ 533702.489618766237982, 7261960.0 ], [ 533697.423233035369776, 7261970.0 ], [ 533692.129675285541452, 7261980.0 ], [ 533686.330267391167581, 7261989.999553894624114 ], [ 533680.005587088293396, 7261999.993520701304078 ], [ 533673.714645024156198, 7262009.944359513930976 ], [ 533668.105044730589725, 7262019.677239574491978 ], [ 533663.435059088165872, 7262028.683442020788789 ], [ 533659.803736446541734, 7262036.078100949525833 ], [ 533657.294247423415072, 7262041.078100949525833 ] ] } },
{ "type": "Feature", "properties": { "id": 9, "reference_id": 6, "dune_id": 6, "dune_name": "The Star Dune", "acquisition_date": "2017-03-11", "length_m": 896.07864000502013 }, "geometry": { "type": "LineString", "coordinates": [ [ 533653.164910642895848, 7262048.921899050474167 ], [ 533651.835981567739509, 7262053.921899050474167 ], [ 533650.78142589086201, 7262061.316557979211211 ], [ 533650.310694038053043, 7262070.322760425508022 ], [ 533650.490665778401308, 7262080.055640487000346 ], [ 533651.546090516960248, 7262090.006479298695922 ], [ 533653.670624819584191, 7262100.000446105375886 ], [ 533656.329821285791695, 7262110.0 ], [ 533658.459496571216732, 7262120.0 ], [ 533659.552908320911229, 7262130.0 ], [ 533659.912851801607758, 7262140.0 ], [ 533659.988825823529623, 7262150.0 ], [ 533659.999107789248228, 7262160.0 ], [ 533660.0, 7262170.0 ], [ 533660.0, 7262180.0 ], [ 533660.000892210751772, 7262190.0 ], [ 533660.011174176470377, 7262200.0 ], [ 533660.087148198392242, 7262210.0 ], [ 533660.447091679088771, 7262220.0 ], [ 533661.540503428783268, 7262230.0 ], [ 533663.671070924960077, 7262240.0 ], [ 533666.340995462378487, 7262250.0 ], [ 533668.546644769841805, 7262260.0 ], [ 533670.0, 7262270.0 ], [ 533671.453355230391026, 7262280.0 ], [ 533673.659004537737928, 7262290.0 ], [ 533676.328929075156339, 7262300.0 ], [ 533678.458604360697791, 7262310.0 ], [ 533679.541734144324437, 7262320.0 ], [ 533679.825703603215516, 7262330.0 ], [ 533679.541734144324437, 7262340.000000000931323 ], [ 533678.457712149946019, 7262350.0 ], [ 533676.318647109437734, 7262360.0 ], [ 533673.583030515816063, 7262370.0 ], [ 533671.093411749578081, 7262380.0 ], [ 533668.905696039786562, 7262390.0 ], [ 533666.405795307829976, 7262400.0 ], [ 533663.594204692286439, 7262410.0 ], [ 533661.093411749578081, 7262420.0 ], [ 533658.895414073951542, 7262430.0 ], [ 533656.329821285791695, 7262440.0 ], [ 533653.233369000838138, 7262450.0 ], [ 533649.989718034281395, 7262460.0 ], [ 533646.689764766488224, 7262470.0 ], [ 533643.310235233511776, 7262480.0 ], [ 533640.01028196583502, 7262490.0 ], [ 533636.766630999278277, 7262500.0 ], [ 533633.670178714208305, 7262510.0 ], [ 533631.104585926048458, 7262520.0 ], [ 533628.907480461173691, 7262530.0 ], [ 533626.416077273548581, 7262540.0 ], [ 533623.670178714208305, 7262550.0 ], [ 533621.454247440909967, 7262560.0 ], [ 533620.0, 7262570.0 ], [ 533618.54664476972539, 7262580.0 ], [ 533616.340103251626715, 7262590.0 ], [ 533613.659896748373285, 7262600.000000000931323 ], [ 533611.45335523027461, 7262610.0 ], [ 533610.0, 7262620.0 ], [ 533608.54664476972539, 7262630.0 ], [ 533606.340995462378487, 7262640.0 ], [ 533603.671070924960077, 7262650.0 ], [ 533601.540503428783268, 7262660.0 ], [ 533600.447091679205187, 7262670.0 ], [ 533600.086255987756886, 7262680.0 ], [ 533600.0, 7262690.0 ], [ 533599.913744012243114, 7262700.0 ], [ 533599.552908320794813, 7262710.0 ], [ 533598.459496571216732, 7262720.0 ], [ 533596.328929075039923, 7262730.0 ], [ 533593.659004537737928, 7262740.0 ], [ 533591.452463019639254, 7262750.0 ], [ 533589.988825823529623, 7262760.0 ], [ 533588.458604360697791, 7262770.0 ], [ 533585.882729606702924, 7262780.0 ], [ 533582.043419297784567, 7262790.0 ], [ 533577.423233035369776, 7262800.0 ], [ 533572.575874753994867, 7262810.0 ], [ 533567.946298736496828, 7262820.0 ], [ 533564.041296371491626, 7262830.0 ], [ 533561.18145215860568, 7262840.0 ], [ 533558.917762426892295, 7262850.0 ], [ 533556.417861694935709, 7262860.0 ], [ 533553.681352890795097, 7262870.000000000931323 ], [ 533551.54139563953504, 7262879.999107789248228 ], [ 533550.447091679205187, 7262889.987933613359928 ], [ 533550.087148198392242, 7262899.900785414502025 ], [ 533550.011174176470377, 7262909.453693736344576 ], [ 533550.000892210751772, 7262917.913190307095647 ], [ 533550.0, 7262924.243011591956019 ] ] } },
{ "type": "Feature", "properties": { "id": 10, "reference_id": 7, "dune_id": 7, "dune_name": "Inverted Y Dune", "acquisition_date": "2017-03-11", "length_m": 590.14983471369453 }, "geometry": { "type": "LineString", "coordinates": [ [ 530195.756988407694735, 7261650.0 ], [ 530202.086809693370014, 7261650.0 ], [ 530210.546306264819577, 7261650.0 ], [ 530220.099214585614391, 7261649.999107790179551 ], [ 530230.012066387105733, 7261649.9888258241117 ], [ 530240.000892210751772, 7261649.912851802073419 ], [ 530250.0, 7261649.552016111090779 ], [ 530260.0, 7261648.448322394862771 ], [ 530270.0, 7261646.242673087865114 ], [ 530280.0, 7261643.222194824367762 ], [ 530290.0, 7261639.9888258241117 ], [ 530300.0, 7261636.689764766953886 ], [ 530310.0, 7261633.309343023225665 ], [ 530320.0, 7261630.0 ], [ 530330.0, 7261626.690656976774335 ], [ 530340.0, 7261623.309343023225665 ], [ 530350.0, 7261619.999107789248228 ], [ 530360.0, 7261616.679482800886035 ], [ 530370.0, 7261613.222194824367762 ], [ 530380.0, 7261609.552016110159457 ], [ 530390.0, 7261605.138979372568429 ], [ 530400.0, 7261599.552016111090779 ], [ 530410.0, 7261593.222194824367762 ], [ 530420.0, 7261586.678590590134263 ], [ 530430.000000000116415, 7261579.987933613359928 ], [ 530440.0, 7261573.222194824367762 ], [ 530450.0, 7261566.242673087865114 ], [ 530460.0, 7261558.448322394862771 ], [ 530469.999107789364643, 7261549.552016110159457 ], [ 530479.988825823529623, 7261539.912851801142097 ], [ 530489.911959590855986, 7261529.9888258241117 ], [ 530499.541734144324437, 7261519.999107789248228 ], [ 530508.37234837282449, 7261510.0 ], [ 530515.881837395951152, 7261500.0 ], [ 530522.118501109071076, 7261490.0 ], [ 530527.783176516182721, 7261480.0 ], [ 530533.670178714208305, 7261470.000000000931323 ], [ 530540.086255987756886, 7261460.0 ], [ 530546.776912964996882, 7261450.0 ], [ 530553.671070924960077, 7261440.0 ], [ 530561.104585926048458, 7261430.0 ], [ 530568.907480461057276, 7261420.0 ], [ 530576.416969484183937, 7261410.0 ], [ 530583.681352890795097, 7261400.0 ], [ 530591.541395639418624, 7261390.0 ], [ 530600.447091679205187, 7261380.0 ], [ 530610.086255987756886, 7261370.000892210751772 ], [ 530619.999107789364643, 7261360.012066386640072 ], [ 530629.901677625137381, 7261350.099214585497975 ], [ 530639.453693735296838, 7261340.546306265518069 ], [ 530647.913190306629986, 7261332.086809693835676 ], [ 530654.243011592305265, 7261325.756988408043981 ] ] } },
{ "type": "Feature", "properties": { "id": 11, "reference_id": 9, "dune_id": 9, "dune_name": "Inverted Y Dune", "acquisition_date": "2017-03-11", "length_m": 742.30625995870491 }, "geometry": { "type": "LineString", "coordinates": [ [ 529671.551677605253644, 7262174.243011591956019 ], [ 529673.758219123352319, 7262167.913190307095647 ], [ 529676.788087141467258, 7262159.453693735413253 ], [ 529680.087148198508658, 7262149.900785414502025 ], [ 529683.671070924843661, 7262139.987933613359928 ], [ 529687.794350692536682, 7262129.999107789248228 ], [ 529692.206541518098675, 7262120.0 ], [ 529696.340103251626715, 7262110.0 ], [ 529700.000892210751772, 7262100.0 ], [ 529703.670178714208305, 7262090.0 ], [ 529707.870324714574963, 7262080.0 ], [ 529712.576766964630224, 7262070.0 ], [ 529717.510381233878434, 7262060.0 ], [ 529722.500792942708358, 7262050.0 ], [ 529727.499207057408057, 7262040.0 ], [ 529732.489618766237982, 7262030.0 ], [ 529737.423233035369776, 7262020.0 ], [ 529742.129675285541452, 7262010.0 ], [ 529746.329821285791695, 7262000.0 ], [ 529749.999107789364643, 7261990.0 ], [ 529753.659896748373285, 7261980.0 ], [ 529757.79345848178491, 7261970.0 ], [ 529762.205649307463318, 7261960.0 ], [ 529766.328929075156339, 7261950.0 ], [ 529769.913744012243114, 7261940.0 ], [ 529773.223087035119534, 7261930.0 ], [ 529776.328929075039923, 7261920.0 ], [ 529778.896306284703314, 7261910.0 ], [ 529781.104585926048458, 7261900.0 ], [ 529783.682245101314038, 7261890.0 ], [ 529786.864061163389124, 7261880.0 ], [ 529790.534239877597429, 7261870.0 ], [ 529795.222748530097306, 7261860.0 ], [ 529801.552569815889001, 7261850.0 ], [ 529808.994628659682348, 7261840.000000000931323 ], [ 529816.428143660770729, 7261830.0 ], [ 529823.682245101314038, 7261820.0 ], [ 529831.541395639418624, 7261810.0 ], [ 529840.447091679205187, 7261800.0 ], [ 529850.087148198392242, 7261790.0 ], [ 529860.011174176470377, 7261780.0 ], [ 529870.000892210751772, 7261770.0 ], [ 529880.0, 7261760.000892210751772 ], [ 529890.0, 7261750.011174176819623 ], [ 529900.0, 7261740.087148198857903 ], [ 529910.0, 7261730.447091680020094 ], [ 529920.0, 7261721.541395640000701 ], [ 529930.0, 7261713.681352891027927 ], [ 529940.0, 7261706.417861695401371 ], [ 529950.0, 7261698.917762426659465 ], [ 529960.0, 7261691.181452158838511 ], [ 529970.0, 7261684.041296372190118 ], [ 529980.0, 7261677.946298737078905 ], [ 529990.0, 7261672.576766964048147 ], [ 530000.0, 7261667.434407211840153 ], [ 530010.0, 7261662.129675285890698 ], [ 530020.0, 7261656.319539319723845 ], [ 530030.0, 7261649.92313376814127 ], [ 530040.0, 7261643.299061058089137 ], [ 530049.999107789364643, 7261636.689318661578 ], [ 530059.987933612894267, 7261629.995305122807622 ], [ 530069.900785414502025, 7261623.277835311368108 ], [ 530079.453693735180423, 7261616.565433513373137 ], [ 530087.913190306629986, 7261609.764880374073982 ], [ 530094.243011592421681, 7261603.473915160633624 ], [ 530097.91319030651357, 7261598.834750852547586 ] ] } },
{ "type": "Feature", "properties": { "id": 12, "reference_id": 8, "dune_id": 8, "dune_name": "Inverted Y Dune", "acquisition_date": "2017-03-11", "length_m": 510.53495354021112 }, "geometry": { "type": "LineString", "coordinates": [ [ 530100.087148198508658, 7261591.078100949525833 ], [ 530100.447091679205187, 7261586.078100949525833 ], [ 530101.540503428783268, 7261578.683442020788789 ], [ 530103.670178714208305, 7261569.6772395754233 ], [ 530106.329821285791695, 7261559.944359513930976 ], [ 530108.459496571333148, 7261549.993520701304078 ], [ 530109.552908320911229, 7261539.999553894624114 ], [ 530109.913744012243114, 7261530.0 ], [ 530110.0, 7261520.0 ], [ 530110.086255987756886, 7261510.0 ], [ 530110.447091679205187, 7261500.0 ], [ 530111.540503428666852, 7261490.0 ], [ 530113.670178714208305, 7261480.0 ], [ 530116.330713496543467, 7261470.000000000931323 ], [ 530118.470670747803524, 7261460.0 ], [ 530119.640056519303471, 7261450.0 ], [ 530120.359943480812944, 7261440.0 ], [ 530121.530221462948248, 7261430.0 ], [ 530123.680460680043325, 7261420.0 ], [ 530126.416969484183937, 7261410.0 ], [ 530128.907480461173691, 7261400.0 ], [ 530131.104585926048458, 7261390.0 ], [ 530133.671070924960077, 7261380.0 ], [ 530136.776912964996882, 7261370.0 ], [ 530140.087148198392242, 7261360.0 ], [ 530143.681352890678681, 7261350.0 ], [ 530147.871216925326735, 7261340.0 ], [ 530152.577659175381996, 7261330.0 ], [ 530157.521555410232395, 7261320.0 ], [ 530162.588833351852372, 7261310.000000000931323 ], [ 530167.958365123602562, 7261300.0 ], [ 530174.128444569883868, 7261290.000892210751772 ], [ 530181.628543837810867, 7261280.0111741758883 ], [ 530190.458265855675563, 7261270.088040409609675 ], [ 530200.088040409144014, 7261260.458265855908394 ], [ 530210.011174176470377, 7261251.628543837927282 ], [ 530220.000892210635357, 7261244.128444569185376 ], [ 530230.0, 7261237.958365123718977 ], [ 530240.0, 7261232.588833352550864 ], [ 530250.0, 7261227.522447621449828 ], [ 530260.0, 7261222.588833352550864 ], [ 530270.0, 7261217.958365123718977 ], [ 530280.0, 7261214.128444571048021 ], [ 530290.0, 7261211.628543838858604 ], [ 530299.999107789364643, 7261210.458265855908394 ], [ 530309.987933612894267, 7261210.088040409609675 ], [ 530319.900785414502025, 7261210.011174176819623 ], [ 530329.453693735180423, 7261210.000892211683095 ], [ 530337.91319030651357, 7261210.000000000931323 ], [ 530344.243011592305265, 7261210.000000000931323 ] ] } },
{ "type": "Feature", "properties": { "id": 13, "reference_id": 8, "dune_id": 8, "dune_name": "Inverted Y Dune", "acquisition_date": "2017-03-11", "length_m": 164.84040540268518 }, "geometry": { "type": "LineString", "coordinates": [ [ 530395.756988407694735, 7261210.000000000931323 ], [ 530402.08680969348643, 7261210.000000000931323 ], [ 530410.546306264819577, 7261210.000000000931323 ], [ 530420.099214585614391, 7261210.000000000931323 ], [ 530430.012066387222148, 7261210.000000000931323 ], [ 530440.000892210751772, 7261210.000000000931323 ], [ 530450.0, 7261210.000000000931323 ], [ 530460.0, 7261209.999107790179551 ], [ 530470.0, 7261209.987933613359928 ], [ 530480.0, 7261209.901677625253797 ], [ 530490.0, 7261209.464867912232876 ], [ 530500.0, 7261208.001230716705322 ], [ 530509.999107789248228, 7261204.702169658616185 ], [ 530519.987933612894267, 7261199.552908319979906 ], [ 530529.900785414385609, 7261193.670178714208305 ], [ 530539.453693735296838, 7261188.317416394129395 ], [ 530547.91319030651357, 7261184.20441859215498 ], [ 530554.243011592305265, 7261181.638825803995132 ] ] } },
{ "type": "Feature", "properties": { "id": 14, "reference_id": 4, "dune_id": 4, "dune_name": "The Star Dune", "acquisition_date": "2017-03-11", "length_m": 531.95273095675464 }, "geometry": { "type": "LineString", "coordinates": [ [ 533514.243011592305265, 7262009.911959591321647 ], [ 533507.91319030651357, 7262009.541734145022929 ], [ 533499.453693735296838, 7262008.371456163004041 ], [ 533489.900785414502025, 7262005.871555430814624 ], [ 533479.987933612894267, 7262002.042527087032795 ], [ 533469.999107789248228, 7261997.423233035951853 ], [ 533460.0, 7261992.575874754227698 ], [ 533450.0, 7261987.946298737078905 ], [ 533440.0, 7261984.041296372190118 ], [ 533430.0, 7261981.180559948086739 ], [ 533420.0, 7261978.906588250771165 ], [ 533410.0, 7261976.330713496543467 ], [ 533400.000000000116415, 7261973.233369001187384 ], [ 533390.0, 7261969.989718034863472 ], [ 533380.000000000116415, 7261966.689764766953886 ], [ 533370.0, 7261963.310235233977437 ], [ 533360.0, 7261960.010281966999173 ], [ 533350.0, 7261956.766630999743938 ], [ 533340.0, 7261953.670178715139627 ], [ 533330.0, 7261951.104585926048458 ], [ 533320.0, 7261948.906588250771165 ], [ 533310.0, 7261946.405795307829976 ], [ 533300.0, 7261943.594204692170024 ], [ 533290.0, 7261941.094303959980607 ], [ 533280.0, 7261938.905696040019393 ], [ 533270.0, 7261936.405795307829976 ], [ 533260.0, 7261933.594204692170024 ], [ 533250.0, 7261931.093411750160158 ], [ 533240.0, 7261928.895414074882865 ], [ 533230.0, 7261926.328929075971246 ], [ 533220.0, 7261923.223087035119534 ], [ 533210.0, 7261919.913744012825191 ], [ 533200.0, 7261916.329821286723018 ], [ 533190.0, 7261912.21593127399683 ], [ 533180.0, 7261907.870324715040624 ], [ 533170.0, 7261904.031014406122267 ], [ 533160.0, 7261901.179667737334967 ], [ 533150.0, 7261898.906588250771165 ], [ 533140.0, 7261896.33071349747479 ], [ 533130.0, 7261893.234261211939156 ], [ 533120.0, 7261890.000892210751772 ], [ 533110.0, 7261886.776912964880466 ], [ 533100.0, 7261883.757326913066208 ], [ 533090.0, 7261881.550785394385457 ], [ 533080.0, 7261880.436809713020921 ], [ 533070.0, 7261879.999107789248228 ], [ 533060.0, 7261879.552908321842551 ], [ 533050.000892210751772, 7261878.373240583576262 ], [ 533040.012066387105733, 7261875.882729606702924 ], [ 533030.099214585614391, 7261872.129675285890698 ], [ 533020.546306264819577, 7261867.870324715040624 ], [ 533012.08680969348643, 7261864.117270393297076 ], [ 533005.756988407694735, 7261861.627651628106833 ] ] } }
]
}
