{
"type": "FeatureCollection",
"name": "crests_2021_02_2021-02-18",
"crs": { "type": "name", "properties": { "name": "urn:ogc:def:crs:EPSG::32733" } },
"features": [
{ "type": "Feature", "properties": { "id": 0, "reference_id": 1, "dune_id": 1, "dune_name": "Big Mommy Dune", "acquisition_date": "2021-02-18", "length_m": 680.88056090582302 }, "geometry": { "type": "LineString", "coordinates": [ [ 529020.0, 7261555.756988408043981 ], [ 529020.0, 7261562.086809693835676 ], [ 529020.0, 7261570.546306264586747 ], [ 529020.0, 7261580.099214585497975 ], [ 529020.0, 7261590.012066387571394 ], [ 529020.0, 7261600.000892210751772 ], [ 529020.0, 7261610.0 ], [ 529020.0, 7261620.0 ], [ 529020.000892210751772, 7261630.0 ], [ 529020.011174176470377, 7261640.0 ], [ 529020.087148198508658, 7261650.0 ], [ 529020.447983889840543, 7261660.0 ], [ 529021.551677605137229, 7261670.0 ], [ 529023.758219123352319, 7261680.0 ], [ 529026.78897935221903, 7261690.0 ], [ 529030.099214585614391, 7261700.0 ], [ 529033.768501089187339, 7261710.0 ], [ 529038.318308604415506, 7261720.0 ], [ 529044.117270393297076, 7261730.000000000931323 ], [ 529051.180559947970323, 7261740.0 ], [ 529058.830614228500053, 7261750.0 ], [ 529065.959595839260146, 7261760.0 ], [ 529072.052809052867815, 7261770.0 ], [ 529077.4120588588994, 7261780.0 ], [ 529082.477552379015833, 7261790.0 ], [ 529087.411166648147628, 7261800.0 ], [ 529092.041634876397438, 7261810.0 ], [ 529095.871555430232547, 7261820.0 ], [ 529098.370563951553777, 7261830.0 ], [ 529099.530559967970476, 7261840.000000000931323 ], [ 529099.823919181828387, 7261850.0 ], [ 529099.530559967970476, 7261860.0 ], [ 529098.370563951553777, 7261870.0 ], [ 529095.870663219597191, 7261880.0 ], [ 529092.030460699927062, 7261890.0 ], [ 529087.324910660507157, 7261900.0 ], [ 529082.041634876281023, 7261910.0 ], [ 529075.958703628624789, 7261920.0 ], [ 529068.829722017864697, 7261930.0 ], [ 529061.169385771499947, 7261940.0 ], [ 529054.030122194904834, 7261950.0 ], [ 529047.871216925210319, 7261960.0 ], [ 529042.227105449652299, 7261970.0 ], [ 529036.417861694935709, 7261980.0 ], [ 529030.372009867918678, 7261990.0 ], [ 529024.850738662178628, 7262000.0 ], [ 529020.447091679205187, 7262010.0 ], [ 529016.777805175632238, 7262020.0 ], [ 529013.320517199346796, 7262030.0 ], [ 529010.0, 7262040.0 ], [ 529006.67948280076962, 7262050.0 ], [ 529003.222194824367762, 7262060.0 ], [ 528999.552908320911229, 7262070.0 ], [ 528995.149261337821372, 7262080.0 ], [ 528989.628882342833094, 7262090.0 ], [ 528983.593312481534667, 7262100.0 ], [ 528977.859150538104586, 7262110.0 ], [ 528972.564700577524491, 7262120.0 ], [ 528967.423233035369776, 7262129.999107789248228 ], [ 528962.054593474254943, 7262139.987933613359928 ], [ 528955.970770015846938, 7262149.900785414502025 ], [ 528948.917762426892295, 7262159.453693735413253 ], [ 528941.628543837810867, 7262167.913190307095647 ], [ 528935.668947998550721, 7262174.243011591956019 ] ] } },
{ "type": "Feature", "properties": { "id": 1, "reference_id": 1, "dune_id": 1, "dune_name": "Big Mommy Dune", "acquisition_date": "2021-02-18", "length_m": 556.10449637456293 }, "geometry": { "type": "LineString", "coordinates": [ [ 529171.541395639418624, 7260998.921899050474167 ], [ 529173.681352890678681, 7261003.921899050474167 ], [ 529176.416969484300353, 7261011.316557979211211 ], [ 529178.906588250538334, 7261020.322760425508022 ], [ 529181.092519538942724, 7261030.055640487000346 ], [ 529183.571856339345686, 7261040.006479299627244 ], [ 529186.231498910929076, 7261050.000446105375886 ], [ 529188.011512681492604, 7261060.0 ], [ 529188.012404892127961, 7261070.0 ], [ 529186.241780876764096, 7261080.0 ], [ 529183.647830361267552, 7261090.0 ], [ 529181.452463019639254, 7261100.0 ], [ 529179.999107789364643, 7261110.0 ], [ 529178.535470593255013, 7261120.000000000931323 ], [ 529176.253847263869829, 7261130.0 ], [ 529173.223087035003118, 7261140.0 ], [ 529169.988825823529623, 7261150.0 ], [ 529166.688872555969283, 7261160.0 ], [ 529163.299061057041399, 7261170.0 ], [ 529159.924025978078134, 7261180.0 ], [ 529156.329821285791695, 7261190.0 ], [ 529152.205649307463318, 7261200.0 ], [ 529147.793458481901325, 7261210.000000000931323 ], [ 529143.659896748373285, 7261220.0 ], [ 529139.999107789364643, 7261230.0 ], [ 529136.329821285791695, 7261240.0 ], [ 529132.130567496176809, 7261250.0 ], [ 529127.433515001204796, 7261260.0 ], [ 529122.566484998911619, 7261270.0 ], [ 529117.869432503939606, 7261280.0 ], [ 529113.670178714208305, 7261290.0 ], [ 529110.0, 7261300.0 ], [ 529106.329821285791695, 7261310.000000000931323 ], [ 529102.130567496176809, 7261320.0 ], [ 529097.433515001204796, 7261330.0 ], [ 529092.566484998911619, 7261340.0 ], [ 529087.870324714574963, 7261350.0 ], [ 529083.680460680043325, 7261360.0 ], [ 529080.076866232557222, 7261370.0 ], [ 529076.700046732323244, 7261380.0 ], [ 529073.299953267676756, 7261390.0 ], [ 529069.924025978078134, 7261400.0 ], [ 529066.329821285791695, 7261410.0 ], [ 529062.205649307463318, 7261420.0 ], [ 529057.794350692536682, 7261430.0 ], [ 529053.670178714208305, 7261440.0 ], [ 529050.075974021921866, 7261450.0 ], [ 529046.700938942958601, 7261460.0 ], [ 529043.311127444147132, 7261470.000000000931323 ], [ 529040.011174176470377, 7261479.999107789248228 ], [ 529036.777805175632238, 7261489.987933613359928 ], [ 529033.757326912600547, 7261499.900785414502025 ], [ 529031.551677605253644, 7261509.453693735413253 ], [ 529030.447983889840543, 7261517.913190307095647 ], [ 529030.087148198508658, 7261524.243011592887342 ] ] } },
{ "type": "Feature", "properties": { "id": 2, "reference_id": 8, "dune_id": 8, "dune_name": "Inverted Y Dune", "acquisition_date": "2021-02-18", "length_m": 403.78501597197823 }, "geometry": { "type": "LineString", "coordinates": [ [ 530244.243011592421681, 7261232.086809693835676 ], [ 530237.91319030651357, 7261235.756988408043981 ], [ 530229.453693735180423, 7261242.086809693835676 ], [ 530219.900785414385609, 7261250.546306264586747 ], [ 530209.988825823646039, 7261260.099214585497975 ], [ 530200.01028196583502, 7261270.012066387571394 ], [ 530190.088040409144014, 7261280.000892210751772 ], [ 530180.45915806631092, 7261290.0 ], [ 530171.638825803645886, 7261300.0 ], [ 530164.20531080244109, 7261310.000000000931323 ], [ 530158.329482780885883, 7261320.0 ], [ 530153.768501089187339, 7261330.0 ], [ 530150.088040409144014, 7261340.0 ], [ 530146.701831153710373, 7261350.0 ], [ 530143.311127444263548, 7261360.0 ], [ 530140.01028196583502, 7261370.0 ], [ 530136.766630999278277, 7261380.0 ], [ 530133.670178714208305, 7261390.0 ], [ 530131.104585926048458, 7261400.0 ], [ 530128.907480461173691, 7261410.0 ], [ 530126.416969484183937, 7261420.0 ], [ 530123.680460680043325, 7261430.0 ], [ 530121.530221462948248, 7261440.0 ], [ 530120.359943480812944, 7261450.0 ], [ 530119.640056519303471, 7261460.0 ], [ 530118.470670747803524, 7261470.000000000931323 ], [ 530116.330713496543467, 7261480.0 ], [ 530113.670178714208305, 7261490.0 ], [ 530111.540503428666852, 7261500.0 ], [ 530110.447091679205187, 7261510.0 ], [ 530110.086255987756886, 7261520.0 ], [ 530110.0, 7261530.0 ], [ 530109.913297906983644, 7261539.999553894624114 ], [ 530109.547321232617833, 7261549.993520701304078 ], [ 530108.415922472137026, 7261559.944359513930976 ], [ 530106.106275446247309, 7261569.6772395754233 ], [ 530102.899926999816671, 7261578.683442020788789 ], [ 530099.705414071679115, 7261586.078100949525833 ], [ 530097.282181036309339, 7261591.078100949525833 ] ] } },
{ "type": "Feature", "properties": { "id": 3, "reference_id": 8, "dune_id": 8, "dune_name": "Inverted Y Dune", "acquisition_date": "2021-02-18", "length_m": 70.095108305550156 }, "geometry": { "type": "LineString", "coordinates": [ [ 530554.243011592305265, 7261172.085917483083904 ], [ 530547.91319030651357, 7261175.744922020472586 ], [ 530539.454585945932195, 7261181.987595107406378 ], [ 530529.912851801607758, 7261190.0 ], [ 530520.087148198392242, 7261198.012404892593622 ], [ 530510.545414054067805, 7261204.255077979527414 ], [ 530502.08680969348643, 7261207.914082517847419 ], [ 530495.756988407694735, 7261209.453693735413253 ] ] } },
{ "type": "Feature", "properties": { "id": 4, "reference_id": 9, "dune_id": 9, "dune_name": "Inverted Y Dune", "acquisition_date": "2021-02-18", "length_m": 760.56029768265546 }, "geometry": { "type": "LineString", "coordinates": [ [ 530092.618604378192686, 7261598.910724874585867 ], [ 530089.748279663734138, 7261603.833858641795814 ], [ 530085.013263306696899, 7261610.858292123302817 ], [ 530078.136736146174371, 7261618.695108798332512 ], [ 530069.497267834376544, 7261625.937477882951498 ], [ 530059.906372502679005, 7261632.12498040869832 ], [ 530049.988379718270153, 7261637.783622621558607 ], [ 530039.999107789364643, 7261643.669286504387856 ], [ 530030.0, 7261650.075974022038281 ], [ 530020.0, 7261656.700046733021736 ], [ 530010.0, 7261663.299953268840909 ], [ 530000.0, 7261669.924025977961719 ], [ 529990.0, 7261676.329821285791695 ], [ 529980.0, 7261682.205649306997657 ], [ 529970.0, 7261687.794350693002343 ], [ 529960.0, 7261693.671070924960077 ], [ 529950.0, 7261700.087148198857903 ], [ 529940.0, 7261706.788087141700089 ], [ 529930.0, 7261713.758219122886658 ], [ 529920.0, 7261721.551677605137229 ], [ 529910.0, 7261730.447983890771866 ], [ 529900.0, 7261740.087148198857903 ], [ 529890.0, 7261750.011174176819623 ], [ 529880.0, 7261760.000892210751772 ], [ 529870.000892210751772, 7261770.0 ], [ 529860.011174176470377, 7261780.0 ], [ 529850.087148198392242, 7261790.0 ], [ 529840.447983889840543, 7261800.0 ], [ 529831.551677605137229, 7261810.0 ], [ 529823.758219123352319, 7261820.0 ], [ 529816.788087141467258, 7261830.0 ], [ 529810.088040409144014, 7261840.000000000931323 ], [ 529803.682245101314038, 7261850.0 ], [ 529797.881498891045339, 7261860.0 ], [ 529792.653633197303861, 7261870.0 ], [ 529787.881498891045339, 7261880.0 ], [ 529783.681352890678681, 7261890.0 ], [ 529780.076866232673638, 7261900.0 ], [ 529776.700938943075016, 7261910.0 ], [ 529773.310235233511776, 7261920.0 ], [ 529770.0, 7261930.0 ], [ 529766.689764766488224, 7261940.0 ], [ 529763.299061056924984, 7261950.0 ], [ 529759.923133767326362, 7261960.0 ], [ 529756.319539319956675, 7261970.0 ], [ 529752.128783074789681, 7261980.0 ], [ 529747.423233035369776, 7261990.0 ], [ 529742.490510976989754, 7262000.0 ], [ 529737.510381233762018, 7262010.0 ], [ 529732.587048930465244, 7262020.0 ], [ 529727.946298736496828, 7262030.0 ], [ 529724.030122195021249, 7262040.0 ], [ 529721.094303960213438, 7262050.0 ], [ 529718.469778537051752, 7262060.0 ], [ 529714.86618408979848, 7262070.0 ], [ 529709.924025977961719, 7262080.0 ], [ 529704.763590463786386, 7262090.0 ], [ 529700.43591750273481, 7262100.0 ], [ 529696.77602075424511, 7262110.0 ], [ 529693.310235233511776, 7262120.0 ], [ 529689.924025978078134, 7262130.0 ], [ 529686.31953932007309, 7262140.0 ], [ 529682.129675285541452, 7262149.999107789248228 ], [ 529677.434407211840153, 7262159.987933613359928 ], [ 529672.577659175381996, 7262169.900785414502025 ], [ 529667.957472912967205, 7262179.453693735413253 ], [ 529664.128444569883868, 7262187.913190307095647 ], [ 529661.628543837927282, 7262194.243011591956019 ] ] } },
{ "type": "Feature", "properties": { "id": 5, "reference_id": 3, "dune_id": 3, "dune_name": "Big Mommy Dune", "acquisition_date": "2021-02-18", "length_m": 148.48602318472695 }, "geometry": { "type": "LineString", "coordinates": [ [ 529894.243011592421681, 7260610.0 ], [ 529887.91319030651357, 7260610.0 ], [ 529879.453693735180423, 7260610.0 ], [ 529869.900785414385609, 7260610.0 ], [ 529859.987933612894267, 7260610.0 ], [ 529849.999107789364643, 7260610.0 ], [ 529840.0, 7260610.0 ], [ 529830.0, 7260610.0 ], [ 529820.0, 7260610.0 ], [ 529810.0, 7260610.0 ], [ 529800.0, 7260610.0 ], [ 529790.000892210751772, 7260610.0 ], [ 529780.012066387105733, 7260610.0 ], [ 529770.099214585614391, 7260610.0 ], [ 529760.546306264819577, 7260610.0 ], [ 529752.08680969348643, 7260610.0 ], [ 529745.756988407694735, 7260610.0 ] ] } },
{ "type": "Feature", "properties": { "id": 6, "reference_id": 3, "dune_id": 3, "dune_name": "Big Mommy Dune", "acquisition_date": "2021-02-18", "length_m": 78.695634447967777 }, "geometry": { "type": "LineString", "coordinates": [ [ 529965.756988407694735, 7260609.924025978893042 ], [ 529972.08680969348643, 7260609.640056519769132 ], [ 529980.546306264819577, 7260608.906588250771165 ], [ 529990.099214585614391, 7260607.870324715040624 ], [ 530000.011174176470377, 7260607.34035742841661 ], [ 530009.988825823529623, 7260607.870324715040624 ], [ 530019.900785414502025, 7260608.906588250771165 ], [ 530029.453693735180423, 7260609.640056519769132 ], [ 530037.91319030651357, 7260609.924025978893042 ], [ 530044.243011592305265, 7260609.989718034863472 ] ] } },
{ "type": "Feature", "properties": { "id": 7, "reference_id": 3, "dune_id": 3, "dune_name": "Big Mommy Dune", "acquisition_date": "2021-02-18", "length_m": 161.73201234061065 }, "geometry": { "type": "LineString", "coordinates": [ [ 530085.756988407694735, 7260599.9888258241117 ], [ 530092.08680969348643, 7260599.912851802073419 ], [ 530100.546306264819577, 7260599.552908321842551 ], [ 530110.099214585614391, 7260598.458604360930622 ], [ 530120.012066387222148, 7260596.318647108972073 ], [ 530130.000892210751772, 7260593.583030516281724 ], [ 530140.0, 7260591.093411749228835 ], [ 530150.0, 7260588.906588250771165 ], [ 530160.0, 7260586.416077273897827 ], [ 530170.000000000116415, 7260583.670178714208305 ], [ 530180.0, 7260581.454247441142797 ], [ 530190.0, 7260580.0 ], [ 530199.999107789248228, 7260578.546644769608974 ], [ 530209.987933612894267, 7260576.340995462611318 ], [ 530219.900785414385609, 7260573.671070925891399 ], [ 530229.453693735180423, 7260571.540503429248929 ], [ 530237.91319030651357, 7260570.447091680020094 ], [ 530244.243011592421681, 7260570.087148198857903 ] ] } },
{ "type": "Feature", "properties": { "id": 8, "reference_id": 3, "dune_id": 3, "dune_name": "Big Mommy Dune", "acquisition_date": "2021-02-18", "length_m": 360.52947565897256 }, "geometry": { "type": "LineString", "coordinates": [ [ 529374.243011592305265, 7260695.756988408043981 ], [ 529367.91319030651357, 7260702.086809693835676 ], [ 529359.453693735180423, 7260710.546306265518069 ], [ 529349.901677625253797, 7260720.099214585497975 ], [ 529339.999107789364643, 7260730.012066388502717 ], [ 529330.086255987756886, 7260740.000892210751772 ], [ 529320.447983889956959, 7260750.0 ], [ 529311.551677605253644, 7260760.0 ], [ 529303.757326912600547, 7260770.0 ], [ 529296.777805175632238, 7260780.000000000931323 ], [ 529290.011174176470377, 7260790.0 ], [ 529283.311127444263548, 7260800.0 ], [ 529276.700938943075016, 7260810.0 ], [ 529270.075974022038281, 7260820.0 ], [ 529263.670178714208305, 7260830.0 ], [ 529257.794350692653097, 7260840.0 ], [ 529252.205649307463318, 7260850.0 ], [ 529246.32982128590811, 7260860.0 ], [ 529239.924025977961719, 7260870.0 ], [ 529233.299953267676756, 7260880.0 ], [ 529226.700046732323244, 7260890.0 ], [ 529220.075974022038281, 7260900.0 ], [ 529213.670178714208305, 7260910.0 ], [ 529207.795242903288454, 7260920.0 ], [ 529202.216823483817279, 7260930.0 ], [ 529196.416969484300353, 7260939.999553894624114 ], [ 529190.372009867918678, 7260949.993520701304078 ], [ 529184.8516308729304, 7260959.944359514862299 ], [ 529180.458265855675563, 7260969.6772395754233 ], [ 529176.864953374140896, 7260978.683442020788789 ], [ 529173.768501089070924, 7260986.078100949525833 ], [ 529171.552569815889001, 7260991.078100949525833 ] ] } },
{ "type": "Feature", "properties": { "id": 9, "reference_id": 3, "dune_id": 3, "dune_name": "Big Mommy Dune", "acquisition_date": "2021-02-18", "length_m": 100.57188801067427 }, "geometry": { "type": "LineString", "coordinates": [ [ 529515.75698840781115, 7260649.552908321842551 ], [ 529522.08680969348643, 7260648.459496571682394 ], [ 529530.546306264819577, 7260646.328929075971246 ], [ 529540.099214585614391, 7260643.659004538320005 ], [ 529550.012066387105733, 7260641.453355230391026 ], [ 529560.000892210751772, 7260640.0 ], [ 529569.999107789248228, 7260638.546644769608974 ], [ 529579.987933612894267, 7260636.340995462611318 ], [ 529589.900785414502025, 7260633.671070925891399 ], [ 529599.453693735180423, 7260631.540503429248929 ], [ 529607.91319030651357, 7260630.447091680020094 ], [ 529614.243011592421681, 7260630.087148198857903 ] ] } },
{ "type": "Feature", "properties": { "id": 10, "reference_id": 5, "dune_id": 5, "dune_name": "The Star Dune", "acquisition_date": "2021-02-18", "length_m": 1135.8755677242164 }, "geometry": { "type": "LineString", "coordinates": [ [ 534334.789317857124843, 7261305.756988408043981 ], [ 534330.0, 7261312.086809693835676 ], [ 534325.210682142991573, 7261320.546306264586747 ], [ 534321.987595107872039, 7261330.099214585497975 ], [ 534320.534239877597429, 7261340.012066386640072 ], [ 534320.098322374862619, 7261350.000892210751772 ], [ 534320.012066387105733, 7261360.0 ], [ 534320.000892210751772, 7261370.0 ], [ 534320.000892210751772, 7261380.0 ], [ 534320.011174176470377, 7261390.0 ], [ 534320.087148198392242, 7261400.0 ], [ 534320.447091679205187, 7261410.0 ], [ 534321.540503428666852, 7261420.0 ], [ 534323.670178714208305, 7261430.0 ], [ 534326.329821285791695, 7261440.0 ], [ 534328.459496571333148, 7261450.0 ], [ 534329.552908320794813, 7261460.0 ], [ 534329.912851801607758, 7261470.000000000931323 ], [ 534329.988825823529623, 7261480.0 ], [ 534329.999107789364643, 7261490.0 ], [ 534329.999107789364643, 7261500.0 ], [ 534329.987933612894267, 7261510.0 ], [ 534329.900785414385609, 7261520.0 ], [ 534329.453693735296838, 7261530.0 ], [ 534327.91319030651357, 7261540.0 ], [ 534324.243011592421681, 7261550.0 ], [ 534317.91319030651357, 7261560.000000000931323 ], [ 534309.453693735296838, 7261569.999107789248228 ], [ 534299.900785414502025, 7261579.9888258241117 ], [ 534289.987933612894267, 7261589.912851802073419 ], [ 534279.999107789248228, 7261599.552016111090779 ], [ 534270.0, 7261608.448322394862771 ], [ 534260.0, 7261616.242673087865114 ], [ 534250.0, 7261623.222194824367762 ], [ 534240.0, 7261629.9888258241117 ], [ 534230.0, 7261636.688872556202114 ], [ 534220.0, 7261643.298168847337365 ], [ 534210.0, 7261649.911959591321647 ], [ 534200.0, 7261656.231498911976814 ], [ 534190.0, 7261661.671409429982305 ], [ 534180.0, 7261665.805863374844193 ], [ 534170.0, 7261668.448322394862771 ], [ 534160.0, 7261669.987933613359928 ], [ 534150.0, 7261671.452463019639254 ], [ 534140.0, 7261673.659004537388682 ], [ 534130.0, 7261676.329821285791695 ], [ 534120.0, 7261678.470670748502016 ], [ 534110.0, 7261679.640056519769132 ], [ 534100.0, 7261680.35994348116219 ], [ 534090.0, 7261681.529329252429307 ], [ 534080.0, 7261683.669286504387856 ], [ 534070.0, 7261686.33071349747479 ], [ 534060.0, 7261688.470670748502016 ], [ 534050.0, 7261689.64005651883781 ], [ 534040.0, 7261690.35994348116219 ], [ 534030.0, 7261691.529329253360629 ], [ 534020.0, 7261693.670178714208305 ], [ 534010.0, 7261696.340995462611318 ], [ 534000.0, 7261698.546644769608974 ], [ 533990.0, 7261700.0 ], [ 533980.0, 7261701.454247441142797 ], [ 533970.0, 7261703.670178714208305 ], [ 533960.0, 7261706.416969484649599 ], [ 533950.0, 7261708.917762426659465 ], [ 533940.0, 7261711.181452158838511 ], [ 533930.0, 7261714.041296371258795 ], [ 533920.0, 7261717.947190947830677 ], [ 533910.0, 7261722.58704893104732 ], [ 533900.0, 7261727.511273444630206 ], [ 533890.0, 7261732.500792942941189 ], [ 533880.0, 7261737.500099267810583 ], [ 533870.0, 7261742.499900732189417 ], [ 533860.0, 7261747.500099267810583 ], [ 533850.0, 7261752.500792942941189 ], [ 533840.0, 7261757.511273443698883 ], [ 533830.0, 7261762.587941141799092 ], [ 533820.0, 7261767.958365123718977 ], [ 533810.000892210635357, 7261774.128444570116699 ], [ 533800.012066387105733, 7261781.628543838858604 ], [ 533790.098322374979034, 7261790.458265855908394 ], [ 533780.535132088232785, 7261800.088040409609675 ], [ 533771.999661495094188, 7261810.011174177750945 ], [ 533765.309004517854191, 7261820.000892210751772 ], [ 533760.535132088349201, 7261830.0 ], [ 533756.788087141467258, 7261840.000000000931323 ], [ 533753.311127444147132, 7261850.0 ], [ 533749.924918188713491, 7261860.0 ], [ 533746.329821285791695, 7261870.0 ], [ 533742.205649307463318, 7261880.0 ], [ 533737.793458481901325, 7261890.0 ], [ 533733.659896748373285, 7261900.0 ], [ 533729.999107789364643, 7261910.0 ], [ 533726.328929075039923, 7261920.0 ], [ 533722.119393319822848, 7261930.0 ], [ 533717.346366802696139, 7261940.0 ], [ 533712.119393319706433, 7261950.0 ], [ 533706.328929075156339, 7261960.0 ], [ 533699.999107789364643, 7261970.0 ], [ 533693.6598967484897, 7261980.0 ], [ 533687.794350692536682, 7261989.999553894624114 ], [ 533682.217715694569051, 7261999.993520701304078 ], [ 533676.428143660770729, 7262009.944359513930976 ], [ 533670.45915806631092, 7262019.677239574491978 ], [ 533665.298722552135587, 7262028.683442020788789 ], [ 533661.998769284458831, 7262036.078100949525833 ], [ 533660.535132088232785, 7262041.078100949525833 ] ] } },
{ "type": "Feature", "properties": { "id": 11, "reference_id": 6, "dune_id": 6, "dune_name": "The Star Dune", "acquisition_date": "2021-02-18", "length_m": 814.81023541594641 }, "geometry": { "type": "LineString", "coordinates": [ [ 533658.460388781968504, 7262048.921899050474167 ], [ 533656.340995462262072, 7262053.921899050474167 ], [ 533653.757326912600547, 7262061.316557979211211 ], [ 533651.987595107988454, 7262070.322760425508022 ], [ 533651.987595107988454, 7262080.055640487000346 ], [ 533653.757326912600547, 7262090.006479298695922 ], [ 533656.340995462262072, 7262100.000446105375886 ], [ 533658.460388781968504, 7262110.0 ], [ 533659.552908320911229, 7262120.0 ], [ 533659.912851801607758, 7262130.0 ], [ 533659.988825823529623, 7262140.0 ], [ 533659.999107789248228, 7262150.0 ], [ 533660.0, 7262160.0 ], [ 533660.0, 7262170.0 ], [ 533660.000892210751772, 7262180.0 ], [ 533660.011174176470377, 7262190.0 ], [ 533660.087148198392242, 7262200.0 ], [ 533660.447091679088771, 7262210.0 ], [ 533661.540503428783268, 7262220.0 ], [ 533663.670178714208305, 7262230.0 ], [ 533666.330713496543467, 7262240.0 ], [ 533668.470670747803524, 7262250.0 ], [ 533669.640056519303471, 7262260.0 ], [ 533670.359943480696529, 7262270.0 ], [ 533671.529329252196476, 7262280.0 ], [ 533673.669286503456533, 7262290.0 ], [ 533676.329821285791695, 7262300.0 ], [ 533678.458604360697791, 7262310.0 ], [ 533679.541734144324437, 7262320.0 ], [ 533679.825703603215516, 7262330.0 ], [ 533679.541734144324437, 7262340.000000000931323 ], [ 533678.458604360697791, 7262350.0 ], [ 533676.328929075156339, 7262360.0 ], [ 533673.659004537737928, 7262370.0 ], [ 533671.453355230391026, 7262380.0 ], [ 533669.999107789364643, 7262390.0 ], [ 533668.535470593255013, 7262400.0 ], [ 533666.253847263869829, 7262410.0 ], [ 533663.223087035119534, 7262420.0 ], [ 533659.988825823529623, 7262430.0 ], [ 533656.689764766488224, 7262440.0 ], [ 533653.310235233511776, 7262450.0 ], [ 533650.01028196583502, 7262460.0 ], [ 533646.766630999161862, 7262470.0 ], [ 533643.670178714208305, 7262480.0 ], [ 533641.104585926048458, 7262490.0 ], [ 533638.906588250538334, 7262500.0 ], [ 533636.405795307829976, 7262510.0 ], [ 533633.594204692286439, 7262520.0 ], [ 533631.094303960213438, 7262530.0 ], [ 533628.905696039786562, 7262540.0 ], [ 533626.405795307713561, 7262550.0 ], [ 533623.594204692170024, 7262560.0 ], [ 533621.094303960213438, 7262570.0 ], [ 533618.906588250421919, 7262580.0 ], [ 533616.416969484183937, 7262590.0 ], [ 533613.680460680043325, 7262600.000000000931323 ], [ 533611.530221462948248, 7262610.0 ], [ 533610.359943480696529, 7262620.0 ], [ 533609.640056519303471, 7262630.0 ], [ 533608.470670747803524, 7262640.0 ], [ 533606.330713496543467, 7262650.0 ], [ 533603.670178714208305, 7262660.0 ], [ 533601.540503428783268, 7262670.0 ], [ 533600.44619946856983, 7262680.0 ], [ 533600.075974022038281, 7262690.0 ], [ 533599.924025978078134, 7262700.0 ], [ 533599.553800531546585, 7262710.0 ], [ 533598.459496571216732, 7262720.0 ], [ 533596.328929075039923, 7262730.0 ], [ 533593.659004537737928, 7262740.0 ], [ 533591.452463019639254, 7262750.0 ], [ 533589.988825823529623, 7262760.0 ], [ 533588.459496571216732, 7262770.0 ], [ 533585.893011572421528, 7262780.0 ], [ 533582.119393319706433, 7262790.0 ], [ 533577.783176516182721, 7262799.999107789248228 ], [ 533573.670178714208305, 7262809.987933613359928 ], [ 533570.087148198508658, 7262819.900785414502025 ], [ 533566.788087141467258, 7262829.453693736344576 ], [ 533563.758219123352319, 7262837.913190307095647 ], [ 533561.551677605253644, 7262844.243011592887342 ] ] } },
{ "type": "Feature", "properties": { "id": 12, "reference_id": 4, "dune_id": 4, "dune_name": "The Star Dune", "acquisition_date": "2021-02-18", "length_m": 82.969449203793317 }, "geometry": { "type": "LineString", "coordinates": [ [ 533324.243011592305265, 7261958.448322394862771 ], [ 533317.91319030651357, 7261956.242673087865114 ], [ 533309.453693735180423, 7261953.222194824367762 ], [ 533299.900785414502025, 7261949.9888258241117 ], [ 533289.988825823529623, 7261946.689764766022563 ], [ 533280.011174176470377, 7261943.310235233977437 ], [ 533270.099214585614391, 7261940.011174176819623 ], [ 533260.546306264819577, 7261936.777805175632238 ], [ 533252.08680969348643, 7261933.757326912134886 ], [ 533245.756988407694735, 7261931.551677605137229 ] ] } },
{ "type": "Feature", "properties": { "id": 13, "reference_id": 2, "dune_id": 2, "dune_name": "Big Mommy Dune", "acquisition_date": "2021-02-18", "length_m": 483.6656880542044 }, "geometry": { "type": "LineString", "coordinates": [ [ 528864.243011592305265, 7260879.552908321842551 ], [ 528857.91319030651357, 7260878.458604360930622 ], [ 528849.453693735296838, 7260876.318647108972073 ], [ 528839.900785414502025, 7260873.583030516281724 ], [ 528829.987933612894267, 7260871.092519539408386 ], [ 528819.999107789364643, 7260868.895414074882865 ], [ 528810.0, 7260866.329821286723018 ], [ 528800.0, 7260863.233369001187384 ], [ 528790.0, 7260859.989718034863472 ], [ 528780.0, 7260856.688872556202114 ], [ 528770.0, 7260853.299061057157815 ], [ 528760.0, 7260849.924025977961719 ], [ 528750.0, 7260846.329821285791695 ], [ 528740.0, 7260842.205649307928979 ], [ 528730.0, 7260837.793458482250571 ], [ 528720.0, 7260833.659896748140454 ], [ 528710.0, 7260829.999107789248228 ], [ 528700.0, 7260826.329821285791695 ], [ 528690.0, 7260822.129675285890698 ], [ 528680.0, 7260817.423233035951853 ], [ 528670.0, 7260812.489618767052889 ], [ 528660.0, 7260807.498314846307039 ], [ 528650.0, 7260802.489618767052889 ], [ 528640.0, 7260797.423233035951853 ], [ 528630.0, 7260792.128783075138927 ], [ 528620.0, 7260786.319539319723845 ], [ 528610.0, 7260779.92313376814127 ], [ 528600.0, 7260773.299953268840909 ], [ 528590.0, 7260766.700046732090414 ], [ 528580.0, 7260760.075974021106958 ], [ 528570.0, 7260753.670178715139627 ], [ 528560.0, 7260747.794350693002343 ], [ 528550.0, 7260742.205649307928979 ], [ 528540.0, 7260736.328929075971246 ], [ 528530.0, 7260729.913744011893868 ], [ 528520.0, 7260723.223087035119534 ], [ 528510.0, 7260716.328929075971246 ], [ 528500.0, 7260708.896306284703314 ], [ 528490.0, 7260701.103693716228008 ], [ 528480.000892210751772, 7260693.671070925891399 ], [ 528470.012066387105733, 7260686.777805175632238 ], [ 528460.099214585614391, 7260680.098322374746203 ], [ 528450.546306264819577, 7260673.76939329970628 ], [ 528442.08680969348643, 7260668.329482780769467 ], [ 528435.756988407694735, 7260664.205310802906752 ] ] } },
{ "type": "Feature", "properties": { "id": 14, "reference_id": 7, "dune_id": 7, "dune_name": "Inverted Y Dune", "acquisition_date": "2021-02-18", "length_m": 548.60489817749442 }, "geometry": { "type": "LineString", "coordinates": [ [ 530654.243011592305265, 7261325.756988408043981 ], [ 530647.913190306629986, 7261332.086809693835676 ], [ 530639.453693735296838, 7261340.546306265518069 ], [ 530629.901677625137381, 7261350.099214585497975 ], [ 530619.999107789364643, 7261360.012066386640072 ], [ 530610.086255987756886, 7261370.000892210751772 ], [ 530600.447983889840543, 7261380.0 ], [ 530591.551677605137229, 7261390.0 ], [ 530583.757326912600547, 7261400.0 ], [ 530576.777805175632238, 7261410.0 ], [ 530570.011174176470377, 7261420.0 ], [ 530563.310235233511776, 7261430.0 ], [ 530556.690656977239996, 7261440.0 ], [ 530550.0, 7261450.0 ], [ 530543.309343022760004, 7261460.0 ], [ 530536.689764766488224, 7261470.000000000931323 ], [ 530529.988825823529623, 7261480.0 ], [ 530523.222194824367762, 7261490.0 ], [ 530516.242673087399453, 7261500.0 ], [ 530508.448322394862771, 7261510.0 ], [ 530499.552016110159457, 7261520.0 ], [ 530489.912851801607758, 7261529.999107789248228 ], [ 530479.988825823529623, 7261539.9888258241117 ], [ 530469.999107789364643, 7261549.911959590390325 ], [ 530460.0, 7261559.541734145022929 ], [ 530450.0, 7261568.371456163004041 ], [ 530440.0, 7261575.870663220062852 ], [ 530430.000000000116415, 7261582.031352911144495 ], [ 530420.0, 7261587.335192626342177 ], [ 530410.0, 7261592.118501108139753 ], [ 530400.0, 7261596.328929075039923 ], [ 530390.0, 7261599.999107790179551 ], [ 530380.0, 7261603.659896749071777 ], [ 530370.0, 7261607.793458482250571 ], [ 530360.0, 7261612.205649307928979 ], [ 530350.0, 7261616.328929075971246 ], [ 530340.0, 7261619.913744011893868 ], [ 530330.0, 7261623.223087035119534 ], [ 530320.0, 7261626.328929075039923 ], [ 530310.0, 7261628.895414073951542 ], [ 530300.0, 7261631.093411749228835 ], [ 530290.0, 7261633.594204692170024 ], [ 530280.000892210751772, 7261636.405795307829976 ], [ 530270.012066387105733, 7261638.905696040019393 ], [ 530260.099214585614391, 7261641.093411749228835 ], [ 530250.546306264819577, 7261643.583030516281724 ], [ 530242.08680969348643, 7261646.318647109903395 ], [ 530235.756988407694735, 7261648.458604361861944 ] ] } }
]
}
