{
"type": "FeatureCollection",
"name": "crests_2025_11_2025-11-11",
"crs": { "type": "name", "properties": { "name": "urn:ogc:def:crs:EPSG::32733" } },
"features": [
{ "type": "Feature", "properties": { "id": 0, "reference_id": 2, "dune_id": 2, "dune_name": "Big Mommy Dune", "acquisition_date": "2025-11-11", "length_m": 134.49131756742688 }, "geometry": { "type": "LineString", "coordinates": [ [ 528534.243011592421681, 7260734.690103271976113 ], [ 528527.913190306629986, 7260729.454585947096348 ], [ 528519.453693735180423, 7260723.135046625509858 ], [ 528509.900785414385609, 7260716.317754898220301 ], [ 528499.987933612894267, 7260708.895414074882865 ], [ 528489.999107789364643, 7260701.103693716228008 ], [ 528480.0, 7260693.670178715139627 ], [ 528470.000892210751772, 7260686.766630999743938 ], [ 528460.012066387105733, 7260680.0111741758883 ], [ 528450.099214585614391, 7260673.322301620617509 ], [ 528440.546306264819577, 7260666.788979352451861 ], [ 528432.08680969348643, 7260660.535132088698447 ], [ 528425.756988407694735, 7260655.309004518203437 ] ] } },
{ "type": "Feature", "properties": { "id": 1, "reference_id": 2, "dune_id": 2, "dune_name": "Big Mommy Dune", "acquisition_date": "2025-11-11", "length_m": 166.24975326652881 }, "geometry": { "type": "LineString", "coordinates": [ [ 528994.243011592305265, 7260919.912851801142097 ], [ 528987.91319030651357, 7260919.552016111090779 ], [ 528979.453693735296838, 7260918.448322394862771 ], [ 528969.900785414502025, 7260916.242673087865114 ], [ 528959.987933612894267, 7260913.222194824367762 ], [ 528949.999107789248228, 7260909.9888258241117 ], [ 528940.0, 7260906.689764766953886 ], [ 528930.0, 7260903.310235233977437 ], [ 528920.0, 7260900.010281966067851 ], [ 528910.0, 7260896.766630999743938 ], [ 528900.0, 7260893.669286503456533 ], [ 528890.0, 7260891.093411749228835 ], [ 528880.000892210751772, 7260888.820332262665033 ], [ 528870.012066387105733, 7260885.969877805560827 ], [ 528860.099214585614391, 7260882.140849461778998 ], [ 528850.546306264819577, 7260877.871216925792396 ], [ 528842.086809693370014, 7260874.117270393297076 ], [ 528835.756988407694735, 7260871.627651628106833 ] ] } },
{ "type": "Feature", "properties": { "id": 2, "reference_id": 2, "dune_id": 2, "dune_name": "Big Mommy Dune", "acquisition_date": "2025-11-11", "length_m": 104.8023391412938 }, "geometry": { "type": "LineString", "coordinates": [ [ 529134.243011592421681, 7260963.211020648479462 ], [ 529127.91319030651357, 7260964.690995482727885 ], [ 529119.453693735296838, 7260964.255077980458736 ], [ 529109.900785414385609, 7260961.235491927713156 ], [ 529099.987933612894267, 7260956.242673087865114 ], [ 529089.999107789248228, 7260950.435025292448699 ], [ 529080.000892210751772, 7260945.28576395381242 ], [ 529070.012066387222148, 7260941.911621086299419 ], [ 529060.099214585614391, 7260940.088040409609675 ], [ 529050.546306264819577, 7260938.557818945497274 ], [ 529042.08680969348643, 7260936.34188767336309 ], [ 529035.75698840781115, 7260933.671070924960077 ] ] } },
{ "type": "Feature", "properties": { "id": 3, "reference_id": 4, "dune_id": 4, "dune_name": "The Star Dune", "acquisition_date": "2025-11-11", "length_m": 64.346411746247895 }, "geometry": { "type": "LineString", "coordinates": [ [ 533584.243011592305265, 7262048.01151268184185 ], [ 533577.91319030651357, 7262044.778143680654466 ], [ 533569.454585945932195, 7262039.912851801142097 ], [ 533559.912851801607758, 7262034.763590464368463 ], [ 533550.087148198392242, 7262030.447091679088771 ], [ 533540.545414054067805, 7262026.86406116373837 ], [ 533532.086809693602845, 7262023.768501089885831 ], [ 533525.756988407694735, 7262021.552569815889001 ] ] } },
{ "type": "Feature", "properties": { "id": 4, "reference_id": 4, "dune_id": 4, "dune_name": "The Star Dune", "acquisition_date": "2025-11-11", "length_m": 422.22841830197444 }, "geometry": { "type": "LineString", "coordinates": [ [ 533005.756988407694735, 7261870.087148198857903 ], [ 533012.08680969348643, 7261870.447091680020094 ], [ 533020.546306264819577, 7261871.541395640000701 ], [ 533030.099214585614391, 7261873.681352891027927 ], [ 533040.012066387105733, 7261876.416969484649599 ], [ 533050.000892210751772, 7261878.906588250771165 ], [ 533060.0, 7261881.094303959980607 ], [ 533070.0, 7261883.594204692170024 ], [ 533080.0, 7261886.405795307829976 ], [ 533090.0, 7261888.905696040019393 ], [ 533100.0, 7261891.094303959980607 ], [ 533110.0, 7261893.594204692170024 ], [ 533120.0, 7261896.405795307829976 ], [ 533130.0, 7261898.905696040019393 ], [ 533140.0, 7261901.094303959980607 ], [ 533150.0, 7261903.594204692170024 ], [ 533160.0, 7261906.406687518581748 ], [ 533170.0, 7261908.916870216839015 ], [ 533180.0, 7261911.180559948086739 ], [ 533190.0, 7261914.030122194439173 ], [ 533200.0, 7261917.860042748972774 ], [ 533210.0, 7261922.139957251027226 ], [ 533220.0, 7261925.969877805560827 ], [ 533230.0, 7261928.819440051913261 ], [ 533240.0, 7261931.083129784092307 ], [ 533250.0, 7261933.593312481418252 ], [ 533260.0, 7261936.405795307829976 ], [ 533270.0, 7261938.906588250771165 ], [ 533280.0, 7261941.104585926048458 ], [ 533290.0, 7261943.670178713276982 ], [ 533300.0, 7261946.766630999743938 ], [ 533310.0, 7261950.010281966999173 ], [ 533320.0, 7261953.310235233977437 ], [ 533330.0, 7261956.689764766953886 ], [ 533340.0, 7261959.9888258241117 ], [ 533350.0, 7261963.222194824367762 ], [ 533360.0, 7261966.242673087865114 ], [ 533369.999107789364643, 7261968.448322394862771 ], [ 533379.987933612894267, 7261969.552016111090779 ], [ 533389.900785414502025, 7261969.912851802073419 ], [ 533399.453693735296838, 7261969.9888258241117 ], [ 533407.91319030651357, 7261969.999107789248228 ], [ 533414.243011592421681, 7261970.0 ] ] } },
{ "type": "Feature", "properties": { "id": 5, "reference_id": 3, "dune_id": 3, "dune_name": "Big Mommy Dune", "acquisition_date": "2025-11-11", "length_m": 1210.7903041658969 }, "geometry": { "type": "LineString", "coordinates": [ [ 530204.243011592305265, 7260580.000892210751772 ], [ 530197.91319030651357, 7260580.0111741758883 ], [ 530189.453693735180423, 7260580.087148198857903 ], [ 530179.900785414385609, 7260580.447091679088771 ], [ 530169.987933612894267, 7260581.541395640000701 ], [ 530159.999107789364643, 7260583.681352891027927 ], [ 530150.0, 7260586.416969484649599 ], [ 530140.0, 7260588.906588250771165 ], [ 530130.0, 7260591.093411749228835 ], [ 530120.0, 7260593.583030516281724 ], [ 530110.0, 7260596.319539319723845 ], [ 530100.0, 7260598.469778537750244 ], [ 530090.0, 7260599.640056519769132 ], [ 530080.0, 7260600.35994348116219 ], [ 530070.0, 7260601.528437042608857 ], [ 530060.0, 7260603.659004537388682 ], [ 530050.0, 7260606.253847263753414 ], [ 530040.0, 7260608.099553090520203 ], [ 530030.0, 7260608.459496571682394 ], [ 530020.0, 7260607.783176517114043 ], [ 530010.0, 7260607.32918325252831 ], [ 530000.0, 7260607.869432504288852 ], [ 529990.0, 7260608.906588250771165 ], [ 529980.0, 7260609.640056519769132 ], [ 529970.0, 7260609.924025978893042 ], [ 529960.0, 7260609.989718034863472 ], [ 529950.0, 7260609.999107789248228 ], [ 529940.0, 7260610.0 ], [ 529930.0, 7260610.0 ], [ 529920.0, 7260610.0 ], [ 529910.0, 7260610.0 ], [ 529900.0, 7260610.0 ], [ 529890.0, 7260610.0 ], [ 529880.0, 7260610.0 ], [ 529870.0, 7260610.0 ], [ 529860.0, 7260610.0 ], [ 529850.0, 7260610.0 ], [ 529840.0, 7260610.0 ], [ 529830.0, 7260610.0 ], [ 529820.0, 7260610.0 ], [ 529810.0, 7260610.0 ], [ 529800.0, 7260610.0 ], [ 529790.0, 7260610.0 ], [ 529780.0, 7260610.0 ], [ 529770.0, 7260610.000892210751772 ], [ 529760.0, 7260610.011174176819623 ], [ 529750.0, 7260610.087148198857903 ], [ 529740.0, 7260610.447091680020094 ], [ 529730.0, 7260611.540503429248929 ], [ 529720.0, 7260613.670178715139627 ], [ 529710.0, 7260616.329821286723018 ], [ 529700.0, 7260618.459496571682394 ], [ 529690.0, 7260619.552908320911229 ], [ 529680.0, 7260619.913744012825191 ], [ 529670.0, 7260620.0 ], [ 529660.0, 7260620.086255988106132 ], [ 529650.0, 7260620.447091679088771 ], [ 529640.0, 7260621.540503429248929 ], [ 529630.0, 7260623.670178714208305 ], [ 529620.0, 7260626.330713496543467 ], [ 529610.0, 7260628.470670747570693 ], [ 529600.0, 7260629.64005651883781 ], [ 529590.0, 7260630.35994348116219 ], [ 529580.0, 7260631.530221463181078 ], [ 529570.0, 7260633.680460680276155 ], [ 529560.0, 7260636.416969483718276 ], [ 529550.0, 7260638.906588250771165 ], [ 529540.0, 7260641.094303959980607 ], [ 529530.0, 7260643.594204693101346 ], [ 529520.0, 7260646.405795307829976 ], [ 529510.0, 7260648.905696040019393 ], [ 529500.000000000116415, 7260651.094303959980607 ], [ 529490.0, 7260653.594204692170024 ], [ 529480.0, 7260656.405795307829976 ], [ 529470.0, 7260658.906588250771165 ], [ 529460.0, 7260661.10458592697978 ], [ 529450.0, 7260663.670178714208305 ], [ 529440.000000000116415, 7260666.766630999743938 ], [ 529430.0, 7260670.0111741758883 ], [ 529420.0, 7260673.321409409865737 ], [ 529410.0, 7260676.777805175632238 ], [ 529400.0, 7260680.447983888909221 ], [ 529390.0, 7260684.861912839114666 ], [ 529380.0, 7260690.459158066660166 ], [ 529370.0, 7260696.864953374490142 ], [ 529360.0, 7260703.768501089885831 ], [ 529350.000892210751772, 7260711.552569815889001 ], [ 529340.011174176470377, 7260720.447983889840543 ], [ 529330.088040409144014, 7260730.087148198857903 ], [ 529320.458265855675563, 7260740.011174176819623 ], [ 529311.62765162717551, 7260750.000892210751772 ], [ 529304.117270393413492, 7260760.0 ], [ 529297.871216925210319, 7260770.0 ], [ 529292.140849461895414, 7260780.000000000931323 ], [ 529285.969877805095166, 7260790.0 ], [ 529278.820332262781449, 7260800.0 ], [ 529271.093411749461666, 7260810.0 ], [ 529263.669286503456533, 7260820.0 ], [ 529256.766630999278277, 7260830.0 ], [ 529250.01028196583502, 7260840.0 ], [ 529243.311127444147132, 7260850.0 ], [ 529236.700938942958601, 7260860.0 ], [ 529230.075974021921866, 7260870.0 ], [ 529223.670178714208305, 7260880.0 ], [ 529217.794350692536682, 7260890.0 ], [ 529212.206541518098675, 7260900.0 ], [ 529206.3401032515103, 7260910.0 ], [ 529200.000892210751772, 7260920.0 ], [ 529193.671070924960077, 7260930.0 ], [ 529187.881944996421225, 7260939.999553894624114 ], [ 529182.670394462067634, 7260949.993520701304078 ], [ 529178.012221188633703, 7260959.944359514862299 ], [ 529174.352882620180026, 7260969.6772395754233 ], [ 529172.3987955522025, 7260978.683442020788789 ], [ 529172.293355212779716, 7260986.078100949525833 ], [ 529173.252951052039862, 7260991.078100949525833 ] ] } },
{ "type": "Feature", "properties": { "id": 6, "reference_id": 1, "dune_id": 1, "dune_name": "Big Mommy Dune", "acquisition_date": "2025-11-11", "length_m": 269.38010247827458 }, "geometry": { "type": "LineString", "coordinates": [ [ 528954.129336780519225, 7262154.243011591956019 ], [ 528957.968647089437582, 7262147.913190307095647 ], [ 528962.663915163138881, 7262139.453693735413253 ], [ 528967.871216925210319, 7262129.900785414502025 ], [ 528973.594204692286439, 7262119.987933613359928 ], [ 528979.629774553468451, 7262109.999107789248228 ], [ 528985.159543303656392, 7262100.0 ], [ 528989.628882342833094, 7262090.0 ], [ 528993.583030515816063, 7262080.0 ], [ 528997.783176516182721, 7262070.0 ], [ 529002.205649307463318, 7262060.0 ], [ 529006.340103251626715, 7262050.0 ], [ 529010.000892210751772, 7262040.0 ], [ 529013.671070924960077, 7262030.0 ], [ 529017.880606680409983, 7262020.0 ], [ 529022.653633197303861, 7262010.0 ], [ 529027.880606680409983, 7262000.0 ], [ 529033.671070924960077, 7261990.0 ], [ 529040.000892210751772, 7261980.0 ], [ 529046.3401032515103, 7261970.0 ], [ 529052.205649307463318, 7261960.000892210751772 ], [ 529057.782284305430949, 7261950.012066386640072 ], [ 529063.571856339345686, 7261940.099214585497975 ], [ 529069.54084193368908, 7261930.546306265518069 ], [ 529074.701277447980829, 7261922.086809693835676 ], [ 529078.001230715657584, 7261915.756988408043981 ] ] } },
{ "type": "Feature", "properties": { "id": 7, "reference_id": 1, "dune_id": 1, "dune_name": "Big Mommy Dune", "acquisition_date": "2025-11-11", "length_m": 870.49747778483038 }, "geometry": { "type": "LineString", "coordinates": [ [ 529180.0, 7261045.756988408043981 ], [ 529179.999107789364643, 7261052.086809693835676 ], [ 529179.988825823529623, 7261060.546306265518069 ], [ 529179.912851801607758, 7261070.099214585497975 ], [ 529179.552908320794813, 7261080.012066387571394 ], [ 529178.458604360581376, 7261090.000892210751772 ], [ 529176.318647109321319, 7261100.0 ], [ 529173.583030515816063, 7261110.0 ], [ 529171.092519538942724, 7261120.000000000931323 ], [ 529168.895414074067958, 7261130.0 ], [ 529166.328929075156339, 7261140.0 ], [ 529163.223087035119534, 7261150.0 ], [ 529159.91374401235953, 7261160.0 ], [ 529156.328929075156339, 7261170.0 ], [ 529152.205649307463318, 7261180.0 ], [ 529147.794350692536682, 7261190.0 ], [ 529143.670178714208305, 7261200.0 ], [ 529140.075974022038281, 7261210.000000000931323 ], [ 529136.700046732323244, 7261220.0 ], [ 529133.299953267676756, 7261230.0 ], [ 529129.923133767326362, 7261240.0 ], [ 529126.31953932007309, 7261250.0 ], [ 529122.128783074906096, 7261260.0 ], [ 529117.423233035369776, 7261270.0 ], [ 529112.490510976873338, 7261280.0 ], [ 529107.509489023126662, 7261290.0 ], [ 529102.576766964630224, 7261300.0 ], [ 529097.870324714574963, 7261310.000000000931323 ], [ 529093.670178714208305, 7261320.0 ], [ 529090.000892210751772, 7261330.0 ], [ 529086.340103251626715, 7261340.0 ], [ 529082.206541518098675, 7261350.0 ], [ 529077.794350692536682, 7261360.0 ], [ 529073.670178714208305, 7261370.0 ], [ 529070.075974022038281, 7261380.0 ], [ 529066.700046732323244, 7261390.0 ], [ 529063.299953267676756, 7261400.0 ], [ 529059.924025978078134, 7261410.0 ], [ 529056.330713496543467, 7261420.0 ], [ 529052.215931273181923, 7261430.0 ], [ 529047.870324714458548, 7261440.0 ], [ 529044.031014405540191, 7261450.0 ], [ 529041.180559947970323, 7261460.0 ], [ 529038.916870216256939, 7261470.000000000931323 ], [ 529036.406687518465333, 7261480.0 ], [ 529033.594204692286439, 7261490.0 ], [ 529031.094303960213438, 7261500.0 ], [ 529028.906588250538334, 7261510.0 ], [ 529026.416969484183937, 7261520.0 ], [ 529023.680460680043325, 7261530.0 ], [ 529021.530221462948248, 7261540.0 ], [ 529020.359943480812944, 7261550.0 ], [ 529019.640056519303471, 7261560.000000000931323 ], [ 529018.470670747803524, 7261570.0 ], [ 529016.330713496543467, 7261580.0 ], [ 529013.670178714208305, 7261590.0 ], [ 529011.541395639418624, 7261600.0 ], [ 529010.458265855675563, 7261610.0 ], [ 529010.1742963969009, 7261620.0 ], [ 529010.458265855675563, 7261630.0 ], [ 529011.541395639418624, 7261640.0 ], [ 529013.671070924960077, 7261650.0 ], [ 529016.340995462378487, 7261660.0 ], [ 529018.547536980360746, 7261670.0 ], [ 529020.012066387222148, 7261680.0 ], [ 529021.551677605137229, 7261690.0 ], [ 529024.194136626087129, 7261700.0 ], [ 529028.327698359498754, 7261710.0 ], [ 529033.758219123352319, 7261720.0 ], [ 529040.012066387105733, 7261730.000000000931323 ], [ 529046.340995462262072, 7261740.0 ], [ 529052.206541518098675, 7261750.0 ], [ 529057.793458481901325, 7261760.0 ], [ 529063.659896748373285, 7261770.0 ], [ 529069.999107789364643, 7261780.0 ], [ 529076.329821285791695, 7261790.0 ], [ 529082.129675285425037, 7261800.0 ], [ 529087.42234082473442, 7261810.0 ], [ 529092.478444589767605, 7261819.999107789248228 ], [ 529097.411166648264043, 7261829.987933613359928 ], [ 529102.041634876397438, 7261839.900785414502025 ], [ 529105.871555430232547, 7261849.453693735413253 ], [ 529108.371456162189133, 7261857.913190307095647 ], [ 529109.541734144440852, 7261864.243011591956019 ] ] } },
{ "type": "Feature", "properties": { "id": 8, "reference_id": 7, "dune_id": 7, "dune_name": "Inverted Y Dune", "acquisition_date": "2025-11-11", "length_m": 547.97803258633371 }, "geometry": { "type": "LineString", "coordinates": [ [ 530624.243903802940622, 7261355.756988408043981 ], [ 530617.924364482983947, 7261362.086809693835676 ], [ 530609.54084193368908, 7261370.546306265518069 ], [ 530600.348769304226153, 7261380.099214585497975 ], [ 530591.539611218031496, 7261390.012066387571394 ], [ 530583.75643470196519, 7261400.000892210751772 ], [ 530576.777805175632238, 7261410.0 ], [ 530570.011174176470377, 7261420.0 ], [ 530563.310235233511776, 7261430.0 ], [ 530556.68976476660464, 7261440.0 ], [ 530549.989718034281395, 7261450.0 ], [ 530543.233369000838138, 7261460.0 ], [ 530536.329821285791695, 7261470.000000000931323 ], [ 530528.895414074067958, 7261480.0 ], [ 530521.092519538942724, 7261490.0 ], [ 530513.583030515816063, 7261500.0 ], [ 530506.318647109321319, 7261510.0 ], [ 530498.458604360697791, 7261519.999107789248228 ], [ 530489.552908320911229, 7261529.9888258241117 ], [ 530479.912851801607758, 7261539.912851801142097 ], [ 530469.988825823529623, 7261549.552016110159457 ], [ 530459.999107789364643, 7261558.448322394862771 ], [ 530450.0, 7261566.242673087865114 ], [ 530440.0, 7261573.222194824367762 ], [ 530430.000000000116415, 7261579.9888258241117 ], [ 530420.0, 7261586.688872555270791 ], [ 530410.0, 7261593.298168846406043 ], [ 530400.0, 7261599.912851802073419 ], [ 530390.0, 7261606.242673087865114 ], [ 530380.0, 7261611.757665418088436 ], [ 530370.0, 7261616.242673087865114 ], [ 530360.0, 7261619.912851801142097 ], [ 530350.0, 7261623.298168846406043 ], [ 530340.0, 7261626.688872555270791 ], [ 530330.0, 7261629.989718034863472 ], [ 530320.0, 7261633.233369001187384 ], [ 530310.0, 7261636.329821285791695 ], [ 530300.0, 7261638.895414074882865 ], [ 530290.0, 7261641.092519538477063 ], [ 530280.0, 7261643.583030516281724 ], [ 530270.0, 7261646.318647109903395 ], [ 530260.0, 7261648.458604361861944 ], [ 530250.0, 7261649.552908321842551 ], [ 530240.000892210751772, 7261649.912851802073419 ], [ 530230.012066387105733, 7261649.9888258241117 ], [ 530220.099214585614391, 7261649.999107790179551 ], [ 530210.546306264819577, 7261650.0 ], [ 530202.086809693370014, 7261650.0 ], [ 530195.756988407694735, 7261650.0 ] ] } },
{ "type": "Feature", "properties": { "id": 9, "reference_id": 5, "dune_id": 5, "dune_name": "The Star Dune", "acquisition_date": "2025-11-11", "length_m": 1018.3735905208423 }, "geometry": { "type": "LineString", "coordinates": [ [ 534320.0, 7261425.756988408043981 ], [ 534320.0, 7261432.086809692904353 ], [ 534320.000892210751772, 7261440.546306265518069 ], [ 534320.011174176470377, 7261450.099214585497975 ], [ 534320.086255987756886, 7261460.012066386640072 ], [ 534320.43591750273481, 7261470.000892210751772 ], [ 534321.45335523027461, 7261480.0 ], [ 534323.223087035119534, 7261490.0 ], [ 534324.789317857124843, 7261500.0 ], [ 534324.788425646489486, 7261510.0 ], [ 534323.211020647897385, 7261520.0 ], [ 534321.35414064466022, 7261530.0 ], [ 534319.889611237915233, 7261540.0 ], [ 534317.999446294270456, 7261550.0 ], [ 534314.254185768892057, 7261559.999107790179551 ], [ 534307.914082517265342, 7261569.9888258241117 ], [ 534299.453693735296838, 7261579.912851802073419 ], [ 534289.900785414502025, 7261589.552016110159457 ], [ 534279.987933612894267, 7261598.448322394862771 ], [ 534269.999107789248228, 7261606.241780877113342 ], [ 534260.0, 7261613.211912859231234 ], [ 534250.0, 7261619.912851801142097 ], [ 534240.0, 7261626.328929075039923 ], [ 534230.0, 7261632.205649307928979 ], [ 534220.0, 7261637.793458482250571 ], [ 534210.0, 7261643.659004538320005 ], [ 534200.0, 7261649.987933613359928 ], [ 534190.0, 7261656.241780877113342 ], [ 534180.0, 7261661.671409429982305 ], [ 534170.0, 7261665.79558140784502 ], [ 534160.0, 7261668.37234837282449 ], [ 534150.0, 7261669.627990132197738 ], [ 534140.0, 7261670.359051270410419 ], [ 534130.0, 7261671.529329252429307 ], [ 534120.0, 7261673.669286503456533 ], [ 534110.0, 7261676.329821285791695 ], [ 534100.0, 7261678.460388781502843 ], [ 534090.0, 7261679.564082497730851 ], [ 534080.0, 7261680.0 ], [ 534070.0, 7261680.435917503200471 ], [ 534060.0, 7261681.539611218497157 ], [ 534050.0, 7261683.670178715139627 ], [ 534040.0, 7261686.33071349747479 ], [ 534030.0, 7261688.470670748502016 ], [ 534020.0, 7261689.64005651883781 ], [ 534010.0, 7261690.35994348116219 ], [ 534000.0, 7261691.530221464112401 ], [ 533990.0, 7261693.680460680276155 ], [ 533980.0, 7261696.416969484649599 ], [ 533970.0, 7261698.906588250771165 ], [ 533960.0, 7261701.094303959980607 ], [ 533950.0, 7261703.595096902921796 ], [ 533940.0, 7261706.416969484649599 ], [ 533930.0, 7261708.992844238877296 ], [ 533920.0, 7261711.541395640000701 ], [ 533910.0, 7261715.134708121418953 ], [ 533900.0, 7261720.076866232790053 ], [ 533890.0, 7261725.246691502630711 ], [ 533880.0, 7261729.640948730520904 ], [ 533870.0, 7261733.594204692170024 ], [ 533860.0, 7261737.860042748972774 ], [ 533850.0, 7261742.57676696497947 ], [ 533840.0, 7261747.521555410698056 ], [ 533830.0, 7261752.588833351619542 ], [ 533820.0, 7261757.958365123718977 ], [ 533810.0, 7261764.128444569185376 ], [ 533800.000892210751772, 7261771.628543837927282 ], [ 533790.012066387105733, 7261780.458265855908394 ], [ 533780.098322374979034, 7261790.088040409609675 ], [ 533770.535132088349201, 7261800.011174176819623 ], [ 533761.999661495094188, 7261810.000892210751772 ], [ 533755.309004517854191, 7261820.0 ], [ 533750.535132088349201, 7261830.0 ], [ 533746.788979352102615, 7261840.000000000931323 ], [ 533743.321409409865737, 7261850.0 ], [ 533740.000892210751772, 7261860.0 ], [ 533736.689764766488224, 7261870.0 ], [ 533733.299061057041399, 7261880.0 ], [ 533729.923133767326362, 7261890.0 ], [ 533726.319539319956675, 7261900.0 ], [ 533722.128783074906096, 7261910.0 ], [ 533717.42234082473442, 7261920.0 ], [ 533712.479336800519377, 7261930.0 ], [ 533707.42234082473442, 7261940.0 ], [ 533702.128783074789681, 7261950.0 ], [ 533696.31953932007309, 7261960.0 ], [ 533689.923133767326362, 7261970.0 ], [ 533683.299953267676756, 7261980.0 ], [ 533676.700938943075016, 7261989.999553894624114 ], [ 533670.088040409144014, 7261999.993520701304078 ], [ 533663.768501089187339, 7262009.944359513930976 ], [ 533658.329482780769467, 7262019.677239574491978 ], [ 533654.20531080244109, 7262028.683442020788789 ], [ 533651.638825803645886, 7262036.078100949525833 ], [ 533650.45915806631092, 7262041.078100949525833 ] ] } },
{ "type": "Feature", "properties": { "id": 10, "reference_id": 5, "dune_id": 5, "dune_name": "The Star Dune", "acquisition_date": "2025-11-11", "length_m": 101.08936066319168 }, "geometry": { "type": "LineString", "coordinates": [ [ 534334.342226177919656, 7261302.086809693835676 ], [ 534328.459496571333148, 7261305.756988408043981 ], [ 534321.540503428666852, 7261312.086809693835676 ], [ 534315.657773822080344, 7261320.546306264586747 ], [ 534312.074743306264281, 7261330.099214585497975 ], [ 534310.545414054067805, 7261340.012066386640072 ], [ 534310.099214585614391, 7261350.0 ], [ 534310.012066387222148, 7261359.987933613359928 ], [ 534310.000892210751772, 7261369.900785414502025 ], [ 534310.0, 7261379.453693735413253 ], [ 534310.0, 7261387.913190307095647 ], [ 534310.0, 7261394.243011592887342 ] ] } },
{ "type": "Feature", "properties": { "id": 11, "reference_id": 9, "dune_id": 9, "dune_name": "Inverted Y Dune", "acquisition_date": "2025-11-11", "length_m": 843.28071792564833 }, "geometry": { "type": "LineString", "coordinates": [ [ 529640.087148198392242, 7262264.243011591956019 ], [ 529640.447983889840543, 7262257.913190307095647 ], [ 529641.551677605137229, 7262249.453693735413253 ], [ 529643.757326912600547, 7262239.900785414502025 ], [ 529646.777805175632238, 7262229.987933613359928 ], [ 529650.011174176470377, 7262219.999107789248228 ], [ 529653.310235233511776, 7262210.0 ], [ 529656.690656977239996, 7262200.0 ], [ 529660.0, 7262190.0 ], [ 529663.310235233511776, 7262180.0 ], [ 529666.700938943075016, 7262170.0 ], [ 529670.076866232673638, 7262160.0 ], [ 529673.680460680043325, 7262150.0 ], [ 529677.871216925210319, 7262140.0 ], [ 529682.576766964630224, 7262130.0 ], [ 529687.509489023126662, 7262120.0 ], [ 529692.490510976873338, 7262110.0 ], [ 529697.423233035369776, 7262100.0 ], [ 529702.128783074789681, 7262090.0 ], [ 529706.31953932007309, 7262080.0 ], [ 529709.923133767442778, 7262070.0 ], [ 529713.299953267676756, 7262060.0 ], [ 529716.700046732323244, 7262050.0 ], [ 529720.076866232790053, 7262040.0 ], [ 529723.680460680043325, 7262030.0 ], [ 529727.870324714574963, 7262020.0 ], [ 529732.566484998911619, 7262010.0 ], [ 529737.433515001088381, 7262000.0 ], [ 529742.130567496176809, 7261990.0 ], [ 529746.329821285791695, 7261980.0 ], [ 529749.999107789364643, 7261970.0 ], [ 529753.659896748373285, 7261960.0 ], [ 529757.79345848178491, 7261950.0 ], [ 529762.205649307463318, 7261940.0 ], [ 529766.329821285791695, 7261930.0 ], [ 529769.924025978078134, 7261920.0 ], [ 529773.299953267676756, 7261910.0 ], [ 529776.700046732323244, 7261900.0 ], [ 529780.076866232673638, 7261890.0 ], [ 529783.681352890678681, 7261880.0 ], [ 529787.882391101680696, 7261870.0 ], [ 529792.664807373774238, 7261860.0 ], [ 529797.96775487868581, 7261850.0 ], [ 529804.118162604048848, 7261840.000000000931323 ], [ 529811.541395639418624, 7261830.0 ], [ 529820.011174176586792, 7261820.0 ], [ 529828.547536980360746, 7261810.0 ], [ 529836.340995462262072, 7261800.0 ], [ 529843.671070924960077, 7261790.0 ], [ 529851.540503428666852, 7261780.0 ], [ 529860.447091679205187, 7261770.000892210751772 ], [ 529870.087148198392242, 7261760.011174176819623 ], [ 529880.011174176470377, 7261750.087148198857903 ], [ 529890.000892210751772, 7261740.447091680020094 ], [ 529900.0, 7261731.541395640000701 ], [ 529910.0, 7261723.681352891027927 ], [ 529920.0, 7261716.416969484649599 ], [ 529930.0, 7261708.907480461522937 ], [ 529940.0, 7261701.10458592697978 ], [ 529950.0, 7261693.671070924960077 ], [ 529960.0, 7261686.776912964880466 ], [ 529970.0, 7261680.087148198857903 ], [ 529980.0, 7261673.681352891027927 ], [ 529990.0, 7261667.870324714109302 ], [ 530000.0, 7261662.566484998911619 ], [ 530010.0, 7261657.433515001088381 ], [ 530020.0, 7261652.129675285890698 ], [ 530030.0, 7261646.318647109903395 ], [ 530039.999107789364643, 7261639.911959590390325 ], [ 530049.988379718270153, 7261633.212358963675797 ], [ 530059.906372502679005, 7261626.248260175809264 ], [ 530069.497267834376544, 7261618.503962881863117 ], [ 530078.136736146174371, 7261609.874776534736156 ], [ 530085.013263306696899, 7261601.22940978128463 ], [ 530089.748279663734138, 7261593.910724874585867 ], [ 530092.618604378192686, 7261588.921006839722395 ] ] } },
{ "type": "Feature", "properties": { "id": 12, "reference_id": 8, "dune_id": 8, "dune_name": "Inverted Y Dune", "acquisition_date": "2025-11-11", "length_m": 85.589524839083779 }, "geometry": { "type": "LineString", "coordinates": [ [ 530096.835089357104152, 7261581.078100949525833 ], [ 530098.164910642895848, 7261576.078100949525833 ], [ 530099.229748285608366, 7261568.683442020788789 ], [ 530099.776454160455614, 7261559.6772395754233 ], [ 530099.956425900803879, 7261549.944359513930976 ], [ 530099.994412911823019, 7261539.99441291205585 ], [ 530099.999553894624114, 7261530.011620282195508 ], [ 530100.0, 7261520.099214585497975 ], [ 530100.0, 7261510.546306264586747 ], [ 530100.0, 7261502.086809692904353 ], [ 530100.0, 7261495.756988408043981 ] ] } },
{ "type": "Feature", "properties": { "id": 13, "reference_id": 8, "dune_id": 8, "dune_name": "Inverted Y Dune", "acquisition_date": "2025-11-11", "length_m": 609.00350393706356 }, "geometry": { "type": "LineString", "coordinates": [ [ 530554.243011592305265, 7261174.21559276804328 ], [ 530547.91319030651357, 7261178.404564592055976 ], [ 530539.453693735296838, 7261184.117270393297076 ], [ 530529.900785414385609, 7261191.093411749228835 ], [ 530519.987933612894267, 7261198.372348371893167 ], [ 530509.999107789248228, 7261204.331052001565695 ], [ 530500.0, 7261207.924364482983947 ], [ 530490.0, 7261209.454585946165025 ], [ 530480.0, 7261209.900785414502025 ], [ 530470.0, 7261209.987933613359928 ], [ 530460.0, 7261209.999107790179551 ], [ 530450.0, 7261210.000000000931323 ], [ 530440.0, 7261209.999107790179551 ], [ 530430.000000000116415, 7261209.9888258241117 ], [ 530420.0, 7261209.912851802073419 ], [ 530410.0, 7261209.552908320911229 ], [ 530400.0, 7261208.459496571682394 ], [ 530390.0, 7261206.329821285791695 ], [ 530380.0, 7261203.670178713276982 ], [ 530370.0, 7261201.541395639069378 ], [ 530360.0, 7261200.458265855908394 ], [ 530350.0, 7261200.174296397715807 ], [ 530340.0, 7261200.458265855908394 ], [ 530330.0, 7261201.541395639069378 ], [ 530320.0, 7261203.671070924028754 ], [ 530310.0, 7261206.340995462611318 ], [ 530300.0, 7261208.547536980360746 ], [ 530290.0, 7261210.012066387571394 ], [ 530280.0, 7261211.552569816820323 ], [ 530270.0, 7261214.20441859215498 ], [ 530260.0, 7261218.404564592987299 ], [ 530250.0, 7261224.129336780868471 ], [ 530240.0, 7261231.19262633472681 ], [ 530230.0, 7261238.918654637411237 ], [ 530220.0, 7261246.417861694470048 ], [ 530210.000892210751772, 7261253.681352891027927 ], [ 530200.011174176586792, 7261261.541395640000701 ], [ 530190.088040409144014, 7261270.447091680020094 ], [ 530180.458265855675563, 7261280.087148198857903 ], [ 530171.628543837927282, 7261290.0111741758883 ], [ 530164.128444569883868, 7261300.000892210751772 ], [ 530157.958365123718977, 7261310.000000000931323 ], [ 530152.588833351852372, 7261320.0 ], [ 530147.521555410232395, 7261330.0 ], [ 530142.577659175381996, 7261340.0 ], [ 530137.871216925326735, 7261350.0 ], [ 530133.681352890678681, 7261360.0 ], [ 530130.087148198392242, 7261370.0 ], [ 530126.776912964996882, 7261380.0 ], [ 530123.671070924960077, 7261390.0 ], [ 530121.104585926048458, 7261400.0 ], [ 530118.907480461173691, 7261410.0 ], [ 530116.416969484300353, 7261419.999107789248228 ], [ 530113.681352890678681, 7261429.987933613359928 ], [ 530111.541395639418624, 7261439.900785414502025 ], [ 530110.447091679205187, 7261449.453693736344576 ], [ 530110.087148198392242, 7261457.913190307095647 ], [ 530110.011174176470377, 7261464.243011591956019 ] ] } },
{ "type": "Feature", "properties": { "id": 14, "reference_id": 6, "dune_id": 6, "dune_name": "The Star Dune", "acquisition_date": "2025-11-11", "length_m": 748.38671375440663 }, "geometry": { "type": "LineString", "coordinates": [ [ 533650.0, 7262048.921899050474167 ], [ 533650.0, 7262053.921899050474167 ], [ 533650.0, 7262061.316557979211211 ], [ 533650.0, 7262070.322760425508022 ], [ 533650.0, 7262080.055640487000346 ], [ 533650.0, 7262090.006479298695922 ], [ 533650.0, 7262100.000446105375886 ], [ 533650.0, 7262110.0 ], [ 533650.0, 7262120.0 ], [ 533650.0, 7262130.0 ], [ 533650.0, 7262140.0 ], [ 533650.000892210751772, 7262150.0 ], [ 533650.011174176470377, 7262160.0 ], [ 533650.087148198508658, 7262170.0 ], [ 533650.447091679205187, 7262180.0 ], [ 533651.540503428783268, 7262190.0 ], [ 533653.670178714208305, 7262200.0 ], [ 533656.330713496543467, 7262210.0 ], [ 533658.470670747803524, 7262220.0 ], [ 533659.640056519303471, 7262230.0 ], [ 533660.359943480696529, 7262240.0 ], [ 533661.529329252196476, 7262250.0 ], [ 533663.669286503572948, 7262260.0 ], [ 533666.329821285791695, 7262270.0 ], [ 533668.459496571333148, 7262280.0 ], [ 533669.552908320911229, 7262290.0 ], [ 533669.912851801607758, 7262300.0 ], [ 533669.988825823646039, 7262310.0 ], [ 533669.999107789364643, 7262320.0 ], [ 533669.999107789364643, 7262330.0 ], [ 533669.988825823646039, 7262340.000000000931323 ], [ 533669.912851801607758, 7262350.0 ], [ 533669.552908320911229, 7262360.0 ], [ 533668.458604360697791, 7262370.0 ], [ 533666.318647109437734, 7262380.0 ], [ 533663.583030515816063, 7262390.0 ], [ 533661.092519538942724, 7262400.0 ], [ 533658.895414073951542, 7262410.0 ], [ 533656.329821285791695, 7262420.0 ], [ 533653.233369000838138, 7262430.0 ], [ 533649.989718034281395, 7262440.0 ], [ 533646.689764766488224, 7262450.0 ], [ 533643.309343022760004, 7262460.0 ], [ 533640.000000000116415, 7262470.0 ], [ 533636.690656977239996, 7262480.0 ], [ 533633.310235233511776, 7262490.0 ], [ 533630.01028196583502, 7262500.0 ], [ 533626.766630999161862, 7262510.0 ], [ 533623.670178714208305, 7262520.0 ], [ 533621.104585925932042, 7262530.0 ], [ 533618.907480461173691, 7262540.0 ], [ 533616.416969484183937, 7262550.0 ], [ 533613.680460680043325, 7262560.0 ], [ 533611.530221462948248, 7262570.0 ], [ 533610.359943480696529, 7262580.0 ], [ 533609.640056519303471, 7262590.0 ], [ 533608.470670747803524, 7262600.000000000931323 ], [ 533606.330713496543467, 7262610.0 ], [ 533603.670178714208305, 7262620.0 ], [ 533601.540503428783268, 7262630.0 ], [ 533600.44619946856983, 7262640.0 ], [ 533600.075974022038281, 7262650.0 ], [ 533599.924025978078134, 7262660.0 ], [ 533599.553800531546585, 7262670.0 ], [ 533598.459496571216732, 7262680.0 ], [ 533596.329821285791695, 7262690.0 ], [ 533593.670178714208305, 7262700.0 ], [ 533591.539611218031496, 7262710.0 ], [ 533590.43591750273481, 7262720.0 ], [ 533590.0, 7262730.0 ], [ 533589.56408249726519, 7262739.999107789248228 ], [ 533588.460388781968504, 7262749.987933613359928 ], [ 533586.329821285791695, 7262759.900785414502025 ], [ 533583.670178714208305, 7262769.453693735413253 ], [ 533581.540503428783268, 7262777.913190307095647 ], [ 533580.447091679205187, 7262784.243011591956019 ] ] } }
]
}
