{
"type": "FeatureCollection",
"name": "crests_2019_06_2019-06-04",
"crs": { "type": "name", "properties": { "name": "urn:ogc:def:crs:EPSG::32733" } },
"features": [
{ "type": "Feature", "properties": { "id": 0, "reference_id": 4, "dune_id": 4, "dune_name": "The Star Dune", "acquisition_date": "2019-06-04", "length_m": 649.42179493335971 }, "geometry": { "type": "LineString", "coordinates": [ [ 533624.243011592305265, 7262059.552908321842551 ], [ 533617.91319030651357, 7262058.458604361861944 ], [ 533609.453693735180423, 7262056.318647109903395 ], [ 533599.900785414385609, 7262053.582138305529952 ], [ 533589.987933612894267, 7262051.082237573340535 ], [ 533579.999107789364643, 7262048.818547841161489 ], [ 533570.0, 7262045.958703628741205 ], [ 533560.0, 7262042.052809053100646 ], [ 533550.0, 7262037.412951069884002 ], [ 533540.0, 7262032.488726556301117 ], [ 533530.0, 7262027.499207057058811 ], [ 533520.0, 7262022.499900732189417 ], [ 533510.0, 7262017.500099267810583 ], [ 533500.0, 7262012.500792942941189 ], [ 533490.0, 7262007.510381234809756 ], [ 533480.0, 7262002.57676696497947 ], [ 533470.0, 7261997.871216925792396 ], [ 533460.0, 7261993.681352891027927 ], [ 533450.0, 7261990.087148198857903 ], [ 533440.0, 7261986.776912964880466 ], [ 533430.0, 7261983.671070924960077 ], [ 533420.0, 7261981.104585926048458 ], [ 533410.0, 7261978.906588250771165 ], [ 533400.000000000116415, 7261976.405795307829976 ], [ 533390.0, 7261973.594204692170024 ], [ 533380.000000000116415, 7261971.094303959980607 ], [ 533370.0, 7261968.905696040019393 ], [ 533360.0, 7261966.405795308761299 ], [ 533350.0, 7261963.594204693101346 ], [ 533340.0, 7261961.093411749228835 ], [ 533330.0, 7261958.895414074882865 ], [ 533320.0, 7261956.329821286723018 ], [ 533310.0, 7261953.233369001187384 ], [ 533300.0, 7261949.989718034863472 ], [ 533290.0, 7261946.689764766022563 ], [ 533280.0, 7261943.309343023225665 ], [ 533270.0, 7261940.0 ], [ 533260.0, 7261936.690656976774335 ], [ 533250.0, 7261933.310235233977437 ], [ 533240.0, 7261930.010281966067851 ], [ 533230.0, 7261926.766630999743938 ], [ 533220.0, 7261923.669286504387856 ], [ 533210.0, 7261921.093411749228835 ], [ 533200.0, 7261918.820332262665033 ], [ 533190.0, 7261915.969877805560827 ], [ 533180.0, 7261912.139957251958549 ], [ 533170.0, 7261907.860042748972774 ], [ 533160.0, 7261904.030122195370495 ], [ 533150.0, 7261901.180559948086739 ], [ 533140.0, 7261898.916870215907693 ], [ 533130.0, 7261896.406687518581748 ], [ 533120.0, 7261893.594204692170024 ], [ 533110.0, 7261891.094303959980607 ], [ 533100.0, 7261888.906588250771165 ], [ 533090.0, 7261886.416969484649599 ], [ 533080.0, 7261883.680460680276155 ], [ 533070.0, 7261881.530221462249756 ], [ 533060.0, 7261880.35994348116219 ], [ 533050.000892210751772, 7261879.640056519769132 ], [ 533040.012066387105733, 7261878.470670748502016 ], [ 533030.099214585614391, 7261876.33071349747479 ], [ 533020.546306264819577, 7261873.670178715139627 ], [ 533012.08680969348643, 7261871.540503429248929 ], [ 533005.756988407694735, 7261870.447091680020094 ] ] } },
{ "type": "Feature", "properties": { "id": 1, "reference_id": 1, "dune_id": 1, "dune_name": "Big Mommy Dune", "acquisition_date": "2019-06-04", "length_m": 796.47784995006975 }, "geometry": { "type": "LineString", "coordinates": [ [ 529020.0, 7261555.756988408043981 ], [ 529020.0, 7261562.086809693835676 ], [ 529020.0, 7261570.546306264586747 ], [ 529020.0, 7261580.099214585497975 ], [ 529020.0, 7261590.012066387571394 ], [ 529020.0, 7261600.000892210751772 ], [ 529020.0, 7261610.0 ], [ 529020.000892210751772, 7261620.0 ], [ 529020.011174176470377, 7261630.0 ], [ 529020.087148198508658, 7261640.0 ], [ 529020.447091679205187, 7261650.0 ], [ 529021.541395639418624, 7261660.0 ], [ 529023.681352890678681, 7261670.0 ], [ 529026.417861694935709, 7261680.0 ], [ 529028.917762426892295, 7261690.0 ], [ 529031.181452158722095, 7261700.0 ], [ 529034.042188582126983, 7261710.0 ], [ 529037.957472912967205, 7261720.0 ], [ 529042.663915163022466, 7261730.000000000931323 ], [ 529047.882391101680696, 7261740.0 ], [ 529053.681352890678681, 7261750.0 ], [ 529060.076866232673638, 7261760.0 ], [ 529066.700046732323244, 7261770.0 ], [ 529073.299061056924984, 7261780.0 ], [ 529079.911959590855986, 7261790.0 ], [ 529086.231498910929076, 7261800.0 ], [ 529091.670517219230533, 7261810.0 ], [ 529095.79468919755891, 7261820.0 ], [ 529098.361174196470529, 7261830.0 ], [ 529099.539949723053724, 7261840.000000000931323 ], [ 529099.899893203750253, 7261850.0 ], [ 529099.890503448667005, 7261860.0 ], [ 529099.463975701015443, 7261870.0 ], [ 529098.000338505022228, 7261880.0 ], [ 529094.690995482262224, 7261890.0 ], [ 529089.464867911767215, 7261900.0 ], [ 529083.211020647897385, 7261910.0 ], [ 529076.678590590134263, 7261920.0 ], [ 529069.999107789364643, 7261930.0 ], [ 529063.309343022760004, 7261940.0 ], [ 529056.690656977239996, 7261950.0 ], [ 529050.000892210635357, 7261960.0 ], [ 529043.32051719923038, 7261970.0 ], [ 529036.777805175632238, 7261980.0 ], [ 529030.447983889840543, 7261990.0 ], [ 529024.861020627897233, 7262000.0 ], [ 529020.447983889840543, 7262010.0 ], [ 529016.776912965113297, 7262020.0 ], [ 529013.310235233511776, 7262030.0 ], [ 529009.924025978078134, 7262040.0 ], [ 529006.31953932007309, 7262050.0 ], [ 529002.128783074789681, 7262060.0 ], [ 528997.423233035369776, 7262070.0 ], [ 528992.489618766237982, 7262080.0 ], [ 528987.498314846656285, 7262090.0 ], [ 528982.488726555602625, 7262100.0 ], [ 528977.4120588588994, 7262110.0 ], [ 528972.041634876397438, 7262120.0 ], [ 528965.871555430116132, 7262130.0 ], [ 528958.371456162189133, 7262140.0 ], [ 528949.541734144324437, 7262150.0 ], [ 528939.911959590972401, 7262159.999107789248228 ], [ 528929.988825823529623, 7262169.9888258241117 ], [ 528919.999107789364643, 7262179.911959591321647 ], [ 528910.0, 7262189.541734144091606 ], [ 528900.0, 7262198.371456162072718 ], [ 528890.0, 7262205.871555430814624 ], [ 528880.000892210751772, 7262212.041634877212346 ], [ 528870.012066387105733, 7262217.411166648380458 ], [ 528860.099214585614391, 7262222.477552378550172 ], [ 528850.546306264819577, 7262227.411166648380458 ], [ 528842.086809693370014, 7262232.041634876281023 ], [ 528835.756988407694735, 7262235.871555430814624 ] ] } },
{ "type": "Feature", "properties": { "id": 2, "reference_id": 1, "dune_id": 1, "dune_name": "Big Mommy Dune", "acquisition_date": "2019-06-04", "length_m": 553.22005956540295 }, "geometry": { "type": "LineString", "coordinates": [ [ 529180.0, 7260998.921899050474167 ], [ 529180.0, 7261003.921899050474167 ], [ 529180.000892210751772, 7261011.316557979211211 ], [ 529180.01028196583502, 7261020.322760425508022 ], [ 529180.075974022038281, 7261030.055640487000346 ], [ 529180.359943480812944, 7261040.006479299627244 ], [ 529181.093411749578081, 7261050.000446105375886 ], [ 529182.129675285541452, 7261060.0 ], [ 529182.659642571699806, 7261070.0 ], [ 529182.128783074789681, 7261080.0 ], [ 529181.082237573107705, 7261090.0 ], [ 529180.272795282304287, 7261100.0 ], [ 529179.627990132081322, 7261110.0 ], [ 529178.458604360581376, 7261120.000000000931323 ], [ 529176.24356529803481, 7261130.0 ], [ 529173.222194824367762, 7261140.0 ], [ 529169.988825823529623, 7261150.0 ], [ 529166.688872555969283, 7261160.0 ], [ 529163.299061057041399, 7261170.0 ], [ 529159.923133767442778, 7261180.0 ], [ 529156.31953932007309, 7261190.0 ], [ 529152.129675285541452, 7261200.0 ], [ 529147.433515001088381, 7261210.000000000931323 ], [ 529142.566484998911619, 7261220.0 ], [ 529137.870324714574963, 7261230.0 ], [ 529133.680460680043325, 7261240.0 ], [ 529130.076866232673638, 7261250.0 ], [ 529126.700046732323244, 7261260.0 ], [ 529123.299953267676756, 7261270.0 ], [ 529119.923133767442778, 7261280.0 ], [ 529116.31953932007309, 7261290.0 ], [ 529112.129675285541452, 7261300.0 ], [ 529107.433515001088381, 7261310.000000000931323 ], [ 529102.566484998911619, 7261320.0 ], [ 529097.869432503823191, 7261330.0 ], [ 529093.670178714208305, 7261340.0 ], [ 529090.0, 7261350.0 ], [ 529086.329821285791695, 7261360.0 ], [ 529082.130567496176809, 7261370.0 ], [ 529077.433515001088381, 7261380.0 ], [ 529072.566484998911619, 7261390.0 ], [ 529067.870324714574963, 7261400.0 ], [ 529063.68046067992691, 7261410.0 ], [ 529060.076866232673638, 7261420.0 ], [ 529056.700938943075016, 7261430.0 ], [ 529053.310235233511776, 7261440.0 ], [ 529050.0, 7261450.0 ], [ 529046.690656977239996, 7261460.0 ], [ 529043.31023523339536, 7261470.000000000931323 ], [ 529040.011174176470377, 7261479.999107789248228 ], [ 529036.777805175632238, 7261489.987933613359928 ], [ 529033.757326912600547, 7261499.900785414502025 ], [ 529031.551677605253644, 7261509.453693735413253 ], [ 529030.447983889840543, 7261517.913190307095647 ], [ 529030.087148198508658, 7261524.243011592887342 ] ] } },
{ "type": "Feature", "properties": { "id": 3, "reference_id": 8, "dune_id": 8, "dune_name": "Inverted Y Dune", "acquisition_date": "2019-06-04", "length_m": 508.47631532147557 }, "geometry": { "type": "LineString", "coordinates": [ [ 530100.011174176470377, 7261591.078100949525833 ], [ 530100.087148198508658, 7261586.078100949525833 ], [ 530100.447091679205187, 7261578.683442020788789 ], [ 530101.540503428783268, 7261569.6772395754233 ], [ 530103.670178714208305, 7261559.944359513930976 ], [ 530106.329821285791695, 7261549.993520701304078 ], [ 530108.460388781968504, 7261539.999553894624114 ], [ 530109.564082497381605, 7261530.0 ], [ 530110.0, 7261520.0 ], [ 530110.43591750273481, 7261510.0 ], [ 530111.539611218031496, 7261500.0 ], [ 530113.670178714208305, 7261490.0 ], [ 530116.330713496543467, 7261480.0 ], [ 530118.470670747803524, 7261470.000000000931323 ], [ 530119.640056519303471, 7261460.0 ], [ 530120.359943480812944, 7261450.0 ], [ 530121.530221462948248, 7261440.0 ], [ 530123.680460680043325, 7261430.0 ], [ 530126.416969484183937, 7261420.0 ], [ 530128.906588250538334, 7261410.0 ], [ 530131.094303960213438, 7261400.0 ], [ 530133.594204692170024, 7261390.0 ], [ 530136.405795307829976, 7261380.0 ], [ 530138.906588250538334, 7261370.0 ], [ 530141.10547813680023, 7261360.0 ], [ 530143.682245101314038, 7261350.0 ], [ 530146.864953374140896, 7261340.0 ], [ 530150.545414054067805, 7261330.0 ], [ 530155.309896728489548, 7261320.0 ], [ 530161.999661495094188, 7261310.000000000931323 ], [ 530170.535132088349201, 7261300.0 ], [ 530180.098322374862619, 7261290.0 ], [ 530190.012066387105733, 7261280.000892210751772 ], [ 530200.000892210751772, 7261270.011174176819623 ], [ 530210.0, 7261260.088040409609675 ], [ 530220.0, 7261250.458265855908394 ], [ 530230.0, 7261241.628543837927282 ], [ 530240.0, 7261234.129336780868471 ], [ 530250.0, 7261227.969539299607277 ], [ 530260.0, 7261222.675981550477445 ], [ 530270.0, 7261217.969539300538599 ], [ 530280.0, 7261214.129336781799793 ], [ 530290.0, 7261211.628543838858604 ], [ 530299.999107789364643, 7261210.458265855908394 ], [ 530309.987933612894267, 7261210.088040409609675 ], [ 530319.900785414502025, 7261210.011174176819623 ], [ 530329.453693735180423, 7261210.000892211683095 ], [ 530337.91319030651357, 7261210.000000000931323 ], [ 530344.243011592305265, 7261210.000000000931323 ] ] } },
{ "type": "Feature", "properties": { "id": 4, "reference_id": 8, "dune_id": 8, "dune_name": "Inverted Y Dune", "acquisition_date": "2019-06-04", "length_m": 68.486023184610531 }, "geometry": { "type": "LineString", "coordinates": [ [ 530464.243011592305265, 7261210.000000000931323 ], [ 530457.91319030651357, 7261210.000000000931323 ], [ 530449.453693735296838, 7261210.000000000931323 ], [ 530439.901677625137381, 7261210.000000000931323 ], [ 530430.000000000116415, 7261210.000000000931323 ], [ 530420.098322374979034, 7261210.000000000931323 ], [ 530410.546306264819577, 7261210.000000000931323 ], [ 530402.08680969348643, 7261210.000000000931323 ], [ 530395.756988407694735, 7261210.000000000931323 ] ] } },
{ "type": "Feature", "properties": { "id": 5, "reference_id": 8, "dune_id": 8, "dune_name": "Inverted Y Dune", "acquisition_date": "2019-06-04", "length_m": 70.095108305550156 }, "geometry": { "type": "LineString", "coordinates": [ [ 530554.243011592305265, 7261172.085917483083904 ], [ 530547.91319030651357, 7261175.744922020472586 ], [ 530539.454585945932195, 7261181.987595107406378 ], [ 530529.912851801607758, 7261190.0 ], [ 530520.087148198392242, 7261198.012404892593622 ], [ 530510.545414054067805, 7261204.255077979527414 ], [ 530502.08680969348643, 7261207.914082517847419 ], [ 530495.756988407694735, 7261209.453693735413253 ] ] } },
{ "type": "Feature", "properties": { "id": 6, "reference_id": 3, "dune_id": 3, "dune_name": "Big Mommy Dune", "acquisition_date": "2019-06-04", "length_m": 582.98202459802599 }, "geometry": { "type": "LineString", "coordinates": [ [ 529181.638825803645886, 7260964.243011592887342 ], [ 529184.205310802557506, 7260957.913190307095647 ], [ 529188.328590570250526, 7260949.453693735413253 ], [ 529193.758219123352319, 7260939.900785414502025 ], [ 529200.012066387105733, 7260929.987933613359928 ], [ 529206.340995462262072, 7260919.999107789248228 ], [ 529212.206541518098675, 7260910.0 ], [ 529217.794350692536682, 7260900.0 ], [ 529223.670178714208305, 7260890.0 ], [ 529230.075974021921866, 7260880.0 ], [ 529236.700046732323244, 7260870.0 ], [ 529243.299953267676756, 7260860.0 ], [ 529249.924025978078134, 7260850.0 ], [ 529256.32982128590811, 7260840.0 ], [ 529262.205649307463318, 7260830.0 ], [ 529267.794350692536682, 7260820.0 ], [ 529273.671070924960077, 7260810.0 ], [ 529280.087148198392242, 7260800.0 ], [ 529286.788087141467258, 7260790.0 ], [ 529293.758219123352319, 7260780.000000000931323 ], [ 529301.551677605253644, 7260770.0 ], [ 529310.447983889956959, 7260760.0 ], [ 529320.087148198508658, 7260750.0 ], [ 529330.011174176470377, 7260740.0 ], [ 529340.000892210751772, 7260730.000892210751772 ], [ 529350.0, 7260720.012066386640072 ], [ 529360.0, 7260710.099214585497975 ], [ 529370.0, 7260700.545414054766297 ], [ 529380.0, 7260692.075635517016053 ], [ 529390.0, 7260685.669840209186077 ], [ 529400.0, 7260681.638825803995132 ], [ 529410.0, 7260678.994628659449518 ], [ 529420.0, 7260676.34188767336309 ], [ 529430.0, 7260673.234261211007833 ], [ 529440.000000000116415, 7260669.989718034863472 ], [ 529450.0, 7260666.689764766953886 ], [ 529460.0, 7260663.310235233977437 ], [ 529470.0, 7260660.010281966067851 ], [ 529480.0, 7260656.766630999743938 ], [ 529490.0, 7260653.670178714208305 ], [ 529500.000000000116415, 7260651.10458592697978 ], [ 529510.0, 7260648.907480461522937 ], [ 529520.0, 7260646.416077273897827 ], [ 529530.0, 7260643.670178715139627 ], [ 529540.0, 7260641.454247441142797 ], [ 529550.0, 7260640.0 ], [ 529560.0, 7260638.546644769608974 ], [ 529569.999107789248228, 7260636.340995462611318 ], [ 529579.987933612894267, 7260633.671070925891399 ], [ 529589.900785414502025, 7260631.540503429248929 ], [ 529599.453693735180423, 7260630.447091680020094 ], [ 529607.91319030651357, 7260630.087148198857903 ], [ 529614.243011592421681, 7260630.011174176819623 ] ] } },
{ "type": "Feature", "properties": { "id": 7, "reference_id": 3, "dune_id": 3, "dune_name": "Big Mommy Dune", "acquisition_date": "2019-06-04", "length_m": 58.486023184610531 }, "geometry": { "type": "LineString", "coordinates": [ [ 529704.243011592305265, 7260620.0 ], [ 529697.91319030651357, 7260620.0 ], [ 529689.454585945932195, 7260620.0 ], [ 529679.912851801607758, 7260620.0 ], [ 529670.087148198508658, 7260620.0 ], [ 529660.545414054067805, 7260620.0 ], [ 529652.08680969348643, 7260620.0 ], [ 529645.756988407694735, 7260620.0 ] ] } },
{ "type": "Feature", "properties": { "id": 8, "reference_id": 3, "dune_id": 3, "dune_name": "Big Mommy Dune", "acquisition_date": "2019-06-04", "length_m": 308.48602318461053 }, "geometry": { "type": "LineString", "coordinates": [ [ 529735.756988407694735, 7260610.0 ], [ 529742.08680969348643, 7260610.0 ], [ 529750.546306264819577, 7260610.0 ], [ 529760.099214585614391, 7260610.0 ], [ 529770.012066387222148, 7260610.0 ], [ 529780.000892210751772, 7260610.0 ], [ 529790.0, 7260610.0 ], [ 529800.0, 7260610.0 ], [ 529810.0, 7260610.0 ], [ 529820.0, 7260610.0 ], [ 529830.0, 7260610.0 ], [ 529840.0, 7260610.0 ], [ 529850.0, 7260610.0 ], [ 529860.0, 7260610.0 ], [ 529870.0, 7260610.0 ], [ 529880.0, 7260610.0 ], [ 529890.0, 7260610.0 ], [ 529900.0, 7260610.0 ], [ 529910.0, 7260610.0 ], [ 529920.0, 7260610.0 ], [ 529930.0, 7260610.0 ], [ 529940.0, 7260610.0 ], [ 529950.0, 7260610.0 ], [ 529960.0, 7260610.0 ], [ 529970.0, 7260610.0 ], [ 529980.0, 7260610.0 ], [ 529990.0, 7260610.0 ], [ 529999.999107789364643, 7260610.0 ], [ 530009.987933612894267, 7260610.0 ], [ 530019.900785414502025, 7260610.0 ], [ 530029.453693735180423, 7260610.0 ], [ 530037.91319030651357, 7260610.0 ], [ 530044.243011592305265, 7260610.0 ] ] } },
{ "type": "Feature", "properties": { "id": 9, "reference_id": 3, "dune_id": 3, "dune_name": "Big Mommy Dune", "acquisition_date": "2019-06-04", "length_m": 69.449054173324498 }, "geometry": { "type": "LineString", "coordinates": [ [ 530164.243011592305265, 7260590.087148198857903 ], [ 530157.91319030651357, 7260590.447091680020094 ], [ 530149.453693735296838, 7260591.540503429248929 ], [ 530139.901677625137381, 7260593.670178714208305 ], [ 530130.0, 7260596.329821285791695 ], [ 530120.098322374862619, 7260598.459496571682394 ], [ 530110.546306264819577, 7260599.552908321842551 ], [ 530102.08680969348643, 7260599.912851802073419 ], [ 530095.756988407694735, 7260599.9888258241117 ] ] } },
{ "type": "Feature", "properties": { "id": 10, "reference_id": 7, "dune_id": 7, "dune_name": "Inverted Y Dune", "acquisition_date": "2019-06-04", "length_m": 594.34365799699208 }, "geometry": { "type": "LineString", "coordinates": [ [ 530614.254185768775642, 7261365.756988408043981 ], [ 530608.000338505022228, 7261372.086809692904353 ], [ 530599.901677625137381, 7261380.546306265518069 ], [ 530591.452463019639254, 7261390.099214585497975 ], [ 530583.745260525494814, 7261400.012066387571394 ], [ 530576.776912964996882, 7261410.000892210751772 ], [ 530570.011174176470377, 7261420.0 ], [ 530563.310235233511776, 7261430.0 ], [ 530556.690656977239996, 7261440.0 ], [ 530550.0, 7261450.0 ], [ 530543.309343022760004, 7261460.0 ], [ 530536.689764766488224, 7261470.000000000931323 ], [ 530529.988825823529623, 7261480.0 ], [ 530523.222194824367762, 7261490.0 ], [ 530516.242673087399453, 7261500.0 ], [ 530508.448322394862771, 7261510.0 ], [ 530499.552016110159457, 7261520.0 ], [ 530489.912851801607758, 7261529.999107789248228 ], [ 530479.988825823529623, 7261539.9888258241117 ], [ 530469.999107789364643, 7261549.911959590390325 ], [ 530460.0, 7261559.541734145022929 ], [ 530450.0, 7261568.372348373755813 ], [ 530440.0, 7261575.881837395951152 ], [ 530430.000000000116415, 7261582.117608899250627 ], [ 530420.0, 7261587.772002339363098 ], [ 530410.0, 7261593.582138305529952 ], [ 530400.0, 7261599.627990132197738 ], [ 530390.0, 7261605.149261338636279 ], [ 530380.0, 7261609.552908320911229 ], [ 530370.0, 7261613.222194824367762 ], [ 530360.0, 7261616.679482800886035 ], [ 530350.0, 7261619.999107789248228 ], [ 530340.0, 7261623.310235233977437 ], [ 530330.0, 7261626.700938943773508 ], [ 530320.0, 7261630.075974022969604 ], [ 530310.0, 7261633.669286504387856 ], [ 530300.0, 7261637.783176516182721 ], [ 530290.0, 7261642.118501110002398 ], [ 530280.0, 7261645.881837395951152 ], [ 530270.0, 7261648.372348373755813 ], [ 530260.0, 7261649.541734145022929 ], [ 530250.0, 7261649.911959591321647 ], [ 530240.0, 7261649.9888258241117 ], [ 530230.0, 7261649.999107790179551 ], [ 530220.0, 7261650.0 ], [ 530210.0, 7261650.0 ], [ 530200.0, 7261650.0 ], [ 530190.0, 7261650.0 ], [ 530180.000892210751772, 7261650.0 ], [ 530170.012066387222148, 7261650.0 ], [ 530160.099214585614391, 7261650.0 ], [ 530150.546306264819577, 7261650.0 ], [ 530142.08680969348643, 7261650.0 ], [ 530135.756988407694735, 7261650.0 ] ] } },
{ "type": "Feature", "properties": { "id": 11, "reference_id": 2, "dune_id": 2, "dune_name": "Big Mommy Dune", "acquisition_date": "2019-06-04", "length_m": 787.92671359273641 }, "geometry": { "type": "LineString", "coordinates": [ [ 529151.078100949409418, 7260978.012404892593622 ], [ 529146.078100949409418, 7260974.788425646722317 ], [ 529138.683442020905204, 7260969.9888258241117 ], [ 529129.677239574841224, 7260965.122641733847558 ], [ 529119.944359513698146, 7260961.529329252429307 ], [ 529109.993520701071247, 7260958.906588250771165 ], [ 529099.999553894624114, 7260955.980159771628678 ], [ 529090.0, 7260952.13056749664247 ], [ 529080.0, 7260947.784068726934493 ], [ 529070.0, 7260943.670178714208305 ], [ 529060.0, 7260940.086255988106132 ], [ 529050.0, 7260936.776912964880466 ], [ 529040.0, 7260933.671070924960077 ], [ 529030.0, 7260931.103693716228008 ], [ 529020.0, 7260928.896306285634637 ], [ 529010.0, 7260926.329821286723018 ], [ 529000.0, 7260923.234261211007833 ], [ 528990.0, 7260920.0 ], [ 528980.0, 7260916.765738788992167 ], [ 528970.0, 7260913.670178714208305 ], [ 528960.0, 7260911.10458592697978 ], [ 528950.0, 7260908.906588250771165 ], [ 528940.0, 7260906.405795308761299 ], [ 528930.0, 7260903.594204693101346 ], [ 528920.0, 7260901.093411750160158 ], [ 528910.0, 7260898.895414073951542 ], [ 528900.0, 7260896.329821285791695 ], [ 528890.0, 7260893.234261211939156 ], [ 528880.0, 7260890.0 ], [ 528870.0, 7260886.765738788992167 ], [ 528860.0, 7260883.669286504387856 ], [ 528850.0, 7260881.093411750160158 ], [ 528840.0, 7260878.820332262665033 ], [ 528830.0, 7260875.968985594809055 ], [ 528820.0, 7260872.129675285890698 ], [ 528810.0, 7260867.784068727865815 ], [ 528800.0, 7260863.669286504387856 ], [ 528790.0, 7260860.075974022969604 ], [ 528780.0, 7260856.700046732090414 ], [ 528770.0, 7260853.299953267909586 ], [ 528760.0, 7260849.924025977961719 ], [ 528750.0, 7260846.329821285791695 ], [ 528740.0, 7260842.205649307928979 ], [ 528730.0, 7260837.793458482250571 ], [ 528720.0, 7260833.659896748140454 ], [ 528710.0, 7260829.999107789248228 ], [ 528700.0, 7260826.329821285791695 ], [ 528690.0, 7260822.129675285890698 ], [ 528680.0, 7260817.423233035951853 ], [ 528670.0, 7260812.489618767052889 ], [ 528660.0, 7260807.498314846307039 ], [ 528650.0, 7260802.489618767052889 ], [ 528640.0, 7260797.423233035951853 ], [ 528630.0, 7260792.128783075138927 ], [ 528620.0, 7260786.319539319723845 ], [ 528610.0, 7260779.92313376814127 ], [ 528600.0, 7260773.299953268840909 ], [ 528590.0, 7260766.700046732090414 ], [ 528580.0, 7260760.075974021106958 ], [ 528570.0, 7260753.669286504387856 ], [ 528560.0, 7260747.784068726934493 ], [ 528550.0, 7260742.129675285890698 ], [ 528540.0, 7260735.968985594809055 ], [ 528530.0, 7260728.820332262665033 ], [ 528520.0, 7260721.093411750160158 ], [ 528510.0, 7260713.669286504387856 ], [ 528500.0, 7260706.766630999743938 ], [ 528490.0, 7260700.010281966067851 ], [ 528480.000892210751772, 7260693.311127444729209 ], [ 528470.012066387105733, 7260686.70183115452528 ], [ 528460.099214585614391, 7260680.088040409609675 ], [ 528450.546306264819577, 7260673.768501089885831 ], [ 528442.08680969348643, 7260668.329482780769467 ], [ 528435.756988407694735, 7260664.205310802906752 ] ] } },
{ "type": "Feature", "properties": { "id": 12, "reference_id": 5, "dune_id": 5, "dune_name": "The Star Dune", "acquisition_date": "2019-06-04", "length_m": 1137.1070791181075 }, "geometry": { "type": "LineString", "coordinates": [ [ 534334.789317857124843, 7261305.756988408043981 ], [ 534330.0, 7261312.086809693835676 ], [ 534325.210682142991573, 7261320.546306264586747 ], [ 534321.987595107872039, 7261330.099214585497975 ], [ 534320.534239877597429, 7261340.012066386640072 ], [ 534320.098322374862619, 7261350.000892210751772 ], [ 534320.012066387105733, 7261360.0 ], [ 534320.001784421387129, 7261370.0 ], [ 534320.011174176470377, 7261380.0 ], [ 534320.087148198392242, 7261390.0 ], [ 534320.447091679205187, 7261400.0 ], [ 534321.540503428666852, 7261410.0 ], [ 534323.670178714208305, 7261420.0 ], [ 534326.329821285791695, 7261430.0 ], [ 534328.459496571333148, 7261440.0 ], [ 534329.552908320794813, 7261450.0 ], [ 534329.912851801607758, 7261460.0 ], [ 534329.988825823529623, 7261470.000000000931323 ], [ 534329.999107789364643, 7261480.0 ], [ 534329.999107789364643, 7261490.0 ], [ 534329.988825823529623, 7261500.0 ], [ 534329.911959590855986, 7261510.0 ], [ 534329.54084193368908, 7261520.0 ], [ 534328.360281985718757, 7261530.0 ], [ 534325.783515021088533, 7261540.0 ], [ 534321.583369020721875, 7261550.0 ], [ 534315.783515021088533, 7261559.999107790179551 ], [ 534308.360281985718757, 7261569.9888258241117 ], [ 534299.54084193368908, 7261579.912851802073419 ], [ 534289.911959590855986, 7261589.552016110159457 ], [ 534279.988825823529623, 7261598.448322394862771 ], [ 534269.999107789248228, 7261606.242673087865114 ], [ 534260.0, 7261613.222194824367762 ], [ 534250.0, 7261619.9888258241117 ], [ 534240.0, 7261626.689764766022563 ], [ 534230.0, 7261633.309343023225665 ], [ 534220.0, 7261639.999107789248228 ], [ 534210.0, 7261646.678590590134263 ], [ 534200.0, 7261653.211020648479462 ], [ 534190.0, 7261659.464867912232876 ], [ 534180.0, 7261664.691887693479657 ], [ 534170.0, 7261668.01151268184185 ], [ 534160.0, 7261669.552016110159457 ], [ 534150.0, 7261670.34876930527389 ], [ 534140.0, 7261671.528437041677535 ], [ 534130.0, 7261673.669286503456533 ], [ 534120.0, 7261676.330713496543467 ], [ 534110.0, 7261678.470670748502016 ], [ 534100.0, 7261679.640056519769132 ], [ 534090.0, 7261680.35994348116219 ], [ 534080.0, 7261681.529329252429307 ], [ 534070.0, 7261683.669286504387856 ], [ 534060.0, 7261686.329821286723018 ], [ 534050.0, 7261688.460388783365488 ], [ 534040.0, 7261689.564082497730851 ], [ 534030.0, 7261690.0 ], [ 534020.0, 7261690.435917503200471 ], [ 534010.0, 7261691.540503429248929 ], [ 534000.0, 7261693.681352891027927 ], [ 533990.0, 7261696.416969484649599 ], [ 533980.0, 7261698.906588250771165 ], [ 533970.0, 7261701.094303959980607 ], [ 533960.0, 7261703.594204692170024 ], [ 533950.0, 7261706.406687518581748 ], [ 533940.0, 7261708.916870215907693 ], [ 533930.0, 7261711.181452158838511 ], [ 533920.0, 7261714.041296371258795 ], [ 533910.0, 7261717.947190947830677 ], [ 533900.0, 7261722.58704893104732 ], [ 533890.0, 7261727.511273444630206 ], [ 533880.0, 7261732.500792942941189 ], [ 533870.0, 7261737.500099267810583 ], [ 533860.0, 7261742.500792942941189 ], [ 533850.0, 7261747.511273445561528 ], [ 533840.0, 7261752.58794114086777 ], [ 533830.0, 7261757.958365123718977 ], [ 533820.0, 7261764.128444569185376 ], [ 533810.000892210635357, 7261771.628543837927282 ], [ 533800.011174176470377, 7261780.458265855908394 ], [ 533790.088040409144014, 7261790.088040409609675 ], [ 533780.45915806631092, 7261800.011174176819623 ], [ 533771.638825803645886, 7261810.000892210751772 ], [ 533764.205310802557506, 7261820.0 ], [ 533758.329482780885883, 7261830.0 ], [ 533753.768501089187339, 7261840.000000000931323 ], [ 533750.088040409144014, 7261850.0 ], [ 533746.700938942958601, 7261860.0 ], [ 533743.299953267676756, 7261870.0 ], [ 533739.923133767442778, 7261880.0 ], [ 533736.31953932007309, 7261890.0 ], [ 533732.128783074906096, 7261900.0 ], [ 533727.423233035253361, 7261910.0 ], [ 533722.489618766237982, 7261920.0 ], [ 533717.49831484653987, 7261930.0 ], [ 533712.489618766237982, 7261940.0 ], [ 533707.423233035369776, 7261950.0 ], [ 533702.129675285541452, 7261960.0 ], [ 533696.32982128590811, 7261970.0 ], [ 533690.0, 7261980.0 ], [ 533683.670624819584191, 7261989.999553894624114 ], [ 533677.875911802751943, 7261999.993520701304078 ], [ 533672.621233274578117, 7262009.944359513930976 ], [ 533667.745101249776781, 7262019.677239574491978 ], [ 533663.359085066244006, 7262028.683442020788789 ], [ 533659.793454480706714, 7262036.078100949525833 ], [ 533657.293355212779716, 7262041.078100949525833 ] ] } },
{ "type": "Feature", "properties": { "id": 13, "reference_id": 6, "dune_id": 6, "dune_name": "The Star Dune", "acquisition_date": "2019-06-04", "length_m": 814.30471490478317 }, "geometry": { "type": "LineString", "coordinates": [ [ 533653.164910642895848, 7262048.921899050474167 ], [ 533651.835089357104152, 7262053.921899050474167 ], [ 533650.77114392502699, 7262061.316557979211211 ], [ 533650.234720016131178, 7262070.322760425508022 ], [ 533650.130722297704779, 7262080.055640487000346 ], [ 533650.452678767498583, 7262090.006479298695922 ], [ 533651.540949534159154, 7262100.000446105375886 ], [ 533653.670178714208305, 7262110.0 ], [ 533656.329821285791695, 7262120.0 ], [ 533658.459496571216732, 7262130.0 ], [ 533659.552908320911229, 7262140.0 ], [ 533659.912851801607758, 7262150.0 ], [ 533659.988825823529623, 7262160.0 ], [ 533659.999107789248228, 7262170.0 ], [ 533660.0, 7262180.0 ], [ 533660.000892210751772, 7262190.0 ], [ 533660.011174176470377, 7262200.0 ], [ 533660.087148198392242, 7262210.0 ], [ 533660.447091679088771, 7262220.0 ], [ 533661.540503428783268, 7262230.0 ], [ 533663.671070924960077, 7262240.0 ], [ 533666.340995462378487, 7262250.0 ], [ 533668.546644769841805, 7262260.0 ], [ 533670.0, 7262270.0 ], [ 533671.453355230391026, 7262280.0 ], [ 533673.659004537737928, 7262290.0 ], [ 533676.328929075156339, 7262300.0 ], [ 533678.458604360697791, 7262310.0 ], [ 533679.541734144324437, 7262320.0 ], [ 533679.825703603215516, 7262330.0 ], [ 533679.541734144324437, 7262340.000000000931323 ], [ 533678.457712149946019, 7262350.0 ], [ 533676.318647109437734, 7262360.0 ], [ 533673.583030515816063, 7262370.0 ], [ 533671.093411749578081, 7262380.0 ], [ 533668.905696039786562, 7262390.0 ], [ 533666.405795307829976, 7262400.0 ], [ 533663.594204692286439, 7262410.0 ], [ 533661.093411749578081, 7262420.0 ], [ 533658.895414073951542, 7262430.0 ], [ 533656.329821285791695, 7262440.0 ], [ 533653.234261211473495, 7262450.0 ], [ 533650.0, 7262460.0 ], [ 533646.765738788526505, 7262470.0 ], [ 533643.670178714208305, 7262480.0 ], [ 533641.104585926048458, 7262490.0 ], [ 533638.906588250538334, 7262500.0 ], [ 533636.405795307829976, 7262510.0 ], [ 533633.594204692286439, 7262520.0 ], [ 533631.094303960213438, 7262530.0 ], [ 533628.905696039786562, 7262540.0 ], [ 533626.405795307713561, 7262550.0 ], [ 533623.594204692170024, 7262560.0 ], [ 533621.094303960213438, 7262570.0 ], [ 533618.906588250421919, 7262580.0 ], [ 533616.416969484183937, 7262590.0 ], [ 533613.680460680043325, 7262600.000000000931323 ], [ 533611.530221462948248, 7262610.0 ], [ 533610.359943480696529, 7262620.0 ], [ 533609.640056519303471, 7262630.0 ], [ 533608.470670747803524, 7262640.0 ], [ 533606.330713496543467, 7262650.0 ], [ 533603.670178714208305, 7262660.0 ], [ 533601.540503428783268, 7262670.0 ], [ 533600.447091679205187, 7262680.0 ], [ 533600.086255987756886, 7262690.0 ], [ 533600.0, 7262700.0 ], [ 533599.913744012243114, 7262710.0 ], [ 533599.552908320794813, 7262720.0 ], [ 533598.458604360581376, 7262730.0 ], [ 533596.318647109321319, 7262740.0 ], [ 533593.582138305064291, 7262750.0 ], [ 533591.082237573107705, 7262760.0 ], [ 533588.819440052029677, 7262770.0 ], [ 533585.968985594459809, 7262780.0 ], [ 533582.129675285541452, 7262790.0 ], [ 533577.784068726818077, 7262799.999107789248228 ], [ 533573.670178714208305, 7262809.987933613359928 ], [ 533570.087148198508658, 7262819.900785414502025 ], [ 533566.788087141467258, 7262829.453693736344576 ], [ 533563.758219123352319, 7262837.913190307095647 ], [ 533561.551677605253644, 7262844.243011592887342 ] ] } },
{ "type": "Feature", "properties": { "id": 14, "reference_id": 9, "dune_id": 9, "dune_name": "Inverted Y Dune", "acquisition_date": "2019-06-04", "length_m": 742.56160569115787 }, "geometry": { "type": "LineString", "coordinates": [ [ 529670.458265855675563, 7262174.243011591956019 ], [ 529671.628543837810867, 7262167.913190307095647 ], [ 529674.128444569883868, 7262159.453693735413253 ], [ 529677.957472912967205, 7262149.900785414502025 ], [ 529682.577659175381996, 7262139.987933613359928 ], [ 529687.434407211840153, 7262129.999107789248228 ], [ 529692.130567496176809, 7262120.0 ], [ 529696.329821285791695, 7262110.0 ], [ 529700.0, 7262100.0 ], [ 529703.670178714208305, 7262090.0 ], [ 529707.869432503823191, 7262080.0 ], [ 529712.566484998911619, 7262070.0 ], [ 529717.433515001088381, 7262060.0 ], [ 529722.130567496176809, 7262050.0 ], [ 529726.329821285791695, 7262040.0 ], [ 529730.0, 7262030.0 ], [ 529733.670178714208305, 7262020.0 ], [ 529737.869432503823191, 7262010.0 ], [ 529742.566484998911619, 7262000.0 ], [ 529747.433515001204796, 7261990.0 ], [ 529752.129675285425037, 7261980.0 ], [ 529756.319539319956675, 7261970.0 ], [ 529759.923133767326362, 7261960.0 ], [ 529763.299061056924984, 7261950.0 ], [ 529766.689764766488224, 7261940.0 ], [ 529770.0, 7261930.0 ], [ 529773.309343022760004, 7261920.0 ], [ 529776.690656977239996, 7261910.0 ], [ 529780.000892210751772, 7261900.0 ], [ 529783.321409409982152, 7261890.0 ], [ 529786.788087141467258, 7261880.0 ], [ 529790.523957911878824, 7261870.0 ], [ 529795.221856319345534, 7261860.0 ], [ 529801.552569815889001, 7261850.0 ], [ 529808.994628659682348, 7261840.000000000931323 ], [ 529816.428143660770729, 7261830.0 ], [ 529823.682245101314038, 7261820.0 ], [ 529831.541395639418624, 7261810.0 ], [ 529840.447091679205187, 7261800.0 ], [ 529850.087148198392242, 7261790.0 ], [ 529860.011174176470377, 7261780.0 ], [ 529870.000892210751772, 7261770.0 ], [ 529880.0, 7261760.000892210751772 ], [ 529890.0, 7261750.011174176819623 ], [ 529900.0, 7261740.087148198857903 ], [ 529910.0, 7261730.447983890771866 ], [ 529920.0, 7261721.551677605137229 ], [ 529930.0, 7261713.757326913066208 ], [ 529940.0, 7261706.777805175632238 ], [ 529950.0, 7261700.011174177750945 ], [ 529960.0, 7261693.311127444729209 ], [ 529970.0, 7261686.700938943773508 ], [ 529980.0, 7261680.076866232790053 ], [ 529990.0, 7261673.680460680276155 ], [ 530000.0, 7261667.870324714109302 ], [ 530010.0, 7261662.565592788159847 ], [ 530020.0, 7261657.423233035951853 ], [ 530030.0, 7261652.053701262921095 ], [ 530040.0, 7261645.958703629672527 ], [ 530049.999107789364643, 7261638.818993946537375 ], [ 530059.987933612894267, 7261631.088716872036457 ], [ 530069.900785414502025, 7261623.637778791598976 ], [ 530079.453693735180423, 7261616.641407534480095 ], [ 530087.913190306629986, 7261609.775162340141833 ], [ 530094.243011592421681, 7261603.474807371385396 ], [ 530097.91319030651357, 7261598.834750852547586 ] ] } }
]
}
