{
"type": "FeatureCollection",
"name": "crests_2017_10_2017-10-22",
"crs": { "type": "name", "properties": { "name": "urn:ogc:def:crs:EPSG::32733" } },
"features": [
{ "type": "Feature", "properties": { "id": 0, "reference_id": 5, "dune_id": 5, "dune_name": "The Star Dune", "acquisition_date": "2017-10-22", "length_m": 845.27770719714988 }, "geometry": { "type": "LineString", "coordinates": [ [ 533651.998769284458831, 7262041.078100949525833 ], [ 533655.298722552019171, 7262036.078100949525833 ], [ 533660.45915806631092, 7262028.683442020788789 ], [ 533666.428143660770729, 7262019.677239574491978 ], [ 533672.217715694569051, 7262009.944359513930976 ], [ 533677.794350692536682, 7261999.993520701304078 ], [ 533683.659896748373285, 7261989.999553894624114 ], [ 533689.999107789364643, 7261980.0 ], [ 533696.32982128590811, 7261970.0 ], [ 533702.129675285541452, 7261960.0 ], [ 533707.423233035369776, 7261950.0 ], [ 533712.489618766237982, 7261940.0 ], [ 533717.49831484653987, 7261930.0 ], [ 533722.489618766237982, 7261920.0 ], [ 533727.423233035253361, 7261910.0 ], [ 533732.128783074906096, 7261900.0 ], [ 533736.31953932007309, 7261890.0 ], [ 533739.923133767442778, 7261880.0 ], [ 533743.299953267676756, 7261870.0 ], [ 533746.700938942958601, 7261860.0 ], [ 533750.088040409144014, 7261850.0 ], [ 533753.768501089187339, 7261840.000000000931323 ], [ 533758.329482780885883, 7261830.0 ], [ 533764.205310802557506, 7261820.0 ], [ 533771.638825803645886, 7261810.0 ], [ 533780.45915806631092, 7261800.000892210751772 ], [ 533790.088040409144014, 7261790.0111741758883 ], [ 533800.011174176470377, 7261780.088040409609675 ], [ 533810.000892210635357, 7261770.459158066660166 ], [ 533820.0, 7261761.638825803995132 ], [ 533830.0, 7261754.205310802906752 ], [ 533840.0, 7261748.328590570017695 ], [ 533850.0, 7261743.758219124749303 ], [ 533860.0, 7261740.011174176819623 ], [ 533870.0, 7261736.33071349747479 ], [ 533880.0, 7261732.13056749664247 ], [ 533890.0, 7261727.433515001088381 ], [ 533900.0, 7261722.566484998911619 ], [ 533910.0, 7261717.870324714109302 ], [ 533920.0, 7261713.681352891027927 ], [ 533930.0, 7261710.087148198857903 ], [ 533940.0, 7261706.776912964880466 ], [ 533950.0, 7261703.671070924960077 ], [ 533960.0, 7261701.10458592697978 ], [ 533970.0, 7261698.907480461522937 ], [ 533980.0, 7261696.416077273897827 ], [ 533990.0, 7261693.670178714208305 ], [ 534000.0, 7261691.454247441142797 ], [ 534010.0, 7261690.0 ], [ 534020.0, 7261688.546644769608974 ], [ 534030.0, 7261686.340995462611318 ], [ 534040.0, 7261683.670178715139627 ], [ 534050.0, 7261681.529329252429307 ], [ 534060.0, 7261680.35994348116219 ], [ 534070.0, 7261679.640056519769132 ], [ 534080.0, 7261678.470670748502016 ], [ 534090.0, 7261676.330713496543467 ], [ 534100.0, 7261673.670178714208305 ], [ 534110.0, 7261671.540503429248929 ], [ 534120.0, 7261670.446199468336999 ], [ 534130.0, 7261670.075974022038281 ], [ 534140.0, 7261669.923133767209947 ], [ 534150.0, 7261669.542626355774701 ], [ 534160.0, 7261668.371456162072718 ], [ 534170.0, 7261665.870663220062852 ], [ 534180.0, 7261662.031352911144495 ], [ 534190.0, 7261657.335192626342177 ], [ 534200.0, 7261652.117608899250627 ], [ 534210.0, 7261646.317754899151623 ], [ 534220.0, 7261639.912851801142097 ], [ 534230.0, 7261633.223087035119534 ], [ 534240.0, 7261626.328929075039923 ], [ 534249.999107789364643, 7261618.896306285634637 ], [ 534259.987933612777852, 7261611.104585926048458 ], [ 534269.900785414385609, 7261603.682245101779699 ], [ 534279.453693735180423, 7261596.864953374490142 ], [ 534287.913190306629986, 7261590.545414053834975 ], [ 534294.243011592305265, 7261585.309896728023887 ] ] } },
{ "type": "Feature", "properties": { "id": 1, "reference_id": 5, "dune_id": 5, "dune_name": "The Star Dune", "acquisition_date": "2017-10-22", "length_m": 255.04536250988693 }, "geometry": { "type": "LineString", "coordinates": [ [ 534334.703061869367957, 7261305.756988408043981 ], [ 534329.56408249726519, 7261312.086809693835676 ], [ 534323.757326912716962, 7261320.546306264586747 ], [ 534318.764508072868921, 7261330.099214585497975 ], [ 534315.744922020589001, 7261340.012066386640072 ], [ 534315.309004517854191, 7261350.000892210751772 ], [ 534316.788979352102615, 7261360.0 ], [ 534318.547536980360746, 7261370.0 ], [ 534319.56408249726519, 7261380.0 ], [ 534319.914636222994886, 7261390.0 ], [ 534320.0, 7261400.0 ], [ 534320.086255987756886, 7261410.0 ], [ 534320.447091679205187, 7261420.0 ], [ 534321.540503428666852, 7261430.0 ], [ 534323.670178714208305, 7261440.0 ], [ 534326.329821285791695, 7261450.0 ], [ 534328.459496571333148, 7261460.0 ], [ 534329.552908320794813, 7261470.000000000931323 ], [ 534329.912851801607758, 7261480.0 ], [ 534329.988825823529623, 7261490.0 ], [ 534329.999107789364643, 7261500.0 ], [ 534330.0, 7261509.999107789248228 ], [ 534330.0, 7261519.987933613359928 ], [ 534330.0, 7261529.900785414502025 ], [ 534330.0, 7261539.453693734481931 ], [ 534330.0, 7261547.913190307095647 ], [ 534330.0, 7261554.243011592887342 ] ] } },
{ "type": "Feature", "properties": { "id": 2, "reference_id": 3, "dune_id": 3, "dune_name": "Big Mommy Dune", "acquisition_date": "2017-10-22", "length_m": 232.85816936411129 }, "geometry": { "type": "LineString", "coordinates": [ [ 530244.243011592421681, 7260570.000892210751772 ], [ 530237.91319030651357, 7260570.011174176819623 ], [ 530229.453693735180423, 7260570.087148198857903 ], [ 530219.900785414385609, 7260570.447091680020094 ], [ 530209.987933612894267, 7260571.541395640000701 ], [ 530199.999107789248228, 7260573.681352891027927 ], [ 530190.0, 7260576.416969484649599 ], [ 530180.0, 7260578.906588250771165 ], [ 530170.000000000116415, 7260581.093411750160158 ], [ 530160.0, 7260583.583030516281724 ], [ 530150.0, 7260586.318647109903395 ], [ 530140.0, 7260588.459496570751071 ], [ 530130.0, 7260589.564082497730851 ], [ 530120.0, 7260590.0 ], [ 530110.0, 7260590.435917502269149 ], [ 530100.0, 7260591.540503429248929 ], [ 530090.0, 7260593.681352891027927 ], [ 530080.0, 7260596.416969483718276 ], [ 530070.0, 7260598.906588250771165 ], [ 530060.000892210751772, 7260601.093411750160158 ], [ 530050.012066387222148, 7260603.583030516281724 ], [ 530040.099214585614391, 7260606.318647110834718 ], [ 530030.546306264819577, 7260608.458604360930622 ], [ 530022.08680969348643, 7260609.552908320911229 ], [ 530015.756988407694735, 7260609.912851802073419 ] ] } },
{ "type": "Feature", "properties": { "id": 3, "reference_id": 3, "dune_id": 3, "dune_name": "Big Mommy Dune", "acquisition_date": "2017-10-22", "length_m": 857.03577415641064 }, "geometry": { "type": "LineString", "coordinates": [ [ 529181.638825803645886, 7260964.243011592887342 ], [ 529184.205310802557506, 7260957.913190307095647 ], [ 529188.328590570250526, 7260949.453693735413253 ], [ 529193.758219123352319, 7260939.900785414502025 ], [ 529200.012066387105733, 7260929.987933613359928 ], [ 529206.340995462262072, 7260919.999107789248228 ], [ 529212.206541518098675, 7260910.0 ], [ 529217.794350692536682, 7260900.0 ], [ 529223.670178714208305, 7260890.0 ], [ 529230.075974021921866, 7260880.0 ], [ 529236.700046732323244, 7260870.0 ], [ 529243.299953267676756, 7260860.0 ], [ 529249.924025978078134, 7260850.0 ], [ 529256.32982128590811, 7260840.0 ], [ 529262.205649307463318, 7260830.0 ], [ 529267.794350692536682, 7260820.0 ], [ 529273.671070924960077, 7260810.0 ], [ 529280.086255987756886, 7260800.0 ], [ 529286.776912964996882, 7260790.0 ], [ 529293.671070924960077, 7260780.000000000931323 ], [ 529301.104585926048458, 7260770.0 ], [ 529308.907480461173691, 7260760.0 ], [ 529316.416969484300353, 7260750.000892210751772 ], [ 529323.681352890678681, 7260740.011174176819623 ], [ 529331.54139563953504, 7260730.087148198857903 ], [ 529340.447091679205187, 7260720.447983889840543 ], [ 529350.087148198508658, 7260711.552569815889001 ], [ 529360.011174176353961, 7260703.768501089885831 ], [ 529370.000892210635357, 7260696.864953374490142 ], [ 529380.0, 7260690.459158066660166 ], [ 529390.0, 7260684.861912839114666 ], [ 529400.0, 7260680.447983888909221 ], [ 529410.0, 7260676.777805175632238 ], [ 529420.0, 7260673.321409409865737 ], [ 529430.0, 7260670.0111741758883 ], [ 529440.000000000116415, 7260666.766630999743938 ], [ 529450.0, 7260663.670178714208305 ], [ 529460.0, 7260661.103693716228008 ], [ 529470.0, 7260658.896306285634637 ], [ 529480.0, 7260656.329821285791695 ], [ 529490.0, 7260653.234261211939156 ], [ 529500.000000000116415, 7260650.0 ], [ 529510.0, 7260646.765738788992167 ], [ 529520.0, 7260643.670178715139627 ], [ 529530.0, 7260641.10458592697978 ], [ 529540.0, 7260638.907480461522937 ], [ 529550.0, 7260636.416969483718276 ], [ 529560.0, 7260633.680460680276155 ], [ 529570.0, 7260631.530221463181078 ], [ 529580.0, 7260630.35994348116219 ], [ 529590.0, 7260629.64005651883781 ], [ 529600.0, 7260628.470670747570693 ], [ 529610.0, 7260626.330713496543467 ], [ 529620.0, 7260623.670178714208305 ], [ 529630.0, 7260621.540503429248929 ], [ 529640.0, 7260620.447091679088771 ], [ 529650.0, 7260620.086255988106132 ], [ 529660.0, 7260620.0 ], [ 529670.0, 7260619.913744012825191 ], [ 529680.0, 7260619.552908320911229 ], [ 529690.0, 7260618.459496571682394 ], [ 529700.0, 7260616.329821286723018 ], [ 529710.0, 7260613.670178715139627 ], [ 529720.0, 7260611.540503429248929 ], [ 529730.0, 7260610.447091680020094 ], [ 529740.0, 7260610.087148198857903 ], [ 529750.0, 7260610.011174176819623 ], [ 529760.0, 7260610.000892210751772 ], [ 529770.0, 7260610.0 ], [ 529780.0, 7260610.0 ], [ 529790.0, 7260610.0 ], [ 529800.0, 7260610.0 ], [ 529810.0, 7260610.0 ], [ 529820.0, 7260610.0 ], [ 529830.0, 7260610.0 ], [ 529839.999107789248228, 7260610.0 ], [ 529849.987933612777852, 7260610.0 ], [ 529859.900785414385609, 7260610.0 ], [ 529869.453693735296838, 7260610.0 ], [ 529877.91319030651357, 7260610.0 ], [ 529884.243011592421681, 7260610.0 ] ] } },
{ "type": "Feature", "properties": { "id": 4, "reference_id": 6, "dune_id": 6, "dune_name": "The Star Dune", "acquisition_date": "2017-10-22", "length_m": 811.11464444669684 }, "geometry": { "type": "LineString", "coordinates": [ [ 533560.458265855675563, 7262844.243011592887342 ], [ 533561.62765162717551, 7262837.913190307095647 ], [ 533564.117270393413492, 7262829.453693736344576 ], [ 533567.871216925210319, 7262819.900785414502025 ], [ 533572.140849462011829, 7262809.987933613359928 ], [ 533575.969877805095166, 7262799.999107789248228 ], [ 533578.819440052029677, 7262790.0 ], [ 533581.082237573107705, 7262780.0 ], [ 533583.582138305064291, 7262770.0 ], [ 533586.318647109437734, 7262760.0 ], [ 533588.459496571216732, 7262750.0 ], [ 533589.56408249726519, 7262740.0 ], [ 533590.0, 7262730.0 ], [ 533590.43591750273481, 7262720.0 ], [ 533591.539611218031496, 7262710.0 ], [ 533593.670178714208305, 7262700.0 ], [ 533596.329821285791695, 7262690.0 ], [ 533598.460388781968504, 7262680.0 ], [ 533599.56408249726519, 7262670.0 ], [ 533600.0, 7262660.0 ], [ 533600.43591750273481, 7262650.0 ], [ 533601.539611218031496, 7262640.0 ], [ 533603.671070924960077, 7262630.0 ], [ 533606.340995462378487, 7262620.0 ], [ 533608.54664476972539, 7262610.0 ], [ 533610.0, 7262600.000000000931323 ], [ 533611.454247441026382, 7262590.0 ], [ 533613.670178714208305, 7262580.0 ], [ 533616.416077273664996, 7262570.0 ], [ 533618.906588250421919, 7262560.0 ], [ 533621.094303960213438, 7262550.0 ], [ 533623.594204692170024, 7262540.0 ], [ 533626.405795307713561, 7262530.0 ], [ 533628.905696039786562, 7262520.0 ], [ 533631.094303960213438, 7262510.0 ], [ 533633.594204692286439, 7262500.0 ], [ 533636.405795307829976, 7262490.0 ], [ 533638.906588250538334, 7262480.0 ], [ 533641.104585926048458, 7262470.0 ], [ 533643.670178714208305, 7262460.0 ], [ 533646.766630999161862, 7262450.0 ], [ 533650.01028196583502, 7262440.0 ], [ 533653.310235233511776, 7262430.0 ], [ 533656.689764766488224, 7262420.0 ], [ 533659.988825823529623, 7262410.0 ], [ 533663.222194824367762, 7262400.0 ], [ 533666.242673087399453, 7262390.0 ], [ 533668.448322394862771, 7262380.0 ], [ 533669.552016110159457, 7262370.0 ], [ 533669.912851801607758, 7262360.0 ], [ 533669.988825823646039, 7262350.0 ], [ 533669.999107789364643, 7262340.000000000931323 ], [ 533670.0, 7262330.0 ], [ 533670.0, 7262320.0 ], [ 533670.0, 7262310.0 ], [ 533669.999107789364643, 7262300.0 ], [ 533669.988825823646039, 7262290.0 ], [ 533669.912851801607758, 7262280.0 ], [ 533669.552908320911229, 7262270.0 ], [ 533668.459496571333148, 7262260.0 ], [ 533666.329821285791695, 7262250.0 ], [ 533663.670178714208305, 7262240.0 ], [ 533661.540503428783268, 7262230.0 ], [ 533660.447091679088771, 7262220.0 ], [ 533660.086255987756886, 7262210.0 ], [ 533660.000892210751772, 7262200.0 ], [ 533659.924918188713491, 7262190.0 ], [ 533659.639164308551699, 7262180.0 ], [ 533658.895414073951542, 7262170.0 ], [ 533657.783176516066305, 7262160.0 ], [ 533656.893265749211423, 7262150.0 ], [ 533656.329821285791695, 7262140.0 ], [ 533655.236409536330029, 7262130.0 ], [ 533653.310235233511776, 7262120.0 ], [ 533651.464529406861402, 7262110.0 ], [ 533650.436809713486582, 7262100.000446105375886 ], [ 533650.086255987756886, 7262090.006479298695922 ], [ 533650.011174176470377, 7262080.055640487000346 ], [ 533650.000892210751772, 7262070.322760425508022 ], [ 533650.0, 7262061.316557979211211 ], [ 533650.0, 7262053.921899050474167 ], [ 533650.0, 7262048.921899050474167 ] ] } },
{ "type": "Feature", "properties": { "id": 5, "reference_id": 9, "dune_id": 9, "dune_name": "Inverted Y Dune", "acquisition_date": "2017-10-22", "length_m": 476.84120910214909 }, "geometry": { "type": "LineString", "coordinates": [ [ 529670.458265855675563, 7262174.243011591956019 ], [ 529671.628543837810867, 7262167.913190307095647 ], [ 529674.128444569883868, 7262159.453693735413253 ], [ 529677.957472912967205, 7262149.900785414502025 ], [ 529682.577659175381996, 7262139.987933613359928 ], [ 529687.434407211840153, 7262129.999107789248228 ], [ 529692.130567496176809, 7262120.0 ], [ 529696.329821285791695, 7262110.0 ], [ 529699.999107789248228, 7262100.0 ], [ 529703.659896748373285, 7262090.0 ], [ 529707.793458481901325, 7262080.0 ], [ 529712.20654151821509, 7262070.0 ], [ 529716.340103251626715, 7262060.0 ], [ 529720.000892210751772, 7262050.0 ], [ 529723.670178714208305, 7262040.0 ], [ 529727.869432503939606, 7262030.0 ], [ 529732.566484998911619, 7262020.0 ], [ 529737.433515001088381, 7262010.0 ], [ 529742.130567496176809, 7262000.0 ], [ 529746.329821285791695, 7261990.0 ], [ 529749.999107789364643, 7261980.0 ], [ 529753.659004537621513, 7261970.0 ], [ 529757.783176516182721, 7261960.0 ], [ 529762.129675285425037, 7261950.0 ], [ 529765.968985594343394, 7261940.0 ], [ 529768.820332262665033, 7261930.0 ], [ 529771.093411749578081, 7261920.0 ], [ 529773.670178714208305, 7261910.0 ], [ 529776.777805175632238, 7261900.0 ], [ 529780.097430164227262, 7261890.0 ], [ 529783.758219123352319, 7261880.0 ], [ 529788.24233458249364, 7261870.0 ], [ 529793.758219123352319, 7261860.0 ], [ 529800.098322374862619, 7261850.0 ], [ 529806.78897935221903, 7261840.000000000931323 ], [ 529813.758219123352319, 7261830.0 ], [ 529821.551677605137229, 7261820.0 ], [ 529830.447983889840543, 7261810.0 ], [ 529840.086255987756886, 7261800.000892210751772 ], [ 529849.999107789364643, 7261790.012066386640072 ], [ 529859.901677625137381, 7261780.099214585497975 ], [ 529869.453693735296838, 7261770.546306265518069 ], [ 529877.91319030651357, 7261762.086809692904353 ], [ 529884.243011592421681, 7261755.756988408043981 ] ] } },
{ "type": "Feature", "properties": { "id": 6, "reference_id": 9, "dune_id": 9, "dune_name": "Inverted Y Dune", "acquisition_date": "2017-10-22", "length_m": 230.2594072835949 }, "geometry": { "type": "LineString", "coordinates": [ [ 530091.078100949525833, 7261598.910724874585867 ], [ 530086.078100949409418, 7261603.834750852547586 ], [ 530078.683442020905204, 7261610.868574090301991 ], [ 530069.677239574841224, 7261618.771082820370793 ], [ 530059.944359513698146, 7261626.297421364113688 ], [ 530049.993520701071247, 7261633.218392157927155 ], [ 530039.999553894624114, 7261639.913297906517982 ], [ 530030.0, 7261646.328929075971246 ], [ 530020.0, 7261652.205649306997657 ], [ 530010.0, 7261657.794350693002343 ], [ 530000.0, 7261663.670178715139627 ], [ 529990.0, 7261670.075974022038281 ], [ 529980.0, 7261676.700938943773508 ], [ 529970.0, 7261683.311127444729209 ], [ 529960.0, 7261690.011174176819623 ], [ 529950.000892210751772, 7261696.776912965811789 ], [ 529940.012066387105733, 7261703.745260525494814 ], [ 529930.099214585614391, 7261711.452463019639254 ], [ 529920.546306264819577, 7261719.901677625253797 ], [ 529912.08680969348643, 7261728.000338505022228 ], [ 529905.756988407694735, 7261734.254185769706964 ] ] } },
{ "type": "Feature", "properties": { "id": 7, "reference_id": 4, "dune_id": 4, "dune_name": "The Star Dune", "acquisition_date": "2017-10-22", "length_m": 175.55308578119212 }, "geometry": { "type": "LineString", "coordinates": [ [ 533025.756988407694735, 7261870.447091680020094 ], [ 533032.08680969348643, 7261871.540503429248929 ], [ 533040.546306264819577, 7261873.671070925891399 ], [ 533050.099214585614391, 7261876.340995462611318 ], [ 533060.012066387222148, 7261878.546644769608974 ], [ 533070.000892210751772, 7261880.000892210751772 ], [ 533080.0, 7261881.464529406279325 ], [ 533090.0, 7261883.746152736246586 ], [ 533100.0, 7261886.776912964880466 ], [ 533110.0, 7261890.011174176819623 ], [ 533120.0, 7261893.310235233977437 ], [ 533130.0, 7261896.690656976774335 ], [ 533140.0, 7261900.0 ], [ 533149.999107789364643, 7261903.309343023225665 ], [ 533159.987933612894267, 7261906.689764766953886 ], [ 533169.900785414502025, 7261909.9888258241117 ], [ 533179.453693735180423, 7261913.222194824367762 ], [ 533187.91319030651357, 7261916.242673087865114 ], [ 533194.243011592305265, 7261918.448322394862771 ] ] } },
{ "type": "Feature", "properties": { "id": 8, "reference_id": 4, "dune_id": 4, "dune_name": "The Star Dune", "acquisition_date": "2017-10-22", "length_m": 185.59981164969494 }, "geometry": { "type": "LineString", "coordinates": [ [ 533225.756988407694735, 7261930.087148198857903 ], [ 533232.086809693602845, 7261930.447983889840543 ], [ 533240.546306264819577, 7261931.551677605137229 ], [ 533250.099214585614391, 7261933.757326912134886 ], [ 533260.012066387222148, 7261936.777805175632238 ], [ 533270.000892210751772, 7261940.011174176819623 ], [ 533280.0, 7261943.310235233977437 ], [ 533290.0, 7261946.689764766022563 ], [ 533300.0, 7261949.989718034863472 ], [ 533310.0, 7261953.233369001187384 ], [ 533320.0, 7261956.329821286723018 ], [ 533330.0, 7261958.896306285634637 ], [ 533340.0, 7261961.103693716228008 ], [ 533350.0, 7261963.670178714208305 ], [ 533359.999107789364643, 7261966.765738788992167 ], [ 533369.987933612894267, 7261969.999107789248228 ], [ 533379.900785414385609, 7261973.223087035119534 ], [ 533389.453693735296838, 7261976.242673087865114 ], [ 533397.913190306629986, 7261978.448322394862771 ], [ 533404.243011592421681, 7261979.552016111090779 ] ] } },
{ "type": "Feature", "properties": { "id": 9, "reference_id": 4, "dune_id": 4, "dune_name": "The Star Dune", "acquisition_date": "2017-10-22", "length_m": 157.30788043833638 }, "geometry": { "type": "LineString", "coordinates": [ [ 533435.756988407694735, 7261991.541395640000701 ], [ 533442.086809693370014, 7261993.681352891027927 ], [ 533450.546306264703162, 7261996.416969485580921 ], [ 533460.099214585614391, 7261998.906588250771165 ], [ 533470.012066387105733, 7262001.09430396091193 ], [ 533480.000892210751772, 7262003.595096902921796 ], [ 533490.0, 7262006.416969484649599 ], [ 533500.0, 7262008.993736449629068 ], [ 533510.0, 7262011.551677605137229 ], [ 533520.0, 7262015.210682143457234 ], [ 533530.0, 7262020.435917503200471 ], [ 533539.999107789364643, 7262026.328929075971246 ], [ 533549.987933612894267, 7262031.682583606801927 ], [ 533559.900785414385609, 7262035.795581408776343 ], [ 533569.453693735180423, 7262038.361174196004868 ], [ 533577.91319030651357, 7262039.540841933339834 ], [ 533584.243011592305265, 7262039.911959590390325 ] ] } },
{ "type": "Feature", "properties": { "id": 10, "reference_id": 2, "dune_id": 2, "dune_name": "Big Mommy Dune", "acquisition_date": "2017-10-22", "length_m": 462.53504181572907 }, "geometry": { "type": "LineString", "coordinates": [ [ 528575.756988407694735, 7260755.222748530097306 ], [ 528582.086809693370014, 7260760.098322374746203 ], [ 528590.546306264819577, 7260765.324449945241213 ], [ 528600.099214585730806, 7260770.0111741758883 ], [ 528610.012066387105733, 7260774.764482675120234 ], [ 528620.000892210635357, 7260780.360835691913962 ], [ 528630.0, 7260786.416077273897827 ], [ 528640.0, 7260792.216823484748602 ], [ 528650.0, 7260797.794350693002343 ], [ 528660.0, 7260803.659004537388682 ], [ 528670.0, 7260809.9888258241117 ], [ 528680.0, 7260816.252955053001642 ], [ 528690.0, 7260821.75944983959198 ], [ 528700.0, 7260826.252955053001642 ], [ 528710.0, 7260829.9888258241117 ], [ 528720.0, 7260833.659004537388682 ], [ 528730.0, 7260837.793458482250571 ], [ 528740.0, 7260842.206541518680751 ], [ 528750.0, 7260846.340103251859546 ], [ 528760.0, 7260850.0 ], [ 528770.0, 7260853.659004537388682 ], [ 528780.0, 7260857.783176516182721 ], [ 528790.0, 7260862.129675285890698 ], [ 528800.0, 7260865.968985594809055 ], [ 528810.0, 7260868.820332262665033 ], [ 528820.0, 7260871.093411749228835 ], [ 528830.0, 7260873.669286504387856 ], [ 528840.0, 7260876.765738788992167 ], [ 528850.0, 7260880.0 ], [ 528860.0, 7260883.234261211007833 ], [ 528870.0, 7260886.329821286723018 ], [ 528880.0, 7260888.896306284703314 ], [ 528890.0, 7260891.103693716228008 ], [ 528900.0, 7260893.670178714208305 ], [ 528910.0, 7260896.765738788992167 ], [ 528920.0, 7260900.0 ], [ 528930.0, 7260903.234261211939156 ], [ 528940.0, 7260906.329821286723018 ], [ 528950.0, 7260908.895414074882865 ], [ 528959.999107789364643, 7260911.092519538477063 ], [ 528969.987933612894267, 7260913.583030516281724 ], [ 528979.900785414502025, 7260916.318647108972073 ], [ 528989.453693735296838, 7260918.458604359999299 ], [ 528997.913190306629986, 7260919.552908321842551 ], [ 529004.243011592421681, 7260919.912851801142097 ] ] } },
{ "type": "Feature", "properties": { "id": 11, "reference_id": 1, "dune_id": 1, "dune_name": "Big Mommy Dune", "acquisition_date": "2017-10-22", "length_m": 412.70767239280241 }, "geometry": { "type": "LineString", "coordinates": [ [ 529077.924364482983947, 7261915.756988408043981 ], [ 529074.331052001449279, 7261922.086809693835676 ], [ 529068.371456162189133, 7261930.546306265518069 ], [ 529061.081345362355933, 7261940.099214585497975 ], [ 529054.018948018434457, 7261950.012066386640072 ], [ 529047.869432503823191, 7261960.000892210751772 ], [ 529042.216823483933695, 7261970.0 ], [ 529036.341887672897428, 7261980.0 ], [ 529030.012066387222148, 7261990.0 ], [ 529023.757326912600547, 7262000.0 ], [ 529018.317416393663734, 7262010.0 ], [ 529014.117270393413492, 7262020.0 ], [ 529011.180559947970323, 7262030.0 ], [ 529008.831506439251825, 7262040.0 ], [ 529005.969877805095166, 7262050.0 ], [ 529002.128783074789681, 7262060.0 ], [ 528997.772894550347701, 7262070.0 ], [ 528993.582138305064291, 7262080.0 ], [ 528989.627990132081322, 7262090.0 ], [ 528985.148369127186015, 7262100.0 ], [ 528979.541734144324437, 7262110.0 ], [ 528973.135046625975519, 7262120.0 ], [ 528966.231498910929076, 7262130.0 ], [ 528958.447430184110999, 7262140.0 ], [ 528949.552016110159457, 7262149.999107789248228 ], [ 528939.912851801607758, 7262159.9888258241117 ], [ 528929.988825823529623, 7262169.912851802073419 ], [ 528919.999107789364643, 7262179.552016110159457 ], [ 528910.0, 7262188.448322394862771 ], [ 528900.0, 7262196.241780877113342 ], [ 528890.0, 7262203.211912859231234 ], [ 528880.000892210751772, 7262209.91195959225297 ], [ 528870.012066387105733, 7262216.317754899151623 ], [ 528860.099214585614391, 7262222.117608898319304 ], [ 528850.546306264819577, 7262227.335192626342177 ], [ 528842.086809693370014, 7262232.031352911144495 ], [ 528835.756988407694735, 7262235.870663220062852 ] ] } },
{ "type": "Feature", "properties": { "id": 12, "reference_id": 1, "dune_id": 1, "dune_name": "Big Mommy Dune", "acquisition_date": "2017-10-22", "length_m": 888.48492243506178 }, "geometry": { "type": "LineString", "coordinates": [ [ 529180.087148198392242, 7261025.756988408043981 ], [ 529180.44619946856983, 7261032.086809692904353 ], [ 529181.529329252312891, 7261040.546306265518069 ], [ 529183.583030515816063, 7261050.099214585497975 ], [ 529185.882729606702924, 7261060.012066387571394 ], [ 529186.918100931914523, 7261070.000892210751772 ], [ 529185.871555430232547, 7261080.0 ], [ 529183.495882317307405, 7261090.0 ], [ 529181.081345362355933, 7261100.0 ], [ 529178.894521863316186, 7261110.0 ], [ 529176.329821285791695, 7261120.000000000931323 ], [ 529173.233369000838138, 7261130.0 ], [ 529169.989718034281395, 7261140.0 ], [ 529166.689764766488224, 7261150.0 ], [ 529163.309343022760004, 7261160.0 ], [ 529160.0, 7261170.0 ], [ 529156.68976476660464, 7261180.0 ], [ 529153.299061057041399, 7261190.0 ], [ 529149.923133767442778, 7261200.0 ], [ 529146.319539319956675, 7261210.000000000931323 ], [ 529142.128783074906096, 7261220.0 ], [ 529137.423233035369776, 7261230.0 ], [ 529132.490510976873338, 7261240.0 ], [ 529127.509489023126662, 7261250.0 ], [ 529122.576766964630224, 7261260.0 ], [ 529117.870324714574963, 7261270.0 ], [ 529113.670178714208305, 7261280.0 ], [ 529110.000892210751772, 7261290.0 ], [ 529106.3401032515103, 7261300.0 ], [ 529102.206541518098675, 7261310.000000000931323 ], [ 529097.793458481901325, 7261320.0 ], [ 529093.6598967484897, 7261330.0 ], [ 529090.0, 7261340.0 ], [ 529086.340103251626715, 7261350.0 ], [ 529082.206541518098675, 7261360.0 ], [ 529077.79345848178491, 7261370.0 ], [ 529073.659896748373285, 7261380.0 ], [ 529070.0, 7261390.0 ], [ 529066.340103251626715, 7261400.0 ], [ 529062.206541518098675, 7261410.0 ], [ 529057.794350692536682, 7261420.0 ], [ 529053.670178714208305, 7261430.0 ], [ 529050.075974021921866, 7261440.0 ], [ 529046.700938942958601, 7261450.0 ], [ 529043.311127444147132, 7261460.0 ], [ 529040.011174176470377, 7261470.000000000931323 ], [ 529036.776912964996882, 7261480.0 ], [ 529033.746152736246586, 7261490.0 ], [ 529031.464529406744987, 7261500.0 ], [ 529030.000892210751772, 7261510.0 ], [ 529028.54664476972539, 7261520.0 ], [ 529026.340995462378487, 7261530.0 ], [ 529023.671070924960077, 7261540.0 ], [ 529021.540503428783268, 7261550.0 ], [ 529020.447091679205187, 7261560.000000000931323 ], [ 529020.087148198508658, 7261570.0 ], [ 529020.011174176470377, 7261580.0 ], [ 529020.000892210751772, 7261590.0 ], [ 529020.0, 7261600.0 ], [ 529020.0, 7261610.0 ], [ 529020.000892210751772, 7261620.0 ], [ 529020.011174176470377, 7261630.0 ], [ 529020.087148198508658, 7261640.0 ], [ 529020.447983889840543, 7261650.0 ], [ 529021.551677605137229, 7261660.0 ], [ 529023.757326912600547, 7261670.0 ], [ 529026.776912964996882, 7261680.0 ], [ 529030.000892210751772, 7261690.0 ], [ 529033.235153422225267, 7261700.0 ], [ 529036.340995462378487, 7261710.0 ], [ 529038.983454483095556, 7261720.0 ], [ 529041.550785394501872, 7261730.000000000931323 ], [ 529045.211574353510514, 7261740.0 ], [ 529050.447983889956959, 7261750.0 ], [ 529056.427251450018957, 7261760.0 ], [ 529062.217715694569051, 7261770.0 ], [ 529067.794350692536682, 7261780.0 ], [ 529073.659896748373285, 7261790.0 ], [ 529079.999107789248228, 7261800.0 ], [ 529086.328929075156339, 7261810.0 ], [ 529092.118501109071076, 7261819.999107789248228 ], [ 529097.335192626342177, 7261829.987933613359928 ], [ 529102.031352910562418, 7261839.900785414502025 ], [ 529105.870663219480775, 7261849.453693735413253 ], [ 529108.371456162189133, 7261857.913190307095647 ], [ 529109.541734144440852, 7261864.243011591956019 ] ] } },
{ "type": "Feature", "properties": { "id": 13, "reference_id": 8, "dune_id": 8, "dune_name": "Inverted Y Dune", "acquisition_date": "2017-10-22", "length_m": 729.72011898490666 }, "geometry": { "type": "LineString", "coordinates": [ [ 530554.243011592305265, 7261180.545414054766297 ], [ 530547.91319030651357, 7261182.074743306264281 ], [ 530539.453693735296838, 7261185.657773822546005 ], [ 530529.900785414385609, 7261191.540503429248929 ], [ 530519.987933612894267, 7261198.459496570751071 ], [ 530509.999107789248228, 7261204.342226178385317 ], [ 530500.0, 7261207.925256693735719 ], [ 530490.0, 7261209.454585946165025 ], [ 530480.0, 7261209.900785414502025 ], [ 530470.0, 7261209.987041402608156 ], [ 530460.0, 7261209.987933613359928 ], [ 530450.0, 7261209.912851802073419 ], [ 530440.0, 7261209.552908320911229 ], [ 530430.000000000116415, 7261208.459496571682394 ], [ 530420.0, 7261206.329821285791695 ], [ 530410.0, 7261203.670178713276982 ], [ 530400.0, 7261201.540503428317606 ], [ 530390.0, 7261200.447091678157449 ], [ 530380.0, 7261200.087148198857903 ], [ 530370.0, 7261200.012066386640072 ], [ 530360.0, 7261200.012066386640072 ], [ 530350.0, 7261200.087148198857903 ], [ 530340.0, 7261200.447091678157449 ], [ 530330.0, 7261201.541395639069378 ], [ 530320.0, 7261203.681352891027927 ], [ 530310.0, 7261206.417861694470048 ], [ 530300.0, 7261208.917762426659465 ], [ 530290.0, 7261211.181452158838511 ], [ 530280.0, 7261214.04218858294189 ], [ 530270.0, 7261217.957472912967205 ], [ 530260.0, 7261222.663915162906051 ], [ 530250.0, 7261227.882391102612019 ], [ 530240.0, 7261233.682245101779699 ], [ 530230.0, 7261240.088040409609675 ], [ 530220.000892210635357, 7261246.788087140768766 ], [ 530210.011174176470377, 7261253.75821912381798 ], [ 530200.088040409144014, 7261261.551677605137229 ], [ 530190.458265855675563, 7261270.447983890771866 ], [ 530181.628543837810867, 7261280.087148198857903 ], [ 530174.128444569883868, 7261290.0111741758883 ], [ 530167.958365123602562, 7261300.000892210751772 ], [ 530162.588833351852372, 7261310.000000000931323 ], [ 530157.521555410232395, 7261320.0 ], [ 530152.577659175381996, 7261330.0 ], [ 530147.871216925326735, 7261340.0 ], [ 530143.681352890678681, 7261350.0 ], [ 530140.087148198392242, 7261360.0 ], [ 530136.776912964996882, 7261370.0 ], [ 530133.671070924960077, 7261380.0 ], [ 530131.104585926048458, 7261390.0 ], [ 530128.907480461173691, 7261400.0 ], [ 530126.416077273664996, 7261410.0 ], [ 530123.670178714208305, 7261420.0 ], [ 530121.454247441026382, 7261430.0 ], [ 530120.0, 7261440.0 ], [ 530118.54664476972539, 7261450.0 ], [ 530116.340995462262072, 7261460.0 ], [ 530113.671070924960077, 7261470.000000000931323 ], [ 530111.539611218031496, 7261480.0 ], [ 530110.43591750273481, 7261490.0 ], [ 530110.0, 7261500.0 ], [ 530109.564082497381605, 7261510.0 ], [ 530108.460388781968504, 7261520.0 ], [ 530106.329821285791695, 7261530.0 ], [ 530103.669732608832419, 7261539.999553894624114 ], [ 530101.534916340489872, 7261549.993520701304078 ], [ 530100.403517580009066, 7261559.944359513930976 ], [ 530099.863602358847857, 7261569.6772395754233 ], [ 530099.240922462078743, 7261578.683442020788789 ], [ 530098.165802853647619, 7261586.078100949525833 ], [ 530096.835089357104152, 7261591.078100949525833 ] ] } },
{ "type": "Feature", "properties": { "id": 14, "reference_id": 7, "dune_id": 7, "dune_name": "Inverted Y Dune", "acquisition_date": "2017-10-22", "length_m": 558.75909629444016 }, "geometry": { "type": "LineString", "coordinates": [ [ 530225.756988407694735, 7261640.0 ], [ 530232.08680969348643, 7261640.0 ], [ 530240.546306264703162, 7261640.0 ], [ 530250.099214585614391, 7261639.999107789248228 ], [ 530260.012066387105733, 7261639.9888258241117 ], [ 530270.000892210751772, 7261639.912851801142097 ], [ 530280.0, 7261639.552016111090779 ], [ 530290.0, 7261638.448322394862771 ], [ 530300.0, 7261636.242673087865114 ], [ 530310.0, 7261633.222194824367762 ], [ 530320.0, 7261629.9888258241117 ], [ 530330.0, 7261626.688872555270791 ], [ 530340.0, 7261623.299061057157815 ], [ 530350.0, 7261619.924025978893042 ], [ 530360.0, 7261616.329821286723018 ], [ 530370.0, 7261612.204757097177207 ], [ 530380.0, 7261607.783176516182721 ], [ 530390.0, 7261603.583030516281724 ], [ 530400.0, 7261599.627990132197738 ], [ 530410.0, 7261595.148369127884507 ], [ 530420.0, 7261589.541734145022929 ], [ 530430.000000000116415, 7261583.135046625509858 ], [ 530440.0, 7261576.231498911976814 ], [ 530450.0, 7261568.447430184110999 ], [ 530460.0, 7261559.552016111090779 ], [ 530469.999107789364643, 7261549.912851801142097 ], [ 530479.988825823529623, 7261539.9888258241117 ], [ 530489.912851801607758, 7261529.999107789248228 ], [ 530499.552016110159457, 7261520.0 ], [ 530508.448322394862771, 7261510.0 ], [ 530516.242673087399453, 7261500.0 ], [ 530523.222194824367762, 7261490.0 ], [ 530529.988825823529623, 7261480.0 ], [ 530536.689764766488224, 7261470.000000000931323 ], [ 530543.309343022760004, 7261460.0 ], [ 530550.0, 7261450.0 ], [ 530556.690656977239996, 7261440.0 ], [ 530563.310235233511776, 7261430.0 ], [ 530570.011174176470377, 7261420.0 ], [ 530576.777805175632238, 7261410.0 ], [ 530583.757326912600547, 7261400.0 ], [ 530591.551677605137229, 7261390.0 ], [ 530600.447983889840543, 7261380.0 ], [ 530610.086255987756886, 7261370.000892210751772 ], [ 530619.999107789364643, 7261360.012066386640072 ], [ 530629.901677625137381, 7261350.099214585497975 ], [ 530639.453693735296838, 7261340.546306265518069 ], [ 530647.913190306629986, 7261332.086809693835676 ], [ 530654.243011592305265, 7261325.756988408043981 ] ] } }
]
}
