{
"type": "FeatureCollection",
"name": "crests_2025_12_2025-12-01",
"crs": { "type": "name", "properties": { "name": "urn:ogc:def:crs:EPSG::32733" } },
"features": [
{ "type": "Feature", "properties": { "id": 0, "reference_id": 9, "dune_id": 9, "dune_name": "Inverted Y Dune", "acquisition_date": "2025-12-01", "length_m": 529.68296130975523 }, "geometry": { "type": "LineString", "coordinates": [ [ 529854.243903803057037, 7261785.756988408043981 ], [ 529847.924364482983947, 7261792.086809692904353 ], [ 529839.540841933805496, 7261800.546306265518069 ], [ 529830.348769304342568, 7261810.099214585497975 ], [ 529821.539611218031496, 7261820.012066387571394 ], [ 529813.757326912716962, 7261830.000892210751772 ], [ 529806.78897935221903, 7261840.000000000931323 ], [ 529800.099214585614391, 7261850.0 ], [ 529793.768501089070924, 7261860.0 ], [ 529788.318308604415506, 7261870.0 ], [ 529784.117270393413492, 7261880.0 ], [ 529781.180559948086739, 7261890.0 ], [ 529778.831506439251825, 7261900.0 ], [ 529775.969877805095166, 7261910.0 ], [ 529772.129675285425037, 7261920.0 ], [ 529767.783176516182721, 7261930.0 ], [ 529763.659004537737928, 7261940.0 ], [ 529760.0, 7261950.0 ], [ 529756.340103251626715, 7261960.0 ], [ 529752.206541518098675, 7261970.0 ], [ 529747.793458481901325, 7261980.0 ], [ 529743.6598967484897, 7261990.0 ], [ 529739.999107789364643, 7262000.0 ], [ 529736.329821285791695, 7262010.0 ], [ 529732.130567496176809, 7262020.0 ], [ 529727.433515001204796, 7262030.0 ], [ 529722.566484998911619, 7262040.0 ], [ 529717.869432503823191, 7262050.0 ], [ 529713.670178714208305, 7262060.0 ], [ 529710.0, 7262070.0 ], [ 529706.329821285791695, 7262080.0 ], [ 529702.129675285425037, 7262090.0 ], [ 529697.423233035369776, 7262100.0 ], [ 529692.490510976873338, 7262110.0 ], [ 529687.510381233762018, 7262120.0 ], [ 529682.587048930465244, 7262130.0 ], [ 529677.9471909472486, 7262140.0 ], [ 529674.040404160739854, 7262150.0 ], [ 529671.170277982251719, 7262160.0 ], [ 529668.830614228500053, 7262170.0 ], [ 529665.970770015730523, 7262180.0 ], [ 529662.139957251260057, 7262190.0 ], [ 529657.860042748739943, 7262200.0 ], [ 529654.030122194904834, 7262210.0 ], [ 529651.180559947970323, 7262219.999107789248228 ], [ 529648.917762426892295, 7262229.987933613359928 ], [ 529646.417861694935709, 7262239.900785414502025 ], [ 529643.681352890678681, 7262249.453693735413253 ], [ 529641.541395639418624, 7262257.913190307095647 ], [ 529640.447091679205187, 7262264.243011591956019 ] ] } },
{ "type": "Feature", "properties": { "id": 1, "reference_id": 9, "dune_id": 9, "dune_name": "Inverted Y Dune", "acquisition_date": "2025-12-01", "length_m": 244.39189975773604 }, "geometry": { "type": "LineString", "coordinates": [ [ 529895.756988407694735, 7261744.243903803639114 ], [ 529902.086809693602845, 7261737.924364482983947 ], [ 529910.546306264703162, 7261729.540841934271157 ], [ 529920.099214585614391, 7261720.348769304342568 ], [ 529930.012066387222148, 7261711.539611218497157 ], [ 529940.000892210751772, 7261703.757326913066208 ], [ 529950.0, 7261696.788087141700089 ], [ 529960.0, 7261690.087148198857903 ], [ 529970.0, 7261683.671070925891399 ], [ 529980.0, 7261677.794350693002343 ], [ 529990.0, 7261672.205649306997657 ], [ 530000.0, 7261666.329821286723018 ], [ 530010.0, 7261659.924025978893042 ], [ 530020.0, 7261653.299061057157815 ], [ 530030.0, 7261646.688872557133436 ], [ 530039.999553894624114, 7261639.989271929487586 ], [ 530049.993520701071247, 7261633.228674123063684 ], [ 530059.944359513698146, 7261626.298313573934138 ], [ 530069.677239574841224, 7261618.771082820370793 ], [ 530078.683442020905204, 7261610.868574090301991 ], [ 530086.078100949409418, 7261603.834750852547586 ], [ 530091.078100949525833, 7261598.910724874585867 ] ] } },
{ "type": "Feature", "properties": { "id": 2, "reference_id": 3, "dune_id": 3, "dune_name": "Big Mommy Dune", "acquisition_date": "2025-12-01", "length_m": 363.37980365109632 }, "geometry": { "type": "LineString", "coordinates": [ [ 529374.243011592305265, 7260694.216484978795052 ], [ 529367.914082517265342, 7260698.416630979627371 ], [ 529359.464867911650799, 7260704.216484978795052 ], [ 529349.987933612894267, 7260711.639718014746904 ], [ 529340.435025291983038, 7260720.459158066660166 ], [ 529331.540503428783268, 7260730.088040409609675 ], [ 529323.681352890678681, 7260740.011174176819623 ], [ 529316.416969484300353, 7260750.000892210751772 ], [ 529308.907480461173691, 7260760.0 ], [ 529301.104585926048458, 7260770.0 ], [ 529293.670178714208305, 7260780.000000000931323 ], [ 529286.766630999278277, 7260790.0 ], [ 529280.01028196583502, 7260800.0 ], [ 529273.310235233511776, 7260810.0 ], [ 529266.690656977239996, 7260820.0 ], [ 529260.0, 7260830.0 ], [ 529253.309343022876419, 7260840.0 ], [ 529246.690656977239996, 7260850.0 ], [ 529240.0, 7260860.0 ], [ 529233.31023523339536, 7260870.0 ], [ 529226.700938943075016, 7260880.0 ], [ 529220.076866232557222, 7260890.0 ], [ 529213.680460680043325, 7260900.0 ], [ 529207.871216925210319, 7260910.0 ], [ 529202.57765917526558, 7260920.0 ], [ 529197.520663199597038, 7260930.0 ], [ 529192.577659175381996, 7260939.999553894624114 ], [ 529187.871216925210319, 7260949.993520701304078 ], [ 529183.681352890678681, 7260959.944359514862299 ], [ 529180.088040409144014, 7260969.6772395754233 ], [ 529176.788087141467258, 7260978.683442020788789 ], [ 529173.758219123352319, 7260986.078100949525833 ], [ 529171.551677605253644, 7260991.078100949525833 ] ] } },
{ "type": "Feature", "properties": { "id": 3, "reference_id": 3, "dune_id": 3, "dune_name": "Big Mommy Dune", "acquisition_date": "2025-12-01", "length_m": 438.39007684493413 }, "geometry": { "type": "LineString", "coordinates": [ [ 529405.756988407694735, 7260679.552016109228134 ], [ 529412.08680969348643, 7260678.448322394862771 ], [ 529420.546306264819577, 7260676.241780877113342 ], [ 529430.099214585614391, 7260673.211912859231234 ], [ 529440.012066387222148, 7260669.912851801142097 ], [ 529450.000892210751772, 7260666.329821285791695 ], [ 529460.0, 7260662.216823484748602 ], [ 529470.0, 7260657.880606681108475 ], [ 529480.0, 7260654.106988428160548 ], [ 529490.0, 7260651.540503429248929 ], [ 529500.000000000116415, 7260650.0111741758883 ], [ 529510.0, 7260648.546644769608974 ], [ 529520.0, 7260646.329821286723018 ], [ 529530.0, 7260643.583922727033496 ], [ 529540.0, 7260641.093411749228835 ], [ 529550.0, 7260638.906588250771165 ], [ 529560.0, 7260636.416969483718276 ], [ 529570.0, 7260633.680460680276155 ], [ 529580.0, 7260631.530221463181078 ], [ 529590.0, 7260630.35994348116219 ], [ 529600.0, 7260629.64005651883781 ], [ 529610.0, 7260628.470670747570693 ], [ 529620.0, 7260626.330713496543467 ], [ 529630.0, 7260623.670178714208305 ], [ 529640.0, 7260621.540503429248929 ], [ 529650.0, 7260620.446199468336999 ], [ 529660.0, 7260620.075974022038281 ], [ 529670.0, 7260619.924025977961719 ], [ 529680.0, 7260619.553800531663001 ], [ 529690.0, 7260618.459496571682394 ], [ 529700.0, 7260616.329821286723018 ], [ 529710.0, 7260613.670178715139627 ], [ 529720.0, 7260611.539611218497157 ], [ 529730.0, 7260610.435917503200471 ], [ 529740.0, 7260610.0 ], [ 529750.0, 7260609.564082497730851 ], [ 529760.0, 7260608.460388782434165 ], [ 529770.0, 7260606.329821286723018 ], [ 529780.0, 7260603.670178715139627 ], [ 529789.999107789364643, 7260601.540503429248929 ], [ 529799.987933612894267, 7260600.447091680020094 ], [ 529809.900785414502025, 7260600.087148198857903 ], [ 529819.453693735180423, 7260600.011174176819623 ], [ 529827.913190306629986, 7260600.000892210751772 ], [ 529834.243011592421681, 7260600.0 ] ] } },
{ "type": "Feature", "properties": { "id": 4, "reference_id": 3, "dune_id": 3, "dune_name": "Big Mommy Dune", "acquisition_date": "2025-12-01", "length_m": 262.78796707934583 }, "geometry": { "type": "LineString", "coordinates": [ [ 529975.756988407694735, 7260609.913744012825191 ], [ 529982.08680969348643, 7260609.564082497730851 ], [ 529990.546306264819577, 7260608.546644770540297 ], [ 530000.099214585614391, 7260606.776020754128695 ], [ 530010.012066387222148, 7260605.199507966637611 ], [ 530020.000892210751772, 7260605.12353394459933 ], [ 530030.0, 7260606.329821286723018 ], [ 530040.0, 7260607.006141341291368 ], [ 530050.0, 7260605.893903782591224 ], [ 530060.0, 7260603.583030516281724 ], [ 530070.0, 7260601.518155076541007 ], [ 530080.0, 7260600.359051270410419 ], [ 530090.0, 7260599.640056519769132 ], [ 530100.0, 7260598.469778537750244 ], [ 530110.0, 7260596.319539319723845 ], [ 530120.0, 7260593.583030516281724 ], [ 530130.0, 7260591.093411749228835 ], [ 530140.0, 7260588.906588250771165 ], [ 530150.0, 7260586.416969484649599 ], [ 530160.0, 7260583.680460680276155 ], [ 530170.000000000116415, 7260581.530221463181078 ], [ 530180.0, 7260580.35994348116219 ], [ 530189.999107789248228, 7260579.64005651883781 ], [ 530199.987933612894267, 7260578.470670748502016 ], [ 530209.900785414502025, 7260576.33071349747479 ], [ 530219.453693735296838, 7260573.670178715139627 ], [ 530227.91319030651357, 7260571.540503429248929 ], [ 530234.243011592421681, 7260570.447091680020094 ] ] } },
{ "type": "Feature", "properties": { "id": 5, "reference_id": 5, "dune_id": 5, "dune_name": "The Star Dune", "acquisition_date": "2025-12-01", "length_m": 1144.7276191969954 }, "geometry": { "type": "LineString", "coordinates": [ [ 534334.342226177919656, 7261305.756988408043981 ], [ 534328.459496571333148, 7261312.086809693835676 ], [ 534321.540503428666852, 7261320.546306264586747 ], [ 534315.657773822080344, 7261330.099214585497975 ], [ 534312.075635517016053, 7261340.012066386640072 ], [ 534310.556588230538182, 7261350.000892210751772 ], [ 534310.186362784006633, 7261360.0 ], [ 534310.45915806631092, 7261370.0 ], [ 534311.541395639418624, 7261380.0 ], [ 534313.670178714208305, 7261390.0 ], [ 534316.329821285791695, 7261400.0 ], [ 534318.459496571216732, 7261410.0 ], [ 534319.553800531546585, 7261420.0 ], [ 534319.924025978078134, 7261430.0 ], [ 534320.075974021921866, 7261440.0 ], [ 534320.446199468453415, 7261450.0 ], [ 534321.540503428666852, 7261460.0 ], [ 534323.669286503572948, 7261470.000000000931323 ], [ 534326.318647109321319, 7261480.0 ], [ 534328.37234837282449, 7261490.0 ], [ 534329.105816641706042, 7261500.0 ], [ 534328.371456162189133, 7261510.0 ], [ 534326.306580722215585, 7261520.0 ], [ 534323.570071917958558, 7261530.0 ], [ 534320.99419716396369, 7261540.0 ], [ 534318.360281985718757, 7261549.999107789248228 ], [ 534314.330159790813923, 7261559.9888258241117 ], [ 534307.924364482983947, 7261569.912851802073419 ], [ 534299.454585945932195, 7261579.552016110159457 ], [ 534289.900785414502025, 7261588.448322394862771 ], [ 534279.987933612894267, 7261596.241780877113342 ], [ 534269.999107789248228, 7261603.211912859231234 ], [ 534260.0, 7261609.912851801142097 ], [ 534250.0, 7261616.329821286723018 ], [ 534240.0, 7261622.215931273065507 ], [ 534230.0, 7261627.870324715040624 ], [ 534220.0, 7261634.030122195370495 ], [ 534210.0, 7261641.168493561446667 ], [ 534200.0, 7261648.818547842092812 ], [ 534190.0, 7261655.872447641566396 ], [ 534180.0, 7261661.605717374011874 ], [ 534170.0, 7261665.871555430814624 ], [ 534160.0, 7261668.80737366527319 ], [ 534150.0, 7261671.081345362588763 ], [ 534140.0, 7261673.582138305529952 ], [ 534130.0, 7261676.318647108972073 ], [ 534120.0, 7261678.459496570751071 ], [ 534110.0, 7261679.564082497730851 ], [ 534100.0, 7261680.0 ], [ 534090.0, 7261680.435917503200471 ], [ 534080.0, 7261681.539611218497157 ], [ 534070.0, 7261683.670178715139627 ], [ 534060.0, 7261686.329821286723018 ], [ 534050.0, 7261688.460388783365488 ], [ 534040.0, 7261689.564082497730851 ], [ 534030.0, 7261690.0 ], [ 534020.0, 7261690.435917503200471 ], [ 534010.0, 7261691.540503429248929 ], [ 534000.0, 7261693.681352891027927 ], [ 533990.0, 7261696.416969484649599 ], [ 533980.0, 7261698.906588250771165 ], [ 533970.0, 7261701.094303959980607 ], [ 533960.0, 7261703.594204692170024 ], [ 533950.0, 7261706.406687518581748 ], [ 533940.0, 7261708.916870215907693 ], [ 533930.0, 7261711.181452158838511 ], [ 533920.0, 7261714.041296371258795 ], [ 533910.0, 7261717.947190947830677 ], [ 533900.0, 7261722.58704893104732 ], [ 533890.0, 7261727.511273444630206 ], [ 533880.0, 7261732.500792942941189 ], [ 533870.0, 7261737.500099267810583 ], [ 533860.0, 7261742.499900732189417 ], [ 533850.0, 7261747.500099267810583 ], [ 533840.0, 7261752.500792942941189 ], [ 533830.0, 7261757.511273443698883 ], [ 533820.0, 7261762.587941141799092 ], [ 533810.000892210635357, 7261767.958365123718977 ], [ 533800.011174176470377, 7261774.128444570116699 ], [ 533790.088040409144014, 7261781.628543838858604 ], [ 533780.458265855675563, 7261790.458265855908394 ], [ 533771.628543837810867, 7261800.088040409609675 ], [ 533764.129336780519225, 7261810.011174177750945 ], [ 533757.969539300072938, 7261820.000892210751772 ], [ 533752.675089339609258, 7261830.0 ], [ 533747.958365123602562, 7261840.000000000931323 ], [ 533744.041296371375211, 7261850.0 ], [ 533741.170277982251719, 7261860.0 ], [ 533738.829722017864697, 7261870.0 ], [ 533735.959595839260146, 7261880.0 ], [ 533732.052809052867815, 7261890.0 ], [ 533727.412951069651172, 7261900.0 ], [ 533722.488726555602625, 7261910.0 ], [ 533717.499207057291642, 7261920.0 ], [ 533712.499900731956586, 7261930.0 ], [ 533707.499207057408057, 7261940.0 ], [ 533702.489618766237982, 7261950.0 ], [ 533697.423233035369776, 7261960.0 ], [ 533692.129675285541452, 7261970.0 ], [ 533686.329821285791695, 7261980.0 ], [ 533680.0, 7261989.999553894624114 ], [ 533673.671070924960077, 7261999.993520701304078 ], [ 533667.881498891045339, 7262009.944359513930976 ], [ 533662.664807373774238, 7262019.677239574491978 ], [ 533657.968647089437582, 7262028.683442020788789 ], [ 533654.129336780519225, 7262036.078100949525833 ], [ 533651.628543837927282, 7262041.078100949525833 ] ] } },
{ "type": "Feature", "properties": { "id": 6, "reference_id": 6, "dune_id": 6, "dune_name": "The Star Dune", "acquisition_date": "2025-12-01", "length_m": 748.41828295765265 }, "geometry": { "type": "LineString", "coordinates": [ [ 533650.0, 7262048.921899050474167 ], [ 533650.0, 7262053.921899050474167 ], [ 533650.0, 7262061.316557979211211 ], [ 533650.0, 7262070.322760425508022 ], [ 533650.0, 7262080.055640487000346 ], [ 533650.0, 7262090.006479298695922 ], [ 533650.0, 7262100.000446105375886 ], [ 533650.0, 7262110.0 ], [ 533650.0, 7262120.0 ], [ 533650.000892210751772, 7262130.0 ], [ 533650.011174176470377, 7262140.0 ], [ 533650.087148198508658, 7262150.0 ], [ 533650.447091679205187, 7262160.0 ], [ 533651.540503428783268, 7262170.0 ], [ 533653.670178714208305, 7262180.0 ], [ 533656.329821285791695, 7262190.0 ], [ 533658.460388781968504, 7262200.0 ], [ 533659.56408249726519, 7262210.0 ], [ 533660.0, 7262220.0 ], [ 533660.43591750273481, 7262230.0 ], [ 533661.539611218031496, 7262240.0 ], [ 533663.670178714208305, 7262250.0 ], [ 533666.329821285791695, 7262260.0 ], [ 533668.459496571333148, 7262270.0 ], [ 533669.552908320911229, 7262280.0 ], [ 533669.912851801607758, 7262290.0 ], [ 533669.988825823646039, 7262300.0 ], [ 533669.999107789364643, 7262310.0 ], [ 533670.0, 7262320.0 ], [ 533670.0, 7262330.0 ], [ 533669.999107789364643, 7262340.000000000931323 ], [ 533669.988825823646039, 7262350.0 ], [ 533669.912851801607758, 7262360.0 ], [ 533669.552016110159457, 7262370.0 ], [ 533668.448322394862771, 7262380.0 ], [ 533666.242673087399453, 7262390.0 ], [ 533663.223087035119534, 7262400.0 ], [ 533659.999107789248228, 7262410.0 ], [ 533656.765738788526505, 7262420.0 ], [ 533653.670178714208305, 7262430.0 ], [ 533651.103693715413101, 7262440.0 ], [ 533648.896306284703314, 7262450.0 ], [ 533646.329821285791695, 7262460.0 ], [ 533643.233369000838138, 7262470.0 ], [ 533639.989718034281395, 7262480.0 ], [ 533636.68976476660464, 7262490.0 ], [ 533633.310235233511776, 7262500.0 ], [ 533630.01028196583502, 7262510.0 ], [ 533626.766630999161862, 7262520.0 ], [ 533623.670178714208305, 7262530.0 ], [ 533621.104585925932042, 7262540.0 ], [ 533618.907480461173691, 7262550.0 ], [ 533616.416077273664996, 7262560.0 ], [ 533613.670178714208305, 7262570.0 ], [ 533611.454247441026382, 7262580.0 ], [ 533610.0, 7262590.0 ], [ 533608.54664476972539, 7262600.000000000931323 ], [ 533606.340995462378487, 7262610.0 ], [ 533603.671070924960077, 7262620.0 ], [ 533601.540503428783268, 7262630.0 ], [ 533600.44619946856983, 7262640.0 ], [ 533600.075974022038281, 7262650.0 ], [ 533599.924025978078134, 7262660.0 ], [ 533599.553800531546585, 7262670.0 ], [ 533598.459496571216732, 7262680.0 ], [ 533596.329821285791695, 7262690.0 ], [ 533593.670178714208305, 7262700.0 ], [ 533591.539611218031496, 7262710.0 ], [ 533590.43591750273481, 7262720.0 ], [ 533590.0, 7262730.0 ], [ 533589.56408249726519, 7262739.999107789248228 ], [ 533588.460388781968504, 7262749.987933613359928 ], [ 533586.329821285791695, 7262759.900785414502025 ], [ 533583.670178714208305, 7262769.453693735413253 ], [ 533581.540503428783268, 7262777.913190307095647 ], [ 533580.447091679205187, 7262784.243011591956019 ] ] } },
{ "type": "Feature", "properties": { "id": 7, "reference_id": 1, "dune_id": 1, "dune_name": "Big Mommy Dune", "acquisition_date": "2025-12-01", "length_m": 1206.7747773264102 }, "geometry": { "type": "LineString", "coordinates": [ [ 529180.0, 7261035.756988408043981 ], [ 529180.0, 7261042.086809693835676 ], [ 529180.0, 7261050.546306265518069 ], [ 529179.999107789364643, 7261060.099214585497975 ], [ 529179.988825823529623, 7261070.012066387571394 ], [ 529179.912851801607758, 7261080.000892210751772 ], [ 529179.552016110159457, 7261090.0 ], [ 529178.448322394862771, 7261100.0 ], [ 529176.242673087399453, 7261110.0 ], [ 529173.222194824367762, 7261120.000000000931323 ], [ 529169.988825823529623, 7261130.0 ], [ 529166.689764766488224, 7261140.0 ], [ 529163.309343022760004, 7261150.0 ], [ 529160.0, 7261160.0 ], [ 529156.690656977239996, 7261170.0 ], [ 529153.309343022760004, 7261180.0 ], [ 529150.0, 7261190.0 ], [ 529146.689764766488224, 7261200.0 ], [ 529143.299061056924984, 7261210.000000000931323 ], [ 529139.924025978078134, 7261220.0 ], [ 529136.329821285791695, 7261230.0 ], [ 529132.205649307463318, 7261240.0 ], [ 529127.793458481901325, 7261250.0 ], [ 529123.6598967484897, 7261260.0 ], [ 529119.999107789364643, 7261270.0 ], [ 529116.329821285791695, 7261280.0 ], [ 529112.129675285541452, 7261290.0 ], [ 529107.423233035369776, 7261300.0 ], [ 529102.490510976873338, 7261310.000000000931323 ], [ 529097.509489023126662, 7261320.0 ], [ 529092.576766964746639, 7261330.0 ], [ 529087.871216925210319, 7261340.0 ], [ 529083.680460680043325, 7261350.0 ], [ 529080.076866232557222, 7261360.0 ], [ 529076.700938943075016, 7261370.0 ], [ 529073.310235233511776, 7261380.0 ], [ 529070.0, 7261390.0 ], [ 529066.68976476660464, 7261400.0 ], [ 529063.299061057041399, 7261410.0 ], [ 529059.924025978078134, 7261420.0 ], [ 529056.329821285791695, 7261430.0 ], [ 529052.205649307463318, 7261440.0 ], [ 529047.794350692536682, 7261450.0 ], [ 529043.671070924843661, 7261460.0 ], [ 529040.086255987756886, 7261470.000000000931323 ], [ 529036.776912964996882, 7261480.0 ], [ 529033.671070924960077, 7261490.0 ], [ 529031.104585926048458, 7261500.0 ], [ 529028.907480461173691, 7261510.0 ], [ 529026.416969484183937, 7261520.0 ], [ 529023.680460680043325, 7261530.0 ], [ 529021.530221462948248, 7261540.0 ], [ 529020.359943480812944, 7261550.0 ], [ 529019.640056519303471, 7261560.000000000931323 ], [ 529018.470670747803524, 7261570.0 ], [ 529016.330713496543467, 7261580.0 ], [ 529013.670178714208305, 7261590.0 ], [ 529011.540503428783268, 7261600.0 ], [ 529010.447983889840543, 7261610.0 ], [ 529010.098322374979034, 7261620.0 ], [ 529010.098322374979034, 7261630.0 ], [ 529010.447983889840543, 7261640.0 ], [ 529011.541395639418624, 7261650.0 ], [ 529013.681352890795097, 7261660.0 ], [ 529016.417861694935709, 7261670.0 ], [ 529018.918654637644067, 7261680.0 ], [ 529021.1917341244407, 7261690.0 ], [ 529024.118162604048848, 7261700.0 ], [ 529028.318308604415506, 7261710.0 ], [ 529033.767608878435567, 7261720.0 ], [ 529040.088040409144014, 7261730.000000000931323 ], [ 529046.700938942958601, 7261740.0 ], [ 529053.299953267676756, 7261750.0 ], [ 529059.923133767442778, 7261760.0 ], [ 529066.31953932007309, 7261770.0 ], [ 529072.128783074789681, 7261780.0 ], [ 529077.423233035369776, 7261790.0 ], [ 529082.489618766237982, 7261800.0 ], [ 529087.498314846656285, 7261810.0 ], [ 529092.487834344850853, 7261820.0 ], [ 529097.400884682429023, 7261830.0 ], [ 529101.953594467253424, 7261840.000000000931323 ], [ 529105.412397363921627, 7261850.0 ], [ 529106.732630358543247, 7261860.0 ], [ 529105.336423341883346, 7261870.0 ], [ 529101.58336902083829, 7261880.0 ], [ 529096.23060670029372, 7261890.0 ], [ 529089.987041402142495, 7261900.0 ], [ 529083.659004537737928, 7261910.0 ], [ 529077.79345848178491, 7261920.0 ], [ 529072.20654151821509, 7261930.0 ], [ 529066.340103251626715, 7261940.0 ], [ 529060.000892210751772, 7261950.0 ], [ 529053.670178714208305, 7261960.0 ], [ 529047.869432503823191, 7261970.0 ], [ 529042.566484998911619, 7261980.0 ], [ 529037.434407211840153, 7261990.0 ], [ 529032.141741672763601, 7262000.0 ], [ 529026.416969484183937, 7262010.0 ], [ 529020.447091679205187, 7262020.0 ], [ 529015.210682142991573, 7262030.0 ], [ 529011.540503428783268, 7262040.0 ], [ 529008.906588250421919, 7262050.0 ], [ 529005.968985594459809, 7262060.0 ], [ 529002.043419297784567, 7262070.0 ], [ 528997.336084836977534, 7262080.0 ], [ 528992.118501108954661, 7262090.0 ], [ 528986.329821285791695, 7262100.0 ], [ 528980.011174176586792, 7262109.999107789248228 ], [ 528973.758219123352319, 7262119.987933613359928 ], [ 528968.328590570250526, 7262129.900785414502025 ], [ 528964.205310802557506, 7262139.453693735413253 ], [ 528961.638825803645886, 7262147.913190307095647 ], [ 528960.459158066427335, 7262154.243011591956019 ] ] } },
{ "type": "Feature", "properties": { "id": 8, "reference_id": 2, "dune_id": 2, "dune_name": "Big Mommy Dune", "acquisition_date": "2025-12-01", "length_m": 350.12278775392082 }, "geometry": { "type": "LineString", "coordinates": [ [ 528724.243011592421681, 7260835.881837395951152 ], [ 528717.91319030651357, 7260832.118501109071076 ], [ 528709.453693735180423, 7260827.782284305430949 ], [ 528699.900785414502025, 7260823.659004538320005 ], [ 528689.987933612894267, 7260819.999107789248228 ], [ 528679.999107789364643, 7260816.329821285791695 ], [ 528670.0, 7260812.129675285890698 ], [ 528660.0, 7260807.422340825200081 ], [ 528650.0, 7260802.479336800053716 ], [ 528640.0, 7260797.422340825200081 ], [ 528630.0, 7260792.129675285890698 ], [ 528620.0, 7260786.329821286723018 ], [ 528610.0, 7260779.999107790179551 ], [ 528600.0, 7260773.659896748140454 ], [ 528590.0, 7260767.793458482250571 ], [ 528580.0, 7260762.205649306997657 ], [ 528570.0, 7260756.329821286723018 ], [ 528560.0, 7260749.924025977961719 ], [ 528550.0, 7260743.299061057157815 ], [ 528540.0, 7260736.688872556202114 ], [ 528530.0, 7260729.989718034863472 ], [ 528520.0, 7260723.233369001187384 ], [ 528510.0, 7260716.329821286723018 ], [ 528500.0, 7260708.896306284703314 ], [ 528490.0, 7260701.103693716228008 ], [ 528480.0, 7260693.670178715139627 ], [ 528470.000892210751772, 7260686.766630999743938 ], [ 528460.012066387105733, 7260680.0111741758883 ], [ 528450.099214585614391, 7260673.322301620617509 ], [ 528440.546306264819577, 7260666.788979352451861 ], [ 528432.08680969348643, 7260660.535132088698447 ], [ 528425.756988407694735, 7260655.309004518203437 ] ] } },
{ "type": "Feature", "properties": { "id": 9, "reference_id": 8, "dune_id": 8, "dune_name": "Inverted Y Dune", "acquisition_date": "2025-12-01", "length_m": 483.94744585829176 }, "geometry": { "type": "LineString", "coordinates": [ [ 530096.835089357104152, 7261591.078100949525833 ], [ 530098.164910642895848, 7261586.078100949525833 ], [ 530099.229748285608366, 7261578.683442020788789 ], [ 530099.776454160455614, 7261569.6772395754233 ], [ 530099.956425900803879, 7261559.944359513930976 ], [ 530099.995305122458376, 7261549.993520701304078 ], [ 530100.010728071210906, 7261539.999553894624114 ], [ 530100.087148198508658, 7261530.0 ], [ 530100.447091679205187, 7261520.0 ], [ 530101.540503428783268, 7261510.0 ], [ 530103.670178714208305, 7261500.0 ], [ 530106.329821285791695, 7261490.0 ], [ 530108.460388781968504, 7261480.0 ], [ 530109.564082497381605, 7261470.000000000931323 ], [ 530110.0, 7261460.0 ], [ 530110.43591750273481, 7261450.0 ], [ 530111.540503428666852, 7261440.0 ], [ 530113.681352890678681, 7261430.0 ], [ 530116.416969484300353, 7261420.0 ], [ 530118.907480461173691, 7261410.0 ], [ 530121.104585926048458, 7261400.0 ], [ 530123.671070924960077, 7261390.0 ], [ 530126.776912964996882, 7261380.0 ], [ 530130.087148198392242, 7261370.0 ], [ 530133.681352890678681, 7261360.0 ], [ 530137.871216925326735, 7261350.0 ], [ 530142.577659175381996, 7261340.0 ], [ 530147.521555410232395, 7261330.0 ], [ 530152.588833351852372, 7261320.0 ], [ 530157.958365123718977, 7261310.000000000931323 ], [ 530164.128444569883868, 7261300.0 ], [ 530171.628543837927282, 7261290.000892210751772 ], [ 530180.458265855675563, 7261280.0111741758883 ], [ 530190.088040409144014, 7261270.088040409609675 ], [ 530200.011174176586792, 7261260.458265855908394 ], [ 530210.000892210751772, 7261251.628543837927282 ], [ 530220.0, 7261244.128444569185376 ], [ 530230.0, 7261237.958365123718977 ], [ 530240.0, 7261232.588833352550864 ], [ 530250.0, 7261227.522447621449828 ], [ 530260.0, 7261222.588833352550864 ], [ 530269.999107789364643, 7261217.958365123718977 ], [ 530279.987933612894267, 7261214.128444571048021 ], [ 530289.900785414385609, 7261211.628543838858604 ], [ 530299.453693735296838, 7261210.458265855908394 ], [ 530307.91319030651357, 7261210.088040409609675 ], [ 530314.243011592421681, 7261210.011174176819623 ] ] } },
{ "type": "Feature", "properties": { "id": 10, "reference_id": 8, "dune_id": 8, "dune_name": "Inverted Y Dune", "acquisition_date": "2025-12-01", "length_m": 168.52123980137287 }, "geometry": { "type": "LineString", "coordinates": [ [ 530554.243011592305265, 7261171.639718014746904 ], [ 530547.91319030651357, 7261174.21559276804328 ], [ 530539.453693735296838, 7261178.404564592055976 ], [ 530529.900785414385609, 7261184.117270393297076 ], [ 530519.987933612894267, 7261191.093411749228835 ], [ 530509.999107789248228, 7261198.372348371893167 ], [ 530500.0, 7261204.331052001565695 ], [ 530490.0, 7261207.924364482983947 ], [ 530480.0, 7261209.454585946165025 ], [ 530470.0, 7261209.900785414502025 ], [ 530460.0, 7261209.987933613359928 ], [ 530450.0, 7261209.999107790179551 ], [ 530440.000892210751772, 7261210.000000000931323 ], [ 530430.012066387222148, 7261210.000000000931323 ], [ 530420.099214585614391, 7261210.000000000931323 ], [ 530410.546306264819577, 7261210.000000000931323 ], [ 530402.08680969348643, 7261210.000000000931323 ], [ 530395.756988407694735, 7261210.000000000931323 ] ] } },
{ "type": "Feature", "properties": { "id": 11, "reference_id": 4, "dune_id": 4, "dune_name": "The Star Dune", "acquisition_date": "2025-12-01", "length_m": 132.4234364472413 }, "geometry": { "type": "LineString", "coordinates": [ [ 533344.243011592421681, 7261949.999107789248228 ], [ 533337.91319030651357, 7261949.9888258241117 ], [ 533329.453693735296838, 7261949.912851801142097 ], [ 533319.900785414385609, 7261949.552908321842551 ], [ 533309.987933612894267, 7261948.458604359999299 ], [ 533299.999107789364643, 7261946.318647108972073 ], [ 533290.0, 7261943.583030516281724 ], [ 533280.0, 7261941.092519538477063 ], [ 533270.0, 7261938.895414073951542 ], [ 533260.000892210751772, 7261936.329821286723018 ], [ 533250.012066387222148, 7261933.234261211007833 ], [ 533240.099214585730806, 7261930.000892210751772 ], [ 533230.546306264819577, 7261926.776912964880466 ], [ 533222.08680969348643, 7261923.757326913066208 ], [ 533215.756988407694735, 7261921.551677605137229 ] ] } },
{ "type": "Feature", "properties": { "id": 12, "reference_id": 7, "dune_id": 7, "dune_name": "Inverted Y Dune", "acquisition_date": "2025-12-01", "length_m": 50.072140677206946 }, "geometry": { "type": "LineString", "coordinates": [ [ 530135.756988407694735, 7261641.539611218497157 ], [ 530142.085917482851073, 7261643.659004538320005 ], [ 530150.534239877713844, 7261646.242673087865114 ], [ 530160.0, 7261648.012404892593622 ], [ 530169.465760122402571, 7261648.012404892593622 ], [ 530177.914082517148927, 7261646.242673087865114 ], [ 530184.243011592421681, 7261643.659004538320005 ] ] } },
{ "type": "Feature", "properties": { "id": 13, "reference_id": 7, "dune_id": 7, "dune_name": "Inverted Y Dune", "acquisition_date": "2025-12-01", "length_m": 517.95123295482301 }, "geometry": { "type": "LineString", "coordinates": [ [ 530265.756988407694735, 7261639.9888258241117 ], [ 530272.08680969348643, 7261639.912851801142097 ], [ 530280.546306264819577, 7261639.552016111090779 ], [ 530290.099214585614391, 7261638.448322394862771 ], [ 530300.012066387222148, 7261636.241780877113342 ], [ 530310.000892210751772, 7261633.211912858299911 ], [ 530320.0, 7261629.912851801142097 ], [ 530330.0, 7261626.328929075039923 ], [ 530340.0, 7261622.205649307928979 ], [ 530350.0, 7261617.793458482250571 ], [ 530360.0, 7261613.659896748140454 ], [ 530370.0, 7261609.999107789248228 ], [ 530380.0, 7261606.328929075039923 ], [ 530390.0, 7261602.11939332075417 ], [ 530400.0, 7261597.346366802230477 ], [ 530410.0, 7261592.118501108139753 ], [ 530420.0, 7261586.317754898220301 ], [ 530430.000000000116415, 7261579.911959591321647 ], [ 530440.0, 7261573.211912859231234 ], [ 530450.0, 7261566.241780877113342 ], [ 530460.0, 7261558.448322394862771 ], [ 530469.999107789364643, 7261549.552016110159457 ], [ 530479.988825823529623, 7261539.912851801142097 ], [ 530489.912851801607758, 7261529.9888258241117 ], [ 530499.552016110159457, 7261519.999107789248228 ], [ 530508.448322394862771, 7261510.0 ], [ 530516.242673087399453, 7261500.0 ], [ 530523.222194824367762, 7261490.0 ], [ 530529.988825823529623, 7261480.0 ], [ 530536.689764766488224, 7261470.000000000931323 ], [ 530543.309343022760004, 7261460.0 ], [ 530550.0, 7261450.0 ], [ 530556.690656977239996, 7261440.0 ], [ 530563.310235233511776, 7261430.0 ], [ 530570.011174176470377, 7261420.0 ], [ 530576.777805175632238, 7261410.0 ], [ 530583.757326912600547, 7261400.0 ], [ 530591.551677605137229, 7261390.0 ], [ 530600.447983889840543, 7261380.0 ], [ 530610.086255987756886, 7261370.000892210751772 ], [ 530619.999107789364643, 7261360.012066386640072 ], [ 530629.901677625137381, 7261350.099214585497975 ], [ 530639.453693735296838, 7261340.546306265518069 ], [ 530647.913190306629986, 7261332.086809693835676 ], [ 530654.243011592305265, 7261325.756988408043981 ] ] } }
]
}
