{
"type": "FeatureCollection",
"name": "crests_2022_07_2022-07-08",
"crs": { "type": "name", "properties": { "name": "urn:ogc:def:crs:EPSG::32733" } },
"features": [
{ "type": "Feature", "properties": { "id": 0, "reference_id": 6, "dune_id": 6, "dune_name": "The Star Dune", "acquisition_date": "2022-07-08", "length_m": 318.28102854290432 }, "geometry": { "type": "LineString", "coordinates": [ [ 533561.628543837810867, 7262834.243011592887342 ], [ 533564.128444569883868, 7262827.913190307095647 ], [ 533567.957472912967205, 7262819.453693736344576 ], [ 533572.576766964746639, 7262809.900785414502025 ], [ 533577.423233035369776, 7262799.987933613359928 ], [ 533582.04252708714921, 7262789.999107789248228 ], [ 533585.872447640867904, 7262780.0 ], [ 533588.38263033865951, 7262770.0 ], [ 533589.628882342716679, 7262760.0 ], [ 533590.359051270061173, 7262750.0 ], [ 533591.529329252196476, 7262740.0 ], [ 533593.669286503456533, 7262730.0 ], [ 533596.329821285791695, 7262720.0 ], [ 533598.459496571216732, 7262710.0 ], [ 533599.553800531546585, 7262700.0 ], [ 533599.924025978078134, 7262690.0 ], [ 533600.075974022038281, 7262680.0 ], [ 533600.44619946856983, 7262670.0 ], [ 533601.540503428783268, 7262660.0 ], [ 533603.671070924960077, 7262650.0 ], [ 533606.340995462378487, 7262640.0 ], [ 533608.54664476972539, 7262630.0 ], [ 533610.0, 7262620.0 ], [ 533611.454247441026382, 7262610.0 ], [ 533613.670178714208305, 7262600.000000000931323 ], [ 533616.416077273664996, 7262590.0 ], [ 533618.906588250421919, 7262580.0 ], [ 533621.093411749578081, 7262570.000892210751772 ], [ 533623.583030515699647, 7262560.012066387571394 ], [ 533626.318647109321319, 7262550.099214585497975 ], [ 533628.458604360581376, 7262540.546306264586747 ], [ 533629.552908320794813, 7262532.086809693835676 ], [ 533629.912851801607758, 7262525.756988408043981 ] ] } },
{ "type": "Feature", "properties": { "id": 1, "reference_id": 6, "dune_id": 6, "dune_name": "The Star Dune", "acquisition_date": "2022-07-08", "length_m": 424.37221211784339 }, "geometry": { "type": "LineString", "coordinates": [ [ 533650.011174176470377, 7262484.243011592887342 ], [ 533650.087148198508658, 7262477.913190307095647 ], [ 533650.447983889956959, 7262469.453693735413253 ], [ 533651.551677605253644, 7262459.900785414502025 ], [ 533653.757326912600547, 7262449.987933613359928 ], [ 533656.776912964996882, 7262439.999107789248228 ], [ 533660.0, 7262430.0 ], [ 533663.223087035119534, 7262420.0 ], [ 533666.242673087399453, 7262410.0 ], [ 533668.449214605498128, 7262400.0 ], [ 533669.563190286629833, 7262390.0 ], [ 533670.0, 7262380.0 ], [ 533670.43591750273481, 7262370.0 ], [ 533671.538719007279724, 7262360.0 ], [ 533673.659004537737928, 7262350.0 ], [ 533676.242673087399453, 7262340.000000000931323 ], [ 533678.012404892127961, 7262330.0 ], [ 533678.012404892127961, 7262320.0 ], [ 533676.242673087399453, 7262310.0 ], [ 533673.659004537737928, 7262300.0 ], [ 533671.538719007279724, 7262290.0 ], [ 533670.43591750273481, 7262280.0 ], [ 533670.0, 7262270.0 ], [ 533669.56408249726519, 7262260.0 ], [ 533668.460388781968504, 7262250.0 ], [ 533666.329821285791695, 7262240.0 ], [ 533663.670178714208305, 7262230.0 ], [ 533661.540503428783268, 7262220.0 ], [ 533660.447091679088771, 7262210.0 ], [ 533660.087148198392242, 7262200.0 ], [ 533660.011174176470377, 7262190.0 ], [ 533660.000892210751772, 7262180.0 ], [ 533660.0, 7262170.0 ], [ 533660.0, 7262160.0 ], [ 533660.0, 7262150.0 ], [ 533660.0, 7262140.0 ], [ 533660.0, 7262130.0 ], [ 533659.999107789248228, 7262120.0 ], [ 533659.988825823529623, 7262110.000892210751772 ], [ 533659.912851801607758, 7262100.012066387571394 ], [ 533659.552908320911229, 7262090.099214586429298 ], [ 533658.459496571216732, 7262080.546306265518069 ], [ 533656.329821285791695, 7262072.086809692904353 ], [ 533653.670178714208305, 7262065.756988408043981 ] ] } },
{ "type": "Feature", "properties": { "id": 2, "reference_id": 5, "dune_id": 5, "dune_name": "The Star Dune", "acquisition_date": "2022-07-08", "length_m": 1025.3712146098437 }, "geometry": { "type": "LineString", "coordinates": [ [ 533651.638825803645886, 7262041.078100949525833 ], [ 533654.20531080244109, 7262036.078100949525833 ], [ 533658.329482780769467, 7262028.683442020788789 ], [ 533663.768501089187339, 7262019.677239574491978 ], [ 533670.088040409144014, 7262009.944359513930976 ], [ 533676.701831153710373, 7261999.993520701304078 ], [ 533683.310235233511776, 7261989.999553894624114 ], [ 533690.0, 7261980.0 ], [ 533696.68976476660464, 7261970.0 ], [ 533703.299061057041399, 7261960.0 ], [ 533709.923133767326362, 7261950.0 ], [ 533716.319539319956675, 7261940.0 ], [ 533722.128783074906096, 7261930.0 ], [ 533727.42234082473442, 7261920.0 ], [ 533732.478444589767605, 7261910.0 ], [ 533737.4120588588994, 7261900.0 ], [ 533742.052809052867815, 7261890.0 ], [ 533745.958703628624789, 7261880.0 ], [ 533748.819440052029677, 7261870.0 ], [ 533751.093411749578081, 7261860.0 ], [ 533753.670178714208305, 7261850.0 ], [ 533756.777805175748654, 7261840.000000000931323 ], [ 533760.098322374979034, 7261830.0 ], [ 533763.769393299822696, 7261820.000892210751772 ], [ 533768.329482780769467, 7261810.011174177750945 ], [ 533774.20531080244109, 7261800.088040409609675 ], [ 533781.638825803645886, 7261790.458265855908394 ], [ 533790.459158066427335, 7261781.628543838858604 ], [ 533800.088040409144014, 7261774.128444570116699 ], [ 533810.011174176470377, 7261767.958365123718977 ], [ 533820.000892210635357, 7261762.587941141799092 ], [ 533830.0, 7261757.511273443698883 ], [ 533840.0, 7261752.500792942941189 ], [ 533850.0, 7261747.500099267810583 ], [ 533860.0, 7261742.499900732189417 ], [ 533870.0, 7261737.500099267810583 ], [ 533880.0, 7261732.500792942941189 ], [ 533890.0, 7261727.511273444630206 ], [ 533900.0, 7261722.58704893104732 ], [ 533910.0, 7261717.947190947830677 ], [ 533920.0, 7261714.041296371258795 ], [ 533930.0, 7261711.180559948086739 ], [ 533940.0, 7261708.906588250771165 ], [ 533950.0, 7261706.330713496543467 ], [ 533960.0, 7261703.234261211939156 ], [ 533970.0, 7261700.000892210751772 ], [ 533980.0, 7261696.776912965811789 ], [ 533990.0, 7261693.756434702314436 ], [ 534000.0, 7261691.540503429248929 ], [ 534010.0, 7261690.360835691913962 ], [ 534020.0, 7261689.64005651883781 ], [ 534030.0, 7261688.470670748502016 ], [ 534040.0, 7261686.33071349747479 ], [ 534050.0, 7261683.669286504387856 ], [ 534060.0, 7261681.529329252429307 ], [ 534070.0, 7261680.35994348116219 ], [ 534080.0, 7261679.640056519769132 ], [ 534090.0, 7261678.470670748502016 ], [ 534100.0, 7261676.330713496543467 ], [ 534110.0, 7261673.669286503456533 ], [ 534120.0, 7261671.529329252429307 ], [ 534130.0, 7261670.359051270410419 ], [ 534140.0, 7261669.62888234294951 ], [ 534150.0, 7261668.383522549644113 ], [ 534160.0, 7261665.882729606702924 ], [ 534170.0, 7261662.117608898319304 ], [ 534180.0, 7261657.772002339363098 ], [ 534190.0, 7261653.582138305529952 ], [ 534200.0, 7261649.62799013312906 ], [ 534210.0, 7261645.149261338636279 ], [ 534220.0, 7261639.552908320911229 ], [ 534230.0, 7261633.222194824367762 ], [ 534240.0, 7261626.678590590134263 ], [ 534250.0, 7261619.987933613359928 ], [ 534260.0, 7261613.222194824367762 ], [ 534269.999107789248228, 7261606.242673087865114 ], [ 534279.987933612894267, 7261598.448322394862771 ], [ 534289.900785414502025, 7261589.552016110159457 ], [ 534299.454585945932195, 7261579.912851802073419 ], [ 534307.924364482983947, 7261569.9888258241117 ], [ 534314.330159790813923, 7261559.999107790179551 ], [ 534318.360281985718757, 7261550.0 ], [ 534320.99419716396369, 7261540.0 ], [ 534323.570964128593914, 7261530.0 ], [ 534326.317754898685962, 7261520.0 ], [ 534328.458604360581376, 7261510.0 ], [ 534329.552908320794813, 7261500.0 ], [ 534329.912851801607758, 7261490.0 ], [ 534329.988825823529623, 7261480.0 ], [ 534329.999107789364643, 7261470.000000000931323 ], [ 534330.0, 7261460.000892210751772 ], [ 534330.0, 7261450.012066386640072 ], [ 534330.0, 7261440.099214585497975 ], [ 534330.0, 7261430.546306265518069 ], [ 534330.0, 7261422.086809692904353 ], [ 534330.0, 7261415.756988408043981 ] ] } },
{ "type": "Feature", "properties": { "id": 3, "reference_id": 3, "dune_id": 3, "dune_name": "Big Mommy Dune", "acquisition_date": "2022-07-08", "length_m": 362.93544209620103 }, "geometry": { "type": "LineString", "coordinates": [ [ 529374.243011592305265, 7260694.216484978795052 ], [ 529367.914082517265342, 7260698.416630979627371 ], [ 529359.464867911650799, 7260704.216484978795052 ], [ 529349.987933612894267, 7260711.639718014746904 ], [ 529340.435025291983038, 7260720.459158066660166 ], [ 529331.540503428783268, 7260730.088040409609675 ], [ 529323.681352890678681, 7260740.011174176819623 ], [ 529316.416969484300353, 7260750.000892210751772 ], [ 529308.907480461173691, 7260760.0 ], [ 529301.104585926048458, 7260770.0 ], [ 529293.671070924960077, 7260780.000000000931323 ], [ 529286.776912964996882, 7260790.0 ], [ 529280.086255987756886, 7260800.0 ], [ 529273.671070924960077, 7260810.0 ], [ 529267.794350692536682, 7260820.0 ], [ 529262.205649307463318, 7260830.0 ], [ 529256.32982128590811, 7260840.0 ], [ 529249.924025978078134, 7260850.0 ], [ 529243.299953267676756, 7260860.0 ], [ 529236.700046732323244, 7260870.0 ], [ 529230.076866232673638, 7260880.0 ], [ 529223.680460680043325, 7260890.0 ], [ 529217.870324714574963, 7260900.0 ], [ 529212.566484998911619, 7260910.0 ], [ 529207.433515001088381, 7260920.0 ], [ 529202.130567496176809, 7260930.0 ], [ 529196.331159601802938, 7260939.999553894624114 ], [ 529190.016761264763772, 7260949.993520701304078 ], [ 529183.80179322254844, 7260959.944359514862299 ], [ 529178.552136409794912, 7260969.6772395754233 ], [ 529174.975562516832724, 7260978.683442020788789 ], [ 529173.473915160750039, 7260986.078100949525833 ], [ 529173.624068709323183, 7260991.078100949525833 ] ] } },
{ "type": "Feature", "properties": { "id": 4, "reference_id": 3, "dune_id": 3, "dune_name": "Big Mommy Dune", "acquisition_date": "2022-07-08", "length_m": 527.04046696836997 }, "geometry": { "type": "LineString", "coordinates": [ [ 529405.756988407694735, 7260678.448322394862771 ], [ 529412.08680969348643, 7260676.242673087865114 ], [ 529420.546306264819577, 7260673.223087035119534 ], [ 529430.099214585614391, 7260669.999107789248228 ], [ 529440.012066387222148, 7260666.765738788992167 ], [ 529450.000892210751772, 7260663.670178714208305 ], [ 529460.0, 7260661.103693716228008 ], [ 529470.0, 7260658.896306285634637 ], [ 529480.0, 7260656.329821285791695 ], [ 529490.0, 7260653.234261211939156 ], [ 529500.000000000116415, 7260650.000892210751772 ], [ 529510.0, 7260646.776020754128695 ], [ 529520.0, 7260643.746152736246586 ], [ 529530.0, 7260641.464529407210648 ], [ 529540.0, 7260640.000892210751772 ], [ 529550.0, 7260638.546644769608974 ], [ 529560.0, 7260636.340103251859546 ], [ 529570.0, 7260633.659896748140454 ], [ 529580.0, 7260631.453355230391026 ], [ 529590.0, 7260630.0 ], [ 529600.0, 7260628.546644769608974 ], [ 529610.0, 7260626.340995462611318 ], [ 529620.0, 7260623.671070924960077 ], [ 529630.0, 7260621.540503429248929 ], [ 529640.0, 7260620.447091679088771 ], [ 529650.0, 7260620.086255988106132 ], [ 529660.0, 7260620.0 ], [ 529670.0, 7260619.913744012825191 ], [ 529680.0, 7260619.552908320911229 ], [ 529690.0, 7260618.459496571682394 ], [ 529700.0, 7260616.329821286723018 ], [ 529710.0, 7260613.670178715139627 ], [ 529720.0, 7260611.540503429248929 ], [ 529730.0, 7260610.447091680020094 ], [ 529740.0, 7260610.087148198857903 ], [ 529750.0, 7260610.011174176819623 ], [ 529760.0, 7260610.000892210751772 ], [ 529770.0, 7260610.0 ], [ 529780.0, 7260610.0 ], [ 529790.0, 7260610.0 ], [ 529800.0, 7260610.0 ], [ 529810.0, 7260610.0 ], [ 529820.0, 7260610.0 ], [ 529830.0, 7260610.0 ], [ 529840.0, 7260610.0 ], [ 529850.0, 7260610.0 ], [ 529860.0, 7260610.0 ], [ 529870.0, 7260610.0 ], [ 529879.999107789248228, 7260610.0 ], [ 529889.987933612894267, 7260610.0 ], [ 529899.900785414502025, 7260610.0 ], [ 529909.453693735296838, 7260610.0 ], [ 529917.91319030651357, 7260610.0 ], [ 529924.243011592305265, 7260610.0 ] ] } },
{ "type": "Feature", "properties": { "id": 5, "reference_id": 3, "dune_id": 3, "dune_name": "Big Mommy Dune", "acquisition_date": "2022-07-08", "length_m": 88.486023184610531 }, "geometry": { "type": "LineString", "coordinates": [ [ 530044.243011592305265, 7260610.0 ], [ 530037.91319030651357, 7260610.0 ], [ 530029.453693735180423, 7260610.0 ], [ 530019.900785414502025, 7260610.0 ], [ 530009.987933612894267, 7260610.0 ], [ 530000.0, 7260610.0 ], [ 529990.012066387222148, 7260610.0 ], [ 529980.099214585614391, 7260610.0 ], [ 529970.546306264703162, 7260610.0 ], [ 529962.086809693602845, 7260610.0 ], [ 529955.756988407694735, 7260610.0 ] ] } },
{ "type": "Feature", "properties": { "id": 6, "reference_id": 3, "dune_id": 3, "dune_name": "Big Mommy Dune", "acquisition_date": "2022-07-08", "length_m": 172.06003836376718 }, "geometry": { "type": "LineString", "coordinates": [ [ 530244.243011592421681, 7260570.011174176819623 ], [ 530237.91319030651357, 7260570.087148198857903 ], [ 530229.453693735180423, 7260570.447091680020094 ], [ 530219.900785414385609, 7260571.540503429248929 ], [ 530209.987933612894267, 7260573.671070925891399 ], [ 530199.999107789248228, 7260576.340995462611318 ], [ 530190.0, 7260578.546644769608974 ], [ 530180.0, 7260580.000892210751772 ], [ 530170.000000000116415, 7260581.464529406279325 ], [ 530160.0, 7260583.746152736246586 ], [ 530150.0, 7260586.776020754128695 ], [ 530140.0, 7260590.0 ], [ 530130.0, 7260593.223087035119534 ], [ 530120.000892210751772, 7260596.242673087865114 ], [ 530110.012066387222148, 7260598.448322394862771 ], [ 530100.099214585614391, 7260599.552016111090779 ], [ 530090.546306264819577, 7260599.912851802073419 ], [ 530082.08680969348643, 7260599.9888258241117 ], [ 530075.756988407694735, 7260599.999107789248228 ] ] } },
{ "type": "Feature", "properties": { "id": 7, "reference_id": 4, "dune_id": 4, "dune_name": "The Star Dune", "acquisition_date": "2022-07-08", "length_m": 654.94450600450716 }, "geometry": { "type": "LineString", "coordinates": [ [ 533005.756988407694735, 7261870.087148198857903 ], [ 533012.08680969348643, 7261870.447091680020094 ], [ 533020.546306264819577, 7261871.540503429248929 ], [ 533030.099214585614391, 7261873.671070925891399 ], [ 533040.012066387105733, 7261876.340995462611318 ], [ 533050.000892210751772, 7261878.546644769608974 ], [ 533060.0, 7261880.0 ], [ 533070.0, 7261881.454247441142797 ], [ 533080.0, 7261883.670178714208305 ], [ 533090.0, 7261886.416077273897827 ], [ 533100.0, 7261888.907480461522937 ], [ 533110.0, 7261891.10458592697978 ], [ 533120.0, 7261893.670178715139627 ], [ 533130.0, 7261896.765738788992167 ], [ 533140.0, 7261900.0 ], [ 533150.0, 7261903.234261211939156 ], [ 533160.0, 7261906.329821286723018 ], [ 533170.0, 7261908.895414074882865 ], [ 533180.0, 7261911.093411750160158 ], [ 533190.0, 7261913.594204692170024 ], [ 533200.0, 7261916.405795307829976 ], [ 533210.0, 7261918.906588250771165 ], [ 533220.0, 7261921.10458592697978 ], [ 533230.0, 7261923.670178715139627 ], [ 533240.0, 7261926.766630999743938 ], [ 533250.0, 7261930.010281966067851 ], [ 533260.0, 7261933.310235233977437 ], [ 533270.0, 7261936.690656976774335 ], [ 533280.0, 7261940.0 ], [ 533290.0, 7261943.309343023225665 ], [ 533300.0, 7261946.689764766022563 ], [ 533310.0, 7261949.989718034863472 ], [ 533320.0, 7261953.233369001187384 ], [ 533330.0, 7261956.329821286723018 ], [ 533340.0, 7261958.895414074882865 ], [ 533350.0, 7261961.093411749228835 ], [ 533360.0, 7261963.594204693101346 ], [ 533370.0, 7261966.405795308761299 ], [ 533380.000000000116415, 7261968.906588250771165 ], [ 533390.0, 7261971.10458592697978 ], [ 533400.000000000116415, 7261973.671070924960077 ], [ 533410.0, 7261976.776912964880466 ], [ 533420.0, 7261980.086255988106132 ], [ 533430.0, 7261983.671070924960077 ], [ 533440.0, 7261987.794350693002343 ], [ 533450.0, 7261992.206541518680751 ], [ 533460.0, 7261996.340103251859546 ], [ 533470.0, 7262000.000892210751772 ], [ 533480.0, 7262003.670178715139627 ], [ 533490.0, 7262007.870324714109302 ], [ 533500.0, 7262012.576766964048147 ], [ 533510.0, 7262017.510381234809756 ], [ 533520.0, 7262022.500792942941189 ], [ 533530.0, 7262027.499207057058811 ], [ 533540.0, 7262032.488726556301117 ], [ 533550.0, 7262037.41205885913223 ], [ 533560.0, 7262042.041634876281023 ], [ 533570.0, 7262045.871555430814624 ], [ 533579.999553894740529, 7262048.371902268379927 ], [ 533589.993520701071247, 7262049.547321232967079 ], [ 533599.94435951358173, 7262049.955533690750599 ], [ 533609.677239574841224, 7262050.212371663190424 ], [ 533618.683442020905204, 7262050.769359504804015 ], [ 533626.078100949409418, 7262051.835089357569814 ], [ 533631.078100949525833, 7262053.164910643361509 ] ] } },
{ "type": "Feature", "properties": { "id": 8, "reference_id": 1, "dune_id": 1, "dune_name": "Big Mommy Dune", "acquisition_date": "2022-07-08", "length_m": 619.65016677585743 }, "geometry": { "type": "LineString", "coordinates": [ [ 529181.529329252312891, 7261035.756988408043981 ], [ 529183.583030515816063, 7261042.086809693835676 ], [ 529185.882729606702924, 7261050.546306265518069 ], [ 529186.918993142666295, 7261060.099214585497975 ], [ 529185.882729606702924, 7261070.012066387571394 ], [ 529183.582138305180706, 7261080.000892210751772 ], [ 529181.518155075842515, 7261090.0 ], [ 529180.359051270061173, 7261100.0 ], [ 529179.639164308668114, 7261110.0 ], [ 529178.459496571333148, 7261120.000000000931323 ], [ 529176.24356529803481, 7261130.0 ], [ 529173.222194824367762, 7261140.0 ], [ 529169.988825823529623, 7261150.0 ], [ 529166.688872555969283, 7261160.0 ], [ 529163.299061057041399, 7261170.0 ], [ 529159.924025978078134, 7261180.0 ], [ 529156.329821285791695, 7261190.0 ], [ 529152.205649307463318, 7261200.0 ], [ 529147.793458481901325, 7261210.000000000931323 ], [ 529143.659896748373285, 7261220.0 ], [ 529139.999107789364643, 7261230.0 ], [ 529136.329821285791695, 7261240.0 ], [ 529132.130567496176809, 7261250.0 ], [ 529127.433515001204796, 7261260.0 ], [ 529122.566484998911619, 7261270.0 ], [ 529117.869432503939606, 7261280.0 ], [ 529113.670178714208305, 7261290.0 ], [ 529110.0, 7261300.0 ], [ 529106.329821285791695, 7261310.000000000931323 ], [ 529102.130567496176809, 7261320.0 ], [ 529097.433515001204796, 7261330.0 ], [ 529092.566484998911619, 7261340.0 ], [ 529087.870324714574963, 7261350.0 ], [ 529083.680460680043325, 7261360.0 ], [ 529080.076866232557222, 7261370.0 ], [ 529076.700046732323244, 7261380.0 ], [ 529073.299953267676756, 7261390.0 ], [ 529069.924025978078134, 7261400.0 ], [ 529066.329821285791695, 7261410.0 ], [ 529062.205649307463318, 7261420.0 ], [ 529057.794350692536682, 7261430.0 ], [ 529053.670178714208305, 7261440.0 ], [ 529050.075974021921866, 7261450.0 ], [ 529046.700938942958601, 7261460.0 ], [ 529043.311127444147132, 7261470.000000000931323 ], [ 529040.01028196583502, 7261480.0 ], [ 529036.766630999278277, 7261490.0 ], [ 529033.670178714208305, 7261500.0 ], [ 529031.104585926048458, 7261510.0 ], [ 529028.907480461173691, 7261520.0 ], [ 529026.416969484183937, 7261530.0 ], [ 529023.681352890678681, 7261540.0 ], [ 529021.541395639418624, 7261550.0 ], [ 529020.44619946856983, 7261560.000000000931323 ], [ 529020.075974022038281, 7261570.0 ], [ 529019.924025978078134, 7261579.999107789248228 ], [ 529019.553800531546585, 7261589.987933612428606 ], [ 529018.459496571333148, 7261599.900785414502025 ], [ 529016.329821285791695, 7261609.453693735413253 ], [ 529013.670178714208305, 7261617.913190307095647 ], [ 529011.540503428783268, 7261624.243011592887342 ] ] } },
{ "type": "Feature", "properties": { "id": 9, "reference_id": 1, "dune_id": 1, "dune_name": "Big Mommy Dune", "acquisition_date": "2022-07-08", "length_m": 465.87278329346401 }, "geometry": { "type": "LineString", "coordinates": [ [ 528845.756988407694735, 7262228.371456163004041 ], [ 528852.086809693602845, 7262225.870663220062852 ], [ 528860.546306264819577, 7262222.030460700392723 ], [ 528870.099214585614391, 7262217.324018450453877 ], [ 528880.012066387222148, 7262212.030460700392723 ], [ 528890.000892210635357, 7262205.870663220062852 ], [ 528900.0, 7262198.371456162072718 ], [ 528910.0, 7262189.541734144091606 ], [ 528919.999107789364643, 7262179.911959591321647 ], [ 528929.988825823529623, 7262169.9888258241117 ], [ 528939.911959590972401, 7262159.999107789248228 ], [ 528949.541734144324437, 7262150.0 ], [ 528958.371456162189133, 7262140.0 ], [ 528965.871555430116132, 7262130.0 ], [ 528972.041634876397438, 7262120.0 ], [ 528977.411166648264043, 7262110.0 ], [ 528982.478444589767605, 7262100.0 ], [ 528987.42234082473442, 7262090.0 ], [ 528992.128783074789681, 7262080.0 ], [ 528996.31953932007309, 7262070.0 ], [ 528999.923133767442778, 7262060.0 ], [ 529003.299953267676756, 7262050.0 ], [ 529006.700938943075016, 7262040.0 ], [ 529010.087148198508658, 7262030.0 ], [ 529013.757326912600547, 7262020.0 ], [ 529018.242334582377225, 7262010.0 ], [ 529023.757326912600547, 7262000.0 ], [ 529030.087148198508658, 7261990.0 ], [ 529036.701831153710373, 7261980.0 ], [ 529043.31023523339536, 7261970.0 ], [ 529050.0, 7261960.0 ], [ 529056.690656977239996, 7261950.0 ], [ 529063.309343022760004, 7261940.0 ], [ 529069.999107789364643, 7261930.0 ], [ 529076.678590590134263, 7261920.0 ], [ 529083.211020647897385, 7261910.0 ], [ 529089.464867911767215, 7261900.000892210751772 ], [ 529094.690995482262224, 7261890.012066386640072 ], [ 529098.000338505022228, 7261880.099214585497975 ], [ 529099.464867911767215, 7261870.546306265518069 ], [ 529099.901677625137381, 7261862.086809693835676 ], [ 529099.987933612894267, 7261855.756988408043981 ] ] } },
{ "type": "Feature", "properties": { "id": 10, "reference_id": 7, "dune_id": 7, "dune_name": "Inverted Y Dune", "acquisition_date": "2022-07-08", "length_m": 560.22932133023892 }, "geometry": { "type": "LineString", "coordinates": [ [ 530225.756988407694735, 7261650.0 ], [ 530232.08680969348643, 7261649.999107790179551 ], [ 530240.546306264703162, 7261649.9888258241117 ], [ 530250.099214585614391, 7261649.911959591321647 ], [ 530260.012066387105733, 7261649.541734145022929 ], [ 530270.000892210751772, 7261648.372348373755813 ], [ 530280.0, 7261645.881837395951152 ], [ 530290.0, 7261642.118501110002398 ], [ 530300.0, 7261637.783176516182721 ], [ 530310.0, 7261633.669286504387856 ], [ 530320.0, 7261630.075974022969604 ], [ 530330.0, 7261626.700046733021736 ], [ 530340.0, 7261623.299953267909586 ], [ 530350.0, 7261619.92313376814127 ], [ 530360.0, 7261616.319539319723845 ], [ 530370.0, 7261612.128783075138927 ], [ 530380.0, 7261607.422340825200081 ], [ 530390.0, 7261602.479336800985038 ], [ 530400.0, 7261597.422340825200081 ], [ 530410.0, 7261592.128783075138927 ], [ 530420.0, 7261586.318647108972073 ], [ 530430.000000000116415, 7261579.911959591321647 ], [ 530440.0, 7261573.211912859231234 ], [ 530450.0, 7261566.241780877113342 ], [ 530459.999107789364643, 7261558.448322394862771 ], [ 530469.988825823529623, 7261549.552016110159457 ], [ 530479.912851801607758, 7261539.912851801142097 ], [ 530489.552016110159457, 7261529.9888258241117 ], [ 530498.448322394862771, 7261519.999107789248228 ], [ 530506.242673087399453, 7261510.0 ], [ 530513.222194824367762, 7261500.0 ], [ 530519.988825823529623, 7261490.0 ], [ 530526.689764766488224, 7261480.0 ], [ 530533.309343022760004, 7261470.000000000931323 ], [ 530540.0, 7261460.0 ], [ 530546.690656977239996, 7261450.0 ], [ 530553.310235233511776, 7261440.0 ], [ 530560.011174176470377, 7261430.0 ], [ 530566.777805175632238, 7261420.0 ], [ 530573.757326912600547, 7261410.0 ], [ 530581.551677605253644, 7261400.0 ], [ 530590.447983889840543, 7261390.0 ], [ 530600.087148198392242, 7261380.0 ], [ 530610.01028196583502, 7261370.000892210751772 ], [ 530619.988825823646039, 7261360.012066386640072 ], [ 530629.900785414502025, 7261350.099214585497975 ], [ 530639.453693735296838, 7261340.546306265518069 ], [ 530647.913190306629986, 7261332.086809693835676 ], [ 530654.243011592305265, 7261325.756988408043981 ] ] } },
{ "type": "Feature", "properties": { "id": 11, "reference_id": 2, "dune_id": 2, "dune_name": "Big Mommy Dune", "acquisition_date": "2022-07-08", "length_m": 793.79566648853427 }, "geometry": { "type": "LineString", "coordinates": [ [ 529144.243011592421681, 7260976.242673087865114 ], [ 529137.913190306629986, 7260973.222194824367762 ], [ 529129.453693735296838, 7260969.9888258241117 ], [ 529119.900785414385609, 7260966.688872555270791 ], [ 529109.987933612894267, 7260963.299061058089137 ], [ 529099.999107789364643, 7260959.924025978893042 ], [ 529090.0, 7260956.329821286723018 ], [ 529080.0, 7260952.205649308860302 ], [ 529070.0, 7260947.793458482250571 ], [ 529060.0, 7260943.659896748140454 ], [ 529050.0, 7260940.0 ], [ 529040.0, 7260936.340995462611318 ], [ 529030.0, 7260932.216823483817279 ], [ 529020.0, 7260927.870324715040624 ], [ 529010.0, 7260924.031014406122267 ], [ 529000.0, 7260921.180559948086739 ], [ 528990.0, 7260918.916870215907693 ], [ 528980.0, 7260916.406687518581748 ], [ 528970.0, 7260913.594204692170024 ], [ 528960.0, 7260911.094303959980607 ], [ 528950.0, 7260908.905696040019393 ], [ 528940.0, 7260906.405795308761299 ], [ 528930.0, 7260903.594204693101346 ], [ 528920.0, 7260901.094303959980607 ], [ 528910.0, 7260898.905696040019393 ], [ 528900.0, 7260896.405795307829976 ], [ 528890.0, 7260893.594204692170024 ], [ 528880.0, 7260891.093411749228835 ], [ 528870.0, 7260888.895414073951542 ], [ 528860.0, 7260886.329821286723018 ], [ 528850.0, 7260883.233369002118707 ], [ 528840.0, 7260879.989718034863472 ], [ 528830.0, 7260876.688872556202114 ], [ 528820.0, 7260873.299061057157815 ], [ 528810.0, 7260869.924025978893042 ], [ 528800.0, 7260866.329821286723018 ], [ 528790.0, 7260862.205649307928979 ], [ 528780.0, 7260857.793458482250571 ], [ 528770.0, 7260853.659896748140454 ], [ 528760.0, 7260850.0 ], [ 528750.0, 7260846.340103251859546 ], [ 528740.0, 7260842.206541518680751 ], [ 528730.0, 7260837.793458482250571 ], [ 528720.0, 7260833.659896748140454 ], [ 528710.0, 7260829.999107789248228 ], [ 528700.0, 7260826.329821285791695 ], [ 528690.0, 7260822.129675285890698 ], [ 528680.0, 7260817.422340825200081 ], [ 528670.0, 7260812.479336800053716 ], [ 528660.0, 7260807.422340825200081 ], [ 528650.0, 7260802.129675285890698 ], [ 528640.0, 7260796.329821286723018 ], [ 528630.0, 7260790.0 ], [ 528620.0, 7260783.670178715139627 ], [ 528610.0, 7260777.869432505220175 ], [ 528600.0, 7260772.566484998911619 ], [ 528590.0, 7260767.433515001088381 ], [ 528580.0, 7260762.129675284959376 ], [ 528570.0, 7260756.319539319723845 ], [ 528560.0, 7260749.923133767209947 ], [ 528550.0, 7260743.299061057157815 ], [ 528540.0, 7260736.688872556202114 ], [ 528530.0, 7260729.989718034863472 ], [ 528520.0, 7260723.233369001187384 ], [ 528510.0, 7260716.329821286723018 ], [ 528500.0, 7260708.896306284703314 ], [ 528490.0, 7260701.103693716228008 ], [ 528480.0, 7260693.670178715139627 ], [ 528470.000892210751772, 7260686.766630999743938 ], [ 528460.012066387105733, 7260680.0111741758883 ], [ 528450.099214585614391, 7260673.322301620617509 ], [ 528440.546306264819577, 7260666.788979352451861 ], [ 528432.08680969348643, 7260660.535132088698447 ], [ 528425.756988407694735, 7260655.309004518203437 ] ] } },
{ "type": "Feature", "properties": { "id": 12, "reference_id": 8, "dune_id": 8, "dune_name": "Inverted Y Dune", "acquisition_date": "2022-07-08", "length_m": 737.8818850010972 }, "geometry": { "type": "LineString", "coordinates": [ [ 530554.243011592305265, 7261165.309896728955209 ], [ 530547.91319030651357, 7261170.545414054766297 ], [ 530539.453693735296838, 7261176.86406116373837 ], [ 530529.900785414385609, 7261183.670178715139627 ], [ 530519.987933612894267, 7261191.006263552233577 ], [ 530509.999107789248228, 7261198.361174196004868 ], [ 530500.0, 7261204.330159790813923 ], [ 530490.0, 7261207.924364482983947 ], [ 530480.0, 7261209.454585946165025 ], [ 530470.0, 7261209.900785414502025 ], [ 530460.0, 7261209.987933613359928 ], [ 530450.0, 7261209.999107790179551 ], [ 530440.0, 7261209.999107790179551 ], [ 530430.000000000116415, 7261209.9888258241117 ], [ 530420.0, 7261209.912851802073419 ], [ 530410.0, 7261209.552908320911229 ], [ 530400.0, 7261208.459496571682394 ], [ 530390.0, 7261206.329821285791695 ], [ 530380.0, 7261203.670178713276982 ], [ 530370.0, 7261201.541395639069378 ], [ 530360.0, 7261200.458265855908394 ], [ 530350.0, 7261200.174296397715807 ], [ 530340.0, 7261200.458265855908394 ], [ 530330.0, 7261201.54228784982115 ], [ 530320.0, 7261203.681352891027927 ], [ 530310.0, 7261206.417861694470048 ], [ 530300.0, 7261208.917762426659465 ], [ 530290.0, 7261211.181452158838511 ], [ 530280.0, 7261214.041296372190118 ], [ 530270.0, 7261217.947190947830677 ], [ 530260.0, 7261222.587941141799092 ], [ 530250.0, 7261227.522447621449828 ], [ 530240.0, 7261232.588833352550864 ], [ 530230.0, 7261237.958365123718977 ], [ 530220.0, 7261244.128444569185376 ], [ 530210.000892210751772, 7261251.628543837927282 ], [ 530200.011174176586792, 7261260.458265855908394 ], [ 530190.088040409144014, 7261270.088040409609675 ], [ 530180.458265855675563, 7261280.0111741758883 ], [ 530171.628543837927282, 7261290.000892210751772 ], [ 530164.129336780519225, 7261300.0 ], [ 530157.969539300072938, 7261310.000000000931323 ], [ 530152.675089339609258, 7261320.0 ], [ 530147.958365123718977, 7261330.0 ], [ 530144.042188582126983, 7261340.0 ], [ 530141.181452158722095, 7261350.0 ], [ 530138.916870216256939, 7261360.0 ], [ 530136.406687518465333, 7261370.0 ], [ 530133.594204692170024, 7261380.0 ], [ 530131.094303960213438, 7261390.0 ], [ 530128.906588250538334, 7261400.0 ], [ 530126.416969484183937, 7261410.0 ], [ 530123.680460680043325, 7261420.0 ], [ 530121.530221462948248, 7261430.0 ], [ 530120.359943480812944, 7261440.0 ], [ 530119.640056519303471, 7261450.0 ], [ 530118.470670747803524, 7261460.0 ], [ 530116.330713496543467, 7261470.000000000931323 ], [ 530113.670178714208305, 7261480.0 ], [ 530111.540503428666852, 7261490.0 ], [ 530110.44619946856983, 7261500.0 ], [ 530110.075974022038281, 7261510.0 ], [ 530109.924025978078134, 7261520.0 ], [ 530109.553800531546585, 7261530.0 ], [ 530108.459050465957262, 7261539.999553894624114 ], [ 530106.324234197614715, 7261549.993520701304078 ], [ 530103.626604615012184, 7261559.944359513930976 ], [ 530101.316957589122467, 7261569.6772395754233 ], [ 530099.676839964813553, 7261578.683442020788789 ], [ 530098.25205884128809, 7261586.078100949525833 ], [ 530096.846263533574529, 7261591.078100949525833 ] ] } },
{ "type": "Feature", "properties": { "id": 13, "reference_id": 9, "dune_id": 9, "dune_name": "Inverted Y Dune", "acquisition_date": "2022-07-08", "length_m": 800.91733985364328 }, "geometry": { "type": "LineString", "coordinates": [ [ 530091.078100949525833, 7261598.921006839722395 ], [ 530086.078100949409418, 7261603.910724874585867 ], [ 530078.683442020905204, 7261611.228517569601536 ], [ 530069.677239574841224, 7261619.864494569599628 ], [ 530059.944359513698146, 7261628.427988858893514 ], [ 530049.993520701071247, 7261635.888316694647074 ], [ 530039.999553894624114, 7261642.118947215378284 ], [ 530030.0, 7261647.783176517114043 ], [ 530020.0, 7261653.669286503456533 ], [ 530010.0, 7261660.075974022969604 ], [ 530000.0, 7261666.700938943773508 ], [ 529990.0, 7261673.310235233977437 ], [ 529980.0, 7261680.0 ], [ 529970.0, 7261686.690656976774335 ], [ 529960.0, 7261693.310235233977437 ], [ 529950.0, 7261700.011174177750945 ], [ 529940.0, 7261706.777805175632238 ], [ 529930.0, 7261713.757326913066208 ], [ 529920.0, 7261721.551677605137229 ], [ 529910.0, 7261730.447983890771866 ], [ 529900.0, 7261740.087148198857903 ], [ 529890.0, 7261750.011174176819623 ], [ 529880.0, 7261760.000892210751772 ], [ 529870.0, 7261770.0 ], [ 529860.000892210751772, 7261780.0 ], [ 529850.011174176470377, 7261790.0 ], [ 529840.087148198392242, 7261800.0 ], [ 529830.447983889840543, 7261810.0 ], [ 529821.552569815889001, 7261820.0 ], [ 529813.768501089187339, 7261830.0 ], [ 529806.864953374140896, 7261840.000000000931323 ], [ 529800.45915806631092, 7261850.0 ], [ 529794.861912838649005, 7261860.0 ], [ 529790.447983889840543, 7261870.0 ], [ 529786.777805175632238, 7261880.0 ], [ 529783.32051719923038, 7261890.0 ], [ 529780.000892210751772, 7261900.0 ], [ 529776.689764766488224, 7261910.0 ], [ 529773.299061056924984, 7261920.0 ], [ 529769.923133767442778, 7261930.0 ], [ 529766.31953932007309, 7261940.0 ], [ 529762.129675285425037, 7261950.0 ], [ 529757.433515001088381, 7261960.0 ], [ 529752.566484998911619, 7261970.0 ], [ 529747.869432503823191, 7261980.0 ], [ 529743.670178714208305, 7261990.0 ], [ 529740.000892210751772, 7262000.0 ], [ 529736.340103251626715, 7262010.0 ], [ 529732.20654151821509, 7262020.0 ], [ 529727.793458481901325, 7262030.0 ], [ 529723.6598967484897, 7262040.0 ], [ 529719.999107789248228, 7262050.0 ], [ 529716.329821285791695, 7262060.0 ], [ 529712.130567496176809, 7262070.0 ], [ 529707.433515001088381, 7262080.0 ], [ 529702.566484998911619, 7262090.0 ], [ 529697.869432503823191, 7262100.0 ], [ 529693.670178714208305, 7262110.0 ], [ 529690.0, 7262120.0 ], [ 529686.329821285791695, 7262130.0 ], [ 529682.130567496176809, 7262140.0 ], [ 529677.433515001088381, 7262150.0 ], [ 529672.566484998911619, 7262160.0 ], [ 529667.870324714574963, 7262170.0 ], [ 529663.681352890678681, 7262180.0 ], [ 529660.088040409144014, 7262189.999107789248228 ], [ 529656.788087141467258, 7262199.987933613359928 ], [ 529653.758219123352319, 7262209.900785414502025 ], [ 529651.551677605253644, 7262219.453693735413253 ], [ 529650.447983889840543, 7262227.913190307095647 ], [ 529650.087148198392242, 7262234.243011592887342 ] ] } }
]
}
