{
"type": "FeatureCollection",
"name": "crests_2022_01_2022-01-26",
"crs": { "type": "name", "properties": { "name": "urn:ogc:def:crs:EPSG::32733" } },
"features": [
{ "type": "Feature", "properties": { "id": 0, "reference_id": 1, "dune_id": 1, "dune_name": "Big Mommy Dune", "acquisition_date": "2022-01-26", "length_m": 497.7989015272118 }, "geometry": { "type": "LineString", "coordinates": [ [ 528915.745814231224358, 7262184.690103271976113 ], [ 528921.999661495094188, 7262179.453693735413253 ], [ 528930.098322374979034, 7262173.123872449621558 ], [ 528938.547536980477162, 7262166.230606701225042 ], [ 528946.253847263869829, 7262158.447430184110999 ], [ 528953.212805069284514, 7262149.552016111090779 ], [ 528959.911959590855986, 7262139.912851802073419 ], [ 528966.318647109437734, 7262129.9888258241117 ], [ 528972.128783074789681, 7262119.999107789248228 ], [ 528977.42234082473442, 7262110.0 ], [ 528982.479336800519377, 7262100.0 ], [ 528987.42234082473442, 7262090.0 ], [ 528992.128783074789681, 7262080.0 ], [ 528996.31953932007309, 7262070.0 ], [ 528999.923133767442778, 7262060.0 ], [ 529003.299953267676756, 7262050.0 ], [ 529006.700046732323244, 7262040.0 ], [ 529010.076866232673638, 7262030.0 ], [ 529013.681352890795097, 7262020.0 ], [ 529017.882391101680696, 7262010.0 ], [ 529022.663915163138881, 7262000.0 ], [ 529027.957472912967205, 7261990.0 ], [ 529034.042188582126983, 7261980.0 ], [ 529041.180559947970323, 7261970.0 ], [ 529048.906588250421919, 7261960.0 ], [ 529056.330713496543467, 7261950.0 ], [ 529063.233369000838138, 7261940.0 ], [ 529069.989718034281395, 7261930.0 ], [ 529076.688872555852868, 7261920.0 ], [ 529083.298168846289627, 7261910.0 ], [ 529089.911959590855986, 7261900.0 ], [ 529096.231498910929076, 7261890.0 ], [ 529101.669625008478761, 7261880.0 ], [ 529105.783515021088533, 7261870.0 ], [ 529108.273133787210099, 7261860.0 ], [ 529109.082576078013517, 7261850.0 ], [ 529108.283415753045119, 7261840.000000000931323 ], [ 529105.859489043010399, 7261830.0 ], [ 529102.030460699927062, 7261820.0 ], [ 529097.335192626342177, 7261810.0 ], [ 529092.118501109071076, 7261800.000892210751772 ], [ 529086.329821285791695, 7261790.012066386640072 ], [ 529080.011174176470377, 7261780.099214585497975 ], [ 529073.758219123352319, 7261770.546306265518069 ], [ 529068.328590570134111, 7261762.086809692904353 ], [ 529064.205310802557506, 7261755.756988408043981 ] ] } },
{ "type": "Feature", "properties": { "id": 1, "reference_id": 1, "dune_id": 1, "dune_name": "Big Mommy Dune", "acquisition_date": "2022-01-26", "length_m": 662.20898067828978 }, "geometry": { "type": "LineString", "coordinates": [ [ 529025.882729606702924, 7261684.243011591956019 ], [ 529022.129675285541452, 7261677.913190307095647 ], [ 529017.870324714574963, 7261669.453693735413253 ], [ 529014.117270393413492, 7261659.900785414502025 ], [ 529011.62765162717551, 7261649.987933613359928 ], [ 529010.45915806631092, 7261639.999107789248228 ], [ 529010.099214585614391, 7261630.0 ], [ 529010.098322374979034, 7261620.0 ], [ 529010.447983889840543, 7261610.0 ], [ 529011.540503428783268, 7261600.0 ], [ 529013.670178714208305, 7261590.0 ], [ 529016.330713496543467, 7261580.0 ], [ 529018.470670747803524, 7261570.0 ], [ 529019.640056519303471, 7261560.000000000931323 ], [ 529020.359943480812944, 7261550.0 ], [ 529021.529329252312891, 7261540.0 ], [ 529023.670178714208305, 7261530.0 ], [ 529026.340995462378487, 7261520.0 ], [ 529028.54664476972539, 7261510.0 ], [ 529030.000892210751772, 7261500.0 ], [ 529031.464529406744987, 7261490.0 ], [ 529033.746152736246586, 7261480.0 ], [ 529036.776912964996882, 7261470.000000000931323 ], [ 529040.011174176470377, 7261460.0 ], [ 529043.311127444147132, 7261450.0 ], [ 529046.700938942958601, 7261440.0 ], [ 529050.075974021921866, 7261430.0 ], [ 529053.670178714208305, 7261420.0 ], [ 529057.794350692536682, 7261410.0 ], [ 529062.205649307463318, 7261400.0 ], [ 529066.329821285791695, 7261390.0 ], [ 529069.924025978078134, 7261380.0 ], [ 529073.299953267676756, 7261370.0 ], [ 529076.700046732323244, 7261360.0 ], [ 529080.076866232557222, 7261350.0 ], [ 529083.680460680043325, 7261340.0 ], [ 529087.871216925210319, 7261330.0 ], [ 529092.576766964746639, 7261320.0 ], [ 529097.510381233878434, 7261310.000000000931323 ], [ 529102.500792942708358, 7261300.0 ], [ 529107.499207057291642, 7261290.0 ], [ 529112.489618766237982, 7261280.0 ], [ 529117.423233035369776, 7261270.0 ], [ 529122.129675285541452, 7261260.0 ], [ 529126.329821285791695, 7261250.0 ], [ 529129.999107789364643, 7261240.0 ], [ 529133.659896748373285, 7261230.0 ], [ 529137.79345848178491, 7261220.0 ], [ 529142.205649307463318, 7261210.000000000931323 ], [ 529146.329821285791695, 7261200.0 ], [ 529149.924025978078134, 7261190.0 ], [ 529153.299061057041399, 7261180.0 ], [ 529156.68976476660464, 7261170.0 ], [ 529160.0, 7261160.0 ], [ 529163.309343022760004, 7261150.0 ], [ 529166.689764766488224, 7261140.0 ], [ 529169.988825823529623, 7261130.0 ], [ 529173.222194824367762, 7261120.000000000931323 ], [ 529176.24356529803481, 7261110.0 ], [ 529178.459496571333148, 7261100.000892210751772 ], [ 529179.639164308668114, 7261090.012066388502717 ], [ 529180.359943480812944, 7261080.099214585497975 ], [ 529181.529329252312891, 7261070.546306264586747 ], [ 529183.669286503572948, 7261062.086809693835676 ], [ 529186.329821285791695, 7261055.756988408043981 ] ] } },
{ "type": "Feature", "properties": { "id": 2, "reference_id": 3, "dune_id": 3, "dune_name": "Big Mommy Dune", "acquisition_date": "2022-01-26", "length_m": 162.52585577944606 }, "geometry": { "type": "LineString", "coordinates": [ [ 529995.756988407694735, 7260600.447091680020094 ], [ 530002.08680969348643, 7260601.539611218497157 ], [ 530010.546306264819577, 7260603.659004537388682 ], [ 530020.099214585497975, 7260606.242673087865114 ], [ 530030.012066387105733, 7260608.012404892593622 ], [ 530040.000892210751772, 7260608.01151268184185 ], [ 530050.0, 7260606.231498911976814 ], [ 530060.0, 7260603.571856340393424 ], [ 530070.0, 7260601.092519539408386 ], [ 530080.0, 7260598.906588250771165 ], [ 530090.0, 7260596.416077272966504 ], [ 530100.0, 7260593.670178714208305 ], [ 530109.999107789364643, 7260591.454247441142797 ], [ 530119.987933612894267, 7260590.0 ], [ 530129.900785414385609, 7260588.546644769608974 ], [ 530139.453693735296838, 7260586.340995462611318 ], [ 530147.913190306629986, 7260583.671070924960077 ], [ 530154.243011592421681, 7260581.540503429248929 ] ] } },
{ "type": "Feature", "properties": { "id": 3, "reference_id": 3, "dune_id": 3, "dune_name": "Big Mommy Dune", "acquisition_date": "2022-01-26", "length_m": 890.73092154008032 }, "geometry": { "type": "LineString", "coordinates": [ [ 529181.712447623373009, 7260991.078100949525833 ], [ 529178.623176498571411, 7260986.078100949525833 ], [ 529176.068974266410805, 7260978.683442020788789 ], [ 529175.893386048846878, 7260969.6772395754233 ], [ 529178.459312867838889, 7260959.944359514862299 ], [ 529182.757542660459876, 7260949.993520701304078 ], [ 529187.893119172775187, 7260939.999553894624114 ], [ 529193.671963135595433, 7260930.0 ], [ 529200.000892210751772, 7260920.0 ], [ 529206.3401032515103, 7260910.0 ], [ 529212.206541518098675, 7260900.0 ], [ 529217.794350692536682, 7260890.0 ], [ 529223.670178714208305, 7260880.0 ], [ 529230.075974021921866, 7260870.0 ], [ 529236.700938942958601, 7260860.0 ], [ 529243.310235233511776, 7260850.0 ], [ 529250.0, 7260840.0 ], [ 529256.68976476660464, 7260830.0 ], [ 529263.299061057041399, 7260820.0 ], [ 529269.924025978078134, 7260810.0 ], [ 529276.329821285791695, 7260800.0 ], [ 529282.205649307463318, 7260790.0 ], [ 529287.794350692536682, 7260780.000000000931323 ], [ 529293.671070924960077, 7260770.0 ], [ 529300.087148198392242, 7260760.000892210751772 ], [ 529306.788087141467258, 7260750.011174176819623 ], [ 529313.758219123352319, 7260740.088040409609675 ], [ 529321.551677605253644, 7260730.458265855908394 ], [ 529330.447983889840543, 7260721.627651628106833 ], [ 529340.087148198392242, 7260714.118162604048848 ], [ 529350.011174176586792, 7260707.882391102612019 ], [ 529360.000892210635357, 7260702.227997660636902 ], [ 529370.0, 7260696.417861696332693 ], [ 529380.0, 7260690.372009867802262 ], [ 529390.0, 7260684.851630873046815 ], [ 529400.0, 7260680.457373645156622 ], [ 529410.0, 7260676.853779197670519 ], [ 529420.0, 7260673.681352891027927 ], [ 529430.0, 7260671.104585926048458 ], [ 529440.000000000116415, 7260668.896306285634637 ], [ 529450.0, 7260666.328929075039923 ], [ 529460.0, 7260663.223087035119534 ], [ 529470.0, 7260659.913744012825191 ], [ 529480.0, 7260656.329821285791695 ], [ 529490.0, 7260652.216823483817279 ], [ 529500.000000000116415, 7260647.880606681108475 ], [ 529510.0, 7260644.106988428160548 ], [ 529520.0, 7260641.540503429248929 ], [ 529530.0, 7260640.011174176819623 ], [ 529540.0, 7260638.547536980360746 ], [ 529550.0, 7260636.340995462611318 ], [ 529560.0, 7260633.670178715139627 ], [ 529570.0, 7260631.529329252429307 ], [ 529580.0, 7260630.35994348116219 ], [ 529590.0, 7260629.64005651883781 ], [ 529600.0, 7260628.470670747570693 ], [ 529610.0, 7260626.330713496543467 ], [ 529620.0, 7260623.670178714208305 ], [ 529630.0, 7260621.540503429248929 ], [ 529640.0, 7260620.447091679088771 ], [ 529650.0, 7260620.086255988106132 ], [ 529660.0, 7260620.0 ], [ 529670.0, 7260619.913744012825191 ], [ 529680.0, 7260619.552908320911229 ], [ 529690.0, 7260618.459496571682394 ], [ 529700.0, 7260616.329821286723018 ], [ 529710.0, 7260613.670178715139627 ], [ 529720.0, 7260611.540503429248929 ], [ 529730.0, 7260610.447091680020094 ], [ 529740.0, 7260610.087148198857903 ], [ 529750.0, 7260610.011174176819623 ], [ 529760.0, 7260610.000892210751772 ], [ 529770.0, 7260610.0 ], [ 529780.0, 7260610.0 ], [ 529790.0, 7260610.0 ], [ 529800.0, 7260610.0 ], [ 529810.0, 7260610.0 ], [ 529820.0, 7260610.0 ], [ 529830.0, 7260610.0 ], [ 529839.999107789248228, 7260610.0 ], [ 529849.987933612777852, 7260610.0 ], [ 529859.900785414385609, 7260610.0 ], [ 529869.453693735296838, 7260610.0 ], [ 529877.91319030651357, 7260610.0 ], [ 529884.243011592421681, 7260610.0 ] ] } },
{ "type": "Feature", "properties": { "id": 4, "reference_id": 4, "dune_id": 4, "dune_name": "The Star Dune", "acquisition_date": "2022-01-26", "length_m": 112.30693508358091 }, "geometry": { "type": "LineString", "coordinates": [ [ 533124.243011592305265, 7261899.552908321842551 ], [ 533117.913190306629986, 7261898.459496571682394 ], [ 533109.453693735180423, 7261896.328929075971246 ], [ 533099.900785414502025, 7261893.659004537388682 ], [ 533089.987933612894267, 7261891.453355230391026 ], [ 533079.999107789364643, 7261889.999107789248228 ], [ 533070.0, 7261888.535470593720675 ], [ 533060.000892210751772, 7261886.253847263753414 ], [ 533050.012066387105733, 7261883.223979245871305 ], [ 533040.099214585614391, 7261880.0 ], [ 533030.546306264819577, 7261876.776912964880466 ], [ 533022.08680969348643, 7261873.757326913066208 ], [ 533015.756988407694735, 7261871.551677605137229 ] ] } },
{ "type": "Feature", "properties": { "id": 5, "reference_id": 4, "dune_id": 4, "dune_name": "The Star Dune", "acquisition_date": "2022-01-26", "length_m": 162.87270437820257 }, "geometry": { "type": "LineString", "coordinates": [ [ 533155.756988407694735, 7261910.000892210751772 ], [ 533162.08680969348643, 7261910.012066387571394 ], [ 533170.546306264819577, 7261910.098322374746203 ], [ 533180.099214585730806, 7261910.534239877946675 ], [ 533190.012066387105733, 7261911.9875951083377 ], [ 533200.000892210751772, 7261915.210682142525911 ], [ 533210.0, 7261920.0 ], [ 533220.0, 7261924.789317857474089 ], [ 533230.0, 7261928.013297103345394 ], [ 533240.0, 7261929.476934298872948 ], [ 533250.0, 7261929.9888258241117 ], [ 533260.0, 7261930.435025292448699 ], [ 533269.999107789364643, 7261931.539611218497157 ], [ 533279.987933612894267, 7261933.670178715139627 ], [ 533289.900785414502025, 7261936.329821286723018 ], [ 533299.453693735180423, 7261938.459496571682394 ], [ 533307.913190306629986, 7261939.552908320911229 ], [ 533314.243011592305265, 7261939.912851801142097 ] ] } },
{ "type": "Feature", "properties": { "id": 6, "reference_id": 9, "dune_id": 9, "dune_name": "Inverted Y Dune", "acquisition_date": "2022-01-26", "length_m": 758.54867985240696 }, "geometry": { "type": "LineString", "coordinates": [ [ 530054.243011592305265, 7261624.205310802906752 ], [ 530047.91319030651357, 7261628.329482780769467 ], [ 530039.453693735296838, 7261633.768501089885831 ], [ 530029.900785414502025, 7261640.088040409609675 ], [ 530019.987933612894267, 7261646.70183115452528 ], [ 530009.999107789364643, 7261653.310235233977437 ], [ 530000.0, 7261660.0 ], [ 529990.0, 7261666.690656976774335 ], [ 529980.0, 7261673.310235233977437 ], [ 529970.0, 7261680.010281966067851 ], [ 529960.0, 7261686.766630999743938 ], [ 529950.0, 7261693.670178714208305 ], [ 529940.0, 7261701.10458592697978 ], [ 529930.0, 7261708.907480461522937 ], [ 529920.0, 7261716.416969484649599 ], [ 529910.0, 7261723.681352891027927 ], [ 529900.0, 7261731.541395640000701 ], [ 529890.0, 7261740.447091680020094 ], [ 529880.000892210751772, 7261750.087148198857903 ], [ 529870.011174176470377, 7261760.011174176819623 ], [ 529860.087148198392242, 7261770.000892210751772 ], [ 529850.447983889840543, 7261780.0 ], [ 529841.551677605137229, 7261790.0 ], [ 529833.757326912600547, 7261800.0 ], [ 529826.777805175632238, 7261810.0 ], [ 529820.011174176586792, 7261820.0 ], [ 529813.311127444147132, 7261830.0 ], [ 529806.701831153710373, 7261840.000000000931323 ], [ 529800.087148198508658, 7261850.0 ], [ 529793.757326912600547, 7261860.0 ], [ 529788.24233458249364, 7261870.0 ], [ 529783.757326912600547, 7261880.0 ], [ 529780.087148198392242, 7261890.0 ], [ 529776.700938943075016, 7261900.0 ], [ 529773.299953267676756, 7261910.0 ], [ 529769.924025978078134, 7261920.0 ], [ 529766.329821285791695, 7261930.0 ], [ 529762.205649307463318, 7261940.0 ], [ 529757.79345848178491, 7261950.0 ], [ 529753.659896748373285, 7261960.0 ], [ 529750.0, 7261970.0 ], [ 529746.340103251626715, 7261980.0 ], [ 529742.20654151821509, 7261990.0 ], [ 529737.793458481901325, 7262000.0 ], [ 529733.659896748373285, 7262010.0 ], [ 529729.999107789364643, 7262020.0 ], [ 529726.329821285791695, 7262030.0 ], [ 529722.129675285541452, 7262040.0 ], [ 529717.423233035369776, 7262050.0 ], [ 529712.490510976873338, 7262060.0 ], [ 529707.510381233762018, 7262070.0 ], [ 529702.587048930465244, 7262080.0 ], [ 529697.946298736496828, 7262090.0 ], [ 529694.030122194904834, 7262100.0 ], [ 529691.093411749578081, 7262110.0 ], [ 529688.459496571333148, 7262120.0 ], [ 529684.790210067760199, 7262130.0 ], [ 529679.563190286629833, 7262140.0 ], [ 529673.6598967484897, 7262150.0 ], [ 529668.230268195271492, 7262160.0 ], [ 529663.757326912600547, 7262170.0 ], [ 529660.098322374979034, 7262180.0 ], [ 529656.78897935221903, 7262189.999107789248228 ], [ 529653.758219123352319, 7262199.987933613359928 ], [ 529651.551677605253644, 7262209.900785414502025 ], [ 529650.447983889840543, 7262219.453693735413253 ], [ 529650.087148198392242, 7262227.913190307095647 ], [ 529650.011174176470377, 7262234.243011592887342 ] ] } },
{ "type": "Feature", "properties": { "id": 7, "reference_id": 5, "dune_id": 5, "dune_name": "The Star Dune", "acquisition_date": "2022-01-26", "length_m": 594.62026442842728 }, "geometry": { "type": "LineString", "coordinates": [ [ 534064.243011592421681, 7261680.000892210751772 ], [ 534057.91319030651357, 7261680.011174176819623 ], [ 534049.453693735180423, 7261680.087148198857903 ], [ 534039.900785414502025, 7261680.447091679088771 ], [ 534029.987933612894267, 7261681.541395640000701 ], [ 534019.999107789364643, 7261683.681352891027927 ], [ 534010.0, 7261686.416969483718276 ], [ 534000.0, 7261688.906588250771165 ], [ 533990.0, 7261691.094303959980607 ], [ 533980.0, 7261693.594204692170024 ], [ 533970.0, 7261696.405795307829976 ], [ 533960.0, 7261698.906588250771165 ], [ 533950.0, 7261701.10458592697978 ], [ 533940.0, 7261703.671070924960077 ], [ 533930.0, 7261706.776912964880466 ], [ 533920.0, 7261710.087148198857903 ], [ 533910.0, 7261713.681352891027927 ], [ 533900.0, 7261717.871216924861073 ], [ 533890.0, 7261722.576766964048147 ], [ 533880.0, 7261727.510381233878434 ], [ 533870.0, 7261732.501685153692961 ], [ 533860.0, 7261737.510381234809756 ], [ 533850.0, 7261742.57676696497947 ], [ 533840.0, 7261747.871216925792396 ], [ 533830.0, 7261753.681352891027927 ], [ 533820.0, 7261760.088040409609675 ], [ 533810.0, 7261766.788087140768766 ], [ 533800.000892210751772, 7261773.75821912381798 ], [ 533790.012066387105733, 7261781.551677605137229 ], [ 533780.098322374979034, 7261790.447983890771866 ], [ 533770.535132088349201, 7261800.087148198857903 ], [ 533761.999661495094188, 7261810.011174177750945 ], [ 533755.309004517854191, 7261820.000892210751772 ], [ 533750.535132088349201, 7261830.0 ], [ 533746.788979352102615, 7261840.000000000931323 ], [ 533743.321409409865737, 7261850.0 ], [ 533740.000892210751772, 7261860.0 ], [ 533736.689764766488224, 7261870.0 ], [ 533733.299061057041399, 7261880.0 ], [ 533729.923133767326362, 7261890.0 ], [ 533726.319539319956675, 7261900.0 ], [ 533722.128783074906096, 7261910.0 ], [ 533717.423233035253361, 7261920.0 ], [ 533712.489618766237982, 7261930.0 ], [ 533707.498314846656285, 7261940.0 ], [ 533702.489618766237982, 7261950.0 ], [ 533697.423233035369776, 7261960.0 ], [ 533692.128783074789681, 7261970.0 ], [ 533686.31953932007309, 7261980.0 ], [ 533679.924025978078134, 7261989.999553894624114 ], [ 533673.311127444263548, 7261999.993520701304078 ], [ 533666.788087141467258, 7262009.944359513930976 ], [ 533660.535132088232785, 7262019.677239574491978 ], [ 533655.309004517737776, 7262028.683442020788789 ], [ 533651.999661495094188, 7262036.078100949525833 ], [ 533650.535132088349201, 7262041.078100949525833 ] ] } },
{ "type": "Feature", "properties": { "id": 8, "reference_id": 5, "dune_id": 5, "dune_name": "The Star Dune", "acquisition_date": "2022-01-26", "length_m": 274.2723596163674 }, "geometry": { "type": "LineString", "coordinates": [ [ 534095.756988407694735, 7261670.0 ], [ 534102.08680969348643, 7261670.0 ], [ 534110.546306264819577, 7261669.999107789248228 ], [ 534120.099214585614391, 7261669.9888258241117 ], [ 534130.012066387222148, 7261669.911959591321647 ], [ 534140.000892210751772, 7261669.541734145022929 ], [ 534150.0, 7261668.371456162072718 ], [ 534160.0, 7261665.871555430814624 ], [ 534170.0, 7261662.041634876281023 ], [ 534180.0, 7261657.41205885913223 ], [ 534190.0, 7261652.488726556301117 ], [ 534200.0, 7261647.498314848169684 ], [ 534210.0, 7261642.489618767052889 ], [ 534220.0, 7261637.423233035951853 ], [ 534230.0, 7261632.128783075138927 ], [ 534240.0, 7261626.318647108972073 ], [ 534250.0, 7261619.911959590390325 ], [ 534260.0, 7261613.211912859231234 ], [ 534270.0, 7261606.241780877113342 ], [ 534279.999107789248228, 7261598.448322394862771 ], [ 534289.987933612894267, 7261589.552908320911229 ], [ 534299.900785414502025, 7261579.924918188713491 ], [ 534309.453693735296838, 7261570.088040409609675 ], [ 534317.91319030651357, 7261560.545414054766297 ], [ 534324.243011592421681, 7261552.086809692904353 ], [ 534327.91319030651357, 7261545.756988408043981 ] ] } },
{ "type": "Feature", "properties": { "id": 9, "reference_id": 5, "dune_id": 5, "dune_name": "The Star Dune", "acquisition_date": "2022-01-26", "length_m": 95.687187792080934 }, "geometry": { "type": "LineString", "coordinates": [ [ 534334.342226177919656, 7261305.756988408043981 ], [ 534328.459496571333148, 7261312.086809693835676 ], [ 534321.540503428666852, 7261320.546306264586747 ], [ 534315.657773822080344, 7261330.099214585497975 ], [ 534312.074743306264281, 7261340.012066386640072 ], [ 534310.545414054067805, 7261350.0 ], [ 534310.099214585614391, 7261359.987933613359928 ], [ 534310.012066387222148, 7261369.900785414502025 ], [ 534310.000892210751772, 7261379.453693735413253 ], [ 534310.0, 7261387.913190307095647 ], [ 534310.0, 7261394.243011592887342 ] ] } },
{ "type": "Feature", "properties": { "id": 10, "reference_id": 5, "dune_id": 5, "dune_name": "The Star Dune", "acquisition_date": "2022-01-26", "length_m": 80.820703135473849 }, "geometry": { "type": "LineString", "coordinates": [ [ 534320.087148198392242, 7261425.756988408043981 ], [ 534320.447091679205187, 7261432.086809692904353 ], [ 534321.541395639418624, 7261440.546306265518069 ], [ 534323.681352890678681, 7261450.099214585497975 ], [ 534326.416969484300353, 7261460.0111741758883 ], [ 534328.906588250538334, 7261469.9888258241117 ], [ 534331.093411749578081, 7261479.900785415433347 ], [ 534333.583030515816063, 7261489.453693735413253 ], [ 534336.318647109321319, 7261497.913190306164324 ], [ 534338.458604360581376, 7261504.243011591956019 ] ] } },
{ "type": "Feature", "properties": { "id": 11, "reference_id": 6, "dune_id": 6, "dune_name": "The Star Dune", "acquisition_date": "2022-01-26", "length_m": 545.58059350557289 }, "geometry": { "type": "LineString", "coordinates": [ [ 533650.0, 7262048.921899050474167 ], [ 533650.0, 7262053.921899050474167 ], [ 533650.0, 7262061.316557979211211 ], [ 533650.0, 7262070.322760425508022 ], [ 533650.0, 7262080.055640487000346 ], [ 533650.0, 7262090.006479298695922 ], [ 533650.0, 7262100.000446105375886 ], [ 533650.0, 7262110.0 ], [ 533650.0, 7262120.0 ], [ 533650.0, 7262130.0 ], [ 533650.0, 7262140.0 ], [ 533650.000892210751772, 7262150.0 ], [ 533650.011174176470377, 7262160.0 ], [ 533650.087148198508658, 7262170.0 ], [ 533650.447091679205187, 7262180.0 ], [ 533651.540503428783268, 7262190.0 ], [ 533653.671070924960077, 7262200.0 ], [ 533656.340995462262072, 7262210.0 ], [ 533658.546644769841805, 7262220.0 ], [ 533660.0, 7262230.0 ], [ 533661.453355230391026, 7262240.0 ], [ 533663.659004537737928, 7262250.0 ], [ 533666.328929075156339, 7262260.0 ], [ 533668.459496571333148, 7262270.0 ], [ 533669.552908320911229, 7262280.0 ], [ 533669.912851801607758, 7262290.0 ], [ 533669.988825823646039, 7262300.0 ], [ 533669.999107789364643, 7262310.0 ], [ 533670.0, 7262320.0 ], [ 533669.999107789364643, 7262330.0 ], [ 533669.988825823646039, 7262340.000000000931323 ], [ 533669.912851801607758, 7262350.0 ], [ 533669.552908320911229, 7262360.0 ], [ 533668.458604360697791, 7262370.0 ], [ 533666.318647109437734, 7262380.0 ], [ 533663.583030515816063, 7262390.0 ], [ 533661.092519538942724, 7262400.0 ], [ 533658.895414073951542, 7262410.0 ], [ 533656.329821285791695, 7262420.0 ], [ 533653.233369000838138, 7262430.0 ], [ 533649.989718034281395, 7262440.0 ], [ 533646.689764766488224, 7262450.0 ], [ 533643.309343022760004, 7262460.0 ], [ 533640.000000000116415, 7262470.0 ], [ 533636.690656977239996, 7262480.0 ], [ 533633.310235233511776, 7262490.0 ], [ 533630.01028196583502, 7262500.0 ], [ 533626.766630999161862, 7262510.0 ], [ 533623.670178714208305, 7262520.0 ], [ 533621.104585925932042, 7262530.0 ], [ 533618.907480461173691, 7262539.999107789248228 ], [ 533616.416969484183937, 7262549.987933613359928 ], [ 533613.681352890795097, 7262559.900785414502025 ], [ 533611.541395639418624, 7262569.453693736344576 ], [ 533610.447091679205187, 7262577.913190307095647 ], [ 533610.087148198392242, 7262584.243011591956019 ] ] } },
{ "type": "Feature", "properties": { "id": 12, "reference_id": 7, "dune_id": 7, "dune_name": "Inverted Y Dune", "acquisition_date": "2022-01-26", "length_m": 464.73081744482789 }, "geometry": { "type": "LineString", "coordinates": [ [ 530315.756988407694735, 7261629.541734144091606 ], [ 530322.086809693602845, 7261628.372348373755813 ], [ 530330.546306264819577, 7261625.881837395951152 ], [ 530340.099214585614391, 7261622.118501109071076 ], [ 530350.012066387105733, 7261617.782284305430949 ], [ 530360.000892210635357, 7261613.659004538320005 ], [ 530370.0, 7261609.999107789248228 ], [ 530380.0, 7261606.328929075039923 ], [ 530390.0, 7261602.118501110002398 ], [ 530400.0, 7261597.335192626342177 ], [ 530410.0, 7261592.031352911144495 ], [ 530420.0, 7261585.870663220062852 ], [ 530430.000000000116415, 7261578.371456162072718 ], [ 530440.0, 7261569.541734145022929 ], [ 530450.0, 7261559.911959591321647 ], [ 530460.0, 7261549.9888258241117 ], [ 530469.999107789364643, 7261539.999107789248228 ], [ 530479.988825823529623, 7261530.0 ], [ 530489.912851801607758, 7261520.0 ], [ 530499.552016110159457, 7261510.0 ], [ 530508.448322394862771, 7261500.0 ], [ 530516.242673087399453, 7261490.0 ], [ 530523.223087035119534, 7261480.0 ], [ 530529.999107789364643, 7261470.000000000931323 ], [ 530536.765738788526505, 7261460.0 ], [ 530543.670178714208305, 7261450.0 ], [ 530551.104585926048458, 7261440.0 ], [ 530558.907480461057276, 7261430.0 ], [ 530566.416969484183937, 7261420.0 ], [ 530573.681352890678681, 7261410.0 ], [ 530581.54139563953504, 7261400.0 ], [ 530590.447091679205187, 7261390.0 ], [ 530600.087148198392242, 7261380.0 ], [ 530610.01028196583502, 7261370.000892210751772 ], [ 530619.988825823646039, 7261360.012066386640072 ], [ 530629.900785414502025, 7261350.099214585497975 ], [ 530639.453693735296838, 7261340.546306265518069 ], [ 530647.913190306629986, 7261332.086809693835676 ], [ 530654.243011592305265, 7261325.756988408043981 ] ] } },
{ "type": "Feature", "properties": { "id": 13, "reference_id": 2, "dune_id": 2, "dune_name": "Big Mommy Dune", "acquisition_date": "2022-01-26", "length_m": 64.817094339327326 }, "geometry": { "type": "LineString", "coordinates": [ [ 528884.243011592305265, 7260889.911959591321647 ], [ 528877.91319030651357, 7260889.540841934271157 ], [ 528869.454585945932195, 7260888.36117419693619 ], [ 528859.912851801607758, 7260885.79558140784502 ], [ 528850.087148198392242, 7260881.682583606801927 ], [ 528840.545414054067805, 7260876.329821286723018 ], [ 528832.08680969348643, 7260870.447091680020094 ], [ 528825.756988407694735, 7260865.297830341383815 ] ] } },
{ "type": "Feature", "properties": { "id": 14, "reference_id": 2, "dune_id": 2, "dune_name": "Big Mommy Dune", "acquisition_date": "2022-01-26", "length_m": 329.87317877507706 }, "geometry": { "type": "LineString", "coordinates": [ [ 528704.243011592305265, 7260828.448322394862771 ], [ 528697.913190306629986, 7260826.241780877113342 ], [ 528689.453693735296838, 7260823.211020648479462 ], [ 528679.900785414385609, 7260819.901677625253797 ], [ 528669.987933612894267, 7260816.241780877113342 ], [ 528659.999107789364643, 7260811.757665418088436 ], [ 528650.0, 7260806.242673087865114 ], [ 528640.0, 7260799.912851802073419 ], [ 528630.0, 7260793.298168847337365 ], [ 528620.0, 7260786.689764766953886 ], [ 528610.0, 7260780.000000000931323 ], [ 528600.0, 7260773.310235233977437 ], [ 528590.0, 7260766.700938942842185 ], [ 528580.0, 7260760.075974021106958 ], [ 528570.0, 7260753.670178715139627 ], [ 528560.0, 7260747.794350693002343 ], [ 528550.0, 7260742.205649307928979 ], [ 528540.0, 7260736.328929075971246 ], [ 528530.0, 7260729.913744011893868 ], [ 528520.0, 7260723.223087035119534 ], [ 528510.0, 7260716.328929075971246 ], [ 528500.0, 7260708.895414074882865 ], [ 528490.0, 7260701.093411750160158 ], [ 528480.0, 7260693.594204692170024 ], [ 528470.000892210751772, 7260686.406687518581748 ], [ 528460.012066387105733, 7260678.917762426659465 ], [ 528450.099214585614391, 7260671.19262633472681 ], [ 528440.546306264819577, 7260664.129336780868471 ], [ 528432.08680969348643, 7260658.405456803739071 ], [ 528425.756988407694735, 7260654.215592768974602 ] ] } },
{ "type": "Feature", "properties": { "id": 15, "reference_id": 2, "dune_id": 2, "dune_name": "Big Mommy Dune", "acquisition_date": "2022-01-26", "length_m": 75.658131495120131 }, "geometry": { "type": "LineString", "coordinates": [ [ 529134.243011592421681, 7260969.454585946165025 ], [ 529127.91319030651357, 7260967.925256693735719 ], [ 529119.453693735296838, 7260964.342226178385317 ], [ 529109.901677625137381, 7260958.459496571682394 ], [ 529100.0, 7260951.540503429248929 ], [ 529090.098322374979034, 7260945.657773822546005 ], [ 529080.546306264819577, 7260942.074743306264281 ], [ 529072.08680969348643, 7260940.545414053834975 ], [ 529065.756988407694735, 7260940.099214585497975 ] ] } },
{ "type": "Feature", "properties": { "id": 16, "reference_id": 8, "dune_id": 8, "dune_name": "Inverted Y Dune", "acquisition_date": "2022-01-26", "length_m": 718.4358156525293 }, "geometry": { "type": "LineString", "coordinates": [ [ 530096.835089357104152, 7261591.078100949525833 ], [ 530098.164910642895848, 7261586.078100949525833 ], [ 530099.229748285608366, 7261578.683442020788789 ], [ 530099.776454160455614, 7261569.6772395754233 ], [ 530099.956425900803879, 7261559.944359513930976 ], [ 530099.995305122458376, 7261549.993520701304078 ], [ 530100.010728071210906, 7261539.999553894624114 ], [ 530100.087148198508658, 7261530.0 ], [ 530100.447091679205187, 7261520.0 ], [ 530101.540503428783268, 7261510.0 ], [ 530103.670178714208305, 7261500.0 ], [ 530106.330713496543467, 7261490.0 ], [ 530108.470670747803524, 7261480.0 ], [ 530109.640056519303471, 7261470.000000000931323 ], [ 530110.359943480812944, 7261460.0 ], [ 530111.529329252312891, 7261450.0 ], [ 530113.670178714208305, 7261440.0 ], [ 530116.340995462262072, 7261430.0 ], [ 530118.54664476972539, 7261420.0 ], [ 530120.000892210751772, 7261410.0 ], [ 530121.464529406744987, 7261400.0 ], [ 530123.746152736246586, 7261390.0 ], [ 530126.776912964996882, 7261380.0 ], [ 530130.012066387222148, 7261370.0 ], [ 530133.321409409865737, 7261360.0 ], [ 530136.777805175632238, 7261350.0 ], [ 530140.447983889840543, 7261340.0 ], [ 530144.861912838649005, 7261330.0 ], [ 530150.459158066427335, 7261320.0 ], [ 530156.864953374140896, 7261310.000000000931323 ], [ 530163.768501089070924, 7261300.0 ], [ 530171.552569815889001, 7261290.000892210751772 ], [ 530180.447983889840543, 7261280.0111741758883 ], [ 530190.087148198392242, 7261270.087148198857903 ], [ 530200.011174176586792, 7261260.447983890771866 ], [ 530210.000892210751772, 7261251.552569815889001 ], [ 530220.0, 7261243.768501089885831 ], [ 530230.0, 7261236.864953374490142 ], [ 530240.0, 7261230.459158066660166 ], [ 530250.0, 7261224.861912839114666 ], [ 530260.0, 7261220.447983890771866 ], [ 530270.0, 7261216.777805175632238 ], [ 530280.0, 7261213.321409409865737 ], [ 530290.0, 7261210.012066387571394 ], [ 530300.0, 7261206.777805175632238 ], [ 530310.0, 7261203.757326912134886 ], [ 530320.0, 7261201.551677605137229 ], [ 530330.0, 7261200.447983888909221 ], [ 530340.0, 7261200.087148198857903 ], [ 530350.0, 7261200.0111741758883 ], [ 530360.0, 7261200.001784421503544 ], [ 530370.0, 7261200.0111741758883 ], [ 530380.0, 7261200.087148198857903 ], [ 530390.0, 7261200.447091678157449 ], [ 530400.0, 7261201.540503428317606 ], [ 530410.0, 7261203.670178713276982 ], [ 530420.0, 7261206.329821285791695 ], [ 530430.000000000116415, 7261208.459496571682394 ], [ 530440.0, 7261209.552908320911229 ], [ 530450.0, 7261209.911959591321647 ], [ 530460.0, 7261209.976759436540306 ], [ 530470.0, 7261209.899893203750253 ], [ 530480.0, 7261209.453693735413253 ], [ 530489.999107789364643, 7261207.914082517847419 ], [ 530499.987933612894267, 7261204.255077979527414 ], [ 530509.900785414385609, 7261198.012404892593622 ], [ 530519.453693735180423, 7261190.0 ], [ 530527.91319030651357, 7261181.987595107406378 ], [ 530534.243011592305265, 7261175.744922020472586 ] ] } }
]
}
