{
"type": "FeatureCollection",
"name": "crests_2025_09_2025-09-04",
"crs": { "type": "name", "properties": { "name": "urn:ogc:def:crs:EPSG::32733" } },
"features": [
{ "type": "Feature", "properties": { "id": 0, "reference_id": 6, "dune_id": 6, "dune_name": "The Star Dune", "acquisition_date": "2025-09-04", "length_m": 186.48731707630813 }, "geometry": { "type": "LineString", "coordinates": [ [ 533645.882729606702924, 7262475.756988408043981 ], [ 533642.128783074789681, 7262482.086809693835676 ], [ 533637.859150538104586, 7262490.546306265518069 ], [ 533634.030122194904834, 7262500.099214585497975 ], [ 533631.179667737334967, 7262510.012066386640072 ], [ 533628.906588250421919, 7262520.000892210751772 ], [ 533626.330713496427052, 7262530.0 ], [ 533623.234261211473495, 7262540.0 ], [ 533620.0, 7262550.0 ], [ 533616.765738788526505, 7262560.0 ], [ 533613.670178714208305, 7262570.0 ], [ 533611.104585926048458, 7262580.0 ], [ 533608.907480461173691, 7262590.0 ], [ 533606.417861694935709, 7262600.000000000931323 ], [ 533603.692527067149058, 7262609.999107789248228 ], [ 533601.628543837810867, 7262619.987933613359928 ], [ 533600.894183358293958, 7262629.900785414502025 ], [ 533601.62765162717551, 7262639.453693734481931 ], [ 533603.681352890678681, 7262647.913190307095647 ], [ 533606.330713496543467, 7262654.243011592887342 ] ] } },
{ "type": "Feature", "properties": { "id": 1, "reference_id": 7, "dune_id": 7, "dune_name": "Inverted Y Dune", "acquisition_date": "2025-09-04", "length_m": 396.53016135182588 }, "geometry": { "type": "LineString", "coordinates": [ [ 530624.243903802940622, 7261355.756988408043981 ], [ 530617.924364482983947, 7261362.086809693835676 ], [ 530609.54084193368908, 7261370.546306265518069 ], [ 530600.347877093590796, 7261380.099214585497975 ], [ 530591.529329252312891, 7261390.012066387571394 ], [ 530583.680460680043325, 7261400.000892210751772 ], [ 530576.416969484183937, 7261410.0 ], [ 530568.907480461057276, 7261420.0 ], [ 530561.104585926048458, 7261430.0 ], [ 530553.670178714208305, 7261440.0 ], [ 530546.766630999161862, 7261450.0 ], [ 530540.01028196583502, 7261460.0 ], [ 530533.31023523339536, 7261470.000000000931323 ], [ 530526.689764766488224, 7261480.0 ], [ 530519.988825823529623, 7261490.0 ], [ 530513.222194824367762, 7261500.0 ], [ 530506.242673087399453, 7261510.0 ], [ 530498.448322394862771, 7261520.0 ], [ 530489.552016110159457, 7261529.999107789248228 ], [ 530479.912851801607758, 7261539.9888258241117 ], [ 530469.988825823529623, 7261549.912851801142097 ], [ 530459.999107789364643, 7261559.552016111090779 ], [ 530450.0, 7261568.448322394862771 ], [ 530440.0, 7261576.241780877113342 ], [ 530430.000000000116415, 7261583.211912859231234 ], [ 530420.0, 7261589.911959591321647 ], [ 530410.0, 7261596.318647108972073 ], [ 530400.0, 7261602.128783075138927 ], [ 530390.000892210751772, 7261607.422340825200081 ], [ 530380.012066387105733, 7261612.478444589301944 ], [ 530370.099214585614391, 7261617.411166648380458 ], [ 530360.546306264703162, 7261622.041634876281023 ], [ 530352.08680969348643, 7261625.871555430814624 ], [ 530345.756988407694735, 7261628.371456163004041 ] ] } },
{ "type": "Feature", "properties": { "id": 2, "reference_id": 4, "dune_id": 4, "dune_name": "The Star Dune", "acquisition_date": "2025-09-04", "length_m": 655.46903879999979 }, "geometry": { "type": "LineString", "coordinates": [ [ 533005.756988407694735, 7261870.087148198857903 ], [ 533012.08680969348643, 7261870.447091680020094 ], [ 533020.546306264819577, 7261871.541395640000701 ], [ 533030.099214585614391, 7261873.681352891027927 ], [ 533040.012066387105733, 7261876.416969484649599 ], [ 533050.000892210751772, 7261878.906588250771165 ], [ 533060.0, 7261881.094303959980607 ], [ 533070.0, 7261883.594204692170024 ], [ 533080.0, 7261886.405795307829976 ], [ 533090.0, 7261888.905696040019393 ], [ 533100.0, 7261891.094303959980607 ], [ 533110.0, 7261893.594204692170024 ], [ 533120.0, 7261896.405795307829976 ], [ 533130.0, 7261898.906588250771165 ], [ 533140.0, 7261901.104585926048458 ], [ 533150.0, 7261903.670178715139627 ], [ 533160.0, 7261906.765738788992167 ], [ 533170.0, 7261910.0 ], [ 533180.0, 7261913.234261212870479 ], [ 533190.0, 7261916.329821286723018 ], [ 533200.0, 7261918.895414073951542 ], [ 533210.0, 7261921.093411749228835 ], [ 533220.0, 7261923.594204692170024 ], [ 533230.0, 7261926.405795307829976 ], [ 533240.0, 7261928.906588250771165 ], [ 533250.0, 7261931.104585926048458 ], [ 533260.0, 7261933.670178715139627 ], [ 533270.0, 7261936.765738788992167 ], [ 533280.0, 7261940.0 ], [ 533290.0, 7261943.234261211007833 ], [ 533300.0, 7261946.329821284860373 ], [ 533310.0, 7261948.896306285634637 ], [ 533320.0, 7261951.103693716228008 ], [ 533330.0, 7261953.670178715139627 ], [ 533340.0, 7261956.765738788992167 ], [ 533350.0, 7261960.0 ], [ 533360.0, 7261963.234261211939156 ], [ 533370.0, 7261966.330713496543467 ], [ 533380.000000000116415, 7261968.906588250771165 ], [ 533390.0, 7261971.179667737334967 ], [ 533400.000000000116415, 7261974.031014406122267 ], [ 533410.0, 7261977.870324715040624 ], [ 533420.0, 7261982.216823483817279 ], [ 533430.0, 7261986.340995462611318 ], [ 533440.0, 7261990.0 ], [ 533450.0, 7261993.659896748140454 ], [ 533460.0, 7261997.793458482250571 ], [ 533470.0, 7262002.206541518680751 ], [ 533480.0, 7262006.340103251859546 ], [ 533490.0, 7262010.000892210751772 ], [ 533500.0, 7262013.670178714208305 ], [ 533510.0, 7262017.870324715040624 ], [ 533520.0, 7262022.57676696497947 ], [ 533530.0, 7262027.509489023126662 ], [ 533540.0, 7262032.489618767052889 ], [ 533550.0, 7262037.412951069884002 ], [ 533560.0, 7262042.052809053100646 ], [ 533570.0, 7262045.958703628741205 ], [ 533579.999553894740529, 7262048.818101735785604 ], [ 533589.993520701071247, 7262051.076650485396385 ], [ 533599.94435951358173, 7262053.538564206101 ], [ 533609.677239574841224, 7262056.095101269893348 ], [ 533618.683442020905204, 7262057.688352646306157 ], [ 533626.078100949409418, 7262057.717818964272738 ], [ 533631.078100949525833, 7262056.74794115871191 ] ] } },
{ "type": "Feature", "properties": { "id": 3, "reference_id": 5, "dune_id": 5, "dune_name": "The Star Dune", "acquisition_date": "2025-09-04", "length_m": 782.9307691390851 }, "geometry": { "type": "LineString", "coordinates": [ [ 533648.463633195031434, 7262041.078100949525833 ], [ 533652.294247423415072, 7262036.078100949525833 ], [ 533657.198395375045948, 7262028.683442020788789 ], [ 533662.441261534229852, 7262019.677239574491978 ], [ 533667.837924791732803, 7262009.944359513930976 ], [ 533673.665483836666681, 7261999.993520701304078 ], [ 533679.999553894624114, 7261989.999553894624114 ], [ 533686.329821285791695, 7261980.0 ], [ 533692.129675285541452, 7261970.0 ], [ 533697.423233035369776, 7261960.0 ], [ 533702.489618766237982, 7261950.0 ], [ 533707.498314846656285, 7261940.0 ], [ 533712.489618766237982, 7261930.0 ], [ 533717.423233035253361, 7261920.0 ], [ 533722.128783074906096, 7261910.0 ], [ 533726.319539319956675, 7261900.0 ], [ 533729.923133767326362, 7261890.0 ], [ 533733.299953267676756, 7261880.0 ], [ 533736.700046732323244, 7261870.0 ], [ 533740.076866232673638, 7261860.0 ], [ 533743.681352890678681, 7261850.0 ], [ 533747.882391101680696, 7261840.000000000931323 ], [ 533752.664807373774238, 7261830.0 ], [ 533757.968647089437582, 7261820.0 ], [ 533764.129336780519225, 7261810.000892210751772 ], [ 533771.628543837810867, 7261800.011174176819623 ], [ 533780.458265855675563, 7261790.088040409609675 ], [ 533790.088040409144014, 7261780.459158066660166 ], [ 533800.011174176470377, 7261771.638825803995132 ], [ 533810.000892210635357, 7261764.20441859215498 ], [ 533820.0, 7261758.318308604881167 ], [ 533830.0, 7261753.682245101779699 ], [ 533840.0, 7261749.651230696588755 ], [ 533850.0, 7261745.237301747314632 ], [ 533860.0, 7261740.0 ], [ 533870.0, 7261734.763590464368463 ], [ 533880.0, 7261730.360835691913962 ], [ 533890.0, 7261726.416077273897827 ], [ 533900.0, 7261722.216823483817279 ], [ 533910.0, 7261717.795242903754115 ], [ 533920.0, 7261713.671070924960077 ], [ 533930.0, 7261710.086255988106132 ], [ 533940.0, 7261706.776912964880466 ], [ 533950.0, 7261703.671070924960077 ], [ 533960.0, 7261701.10458592697978 ], [ 533970.0, 7261698.907480461522937 ], [ 533980.0, 7261696.416969484649599 ], [ 533990.0, 7261693.680460680276155 ], [ 534000.0, 7261691.530221464112401 ], [ 534010.0, 7261690.35994348116219 ], [ 534020.0, 7261689.64005651883781 ], [ 534030.0, 7261688.470670748502016 ], [ 534040.0, 7261686.33071349747479 ], [ 534050.0, 7261683.670178715139627 ], [ 534060.0, 7261681.539611218497157 ], [ 534070.0, 7261680.435917503200471 ], [ 534080.0, 7261680.0 ], [ 534090.0, 7261679.564082497730851 ], [ 534100.0, 7261678.460388781502843 ], [ 534110.0, 7261676.329821285791695 ], [ 534120.0, 7261673.669286503456533 ], [ 534130.0, 7261671.529329252429307 ], [ 534140.0, 7261670.359051270410419 ], [ 534150.0, 7261669.62888234294951 ], [ 534160.0, 7261668.382630338892341 ], [ 534170.0, 7261665.872447641566396 ], [ 534180.0, 7261662.041634876281023 ], [ 534190.0, 7261657.41205885913223 ], [ 534199.999107789248228, 7261652.489618767052889 ], [ 534209.987933612894267, 7261647.510381234809756 ], [ 534219.900785414502025, 7261642.587941141799092 ], [ 534229.453693735180423, 7261637.958365123718977 ], [ 534237.91319030651357, 7261634.128444570116699 ], [ 534244.243011592305265, 7261631.628543838858604 ] ] } },
{ "type": "Feature", "properties": { "id": 4, "reference_id": 8, "dune_id": 8, "dune_name": "Inverted Y Dune", "acquisition_date": "2025-09-04", "length_m": 152.14873015966171 }, "geometry": { "type": "LineString", "coordinates": [ [ 530139.552016110159457, 7261355.756988408043981 ], [ 530138.448322394862771, 7261362.086809693835676 ], [ 530136.242673087399453, 7261370.546306265518069 ], [ 530133.223087035119534, 7261380.099214585497975 ], [ 530130.0, 7261390.012066387571394 ], [ 530126.776020754361525, 7261400.000892210751772 ], [ 530123.746152736246586, 7261410.0 ], [ 530121.464529406744987, 7261420.0 ], [ 530120.000892210751772, 7261430.0 ], [ 530118.54664476972539, 7261440.0 ], [ 530116.340995462262072, 7261450.0 ], [ 530113.671070924960077, 7261459.999107789248228 ], [ 530111.540503428666852, 7261469.987933613359928 ], [ 530110.447091679205187, 7261479.900785415433347 ], [ 530110.087148198392242, 7261489.453693735413253 ], [ 530110.011174176470377, 7261497.913190306164324 ], [ 530110.000892210751772, 7261504.243011591956019 ] ] } },
{ "type": "Feature", "properties": { "id": 5, "reference_id": 8, "dune_id": 8, "dune_name": "Inverted Y Dune", "acquisition_date": "2025-09-04", "length_m": 259.44991972580954 }, "geometry": { "type": "LineString", "coordinates": [ [ 530364.243011592305265, 7261200.087148198857903 ], [ 530357.91319030651357, 7261200.447091678157449 ], [ 530349.453693735180423, 7261201.540503428317606 ], [ 530339.900785414502025, 7261203.670178713276982 ], [ 530329.987933612894267, 7261206.330713496543467 ], [ 530319.999107789248228, 7261208.470670748502016 ], [ 530310.0, 7261209.640948730520904 ], [ 530300.0, 7261210.371117657981813 ], [ 530290.0, 7261211.617369662038982 ], [ 530280.0, 7261214.127552360296249 ], [ 530270.0, 7261217.958365123718977 ], [ 530260.0, 7261222.588833352550864 ], [ 530250.0, 7261227.522447621449828 ], [ 530240.0, 7261232.588833352550864 ], [ 530230.0, 7261237.958365123718977 ], [ 530220.0, 7261244.128444569185376 ], [ 530210.000892210751772, 7261251.628543837927282 ], [ 530200.011174176586792, 7261260.458265855908394 ], [ 530190.088040409144014, 7261270.088040409609675 ], [ 530180.45915806631092, 7261280.010281965136528 ], [ 530171.639718014397658, 7261289.9888258241117 ], [ 530164.216484978911467, 7261299.900785414502025 ], [ 530158.41663097939454, 7261309.453693735413253 ], [ 530154.216484979027882, 7261317.913190307095647 ], [ 530151.639718014397658, 7261324.243011591956019 ] ] } },
{ "type": "Feature", "properties": { "id": 6, "reference_id": 8, "dune_id": 8, "dune_name": "Inverted Y Dune", "acquisition_date": "2025-09-04", "length_m": 131.72728206174628 }, "geometry": { "type": "LineString", "coordinates": [ [ 530524.243011592421681, 7261191.627651628106833 ], [ 530517.91319030651357, 7261194.117270393297076 ], [ 530509.453693735296838, 7261197.870324715040624 ], [ 530499.900785414502025, 7261202.129675285890698 ], [ 530489.987933612894267, 7261205.882729606702924 ], [ 530479.999107789364643, 7261208.372348373755813 ], [ 530470.0, 7261209.541734145022929 ], [ 530460.0, 7261209.911959591321647 ], [ 530450.0, 7261209.9888258241117 ], [ 530440.000892210751772, 7261209.999107790179551 ], [ 530430.012066387222148, 7261210.000000000931323 ], [ 530420.099214585614391, 7261210.000000000931323 ], [ 530410.546306264819577, 7261210.000000000931323 ], [ 530402.08680969348643, 7261210.000000000931323 ], [ 530395.756988407694735, 7261210.000000000931323 ] ] } },
{ "type": "Feature", "properties": { "id": 7, "reference_id": 9, "dune_id": 9, "dune_name": "Inverted Y Dune", "acquisition_date": "2025-09-04", "length_m": 311.90405924601845 }, "geometry": { "type": "LineString", "coordinates": [ [ 529749.541734144440852, 7261975.756988408043981 ], [ 529748.371456162189133, 7261982.086809693835676 ], [ 529745.871555430232547, 7261990.546306265518069 ], [ 529742.041634876397438, 7262000.099214585497975 ], [ 529737.4120588588994, 7262010.012066387571394 ], [ 529732.489618766237982, 7262020.000892210751772 ], [ 529727.509489023126662, 7262030.0 ], [ 529722.576766964630224, 7262040.0 ], [ 529717.870324714574963, 7262050.0 ], [ 529713.670178714208305, 7262060.0 ], [ 529710.0, 7262070.0 ], [ 529706.328929075156339, 7262080.0 ], [ 529702.119393319706433, 7262090.0 ], [ 529697.347259013447911, 7262100.0 ], [ 529692.130567496176809, 7262110.0 ], [ 529686.416077273548581, 7262120.0 ], [ 529680.447091679205187, 7262130.0 ], [ 529675.211574353626929, 7262140.0 ], [ 529671.550785394501872, 7262150.0 ], [ 529668.983454483095556, 7262160.0 ], [ 529666.340995462262072, 7262170.0 ], [ 529663.234261211473495, 7262180.0 ], [ 529659.98971803416498, 7262190.0 ], [ 529656.689764766488224, 7262200.0 ], [ 529653.309343022760004, 7262210.0 ], [ 529650.0, 7262219.999107789248228 ], [ 529646.690656977239996, 7262229.987933613359928 ], [ 529643.310235233511776, 7262239.900785414502025 ], [ 529640.011174176470377, 7262249.453693735413253 ], [ 529636.777805175632238, 7262257.913190307095647 ], [ 529633.757326912600547, 7262264.243011591956019 ] ] } },
{ "type": "Feature", "properties": { "id": 8, "reference_id": 9, "dune_id": 9, "dune_name": "Inverted Y Dune", "acquisition_date": "2025-09-04", "length_m": 466.81131022094814 }, "geometry": { "type": "LineString", "coordinates": [ [ 530092.618604378192686, 7261588.921006839722395 ], [ 530089.748279663734138, 7261593.910724874585867 ], [ 530085.013263306696899, 7261601.22940978128463 ], [ 530078.136736146174371, 7261609.874776534736156 ], [ 530069.497267834376544, 7261618.503962881863117 ], [ 530059.906372502679005, 7261626.249152386561036 ], [ 530049.988379718270153, 7261633.22353314049542 ], [ 530039.999107789364643, 7261639.999107789248228 ], [ 530030.0, 7261646.765738788992167 ], [ 530020.0, 7261653.669286503456533 ], [ 530010.0, 7261661.093411750160158 ], [ 530000.0, 7261668.819440052844584 ], [ 529990.0, 7261675.958703628741205 ], [ 529980.0, 7261682.053701262921095 ], [ 529970.0, 7261687.424125246703625 ], [ 529960.0, 7261692.57676696497947 ], [ 529950.0, 7261697.956580703146756 ], [ 529940.0, 7261704.117270393297076 ], [ 529930.0, 7261711.541395640000701 ], [ 529920.0, 7261720.0111741758883 ], [ 529910.000892210635357, 7261728.547536981292069 ], [ 529900.011174176470377, 7261736.340995462611318 ], [ 529890.087148198392242, 7261743.671070925891399 ], [ 529880.447091679205187, 7261751.540503429248929 ], [ 529871.540503428666852, 7261760.447091679088771 ], [ 529863.670178714208305, 7261770.087148198857903 ], [ 529856.329821285791695, 7261780.011174176819623 ], [ 529848.460388781968504, 7261790.000892210751772 ], [ 529839.56408249726519, 7261800.0 ], [ 529830.000892210751772, 7261810.0 ], [ 529820.447983889840543, 7261820.0 ], [ 529811.63793359301053, 7261830.0 ], [ 529804.205310802557506, 7261840.000000000931323 ], [ 529798.329482780885883, 7261850.0 ], [ 529793.768501089070924, 7261860.0 ], [ 529790.088040409144014, 7261869.999107789248228 ], [ 529786.701831153710373, 7261879.987933613359928 ], [ 529783.311127444147132, 7261889.900785414502025 ], [ 529780.011174176586792, 7261899.453693736344576 ], [ 529776.777805175632238, 7261907.913190307095647 ], [ 529773.757326912600547, 7261914.243011592887342 ] ] } },
{ "type": "Feature", "properties": { "id": 9, "reference_id": 1, "dune_id": 1, "dune_name": "Big Mommy Dune", "acquisition_date": "2025-09-04", "length_m": 89.961868939132358 }, "geometry": { "type": "LineString", "coordinates": [ [ 529024.128444569883868, 7261695.756988408043981 ], [ 529027.958365123718977, 7261702.086809693835676 ], [ 529032.588833351852372, 7261710.546306265518069 ], [ 529037.521555410232395, 7261720.099214585497975 ], [ 529042.576766964630224, 7261730.011174176819623 ], [ 529047.859150537988171, 7261739.9888258241117 ], [ 529053.582138305064291, 7261749.900785414502025 ], [ 529059.541734144440852, 7261759.453693735413253 ], [ 529064.701277447980829, 7261767.913190307095647 ], [ 529068.001230715657584, 7261774.243011592887342 ] ] } },
{ "type": "Feature", "properties": { "id": 10, "reference_id": 1, "dune_id": 1, "dune_name": "Big Mommy Dune", "acquisition_date": "2025-09-04", "length_m": 462.75683300102298 }, "geometry": { "type": "LineString", "coordinates": [ [ 528835.756988407694735, 7262238.001230715774 ], [ 528842.086809693370014, 7262234.701277447864413 ], [ 528850.546306264819577, 7262229.540841933339834 ], [ 528860.099214585614391, 7262223.571856339462101 ], [ 528870.012066387105733, 7262217.782284306362271 ], [ 528880.000892210751772, 7262212.204757097177207 ], [ 528890.0, 7262206.328929075039923 ], [ 528900.0, 7262199.912851802073419 ], [ 528909.999107789248228, 7262193.211912859231234 ], [ 528919.988825823529623, 7262186.241780877113342 ], [ 528929.911959590972401, 7262178.448322394862771 ], [ 528939.541734144440852, 7262169.552016111090779 ], [ 528948.37234837282449, 7262159.912851801142097 ], [ 528955.881837395951152, 7262149.9888258241117 ], [ 528962.118501109071076, 7262139.999107789248228 ], [ 528967.782284305430949, 7262130.0 ], [ 528973.659004537737928, 7262120.0 ], [ 528979.999107789248228, 7262110.0 ], [ 528986.328929075156339, 7262100.0 ], [ 528992.119393319706433, 7262090.0 ], [ 528997.346366802696139, 7262080.0 ], [ 529002.118501109071076, 7262070.0 ], [ 529006.318647109437734, 7262060.0 ], [ 529009.924025978078134, 7262050.0 ], [ 529013.310235233511776, 7262040.0 ], [ 529016.776912965113297, 7262030.0 ], [ 529020.447983889840543, 7262020.0 ], [ 529024.861912838649005, 7262010.0 ], [ 529030.458265855675563, 7262000.0 ], [ 529036.853779197670519, 7261990.0 ], [ 529043.681352890678681, 7261980.0 ], [ 529051.104585926048458, 7261970.0 ], [ 529058.896306284703314, 7261960.0 ], [ 529066.328929075156339, 7261950.0 ], [ 529073.222194824367762, 7261940.0 ], [ 529079.901677625020966, 7261930.0 ], [ 529086.23060670029372, 7261920.000892210751772 ], [ 529091.670517219230533, 7261910.012066387571394 ], [ 529095.79468919755891, 7261900.099214585497975 ], [ 529098.361174196470529, 7261890.546306265518069 ], [ 529099.540841933805496, 7261882.086809692904353 ], [ 529099.911959590855986, 7261875.756988408043981 ] ] } },
{ "type": "Feature", "properties": { "id": 11, "reference_id": 3, "dune_id": 3, "dune_name": "Big Mommy Dune", "acquisition_date": "2025-09-04", "length_m": 270.97143262987419 }, "geometry": { "type": "LineString", "coordinates": [ [ 529365.756988407694735, 7260698.01151268184185 ], [ 529372.08680969348643, 7260694.778143681585789 ], [ 529380.546306264703162, 7260689.912851802073419 ], [ 529390.099214585497975, 7260684.763590464368463 ], [ 529400.012066387222148, 7260680.446199469268322 ], [ 529410.000892210751772, 7260676.852886986918747 ], [ 529420.0, 7260673.681352891027927 ], [ 529430.0, 7260671.104585926048458 ], [ 529440.000000000116415, 7260668.896306285634637 ], [ 529450.0, 7260666.329821285791695 ], [ 529460.0, 7260663.233369001187384 ], [ 529470.0, 7260659.989718034863472 ], [ 529480.0, 7260656.689764766953886 ], [ 529490.0, 7260653.310235233977437 ], [ 529500.000000000116415, 7260650.010281966999173 ], [ 529510.0, 7260646.766630999743938 ], [ 529520.0, 7260643.670178715139627 ], [ 529530.0, 7260641.10458592697978 ], [ 529540.0, 7260638.907480461522937 ], [ 529550.0, 7260636.416969483718276 ], [ 529560.0, 7260633.680460680276155 ], [ 529570.0, 7260631.530221463181078 ], [ 529579.999107789248228, 7260630.35994348116219 ], [ 529589.987933612894267, 7260629.64005651883781 ], [ 529599.900785414385609, 7260628.470670747570693 ], [ 529609.453693735296838, 7260626.330713496543467 ], [ 529617.91319030651357, 7260623.670178714208305 ], [ 529624.243011592305265, 7260621.540503429248929 ] ] } },
{ "type": "Feature", "properties": { "id": 12, "reference_id": 3, "dune_id": 3, "dune_name": "Big Mommy Dune", "acquisition_date": "2025-09-04", "length_m": 100.48137872871614 }, "geometry": { "type": "LineString", "coordinates": [ [ 529215.79468919755891, 7260895.756988408043981 ], [ 529211.671409429865889, 7260902.086809693835676 ], [ 529206.241780876647681, 7260910.546306265518069 ], [ 529199.987933612894267, 7260920.099214585497975 ], [ 529193.658558432362042, 7260930.0111741758883 ], [ 529187.788763604359701, 7260939.9888258241117 ], [ 529182.17414159537293, 7260949.900785415433347 ], [ 529176.204597821109928, 7260959.453693736344576 ], [ 529169.688906351919286, 7260967.913190307095647 ], [ 529163.463633195031434, 7260974.243011591956019 ], [ 529158.833858641446568, 7260977.913190307095647 ] ] } },
{ "type": "Feature", "properties": { "id": 13, "reference_id": 2, "dune_id": 2, "dune_name": "Big Mommy Dune", "acquisition_date": "2025-09-04", "length_m": 772.73511470162646 }, "geometry": { "type": "LineString", "coordinates": [ [ 529124.243011592421681, 7260968.447430184110999 ], [ 529117.91319030651357, 7260966.231498911976814 ], [ 529109.453693735296838, 7260963.13593883626163 ], [ 529099.900785414502025, 7260959.552016111090779 ], [ 529089.987933612894267, 7260955.225235359743237 ], [ 529079.999107789248228, 7260950.000000000931323 ], [ 529070.0, 7260944.773872429504991 ], [ 529060.0, 7260940.436809713020921 ], [ 529050.0, 7260936.776912964880466 ], [ 529040.0, 7260933.321409409865737 ], [ 529030.0, 7260930.0111741758883 ], [ 529020.0, 7260926.766630999743938 ], [ 529010.0, 7260923.670178715139627 ], [ 529000.0, 7260921.104585926048458 ], [ 528990.0, 7260918.906588250771165 ], [ 528980.0, 7260916.405795307829976 ], [ 528970.0, 7260913.594204692170024 ], [ 528960.0, 7260911.094303959980607 ], [ 528950.0, 7260908.905696040019393 ], [ 528940.0, 7260906.405795308761299 ], [ 528930.0, 7260903.594204693101346 ], [ 528920.0, 7260901.094303959980607 ], [ 528910.0, 7260898.905696040019393 ], [ 528900.0, 7260896.405795307829976 ], [ 528890.0, 7260893.594204692170024 ], [ 528880.0, 7260891.093411749228835 ], [ 528870.0, 7260888.895414073951542 ], [ 528860.0, 7260886.329821286723018 ], [ 528850.0, 7260883.233369002118707 ], [ 528840.0, 7260879.989718034863472 ], [ 528830.0, 7260876.688872556202114 ], [ 528820.0, 7260873.299061057157815 ], [ 528810.0, 7260869.924025978893042 ], [ 528800.0, 7260866.329821286723018 ], [ 528790.0, 7260862.205649307928979 ], [ 528780.0, 7260857.794350693002343 ], [ 528770.0, 7260853.670178714208305 ], [ 528760.0, 7260850.075974022038281 ], [ 528750.0, 7260846.700046733021736 ], [ 528740.0, 7260843.299953267909586 ], [ 528730.0, 7260839.92313376814127 ], [ 528720.0, 7260836.319539319723845 ], [ 528710.0, 7260832.128783075138927 ], [ 528700.0, 7260827.423233035951853 ], [ 528690.0, 7260822.489618766121566 ], [ 528680.0, 7260817.499207057058811 ], [ 528670.0, 7260812.499900732189417 ], [ 528660.0, 7260807.500099267810583 ], [ 528650.0, 7260802.499900732189417 ], [ 528640.0, 7260797.499207057990134 ], [ 528630.0, 7260792.489618767052889 ], [ 528620.0, 7260787.423233035951853 ], [ 528610.0, 7260782.128783075138927 ], [ 528600.0, 7260776.319539319723845 ], [ 528590.0, 7260769.923133767209947 ], [ 528580.0, 7260763.299061057157815 ], [ 528570.0, 7260756.689764766953886 ], [ 528560.0, 7260750.0 ], [ 528550.0, 7260743.309343023225665 ], [ 528540.0, 7260736.689764766953886 ], [ 528530.0, 7260729.989718034863472 ], [ 528520.0, 7260723.233369001187384 ], [ 528510.0, 7260716.329821286723018 ], [ 528500.0, 7260708.896306284703314 ], [ 528490.0, 7260701.103693716228008 ], [ 528480.0, 7260693.670178715139627 ], [ 528470.000892210751772, 7260686.766630999743938 ], [ 528460.012066387105733, 7260680.0111741758883 ], [ 528450.099214585614391, 7260673.322301620617509 ], [ 528440.546306264819577, 7260666.788979352451861 ], [ 528432.08680969348643, 7260660.535132088698447 ], [ 528425.756988407694735, 7260655.309004518203437 ] ] } }
]
}
