{
"type": "FeatureCollection",
"name": "crests_2019_08_2019-08-18",
"crs": { "type": "name", "properties": { "name": "urn:ogc:def:crs:EPSG::32733" } },
"features": [
{ "type": "Feature", "properties": { "id": 0, "reference_id": 1, "dune_id": 1, "dune_name": "Big Mommy Dune", "acquisition_date": "2019-08-18", "length_m": 797.69892747977497 }, "geometry": { "type": "LineString", "coordinates": [ [ 529020.0, 7261555.756988408043981 ], [ 529020.0, 7261562.086809693835676 ], [ 529020.0, 7261570.546306264586747 ], [ 529020.0, 7261580.099214585497975 ], [ 529020.0, 7261590.012066387571394 ], [ 529020.0, 7261600.000892210751772 ], [ 529020.0, 7261610.0 ], [ 529020.0, 7261620.0 ], [ 529020.000892210751772, 7261630.0 ], [ 529020.011174176470377, 7261640.0 ], [ 529020.087148198508658, 7261650.0 ], [ 529020.447091679205187, 7261660.0 ], [ 529021.541395639418624, 7261670.0 ], [ 529023.682245101314038, 7261680.0 ], [ 529026.428143660770729, 7261690.0 ], [ 529028.994628659682348, 7261700.0 ], [ 529031.552569815889001, 7261710.0 ], [ 529035.221856319345534, 7261720.0 ], [ 529040.523957911878824, 7261730.000000000931323 ], [ 529046.787194930715486, 7261740.0 ], [ 529053.311127444147132, 7261750.0 ], [ 529059.924025978078134, 7261760.0 ], [ 529066.31953932007309, 7261770.0 ], [ 529072.128783074789681, 7261780.0 ], [ 529077.42234082473442, 7261790.0 ], [ 529082.478444589767605, 7261800.0 ], [ 529087.411166648147628, 7261810.0 ], [ 529092.041634876397438, 7261820.0 ], [ 529095.870663219597191, 7261830.0 ], [ 529098.360281985718757, 7261840.000000000931323 ], [ 529099.453693735413253, 7261850.0 ], [ 529099.452801524661481, 7261860.0 ], [ 529098.350000019883737, 7261870.0 ], [ 529095.793796986807138, 7261880.0 ], [ 529091.670517219230533, 7261890.0 ], [ 529086.231498910929076, 7261900.0 ], [ 529079.911959590855986, 7261910.0 ], [ 529073.298168846289627, 7261920.0 ], [ 529066.68976476660464, 7261930.0 ], [ 529060.0, 7261940.0 ], [ 529053.310235233511776, 7261950.0 ], [ 529046.700938942958601, 7261960.0 ], [ 529040.076866232673638, 7261970.0 ], [ 529033.681352890795097, 7261980.0 ], [ 529027.882391101680696, 7261990.0 ], [ 529022.663915163138881, 7262000.0 ], [ 529017.957472912967205, 7262010.0 ], [ 529014.041296371491626, 7262020.0 ], [ 529011.170277982251719, 7262030.0 ], [ 529008.830614228500053, 7262040.0 ], [ 529005.969877805095166, 7262050.0 ], [ 529002.128783074789681, 7262060.0 ], [ 528997.772894550347701, 7262070.0 ], [ 528993.582138305064291, 7262080.0 ], [ 528989.628882342833094, 7262090.0 ], [ 528985.159543303656392, 7262100.0 ], [ 528979.628882342833094, 7262110.0 ], [ 528973.582138305064291, 7262120.0 ], [ 528967.772002339712344, 7262130.0 ], [ 528962.117608898319304, 7262139.999107789248228 ], [ 528955.881837395951152, 7262149.9888258241117 ], [ 528948.37234837282449, 7262159.912851801142097 ], [ 528939.541734144440852, 7262169.552016111090779 ], [ 528929.911959590972401, 7262178.448322394862771 ], [ 528919.988825823529623, 7262186.241780877113342 ], [ 528909.999107789248228, 7262193.211912859231234 ], [ 528900.0, 7262199.911959591321647 ], [ 528890.0, 7262206.318647108972073 ], [ 528880.000892210751772, 7262212.128783075138927 ], [ 528870.012066387105733, 7262217.422340825200081 ], [ 528860.099214585614391, 7262222.478444589301944 ], [ 528850.546306264819577, 7262227.411166648380458 ], [ 528842.086809693370014, 7262232.041634876281023 ], [ 528835.756988407694735, 7262235.871555430814624 ] ] } },
{ "type": "Feature", "properties": { "id": 1, "reference_id": 1, "dune_id": 1, "dune_name": "Big Mommy Dune", "acquisition_date": "2019-08-18", "length_m": 554.54632847641767 }, "geometry": { "type": "LineString", "coordinates": [ [ 529180.000892210751772, 7260998.921899050474167 ], [ 529180.011174176470377, 7261003.921899050474167 ], [ 529180.087148198392242, 7261011.316557979211211 ], [ 529180.447091679205187, 7261020.322760425508022 ], [ 529181.539611218031496, 7261030.055640487000346 ], [ 529183.659004537737928, 7261040.006479299627244 ], [ 529186.242673087399453, 7261050.000446105375886 ], [ 529188.012404892127961, 7261060.0 ], [ 529188.012404892127961, 7261070.0 ], [ 529186.241780876764096, 7261080.0 ], [ 529183.647830361267552, 7261090.0 ], [ 529181.452463019639254, 7261100.0 ], [ 529179.999107789364643, 7261110.0 ], [ 529178.535470593255013, 7261120.000000000931323 ], [ 529176.253847263869829, 7261130.0 ], [ 529173.223087035003118, 7261140.0 ], [ 529169.988825823529623, 7261150.0 ], [ 529166.688872555969283, 7261160.0 ], [ 529163.299061057041399, 7261170.0 ], [ 529159.924025978078134, 7261180.0 ], [ 529156.329821285791695, 7261190.0 ], [ 529152.205649307463318, 7261200.0 ], [ 529147.793458481901325, 7261210.000000000931323 ], [ 529143.659896748373285, 7261220.0 ], [ 529140.0, 7261230.0 ], [ 529136.340103251626715, 7261240.0 ], [ 529132.205649307463318, 7261250.0 ], [ 529127.783176516182721, 7261260.0 ], [ 529123.583922726451419, 7261270.0 ], [ 529119.639164308668114, 7261280.0 ], [ 529115.236409536213614, 7261290.0 ], [ 529110.000892210751772, 7261300.0 ], [ 529104.773872429504991, 7261310.000000000931323 ], [ 529100.436809713486582, 7261320.0 ], [ 529096.776020754361525, 7261330.0 ], [ 529093.310235233511776, 7261340.0 ], [ 529089.924918188713491, 7261350.0 ], [ 529086.329821285791695, 7261360.0 ], [ 529082.205649307463318, 7261370.0 ], [ 529077.79345848178491, 7261380.0 ], [ 529073.659896748373285, 7261390.0 ], [ 529070.0, 7261400.0 ], [ 529066.340103251626715, 7261410.0 ], [ 529062.206541518098675, 7261420.0 ], [ 529057.794350692536682, 7261430.0 ], [ 529053.670178714208305, 7261440.0 ], [ 529050.075974021921866, 7261450.0 ], [ 529046.700938942958601, 7261460.0 ], [ 529043.311127444147132, 7261470.000000000931323 ], [ 529040.011174176470377, 7261479.999107789248228 ], [ 529036.777805175632238, 7261489.987933613359928 ], [ 529033.757326912600547, 7261499.900785414502025 ], [ 529031.551677605253644, 7261509.453693735413253 ], [ 529030.447983889840543, 7261517.913190307095647 ], [ 529030.087148198508658, 7261524.243011592887342 ] ] } },
{ "type": "Feature", "properties": { "id": 2, "reference_id": 8, "dune_id": 8, "dune_name": "Inverted Y Dune", "acquisition_date": "2019-08-18", "length_m": 428.79005506712451 }, "geometry": { "type": "LineString", "coordinates": [ [ 530264.243011592421681, 7261221.628543838858604 ], [ 530257.913190306629986, 7261224.129336780868471 ], [ 530249.453693735180423, 7261227.969539299607277 ], [ 530239.900785414502025, 7261232.675981549546123 ], [ 530229.987933612777852, 7261237.969539300538599 ], [ 530220.0, 7261244.129336779937148 ], [ 530210.011174176470377, 7261251.628543837927282 ], [ 530200.087148198392242, 7261260.458265855908394 ], [ 530190.447983889840543, 7261270.088040409609675 ], [ 530181.552569815889001, 7261280.0111741758883 ], [ 530173.768501089187339, 7261290.000892210751772 ], [ 530166.864953374140896, 7261300.0 ], [ 530160.45915806631092, 7261310.000000000931323 ], [ 530154.861912838649005, 7261320.0 ], [ 530150.447983889840543, 7261330.0 ], [ 530146.777805175632238, 7261340.0 ], [ 530143.321409409982152, 7261350.0 ], [ 530140.011174176586792, 7261360.0 ], [ 530136.766630999278277, 7261370.0 ], [ 530133.670178714208305, 7261380.0 ], [ 530131.104585926048458, 7261390.0 ], [ 530128.907480461173691, 7261400.0 ], [ 530126.416969484183937, 7261410.0 ], [ 530123.680460680043325, 7261420.0 ], [ 530121.530221462948248, 7261430.0 ], [ 530120.359943480812944, 7261440.0 ], [ 530119.640056519303471, 7261450.0 ], [ 530118.470670747803524, 7261460.0 ], [ 530116.330713496543467, 7261470.000000000931323 ], [ 530113.670178714208305, 7261480.0 ], [ 530111.540503428666852, 7261490.0 ], [ 530110.44619946856983, 7261500.0 ], [ 530110.075974022038281, 7261510.0 ], [ 530109.924025978078134, 7261520.0 ], [ 530109.553800531546585, 7261530.0 ], [ 530108.459496571333148, 7261539.999553894624114 ], [ 530106.329821285791695, 7261549.993520701304078 ], [ 530103.670178714208305, 7261559.944359513930976 ], [ 530101.540503428783268, 7261569.6772395754233 ], [ 530100.447091679205187, 7261578.683442020788789 ], [ 530100.087148198508658, 7261586.078100949525833 ], [ 530100.011174176470377, 7261591.078100949525833 ] ] } },
{ "type": "Feature", "properties": { "id": 3, "reference_id": 8, "dune_id": 8, "dune_name": "Inverted Y Dune", "acquisition_date": "2019-08-18", "length_m": 59.545534810731901 }, "geometry": { "type": "LineString", "coordinates": [ [ 530354.243011592305265, 7261201.540503428317606 ], [ 530347.91319030651357, 7261203.670178713276982 ], [ 530339.454585945932195, 7261206.329821285791695 ], [ 530329.912851801607758, 7261208.459496571682394 ], [ 530320.087148198392242, 7261209.552908320911229 ], [ 530310.545414054184221, 7261209.912851802073419 ], [ 530302.08680969348643, 7261209.9888258241117 ], [ 530295.756988407694735, 7261209.999107790179551 ] ] } },
{ "type": "Feature", "properties": { "id": 4, "reference_id": 8, "dune_id": 8, "dune_name": "Inverted Y Dune", "acquisition_date": "2019-08-18", "length_m": 171.97890050717874 }, "geometry": { "type": "LineString", "coordinates": [ [ 530395.756988407694735, 7261210.000000000931323 ], [ 530402.08680969348643, 7261210.000000000931323 ], [ 530410.546306264819577, 7261210.000000000931323 ], [ 530420.099214585614391, 7261210.000000000931323 ], [ 530430.012066387222148, 7261210.000000000931323 ], [ 530440.000892210751772, 7261210.000000000931323 ], [ 530450.0, 7261209.999107790179551 ], [ 530460.0, 7261209.987933613359928 ], [ 530470.0, 7261209.901677625253797 ], [ 530480.0, 7261209.464867912232876 ], [ 530490.0, 7261208.00033850595355 ], [ 530500.0, 7261204.690103271976113 ], [ 530509.999107789248228, 7261199.454585945233703 ], [ 530519.987933612894267, 7261193.135938837192953 ], [ 530529.900785414385609, 7261186.329821286723018 ], [ 530539.453693735296838, 7261178.993736449629068 ], [ 530547.91319030651357, 7261171.638825803995132 ], [ 530554.243011592305265, 7261165.6698402101174 ] ] } },
{ "type": "Feature", "properties": { "id": 5, "reference_id": 9, "dune_id": 9, "dune_name": "Inverted Y Dune", "acquisition_date": "2019-08-18", "length_m": 763.90664233524603 }, "geometry": { "type": "LineString", "coordinates": [ [ 530097.91319030651357, 7261598.834750852547586 ], [ 530094.243011592421681, 7261603.473915160633624 ], [ 530087.913190306629986, 7261609.764880374073982 ], [ 530079.453693735180423, 7261616.565433513373137 ], [ 530069.900785414502025, 7261623.277835311368108 ], [ 530059.987933612894267, 7261629.995305122807622 ], [ 530049.999107789364643, 7261636.689318661578 ], [ 530040.0, 7261643.299061058089137 ], [ 530030.0, 7261649.924025977961719 ], [ 530020.0, 7261656.329821285791695 ], [ 530010.0, 7261662.205649307928979 ], [ 530000.0, 7261667.794350693002343 ], [ 529990.0, 7261673.670178714208305 ], [ 529980.0, 7261680.075974022038281 ], [ 529970.0, 7261686.700938943773508 ], [ 529960.0, 7261693.311127444729209 ], [ 529950.0, 7261700.011174177750945 ], [ 529940.0, 7261706.777805175632238 ], [ 529930.0, 7261713.757326913066208 ], [ 529920.0, 7261721.551677605137229 ], [ 529910.0, 7261730.447983890771866 ], [ 529900.0, 7261740.087148198857903 ], [ 529890.0, 7261750.011174176819623 ], [ 529880.0, 7261760.000892210751772 ], [ 529870.000892210751772, 7261770.0 ], [ 529860.011174176470377, 7261780.0 ], [ 529850.087148198392242, 7261790.0 ], [ 529840.447983889840543, 7261800.0 ], [ 529831.551677605137229, 7261810.0 ], [ 529823.758219123352319, 7261820.0 ], [ 529816.788087141467258, 7261830.0 ], [ 529810.088040409144014, 7261840.000000000931323 ], [ 529803.682245101314038, 7261850.0 ], [ 529797.881498891045339, 7261860.0 ], [ 529792.653633197303861, 7261870.0 ], [ 529787.881498891045339, 7261880.0 ], [ 529783.682245101314038, 7261890.0 ], [ 529780.087148198392242, 7261900.0 ], [ 529776.776912964996882, 7261910.0 ], [ 529773.670178714208305, 7261920.0 ], [ 529771.093411749578081, 7261930.0 ], [ 529768.820332262665033, 7261940.0 ], [ 529765.968985594343394, 7261950.0 ], [ 529762.128783074906096, 7261960.0 ], [ 529757.772894550347701, 7261970.0 ], [ 529753.583030515816063, 7261980.0 ], [ 529749.639164308668114, 7261990.0 ], [ 529745.236409536330029, 7262000.0 ], [ 529740.0, 7262010.0 ], [ 529734.763590463786386, 7262020.0 ], [ 529730.360835691448301, 7262030.0 ], [ 529726.416077273548581, 7262040.0 ], [ 529722.216823483933695, 7262050.0 ], [ 529717.794350692536682, 7262060.0 ], [ 529713.659896748373285, 7262070.0 ], [ 529709.999107789248228, 7262080.0 ], [ 529706.329821285791695, 7262090.0 ], [ 529702.129675285425037, 7262100.0 ], [ 529697.423233035369776, 7262110.0 ], [ 529692.490510976873338, 7262120.0 ], [ 529687.509489023126662, 7262130.0 ], [ 529682.576766964630224, 7262140.0 ], [ 529677.871216925210319, 7262149.999107789248228 ], [ 529673.681352890678681, 7262159.987933613359928 ], [ 529670.088040409144014, 7262169.900785414502025 ], [ 529666.788087141467258, 7262179.453693735413253 ], [ 529663.758219123352319, 7262187.913190307095647 ], [ 529661.551677605137229, 7262194.243011591956019 ] ] } },
{ "type": "Feature", "properties": { "id": 6, "reference_id": 4, "dune_id": 4, "dune_name": "The Star Dune", "acquisition_date": "2019-08-18", "length_m": 195.60896242025876 }, "geometry": { "type": "LineString", "coordinates": [ [ 533005.756988407694735, 7261870.087148198857903 ], [ 533012.08680969348643, 7261870.447091680020094 ], [ 533020.546306264819577, 7261871.541395640000701 ], [ 533030.099214585614391, 7261873.681352891027927 ], [ 533040.012066387105733, 7261876.416969484649599 ], [ 533050.000892210751772, 7261878.906588250771165 ], [ 533060.0, 7261881.093411749228835 ], [ 533070.0, 7261883.583922726102173 ], [ 533080.0, 7261886.329821285791695 ], [ 533090.0, 7261888.545752558857203 ], [ 533100.0, 7261890.000892210751772 ], [ 533110.0, 7261891.464529407210648 ], [ 533120.0, 7261893.747044946998358 ], [ 533130.0, 7261896.787194930948317 ], [ 533140.0, 7261900.087148198857903 ], [ 533149.999107789364643, 7261903.670178715139627 ], [ 533159.987933612894267, 7261907.783176517114043 ], [ 533169.900785414502025, 7261912.118501110002398 ], [ 533179.453693735180423, 7261915.881837395951152 ], [ 533187.91319030651357, 7261918.37234837282449 ], [ 533194.243011592305265, 7261919.541734145022929 ] ] } },
{ "type": "Feature", "properties": { "id": 7, "reference_id": 4, "dune_id": 4, "dune_name": "The Star Dune", "acquisition_date": "2019-08-18", "length_m": 141.00843671622201 }, "geometry": { "type": "LineString", "coordinates": [ [ 533435.756988407694735, 7261990.447983889840543 ], [ 533442.086809693370014, 7261991.551677605137229 ], [ 533450.546306264703162, 7261993.757326913997531 ], [ 533460.099214585614391, 7261996.777805175632238 ], [ 533470.012066387105733, 7262000.011174176819623 ], [ 533480.000892210751772, 7262003.310235233977437 ], [ 533490.0, 7262006.690656977705657 ], [ 533500.0, 7262010.000892210751772 ], [ 533510.0, 7262013.321409409865737 ], [ 533519.999107789364643, 7262016.788087141700089 ], [ 533529.987933612894267, 7262020.523065701127052 ], [ 533539.900785414502025, 7262025.209789931774139 ], [ 533549.453693735296838, 7262031.453355230391026 ], [ 533557.91319030651357, 7262038.448322394862771 ], [ 533564.243011592421681, 7262044.341333967633545 ] ] } },
{ "type": "Feature", "properties": { "id": 8, "reference_id": 5, "dune_id": 5, "dune_name": "The Star Dune", "acquisition_date": "2019-08-18", "length_m": 1139.4654643597794 }, "geometry": { "type": "LineString", "coordinates": [ [ 534334.789317857124843, 7261305.756988408043981 ], [ 534330.0, 7261312.086809693835676 ], [ 534325.210682142991573, 7261320.546306264586747 ], [ 534321.987595107872039, 7261330.099214585497975 ], [ 534320.534239877597429, 7261340.012066386640072 ], [ 534320.098322374862619, 7261350.000892210751772 ], [ 534320.012066387105733, 7261360.0 ], [ 534320.000892210751772, 7261370.0 ], [ 534320.000892210751772, 7261380.0 ], [ 534320.011174176470377, 7261390.0 ], [ 534320.087148198392242, 7261400.0 ], [ 534320.447091679205187, 7261410.0 ], [ 534321.540503428666852, 7261420.0 ], [ 534323.670178714208305, 7261430.0 ], [ 534326.329821285791695, 7261440.0 ], [ 534328.459496571333148, 7261450.0 ], [ 534329.552908320794813, 7261460.0 ], [ 534329.912851801607758, 7261470.000000000931323 ], [ 534329.988825823529623, 7261480.0 ], [ 534329.998215578729287, 7261490.0 ], [ 534329.988825823529623, 7261500.0 ], [ 534329.911959590855986, 7261510.0 ], [ 534329.54084193368908, 7261520.0 ], [ 534328.360281985718757, 7261530.0 ], [ 534325.783515021088533, 7261540.0 ], [ 534321.583369020721875, 7261550.0 ], [ 534315.783515021088533, 7261559.999107790179551 ], [ 534308.360281985718757, 7261569.9888258241117 ], [ 534299.54084193368908, 7261579.912851802073419 ], [ 534289.911959590855986, 7261589.552016110159457 ], [ 534279.988825823529623, 7261598.448322394862771 ], [ 534269.999107789248228, 7261606.242673087865114 ], [ 534260.0, 7261613.222194824367762 ], [ 534250.0, 7261619.9888258241117 ], [ 534240.0, 7261626.688872555270791 ], [ 534230.0, 7261633.298168846406043 ], [ 534220.0, 7261639.912851801142097 ], [ 534210.0, 7261646.242673087865114 ], [ 534200.0, 7261651.757665418088436 ], [ 534190.0, 7261656.241780877113342 ], [ 534180.0, 7261659.901677625253797 ], [ 534170.0, 7261663.211912859231234 ], [ 534160.0, 7261666.252955053001642 ], [ 534150.0, 7261668.535470593720675 ], [ 534140.0, 7261669.999107789248228 ], [ 534130.0, 7261671.453355230391026 ], [ 534120.0, 7261673.659004537388682 ], [ 534110.0, 7261676.328929075039923 ], [ 534100.0, 7261678.460388781502843 ], [ 534090.0, 7261679.564082497730851 ], [ 534080.0, 7261680.0 ], [ 534070.0, 7261680.435917503200471 ], [ 534060.0, 7261681.539611218497157 ], [ 534050.0, 7261683.671070925891399 ], [ 534040.0, 7261686.340995462611318 ], [ 534030.0, 7261688.546644769608974 ], [ 534020.0, 7261690.0 ], [ 534010.0, 7261691.453355230391026 ], [ 534000.0, 7261693.659896749071777 ], [ 533990.0, 7261696.340103251859546 ], [ 533980.0, 7261698.546644769608974 ], [ 533970.0, 7261700.000892210751772 ], [ 533960.0, 7261701.464529407210648 ], [ 533950.0, 7261703.747044946998358 ], [ 533940.0, 7261706.787194930948317 ], [ 533930.0, 7261710.088040409609675 ], [ 533920.0, 7261713.681352891027927 ], [ 533910.0, 7261717.871216924861073 ], [ 533900.0, 7261722.576766964048147 ], [ 533890.0, 7261727.510381233878434 ], [ 533880.0, 7261732.500792942941189 ], [ 533870.0, 7261737.500099267810583 ], [ 533860.0, 7261742.500792942941189 ], [ 533850.0, 7261747.511273445561528 ], [ 533840.0, 7261752.58794114086777 ], [ 533830.0, 7261757.958365123718977 ], [ 533820.0, 7261764.128444569185376 ], [ 533810.0, 7261771.628543837927282 ], [ 533800.000892210751772, 7261780.458265855908394 ], [ 533790.012066387105733, 7261790.088040409609675 ], [ 533780.099214585614391, 7261800.011174176819623 ], [ 533770.545414054067805, 7261810.000892210751772 ], [ 533762.075635517016053, 7261820.0 ], [ 533755.669840209186077, 7261830.0 ], [ 533751.638825803645886, 7261840.000000000931323 ], [ 533748.994628659565933, 7261850.0 ], [ 533746.340995462262072, 7261860.0 ], [ 533743.22397924575489, 7261870.0 ], [ 533739.912851801607758, 7261880.0 ], [ 533736.318647109437734, 7261890.0 ], [ 533732.128783074906096, 7261900.0 ], [ 533727.423233035253361, 7261910.0 ], [ 533722.489618766237982, 7261920.0 ], [ 533717.499207057291642, 7261930.0 ], [ 533712.499900731956586, 7261940.0 ], [ 533707.499207057408057, 7261950.0 ], [ 533702.489618766237982, 7261960.0 ], [ 533697.423233035369776, 7261970.0 ], [ 533692.128783074789681, 7261980.0 ], [ 533686.31953932007309, 7261989.999553894624114 ], [ 533679.924025978078134, 7261999.993520701304078 ], [ 533673.311127444263548, 7262009.944359513930976 ], [ 533666.788087141467258, 7262019.677239574491978 ], [ 533660.535132088232785, 7262028.683442020788789 ], [ 533655.309004517737776, 7262036.078100949525833 ], [ 533651.999661495094188, 7262041.078100949525833 ] ] } },
{ "type": "Feature", "properties": { "id": 9, "reference_id": 6, "dune_id": 6, "dune_name": "The Star Dune", "acquisition_date": "2019-08-18", "length_m": 813.73376132494059 }, "geometry": { "type": "LineString", "coordinates": [ [ 533650.0, 7262048.921899050474167 ], [ 533650.0, 7262053.921899050474167 ], [ 533650.0, 7262061.316557979211211 ], [ 533650.000892210751772, 7262070.322760425508022 ], [ 533650.011174176470377, 7262080.055640487000346 ], [ 533650.087148198508658, 7262090.006479298695922 ], [ 533650.447091679205187, 7262100.000446105375886 ], [ 533651.540503428783268, 7262110.0 ], [ 533653.670178714208305, 7262120.0 ], [ 533656.329821285791695, 7262130.0 ], [ 533658.459496571216732, 7262140.0 ], [ 533659.552908320911229, 7262150.0 ], [ 533659.912851801607758, 7262160.0 ], [ 533659.988825823529623, 7262170.0 ], [ 533660.0, 7262180.0 ], [ 533660.011174176470377, 7262190.0 ], [ 533660.087148198392242, 7262200.0 ], [ 533660.447091679088771, 7262210.0 ], [ 533661.540503428783268, 7262220.0 ], [ 533663.670178714208305, 7262230.0 ], [ 533666.330713496543467, 7262240.0 ], [ 533668.470670747803524, 7262250.0 ], [ 533669.640056519303471, 7262260.0 ], [ 533670.359943480696529, 7262270.0 ], [ 533671.529329252196476, 7262280.0 ], [ 533673.669286503456533, 7262290.0 ], [ 533676.328929075156339, 7262300.0 ], [ 533678.448322394862771, 7262310.0 ], [ 533679.465760122518986, 7262320.0 ], [ 533679.465760122518986, 7262330.0 ], [ 533678.448322394862771, 7262340.000000000931323 ], [ 533676.328036864520982, 7262350.0 ], [ 533673.659004537737928, 7262360.0 ], [ 533671.453355230391026, 7262370.0 ], [ 533670.0, 7262380.0 ], [ 533668.545752559090033, 7262390.0 ], [ 533666.329821285791695, 7262400.0 ], [ 533663.583922726451419, 7262410.0 ], [ 533661.092519538942724, 7262420.0 ], [ 533658.895414073951542, 7262430.0 ], [ 533656.329821285791695, 7262440.0 ], [ 533653.233369000838138, 7262450.0 ], [ 533649.989718034281395, 7262460.0 ], [ 533646.689764766488224, 7262470.0 ], [ 533643.310235233511776, 7262480.0 ], [ 533640.01028196583502, 7262490.0 ], [ 533636.766630999278277, 7262500.0 ], [ 533633.670178714208305, 7262510.0 ], [ 533631.104585926048458, 7262520.0 ], [ 533628.907480461173691, 7262530.0 ], [ 533626.416077273548581, 7262540.0 ], [ 533623.670178714208305, 7262550.0 ], [ 533621.454247440909967, 7262560.0 ], [ 533620.0, 7262570.0 ], [ 533618.54664476972539, 7262580.0 ], [ 533616.340103251626715, 7262590.0 ], [ 533613.659896748373285, 7262600.000000000931323 ], [ 533611.45335523027461, 7262610.0 ], [ 533610.0, 7262620.0 ], [ 533608.54664476972539, 7262630.0 ], [ 533606.340995462378487, 7262640.0 ], [ 533603.671070924960077, 7262650.0 ], [ 533601.540503428783268, 7262660.0 ], [ 533600.44619946856983, 7262670.0 ], [ 533600.075974022038281, 7262680.0 ], [ 533599.924025978078134, 7262690.0 ], [ 533599.553800531546585, 7262700.0 ], [ 533598.459496571216732, 7262710.0 ], [ 533596.328929075039923, 7262720.0 ], [ 533593.659004537737928, 7262730.0 ], [ 533591.45335523027461, 7262740.0 ], [ 533589.999107789248228, 7262750.0 ], [ 533588.535470593255013, 7262760.0 ], [ 533586.252955053234473, 7262770.0 ], [ 533583.212805069284514, 7262780.0 ], [ 533579.912851801607758, 7262790.0 ], [ 533576.32982128590811, 7262799.999107789248228 ], [ 533572.216823483933695, 7262809.987933613359928 ], [ 533567.881498891045339, 7262819.900785414502025 ], [ 533564.118162604048848, 7262829.453693736344576 ], [ 533561.62765162717551, 7262837.913190307095647 ], [ 533560.458265855675563, 7262844.243011592887342 ] ] } },
{ "type": "Feature", "properties": { "id": 10, "reference_id": 2, "dune_id": 2, "dune_name": "Big Mommy Dune", "acquisition_date": "2019-08-18", "length_m": 737.26495612953113 }, "geometry": { "type": "LineString", "coordinates": [ [ 529104.243011592421681, 7260958.458604360930622 ], [ 529097.913190306629986, 7260956.318647109903395 ], [ 529089.453693735180423, 7260953.582138305529952 ], [ 529079.900785414385609, 7260951.082237573340535 ], [ 529069.987933612894267, 7260948.818547842092812 ], [ 529059.999107789364643, 7260945.958703628741205 ], [ 529050.0, 7260942.053701262921095 ], [ 529040.0, 7260937.424125245772302 ], [ 529030.0, 7260932.57676696497947 ], [ 529020.0, 7260927.956580702215433 ], [ 529010.0, 7260924.117270393297076 ], [ 529000.0, 7260921.541395640000701 ], [ 528990.0, 7260920.0111741758883 ], [ 528980.0, 7260918.546644769608974 ], [ 528970.0, 7260916.329821285791695 ], [ 528960.0, 7260913.583922727033496 ], [ 528950.0, 7260911.092519538477063 ], [ 528940.0, 7260908.895414074882865 ], [ 528930.0, 7260906.329821286723018 ], [ 528920.0, 7260903.233369001187384 ], [ 528910.0, 7260899.989718033932149 ], [ 528900.0, 7260896.689764766953886 ], [ 528890.0, 7260893.310235233977437 ], [ 528880.0, 7260890.010281966067851 ], [ 528870.0, 7260886.766630999743938 ], [ 528860.0, 7260883.670178715139627 ], [ 528850.0, 7260881.103693716228008 ], [ 528840.0, 7260878.896306285634637 ], [ 528830.0, 7260876.328929075971246 ], [ 528820.0, 7260873.223087035119534 ], [ 528810.0, 7260869.913744012825191 ], [ 528800.0, 7260866.328929075971246 ], [ 528790.0, 7260862.205649307928979 ], [ 528780.0, 7260857.794350693002343 ], [ 528770.0, 7260853.670178714208305 ], [ 528760.0, 7260850.075974022038281 ], [ 528750.0, 7260846.700046733021736 ], [ 528740.0, 7260843.299953267909586 ], [ 528730.0, 7260839.92313376814127 ], [ 528720.0, 7260836.319539319723845 ], [ 528710.0, 7260832.128783075138927 ], [ 528700.0, 7260827.423233035951853 ], [ 528690.0, 7260822.489618766121566 ], [ 528680.0, 7260817.499207057058811 ], [ 528670.0, 7260812.499900732189417 ], [ 528660.0, 7260807.499207057058811 ], [ 528650.0, 7260802.489618767052889 ], [ 528640.0, 7260797.423233035951853 ], [ 528630.0, 7260792.129675285890698 ], [ 528620.0, 7260786.329821286723018 ], [ 528610.0, 7260779.999107790179551 ], [ 528600.0, 7260773.659896748140454 ], [ 528590.0, 7260767.793458482250571 ], [ 528580.0, 7260762.205649306997657 ], [ 528570.0, 7260756.328929075971246 ], [ 528560.0, 7260749.913744011893868 ], [ 528550.0, 7260743.223087035119534 ], [ 528540.0, 7260736.328929075971246 ], [ 528530.0, 7260728.896306285634637 ], [ 528520.0, 7260721.103693716228008 ], [ 528510.0, 7260713.670178715139627 ], [ 528500.0, 7260706.766630999743938 ], [ 528490.0, 7260700.010281966067851 ], [ 528480.000892210751772, 7260693.311127444729209 ], [ 528470.012066387105733, 7260686.70183115452528 ], [ 528460.099214585614391, 7260680.088040409609675 ], [ 528450.546306264819577, 7260673.768501089885831 ], [ 528442.08680969348643, 7260668.329482780769467 ], [ 528435.756988407694735, 7260664.205310802906752 ] ] } },
{ "type": "Feature", "properties": { "id": 11, "reference_id": 3, "dune_id": 3, "dune_name": "Big Mommy Dune", "acquisition_date": "2019-08-18", "length_m": 583.29261157394774 }, "geometry": { "type": "LineString", "coordinates": [ [ 529181.628543837927282, 7260964.243011592887342 ], [ 529184.129336780519225, 7260957.913190307095647 ], [ 529187.968647089437582, 7260949.453693735413253 ], [ 529192.664807373774238, 7260939.900785414502025 ], [ 529197.882391101680696, 7260929.987933613359928 ], [ 529203.681352890562266, 7260919.999107789248228 ], [ 529210.076866232557222, 7260910.0 ], [ 529216.700938943075016, 7260900.0 ], [ 529223.310235233511776, 7260890.0 ], [ 529230.0, 7260880.0 ], [ 529236.689764766488224, 7260870.0 ], [ 529243.299061057041399, 7260860.0 ], [ 529249.924025978078134, 7260850.0 ], [ 529256.32982128590811, 7260840.0 ], [ 529262.205649307463318, 7260830.0 ], [ 529267.794350692536682, 7260820.0 ], [ 529273.671070924960077, 7260810.0 ], [ 529280.087148198392242, 7260800.0 ], [ 529286.788087141467258, 7260790.0 ], [ 529293.758219123352319, 7260780.000000000931323 ], [ 529301.551677605253644, 7260770.0 ], [ 529310.447983889956959, 7260760.0 ], [ 529320.087148198508658, 7260750.0 ], [ 529330.011174176470377, 7260740.0 ], [ 529340.000892210751772, 7260730.000892210751772 ], [ 529350.0, 7260720.012066386640072 ], [ 529360.0, 7260710.099214585497975 ], [ 529370.0, 7260700.545414054766297 ], [ 529380.0, 7260692.075635517016053 ], [ 529390.0, 7260685.669840209186077 ], [ 529400.0, 7260681.638825803995132 ], [ 529410.0, 7260678.994628659449518 ], [ 529420.0, 7260676.34188767336309 ], [ 529430.0, 7260673.234261211007833 ], [ 529440.000000000116415, 7260669.989718034863472 ], [ 529450.0, 7260666.689764766953886 ], [ 529460.0, 7260663.310235233977437 ], [ 529470.0, 7260660.010281966067851 ], [ 529480.0, 7260656.766630999743938 ], [ 529490.0, 7260653.670178714208305 ], [ 529500.000000000116415, 7260651.10458592697978 ], [ 529510.0, 7260648.906588250771165 ], [ 529520.0, 7260646.405795307829976 ], [ 529530.0, 7260643.594204693101346 ], [ 529540.0, 7260641.094303959980607 ], [ 529550.0, 7260638.906588250771165 ], [ 529560.0, 7260636.416969483718276 ], [ 529569.999107789248228, 7260633.681352891027927 ], [ 529579.987933612894267, 7260631.541395640000701 ], [ 529589.900785414502025, 7260630.447091680020094 ], [ 529599.453693735180423, 7260630.087148198857903 ], [ 529607.91319030651357, 7260630.011174176819623 ], [ 529614.243011592421681, 7260630.000892210751772 ] ] } },
{ "type": "Feature", "properties": { "id": 12, "reference_id": 3, "dune_id": 3, "dune_name": "Big Mommy Dune", "acquisition_date": "2019-08-18", "length_m": 595.76986253970585 }, "geometry": { "type": "LineString", "coordinates": [ [ 529645.756988407694735, 7260620.0 ], [ 529652.08680969348643, 7260620.0 ], [ 529660.546306264819577, 7260619.999107790179551 ], [ 529670.099214585614391, 7260619.9888258241117 ], [ 529680.012066387222148, 7260619.912851802073419 ], [ 529690.000892210751772, 7260619.552908320911229 ], [ 529700.0, 7260618.459496571682394 ], [ 529710.0, 7260616.329821286723018 ], [ 529720.0, 7260613.670178715139627 ], [ 529730.0, 7260611.540503429248929 ], [ 529740.0, 7260610.447091680020094 ], [ 529750.0, 7260610.086255988106132 ], [ 529760.0, 7260610.0 ], [ 529770.0, 7260609.913744012825191 ], [ 529780.0, 7260609.552908320911229 ], [ 529790.0, 7260608.459496571682394 ], [ 529800.0, 7260606.329821286723018 ], [ 529810.0, 7260603.671070925891399 ], [ 529820.0, 7260601.551677606068552 ], [ 529830.0, 7260600.534239877946675 ], [ 529840.0, 7260600.534239877946675 ], [ 529850.0, 7260601.551677606068552 ], [ 529860.0, 7260603.671070925891399 ], [ 529870.0, 7260606.329821286723018 ], [ 529880.0, 7260608.459496571682394 ], [ 529890.0, 7260609.552908320911229 ], [ 529900.0, 7260609.912851802073419 ], [ 529910.0, 7260609.9888258241117 ], [ 529920.0, 7260609.999107789248228 ], [ 529930.0, 7260610.0 ], [ 529940.0, 7260610.0 ], [ 529950.0, 7260610.0 ], [ 529960.0, 7260610.0 ], [ 529970.0, 7260610.0 ], [ 529980.0, 7260610.0 ], [ 529990.0, 7260610.0 ], [ 530000.0, 7260609.999107789248228 ], [ 530010.0, 7260609.9888258241117 ], [ 530020.0, 7260609.912851802073419 ], [ 530030.0, 7260609.552908320911229 ], [ 530040.0, 7260608.459496571682394 ], [ 530050.0, 7260606.329821286723018 ], [ 530060.0, 7260603.670178715139627 ], [ 530070.0, 7260601.539611218497157 ], [ 530080.0, 7260600.435917503200471 ], [ 530090.0, 7260600.0 ], [ 530100.0, 7260599.563190286979079 ], [ 530110.0, 7260598.449214605614543 ], [ 530120.0, 7260596.242673087865114 ], [ 530130.0, 7260593.223087035119534 ], [ 530140.0, 7260590.0 ], [ 530150.0, 7260586.776020754128695 ], [ 530160.0, 7260583.746152736246586 ], [ 530170.000000000116415, 7260581.464529406279325 ], [ 530180.0, 7260580.000892210751772 ], [ 530189.999107789248228, 7260578.546644769608974 ], [ 530199.987933612894267, 7260576.340995462611318 ], [ 530209.900785414502025, 7260573.671070925891399 ], [ 530219.453693735296838, 7260571.540503429248929 ], [ 530227.91319030651357, 7260570.447091680020094 ], [ 530234.243011592421681, 7260570.087148198857903 ] ] } },
{ "type": "Feature", "properties": { "id": 13, "reference_id": 7, "dune_id": 7, "dune_name": "Inverted Y Dune", "acquisition_date": "2019-08-18", "length_m": 640.83988055744715 }, "geometry": { "type": "LineString", "coordinates": [ [ 530145.75698840781115, 7261640.0111741758883 ], [ 530152.08680969348643, 7261640.087148198857903 ], [ 530160.546306264819577, 7261640.447091680020094 ], [ 530170.099214585614391, 7261641.540503429248929 ], [ 530180.012066387222148, 7261643.669286504387856 ], [ 530190.000892210751772, 7261646.318647109903395 ], [ 530200.0, 7261648.372348373755813 ], [ 530210.0, 7261649.105816641822457 ], [ 530220.0, 7261648.372348373755813 ], [ 530230.0, 7261646.318647109903395 ], [ 530240.0, 7261643.669286504387856 ], [ 530250.0, 7261641.539611218497157 ], [ 530260.0, 7261640.435917502269149 ], [ 530270.0, 7261640.0 ], [ 530280.0, 7261639.563190286979079 ], [ 530290.0, 7261638.449214605614543 ], [ 530300.0, 7261636.242673087865114 ], [ 530310.0, 7261633.222194824367762 ], [ 530320.0, 7261629.9888258241117 ], [ 530330.0, 7261626.689764766022563 ], [ 530340.0, 7261623.309343023225665 ], [ 530350.0, 7261619.999107789248228 ], [ 530360.0, 7261616.679482800886035 ], [ 530370.0, 7261613.222194824367762 ], [ 530380.0, 7261609.552908320911229 ], [ 530390.0, 7261605.149261338636279 ], [ 530400.0, 7261599.627990132197738 ], [ 530410.0, 7261593.582138305529952 ], [ 530420.0, 7261587.772002339363098 ], [ 530430.000000000116415, 7261582.117608899250627 ], [ 530440.0, 7261575.881837395951152 ], [ 530450.0, 7261568.372348373755813 ], [ 530460.0, 7261559.541734145022929 ], [ 530469.999107789364643, 7261549.911959590390325 ], [ 530479.988825823529623, 7261539.9888258241117 ], [ 530489.912851801607758, 7261529.999107789248228 ], [ 530499.552016110159457, 7261520.0 ], [ 530508.448322394862771, 7261510.0 ], [ 530516.241780876647681, 7261500.0 ], [ 530523.211912858532742, 7261490.0 ], [ 530529.912851801607758, 7261480.0 ], [ 530536.328929075156339, 7261470.000000000931323 ], [ 530542.205649307463318, 7261460.0 ], [ 530547.794350692536682, 7261450.0 ], [ 530553.671070924960077, 7261440.0 ], [ 530560.087148198392242, 7261430.0 ], [ 530566.788087141467258, 7261420.0 ], [ 530573.758219123352319, 7261410.0 ], [ 530581.551677605253644, 7261400.0 ], [ 530590.447983889840543, 7261390.0 ], [ 530600.087148198392242, 7261380.0 ], [ 530610.01028196583502, 7261370.000892210751772 ], [ 530619.988825823646039, 7261360.012066386640072 ], [ 530629.900785414502025, 7261350.099214585497975 ], [ 530639.453693735296838, 7261340.546306265518069 ], [ 530647.913190306629986, 7261332.086809693835676 ], [ 530654.243011592305265, 7261325.756988408043981 ] ] } }
]
}
