{
"type": "FeatureCollection",
"name": "crests_2025_08_2025-08-16",
"crs": { "type": "name", "properties": { "name": "urn:ogc:def:crs:EPSG::32733" } },
"features": [
{ "type": "Feature", "properties": { "id": 0, "reference_id": 1, "dune_id": 1, "dune_name": "Big Mommy Dune", "acquisition_date": "2025-08-16", "length_m": 549.58078847020283 }, "geometry": { "type": "LineString", "coordinates": [ [ 529081.551677605137229, 7261785.756988408043981 ], [ 529083.757326912600547, 7261792.086809692904353 ], [ 529086.776912964996882, 7261800.546306265518069 ], [ 529090.0, 7261810.099214585497975 ], [ 529093.223087035119534, 7261820.012066387571394 ], [ 529096.241780876764096, 7261830.000892210751772 ], [ 529098.437148218392394, 7261840.000000000931323 ], [ 529099.463975701015443, 7261850.0 ], [ 529099.453693735413253, 7261860.0 ], [ 529098.350000019883737, 7261870.0 ], [ 529095.793796986807138, 7261880.0 ], [ 529091.670517219230533, 7261890.0 ], [ 529086.231498910929076, 7261900.0 ], [ 529079.911959590855986, 7261910.0 ], [ 529073.299061056924984, 7261920.0 ], [ 529066.700046732323244, 7261930.0 ], [ 529060.075974022038281, 7261940.0 ], [ 529053.670178714208305, 7261950.0 ], [ 529047.795242903172038, 7261960.0 ], [ 529042.216823483933695, 7261970.0 ], [ 529036.416969484183937, 7261980.0 ], [ 529030.372009867918678, 7261990.0 ], [ 529024.850738662178628, 7262000.0 ], [ 529020.447091679205187, 7262010.0 ], [ 529016.776912965113297, 7262020.0 ], [ 529013.310235233511776, 7262030.0 ], [ 529009.924025978078134, 7262040.0 ], [ 529006.31953932007309, 7262050.0 ], [ 529002.128783074789681, 7262060.0 ], [ 528997.423233035369776, 7262070.0 ], [ 528992.489618766237982, 7262080.0 ], [ 528987.498314846656285, 7262090.0 ], [ 528982.488726555602625, 7262100.0 ], [ 528977.4120588588994, 7262110.0 ], [ 528972.041634876397438, 7262120.0 ], [ 528965.871555430116132, 7262130.0 ], [ 528958.371456162189133, 7262140.0 ], [ 528949.541734144324437, 7262150.0 ], [ 528939.911959590972401, 7262159.999107789248228 ], [ 528929.988825823529623, 7262169.9888258241117 ], [ 528919.999107789364643, 7262179.911959591321647 ], [ 528910.0, 7262189.541734144091606 ], [ 528900.0, 7262198.371456162072718 ], [ 528890.0, 7262205.871555430814624 ], [ 528880.000892210751772, 7262212.041634877212346 ], [ 528870.012066387105733, 7262217.411166648380458 ], [ 528860.099214585614391, 7262222.477552378550172 ], [ 528850.546306264819577, 7262227.411166648380458 ], [ 528842.086809693370014, 7262232.041634876281023 ], [ 528835.756988407694735, 7262235.871555430814624 ] ] } },
{ "type": "Feature", "properties": { "id": 1, "reference_id": 1, "dune_id": 1, "dune_name": "Big Mommy Dune", "acquisition_date": "2025-08-16", "length_m": 745.05540730503628 }, "geometry": { "type": "LineString", "coordinates": [ [ 529048.371456162189133, 7261734.243011591956019 ], [ 529045.871555430116132, 7261727.913190307095647 ], [ 529042.042527087032795, 7261719.453693735413253 ], [ 529037.42234082473442, 7261709.900785414502025 ], [ 529032.565592788159847, 7261699.987933613359928 ], [ 529027.870324714574963, 7261689.999107789248228 ], [ 529023.681352890678681, 7261680.0 ], [ 529020.088040409144014, 7261670.0 ], [ 529016.788087141467258, 7261660.0 ], [ 529013.759111334104091, 7261650.0 ], [ 529011.562851781724021, 7261640.0 ], [ 529010.535132088349201, 7261630.0 ], [ 529010.534239877597429, 7261620.0 ], [ 529011.551677605253644, 7261610.0 ], [ 529013.671070924960077, 7261600.0 ], [ 529016.329821285791695, 7261590.0 ], [ 529018.460388781968504, 7261580.0 ], [ 529019.564082497381605, 7261570.0 ], [ 529020.0, 7261560.000000000931323 ], [ 529020.43591750273481, 7261550.0 ], [ 529021.540503428783268, 7261540.0 ], [ 529023.681352890678681, 7261530.0 ], [ 529026.416969484183937, 7261520.0 ], [ 529028.907480461173691, 7261510.0 ], [ 529031.104585926048458, 7261500.0 ], [ 529033.670178714208305, 7261490.0 ], [ 529036.766630999278277, 7261480.0 ], [ 529040.01028196583502, 7261470.000000000931323 ], [ 529043.311127444147132, 7261460.0 ], [ 529046.700938942958601, 7261450.0 ], [ 529050.075974021921866, 7261440.0 ], [ 529053.670178714208305, 7261430.0 ], [ 529057.794350692536682, 7261420.0 ], [ 529062.205649307463318, 7261410.0 ], [ 529066.329821285791695, 7261400.0 ], [ 529069.924025978078134, 7261390.0 ], [ 529073.299953267676756, 7261380.0 ], [ 529076.700046732323244, 7261370.0 ], [ 529080.075974022038281, 7261360.0 ], [ 529083.670178714208305, 7261350.0 ], [ 529087.794350692536682, 7261340.0 ], [ 529092.20654151821509, 7261330.0 ], [ 529096.340103251626715, 7261320.0 ], [ 529100.000892210751772, 7261310.000000000931323 ], [ 529103.670178714208305, 7261300.0 ], [ 529107.870324714574963, 7261290.0 ], [ 529112.576766964630224, 7261280.0 ], [ 529117.509489023126662, 7261270.0 ], [ 529122.490510976989754, 7261260.0 ], [ 529127.423233035369776, 7261250.0 ], [ 529132.128783074906096, 7261240.0 ], [ 529136.319539319956675, 7261230.0 ], [ 529139.923133767326362, 7261220.0 ], [ 529143.299953267676756, 7261210.000000000931323 ], [ 529146.700046732323244, 7261200.0 ], [ 529150.075974022038281, 7261190.0 ], [ 529153.669286503572948, 7261180.0 ], [ 529157.784068726818077, 7261170.0 ], [ 529162.129675285541452, 7261160.0 ], [ 529165.968985594343394, 7261150.0 ], [ 529168.819440052029677, 7261140.0 ], [ 529171.082237573107705, 7261130.0 ], [ 529173.582138305064291, 7261120.000000000931323 ], [ 529176.318647109321319, 7261110.0 ], [ 529178.458604360581376, 7261100.0 ], [ 529179.552908320794813, 7261090.0 ], [ 529179.912851801607758, 7261080.0 ], [ 529179.988825823529623, 7261070.000892210751772 ], [ 529179.999107789364643, 7261060.012066387571394 ], [ 529180.0, 7261050.099214585497975 ], [ 529180.0, 7261040.546306265518069 ], [ 529180.0, 7261032.086809692904353 ], [ 529180.0, 7261025.756988408043981 ] ] } },
{ "type": "Feature", "properties": { "id": 2, "reference_id": 9, "dune_id": 9, "dune_name": "Inverted Y Dune", "acquisition_date": "2025-08-16", "length_m": 835.1128909991113 }, "geometry": { "type": "LineString", "coordinates": [ [ 529640.087148198392242, 7262264.243011591956019 ], [ 529640.447983889840543, 7262257.913190307095647 ], [ 529641.551677605137229, 7262249.453693735413253 ], [ 529643.757326912600547, 7262239.900785414502025 ], [ 529646.777805175632238, 7262229.987933613359928 ], [ 529650.011174176470377, 7262219.999107789248228 ], [ 529653.311127444263548, 7262210.0 ], [ 529656.700938943075016, 7262200.0 ], [ 529660.075974022038281, 7262190.0 ], [ 529663.669286503572948, 7262180.0 ], [ 529667.784068726818077, 7262170.0 ], [ 529672.130567496176809, 7262160.0 ], [ 529675.980159770930186, 7262150.0 ], [ 529678.907480461173691, 7262140.0 ], [ 529681.540503428783268, 7262130.0 ], [ 529685.209789932239801, 7262120.0 ], [ 529690.43591750273481, 7262110.0 ], [ 529696.329821285791695, 7262100.0 ], [ 529701.694649993441999, 7262090.0 ], [ 529705.893903783056885, 7262080.0 ], [ 529708.895414073951542, 7262070.0 ], [ 529711.529329252196476, 7262060.0 ], [ 529715.133815910317935, 7262050.0 ], [ 529720.076866232790053, 7262040.0 ], [ 529725.246691502048634, 7262030.0 ], [ 529729.640948729938827, 7262020.0 ], [ 529733.594204692170024, 7262010.0 ], [ 529737.859150538104586, 7262000.0 ], [ 529742.565592788159847, 7261990.0 ], [ 529747.433515001204796, 7261980.0 ], [ 529752.129675285425037, 7261970.0 ], [ 529756.319539319956675, 7261960.0 ], [ 529759.923133767326362, 7261950.0 ], [ 529763.299061056924984, 7261940.0 ], [ 529766.689764766488224, 7261930.0 ], [ 529770.0, 7261920.0 ], [ 529773.310235233511776, 7261910.0 ], [ 529776.700938943075016, 7261900.0 ], [ 529780.076866232673638, 7261890.0 ], [ 529783.681352890678681, 7261880.0 ], [ 529787.882391101680696, 7261870.0 ], [ 529792.663915163138881, 7261860.0 ], [ 529797.957472912967205, 7261850.0 ], [ 529804.042188582126983, 7261840.000000000931323 ], [ 529811.181452158722095, 7261830.0 ], [ 529818.917762426892295, 7261820.0 ], [ 529826.417861694935709, 7261810.0 ], [ 529833.681352890678681, 7261800.0 ], [ 529841.541395639418624, 7261790.0 ], [ 529850.447091679088771, 7261780.0 ], [ 529860.087148198392242, 7261770.000892210751772 ], [ 529870.011174176470377, 7261760.011174176819623 ], [ 529880.000892210751772, 7261750.087148198857903 ], [ 529890.0, 7261740.447091680020094 ], [ 529900.0, 7261731.541395640000701 ], [ 529910.0, 7261723.681352891027927 ], [ 529920.0, 7261716.416969484649599 ], [ 529930.0, 7261708.907480461522937 ], [ 529940.0, 7261701.10458592697978 ], [ 529950.0, 7261693.671070924960077 ], [ 529960.0, 7261686.776912964880466 ], [ 529970.0, 7261680.086255988106132 ], [ 529980.0, 7261673.671070924960077 ], [ 529990.0, 7261667.794350693002343 ], [ 530000.0, 7261662.206541518680751 ], [ 530010.0, 7261656.340103251859546 ], [ 530020.0, 7261650.0 ], [ 530030.0, 7261643.659004538320005 ], [ 530039.999553894624114, 7261637.782730410806835 ], [ 530049.993520701071247, 7261632.12498040869832 ], [ 530059.944359513698146, 7261625.937477882951498 ], [ 530069.677239574841224, 7261618.695108798332512 ], [ 530078.683442020905204, 7261610.858292123302817 ], [ 530086.078100949409418, 7261603.833858641795814 ], [ 530091.078100949525833, 7261598.910724874585867 ] ] } },
{ "type": "Feature", "properties": { "id": 3, "reference_id": 8, "dune_id": 8, "dune_name": "Inverted Y Dune", "acquisition_date": "2025-08-16", "length_m": 735.73036276640983 }, "geometry": { "type": "LineString", "coordinates": [ [ 530096.835981567739509, 7261591.078100949525833 ], [ 530098.176084819366224, 7261586.078100949525833 ], [ 530099.316896484117024, 7261578.683442020788789 ], [ 530100.223545839544386, 7261569.6772395754233 ], [ 530101.496929329470731, 7261559.944359513930976 ], [ 530103.664591626031324, 7261549.993520701304078 ], [ 530106.329375180532224, 7261539.999553894624114 ], [ 530108.459496571333148, 7261530.0 ], [ 530109.552908320911229, 7261520.0 ], [ 530109.913744012243114, 7261510.0 ], [ 530110.0, 7261500.0 ], [ 530110.086255987756886, 7261490.0 ], [ 530110.447091679205187, 7261480.0 ], [ 530111.540503428666852, 7261470.000000000931323 ], [ 530113.671070924960077, 7261460.0 ], [ 530116.340995462262072, 7261450.0 ], [ 530118.54664476972539, 7261440.0 ], [ 530120.0, 7261430.0 ], [ 530121.454247441026382, 7261420.0 ], [ 530123.670178714208305, 7261410.0 ], [ 530126.416077273664996, 7261400.0 ], [ 530128.907480461173691, 7261390.0 ], [ 530131.104585926048458, 7261380.0 ], [ 530133.671070924960077, 7261370.0 ], [ 530136.776912964996882, 7261360.0 ], [ 530140.087148198392242, 7261350.0 ], [ 530143.682245101314038, 7261340.0 ], [ 530147.882391101680696, 7261330.0 ], [ 530152.664807373890653, 7261320.0 ], [ 530157.968647089553997, 7261310.000000000931323 ], [ 530164.129336780519225, 7261300.0 ], [ 530171.628543837927282, 7261290.0 ], [ 530180.458265855675563, 7261280.000892210751772 ], [ 530190.088040409144014, 7261270.011174176819623 ], [ 530200.011174176586792, 7261260.088040409609675 ], [ 530210.000892210751772, 7261250.458265855908394 ], [ 530220.0, 7261241.628543837927282 ], [ 530230.0, 7261234.129336780868471 ], [ 530240.0, 7261227.969539299607277 ], [ 530250.0, 7261222.675089339725673 ], [ 530260.0, 7261217.958365123718977 ], [ 530270.0, 7261214.04218858294189 ], [ 530280.0, 7261211.181452158838511 ], [ 530290.0, 7261208.917762426659465 ], [ 530300.0, 7261206.417861694470048 ], [ 530310.0, 7261203.681352891027927 ], [ 530320.0, 7261201.541395639069378 ], [ 530330.0, 7261200.447091678157449 ], [ 530340.0, 7261200.087148198857903 ], [ 530350.0, 7261200.0111741758883 ], [ 530360.0, 7261200.001784421503544 ], [ 530370.0, 7261200.0111741758883 ], [ 530380.0, 7261200.087148198857903 ], [ 530390.0, 7261200.447091678157449 ], [ 530400.0, 7261201.540503428317606 ], [ 530410.0, 7261203.670178713276982 ], [ 530420.0, 7261206.329821285791695 ], [ 530430.000000000116415, 7261208.459496571682394 ], [ 530440.0, 7261209.552016111090779 ], [ 530450.0, 7261209.901677625253797 ], [ 530460.0, 7261209.900785414502025 ], [ 530470.0, 7261209.539949723519385 ], [ 530480.0, 7261208.36117419693619 ], [ 530490.0, 7261205.794689197093248 ], [ 530500.0, 7261201.671409429982305 ], [ 530509.999107789248228, 7261196.242673086933792 ], [ 530519.987933612894267, 7261190.0 ], [ 530529.900785414385609, 7261183.757326913066208 ], [ 530539.453693735296838, 7261178.328590570017695 ], [ 530547.91319030651357, 7261174.205310802906752 ], [ 530554.243011592305265, 7261171.638825803995132 ] ] } },
{ "type": "Feature", "properties": { "id": 4, "reference_id": 7, "dune_id": 7, "dune_name": "Inverted Y Dune", "acquisition_date": "2025-08-16", "length_m": 626.06685085015295 }, "geometry": { "type": "LineString", "coordinates": [ [ 530155.75698840781115, 7261640.0 ], [ 530162.08680969348643, 7261640.0 ], [ 530170.546306264819577, 7261640.0 ], [ 530180.099214585614391, 7261640.0 ], [ 530190.012066387105733, 7261640.0 ], [ 530200.000892210751772, 7261640.0 ], [ 530210.0, 7261640.0 ], [ 530220.0, 7261640.0 ], [ 530230.0, 7261640.0 ], [ 530240.0, 7261639.999107789248228 ], [ 530250.0, 7261639.9888258241117 ], [ 530260.0, 7261639.912851801142097 ], [ 530270.0, 7261639.552908320911229 ], [ 530280.0, 7261638.458604361861944 ], [ 530290.0, 7261636.318647109903395 ], [ 530300.0, 7261633.582138305529952 ], [ 530310.0, 7261631.082237573340535 ], [ 530320.0, 7261628.819440051913261 ], [ 530330.0, 7261625.968985594809055 ], [ 530340.0, 7261622.129675285890698 ], [ 530350.0, 7261617.783176516182721 ], [ 530360.0, 7261613.659004538320005 ], [ 530370.0, 7261609.999107789248228 ], [ 530380.0, 7261606.328929075039923 ], [ 530390.0, 7261602.118501110002398 ], [ 530400.0, 7261597.335192626342177 ], [ 530410.0, 7261592.031352911144495 ], [ 530420.0, 7261585.870663220062852 ], [ 530430.000000000116415, 7261578.371456162072718 ], [ 530440.0, 7261569.541734145022929 ], [ 530450.0, 7261559.911959591321647 ], [ 530460.0, 7261549.9888258241117 ], [ 530470.0, 7261539.999107789248228 ], [ 530479.999107789364643, 7261530.0 ], [ 530489.988825823529623, 7261520.0 ], [ 530499.912851801607758, 7261510.0 ], [ 530509.552016110159457, 7261500.0 ], [ 530518.448322394862771, 7261490.0 ], [ 530526.242673087399453, 7261480.0 ], [ 530533.222194824367762, 7261470.000000000931323 ], [ 530539.988825823529623, 7261460.0 ], [ 530546.68976476660464, 7261450.0 ], [ 530553.310235233511776, 7261440.0 ], [ 530560.011174176470377, 7261430.0 ], [ 530566.777805175632238, 7261420.0 ], [ 530573.757326912600547, 7261410.0 ], [ 530581.551677605253644, 7261400.0 ], [ 530590.447983889840543, 7261390.0 ], [ 530600.087148198392242, 7261380.0 ], [ 530610.01028196583502, 7261370.000892210751772 ], [ 530619.988825823646039, 7261360.012066386640072 ], [ 530629.900785414502025, 7261350.099214585497975 ], [ 530639.453693735296838, 7261340.546306265518069 ], [ 530647.913190306629986, 7261332.086809693835676 ], [ 530654.243011592305265, 7261325.756988408043981 ] ] } },
{ "type": "Feature", "properties": { "id": 5, "reference_id": 3, "dune_id": 3, "dune_name": "Big Mommy Dune", "acquisition_date": "2025-08-16", "length_m": 1246.6394013115125 }, "geometry": { "type": "LineString", "coordinates": [ [ 529176.864953374140896, 7260984.243011591956019 ], [ 529175.668947998550721, 7260977.913190307095647 ], [ 529176.839225980802439, 7260969.453693735413253 ], [ 529180.90535753488075, 7260959.900785414502025 ], [ 529186.505009893444367, 7260949.987933613359928 ], [ 529192.152915849117562, 7260939.999107789248228 ], [ 529197.435299422475509, 7260930.0 ], [ 529202.566484998795204, 7260920.0 ], [ 529207.870324714574963, 7260910.0 ], [ 529213.680460680043325, 7260900.0 ], [ 529220.076866232557222, 7260890.0 ], [ 529226.700938943075016, 7260880.0 ], [ 529233.31023523339536, 7260870.0 ], [ 529240.0, 7260860.0 ], [ 529246.690656977239996, 7260850.0 ], [ 529253.309343022876419, 7260840.0 ], [ 529260.0, 7260830.0 ], [ 529266.690656977239996, 7260820.0 ], [ 529273.309343022760004, 7260810.0 ], [ 529280.0, 7260800.0 ], [ 529286.690656977239996, 7260790.0 ], [ 529293.310235233511776, 7260780.000000000931323 ], [ 529300.011174176470377, 7260770.0 ], [ 529306.777805175748654, 7260760.0 ], [ 529313.757326912716962, 7260750.000892210751772 ], [ 529321.551677605253644, 7260740.011174176819623 ], [ 529330.447983889840543, 7260730.087148198857903 ], [ 529340.087148198392242, 7260720.447983889840543 ], [ 529350.011174176586792, 7260711.551677605137229 ], [ 529360.000892210635357, 7260703.75821912381798 ], [ 529370.0, 7260696.788979353383183 ], [ 529380.0, 7260690.098322374746203 ], [ 529390.0, 7260683.758219122886658 ], [ 529400.0, 7260678.242334581911564 ], [ 529410.0, 7260673.758219122886658 ], [ 529420.0, 7260670.097430163994431 ], [ 529430.0, 7260666.777805175632238 ], [ 529440.000000000116415, 7260663.671070924960077 ], [ 529450.0, 7260661.103693716228008 ], [ 529460.0, 7260658.896306285634637 ], [ 529470.0, 7260656.329821285791695 ], [ 529480.0, 7260653.234261211939156 ], [ 529490.0, 7260650.0 ], [ 529500.000000000116415, 7260646.765738788992167 ], [ 529510.0, 7260643.670178715139627 ], [ 529520.0, 7260641.10458592697978 ], [ 529530.0, 7260638.907480461522937 ], [ 529540.0, 7260636.416077274829149 ], [ 529550.0, 7260633.670178715139627 ], [ 529560.0, 7260631.454247441142797 ], [ 529570.0, 7260630.0 ], [ 529580.0, 7260628.546644769608974 ], [ 529590.0, 7260626.340995462611318 ], [ 529600.0, 7260623.670178714208305 ], [ 529610.0, 7260621.529329252429307 ], [ 529620.0, 7260620.35994348116219 ], [ 529630.0, 7260619.640056519769132 ], [ 529640.0, 7260618.470670748502016 ], [ 529650.0, 7260616.33071349747479 ], [ 529660.0, 7260613.670178715139627 ], [ 529670.0, 7260611.540503429248929 ], [ 529680.0, 7260610.447091680020094 ], [ 529690.0, 7260610.087148198857903 ], [ 529700.0, 7260610.010281966067851 ], [ 529710.0, 7260609.989718034863472 ], [ 529720.0, 7260609.912851802073419 ], [ 529730.0, 7260609.552908320911229 ], [ 529740.0, 7260608.459496571682394 ], [ 529750.0, 7260606.329821286723018 ], [ 529760.0, 7260603.670178715139627 ], [ 529770.0, 7260601.540503429248929 ], [ 529780.0, 7260600.447091680020094 ], [ 529790.0, 7260600.087148198857903 ], [ 529800.0, 7260600.011174176819623 ], [ 529810.0, 7260600.000892210751772 ], [ 529820.0, 7260600.0 ], [ 529830.0, 7260600.0 ], [ 529840.0, 7260600.0 ], [ 529850.0, 7260600.0 ], [ 529860.0, 7260600.0 ], [ 529870.0, 7260600.0 ], [ 529880.0, 7260600.000892210751772 ], [ 529890.0, 7260600.011174176819623 ], [ 529900.0, 7260600.087148198857903 ], [ 529910.0, 7260600.447091680020094 ], [ 529920.0, 7260601.540503429248929 ], [ 529930.0, 7260603.669286504387856 ], [ 529940.0, 7260606.318647110834718 ], [ 529950.0, 7260608.372348373755813 ], [ 529960.0, 7260609.105816641822457 ], [ 529970.0, 7260608.373240584507585 ], [ 529980.0, 7260606.329821286723018 ], [ 529990.0, 7260603.755542490631342 ], [ 530000.0, 7260601.976420931518078 ], [ 530010.0, 7260601.900446909479797 ], [ 530020.0, 7260603.310235233977437 ], [ 530030.0, 7260604.800492033362389 ], [ 530040.0, 7260604.790210068225861 ], [ 530050.0, 7260603.222194824367762 ], [ 530060.0, 7260601.442181054502726 ], [ 530070.0, 7260600.34876930527389 ], [ 530080.0, 7260599.63916430901736 ], [ 530090.0, 7260598.469778537750244 ], [ 530100.0, 7260596.319539319723845 ], [ 530110.0, 7260593.583030516281724 ], [ 530120.0, 7260591.093411749228835 ], [ 530130.0, 7260588.906588250771165 ], [ 530140.0, 7260586.416077273897827 ], [ 530150.0, 7260583.670178714208305 ], [ 530160.0, 7260581.454247441142797 ], [ 530170.000000000116415, 7260580.0 ], [ 530180.0, 7260578.546644769608974 ], [ 530190.0, 7260576.340995462611318 ], [ 530199.999107789248228, 7260573.671070925891399 ], [ 530209.987933612894267, 7260571.540503429248929 ], [ 530219.900785414385609, 7260570.447091680020094 ], [ 530229.453693735180423, 7260570.087148198857903 ], [ 530237.91319030651357, 7260570.011174176819623 ], [ 530244.243011592421681, 7260570.000892210751772 ] ] } },
{ "type": "Feature", "properties": { "id": 6, "reference_id": 4, "dune_id": 4, "dune_name": "The Star Dune", "acquisition_date": "2025-08-16", "length_m": 649.61935042136747 }, "geometry": { "type": "LineString", "coordinates": [ [ 533005.756988407694735, 7261863.671070925891399 ], [ 533012.08680969348643, 7261866.340995462611318 ], [ 533020.546306264819577, 7261868.546644769608974 ], [ 533030.099214585614391, 7261870.000892210751772 ], [ 533040.012066387105733, 7261871.464529407210648 ], [ 533050.000892210751772, 7261873.746152736246586 ], [ 533060.0, 7261876.776020754128695 ], [ 533070.0, 7261880.0 ], [ 533080.0, 7261883.223979245871305 ], [ 533090.0, 7261886.253847263753414 ], [ 533100.0, 7261888.535470593720675 ], [ 533110.0, 7261890.0 ], [ 533120.0, 7261891.464529407210648 ], [ 533130.0, 7261893.746152736246586 ], [ 533140.0, 7261896.776912964880466 ], [ 533150.0, 7261900.0111741758883 ], [ 533160.0, 7261903.310235233977437 ], [ 533170.0, 7261906.689764766953886 ], [ 533180.0, 7261909.989718034863472 ], [ 533190.0, 7261913.233369002118707 ], [ 533200.0, 7261916.329821286723018 ], [ 533210.0, 7261918.895414073951542 ], [ 533220.0, 7261921.093411749228835 ], [ 533230.0, 7261923.594204692170024 ], [ 533240.0, 7261926.405795307829976 ], [ 533250.0, 7261928.906588250771165 ], [ 533260.0, 7261931.104585926048458 ], [ 533270.0, 7261933.670178715139627 ], [ 533280.0, 7261936.766630999743938 ], [ 533290.0, 7261940.010281966067851 ], [ 533300.0, 7261943.310235233977437 ], [ 533310.0, 7261946.689764766022563 ], [ 533320.0, 7261949.989718034863472 ], [ 533330.0, 7261953.233369001187384 ], [ 533340.0, 7261956.329821286723018 ], [ 533350.0, 7261958.896306285634637 ], [ 533360.0, 7261961.103693716228008 ], [ 533370.0, 7261963.671070924960077 ], [ 533380.000000000116415, 7261966.776912965811789 ], [ 533390.0, 7261970.086255988106132 ], [ 533400.000000000116415, 7261973.671070924960077 ], [ 533410.0, 7261977.794350693002343 ], [ 533420.0, 7261982.205649307928979 ], [ 533430.0, 7261986.329821286723018 ], [ 533440.0, 7261989.924025978893042 ], [ 533450.0, 7261993.299953268840909 ], [ 533460.0, 7261996.700046733021736 ], [ 533470.0, 7262000.076866233721375 ], [ 533480.0, 7262003.680460680276155 ], [ 533490.0, 7262007.870324714109302 ], [ 533500.0, 7262012.566484998911619 ], [ 533510.0, 7262017.433515001088381 ], [ 533520.0, 7262022.129675285890698 ], [ 533530.0, 7262026.319539319723845 ], [ 533540.0, 7262029.923133767209947 ], [ 533550.0, 7262033.299953268840909 ], [ 533560.0, 7262036.700046733021736 ], [ 533570.0, 7262040.075081812217832 ], [ 533579.999107789364643, 7262043.65811232663691 ], [ 533589.987933612894267, 7262047.69602831825614 ], [ 533599.900785414385609, 7262051.671409429982305 ], [ 533609.453693735180423, 7262054.341333967633545 ], [ 533617.91319030651357, 7262054.702169658616185 ], [ 533624.243011592305265, 7262053.211912858299911 ] ] } },
{ "type": "Feature", "properties": { "id": 7, "reference_id": 6, "dune_id": 6, "dune_name": "The Star Dune", "acquisition_date": "2025-08-16", "length_m": 748.03392174433361 }, "geometry": { "type": "LineString", "coordinates": [ [ 533580.447091679205187, 7262784.243011591956019 ], [ 533581.540503428783268, 7262777.913190307095647 ], [ 533583.670178714208305, 7262769.453693735413253 ], [ 533586.329821285791695, 7262759.900785414502025 ], [ 533588.460388781968504, 7262749.987933613359928 ], [ 533589.56408249726519, 7262739.999107789248228 ], [ 533590.0, 7262730.0 ], [ 533590.43591750273481, 7262720.0 ], [ 533591.539611218031496, 7262710.0 ], [ 533593.670178714208305, 7262700.0 ], [ 533596.329821285791695, 7262690.0 ], [ 533598.460388781968504, 7262680.0 ], [ 533599.56408249726519, 7262670.0 ], [ 533600.0, 7262660.0 ], [ 533600.43591750273481, 7262650.0 ], [ 533601.539611218031496, 7262640.0 ], [ 533603.671070924960077, 7262630.0 ], [ 533606.340995462378487, 7262620.0 ], [ 533608.54664476972539, 7262610.0 ], [ 533610.0, 7262600.000000000931323 ], [ 533611.454247441026382, 7262590.0 ], [ 533613.670178714208305, 7262580.0 ], [ 533616.416077273664996, 7262570.0 ], [ 533618.906588250421919, 7262560.0 ], [ 533621.094303960213438, 7262550.0 ], [ 533623.594204692170024, 7262540.0 ], [ 533626.405795307713561, 7262530.0 ], [ 533628.906588250421919, 7262520.0 ], [ 533631.104585926048458, 7262510.0 ], [ 533633.670178714208305, 7262500.0 ], [ 533636.765738788526505, 7262490.0 ], [ 533640.000000000116415, 7262480.0 ], [ 533643.234261211473495, 7262470.0 ], [ 533646.329821285791695, 7262460.0 ], [ 533648.896306284703314, 7262450.0 ], [ 533651.103693715413101, 7262440.0 ], [ 533653.670178714208305, 7262430.0 ], [ 533656.765738788526505, 7262420.0 ], [ 533659.999107789248228, 7262410.0 ], [ 533663.223087035119534, 7262400.0 ], [ 533666.242673087399453, 7262390.0 ], [ 533668.448322394862771, 7262380.0 ], [ 533669.552016110159457, 7262370.0 ], [ 533669.912851801607758, 7262360.0 ], [ 533669.988825823646039, 7262350.0 ], [ 533669.999107789364643, 7262340.000000000931323 ], [ 533670.0, 7262330.0 ], [ 533670.0, 7262320.0 ], [ 533670.0, 7262310.0 ], [ 533669.999107789364643, 7262300.0 ], [ 533669.988825823646039, 7262290.0 ], [ 533669.912851801607758, 7262280.0 ], [ 533669.552908320911229, 7262270.0 ], [ 533668.459496571333148, 7262260.0 ], [ 533666.329821285791695, 7262250.0 ], [ 533663.670178714208305, 7262240.0 ], [ 533661.540503428783268, 7262230.0 ], [ 533660.447091679088771, 7262220.0 ], [ 533660.087148198392242, 7262210.0 ], [ 533660.011174176470377, 7262200.0 ], [ 533660.000892210751772, 7262190.0 ], [ 533659.999107789248228, 7262180.0 ], [ 533659.988825823529623, 7262170.0 ], [ 533659.912851801607758, 7262160.0 ], [ 533659.552908320911229, 7262150.0 ], [ 533658.459496571216732, 7262140.0 ], [ 533656.329821285791695, 7262130.0 ], [ 533653.670178714208305, 7262120.0 ], [ 533651.540503428783268, 7262110.0 ], [ 533650.447091679205187, 7262100.000446105375886 ], [ 533650.087148198508658, 7262090.006479298695922 ], [ 533650.011174176470377, 7262080.055640487000346 ], [ 533650.000892210751772, 7262070.322760425508022 ], [ 533650.0, 7262061.316557979211211 ], [ 533650.0, 7262053.921899050474167 ], [ 533650.0, 7262048.921899050474167 ] ] } },
{ "type": "Feature", "properties": { "id": 8, "reference_id": 5, "dune_id": 5, "dune_name": "The Star Dune", "acquisition_date": "2025-08-16", "length_m": 1144.8024033332645 }, "geometry": { "type": "LineString", "coordinates": [ [ 533651.628543837927282, 7262041.078100949525833 ], [ 533654.129336780519225, 7262036.078100949525833 ], [ 533657.968647089437582, 7262028.683442020788789 ], [ 533662.664807373774238, 7262019.677239574491978 ], [ 533667.881498891045339, 7262009.944359513930976 ], [ 533673.671070924960077, 7261999.993520701304078 ], [ 533680.0, 7261989.999553894624114 ], [ 533686.329821285791695, 7261980.0 ], [ 533692.129675285541452, 7261970.0 ], [ 533697.423233035369776, 7261960.0 ], [ 533702.489618766237982, 7261950.0 ], [ 533707.499207057408057, 7261940.0 ], [ 533712.499900731956586, 7261930.0 ], [ 533717.499207057291642, 7261920.0 ], [ 533722.489618766237982, 7261910.0 ], [ 533727.423233035253361, 7261900.0 ], [ 533732.128783074906096, 7261890.0 ], [ 533736.31953932007309, 7261880.0 ], [ 533739.923133767442778, 7261870.0 ], [ 533743.299953267676756, 7261860.0 ], [ 533746.700938942958601, 7261850.0 ], [ 533750.088040409144014, 7261840.000000000931323 ], [ 533753.768501089187339, 7261830.0 ], [ 533758.329482780885883, 7261820.0 ], [ 533764.205310802557506, 7261810.000892210751772 ], [ 533771.638825803645886, 7261800.011174176819623 ], [ 533780.45915806631092, 7261790.088040409609675 ], [ 533790.088040409144014, 7261780.458265855908394 ], [ 533800.011174176470377, 7261771.628543837927282 ], [ 533810.000892210635357, 7261764.128444569185376 ], [ 533820.0, 7261757.958365123718977 ], [ 533830.0, 7261752.58794114086777 ], [ 533840.0, 7261747.511273445561528 ], [ 533850.0, 7261742.500792942941189 ], [ 533860.0, 7261737.500099267810583 ], [ 533870.0, 7261732.500792942941189 ], [ 533880.0, 7261727.510381233878434 ], [ 533890.0, 7261722.576766964048147 ], [ 533900.0, 7261717.871216924861073 ], [ 533910.0, 7261713.681352891027927 ], [ 533920.0, 7261710.087148198857903 ], [ 533930.0, 7261706.776912964880466 ], [ 533940.0, 7261703.671070924960077 ], [ 533950.0, 7261701.10458592697978 ], [ 533960.0, 7261698.907480461522937 ], [ 533970.0, 7261696.416077273897827 ], [ 533980.0, 7261693.670178714208305 ], [ 533990.0, 7261691.454247441142797 ], [ 534000.0, 7261690.0 ], [ 534010.0, 7261688.546644769608974 ], [ 534020.0, 7261686.340995462611318 ], [ 534030.0, 7261683.671070925891399 ], [ 534040.0, 7261681.539611218497157 ], [ 534050.0, 7261680.435917503200471 ], [ 534060.0, 7261680.0 ], [ 534070.0, 7261679.564082497730851 ], [ 534080.0, 7261678.460388781502843 ], [ 534090.0, 7261676.329821285791695 ], [ 534100.0, 7261673.670178714208305 ], [ 534110.0, 7261671.539611218497157 ], [ 534120.0, 7261670.435917503200471 ], [ 534130.0, 7261669.999107789248228 ], [ 534140.0, 7261669.552908320911229 ], [ 534150.0, 7261668.37234837282449 ], [ 534160.0, 7261665.871555430814624 ], [ 534170.0, 7261662.041634876281023 ], [ 534180.0, 7261657.411166648380458 ], [ 534190.0, 7261652.478444591164589 ], [ 534200.0, 7261647.422340825200081 ], [ 534210.0, 7261642.128783075138927 ], [ 534220.0, 7261636.318647109903395 ], [ 534230.0, 7261629.912851801142097 ], [ 534240.0, 7261623.223087035119534 ], [ 534250.0, 7261616.328929075971246 ], [ 534260.0, 7261608.895414074882865 ], [ 534269.999107789248228, 7261601.092519540339708 ], [ 534279.987933612894267, 7261593.583030516281724 ], [ 534289.900785414502025, 7261586.318647108972073 ], [ 534299.454585945932195, 7261578.458604360930622 ], [ 534307.924364482983947, 7261569.552908320911229 ], [ 534314.330159790813923, 7261559.912851802073419 ], [ 534318.360281985718757, 7261549.9888258241117 ], [ 534320.99419716396369, 7261539.999107789248228 ], [ 534323.570964128593914, 7261530.0 ], [ 534326.317754898685962, 7261520.0 ], [ 534328.458604360581376, 7261510.0 ], [ 534329.552016110159457, 7261500.0 ], [ 534329.901677625137381, 7261490.0 ], [ 534329.901677625137381, 7261480.0 ], [ 534329.552016110159457, 7261470.000000000931323 ], [ 534328.459496571333148, 7261460.0 ], [ 534326.329821285791695, 7261450.0 ], [ 534323.670178714208305, 7261440.0 ], [ 534321.539611218031496, 7261430.0 ], [ 534320.43591750273481, 7261420.0 ], [ 534320.0, 7261410.0 ], [ 534319.56408249726519, 7261400.0 ], [ 534318.460388781968504, 7261390.0 ], [ 534316.330713496543467, 7261380.0 ], [ 534313.682245101430453, 7261370.0 ], [ 534311.639718014281243, 7261360.0 ], [ 534310.992505733272992, 7261350.000892210751772 ], [ 534312.161891504772939, 7261340.012066386640072 ], [ 534315.668947998550721, 7261330.099214585497975 ], [ 534321.541395639418624, 7261320.546306264586747 ], [ 534328.459496571333148, 7261312.086809693835676 ], [ 534334.342226177919656, 7261305.756988408043981 ] ] } },
{ "type": "Feature", "properties": { "id": 9, "reference_id": 2, "dune_id": 2, "dune_name": "Big Mommy Dune", "acquisition_date": "2025-08-16", "length_m": 771.59919280885867 }, "geometry": { "type": "LineString", "coordinates": [ [ 528425.756988407694735, 7260655.309004518203437 ], [ 528432.08680969348643, 7260660.535132088698447 ], [ 528440.546306264819577, 7260666.788979352451861 ], [ 528450.099214585614391, 7260673.321409409865737 ], [ 528460.012066387105733, 7260680.000892210751772 ], [ 528470.000892210751772, 7260686.690656976774335 ], [ 528480.0, 7260693.310235233977437 ], [ 528490.0, 7260700.010281966067851 ], [ 528500.0, 7260706.766630999743938 ], [ 528510.0, 7260713.669286504387856 ], [ 528520.0, 7260721.093411750160158 ], [ 528530.0, 7260728.820332262665033 ], [ 528540.0, 7260735.968985594809055 ], [ 528550.0, 7260742.129675285890698 ], [ 528560.0, 7260747.783176516182721 ], [ 528570.0, 7260753.659004537388682 ], [ 528580.0, 7260759.999107789248228 ], [ 528590.0, 7260766.329821285791695 ], [ 528600.0, 7260772.129675285890698 ], [ 528610.0, 7260777.423233035951853 ], [ 528620.0, 7260782.489618767052889 ], [ 528630.0, 7260787.499207057058811 ], [ 528640.0, 7260792.499900732189417 ], [ 528650.0, 7260797.500099267810583 ], [ 528660.0, 7260802.499900732189417 ], [ 528670.0, 7260807.500099267810583 ], [ 528680.0, 7260812.499900732189417 ], [ 528690.0, 7260817.499207057058811 ], [ 528700.0, 7260822.489618766121566 ], [ 528710.0, 7260827.423233035951853 ], [ 528720.0, 7260832.128783075138927 ], [ 528730.0, 7260836.319539319723845 ], [ 528740.0, 7260839.92313376814127 ], [ 528750.0, 7260843.299953267909586 ], [ 528760.0, 7260846.700046733021736 ], [ 528770.0, 7260850.075974022038281 ], [ 528780.0, 7260853.670178714208305 ], [ 528790.0, 7260857.794350693002343 ], [ 528800.0, 7260862.205649307928979 ], [ 528810.0, 7260866.329821286723018 ], [ 528820.0, 7260869.924025978893042 ], [ 528830.0, 7260873.299061057157815 ], [ 528840.0, 7260876.688872556202114 ], [ 528850.0, 7260879.989718034863472 ], [ 528860.0, 7260883.233369002118707 ], [ 528870.0, 7260886.329821286723018 ], [ 528880.0, 7260888.895414073951542 ], [ 528890.0, 7260891.093411749228835 ], [ 528900.0, 7260893.594204692170024 ], [ 528910.0, 7260896.405795307829976 ], [ 528920.0, 7260898.905696040019393 ], [ 528930.0, 7260901.094303959980607 ], [ 528940.0, 7260903.594204693101346 ], [ 528950.0, 7260906.405795308761299 ], [ 528960.0, 7260908.906588250771165 ], [ 528970.0, 7260911.10458592697978 ], [ 528980.0, 7260913.670178714208305 ], [ 528990.0, 7260916.766630999743938 ], [ 529000.0, 7260920.010281965136528 ], [ 529010.0, 7260923.310235233977437 ], [ 529020.0, 7260926.690656977705657 ], [ 529030.0, 7260930.0 ], [ 529040.0, 7260933.310235233977437 ], [ 529050.0, 7260936.700938942842185 ], [ 529060.0, 7260940.076866232790053 ], [ 529070.0, 7260943.680460680276155 ], [ 529079.999107789248228, 7260947.870324715040624 ], [ 529089.987933612894267, 7260952.565592788159847 ], [ 529099.900785414502025, 7260957.422340825200081 ], [ 529109.453693735296838, 7260962.042527087032795 ], [ 529117.91319030651357, 7260965.871555430814624 ], [ 529124.243011592421681, 7260968.371456163004041 ] ] } }
]
}
