{
"type": "FeatureCollection",
"name": "crests_2023_10_2023-10-13",
"crs": { "type": "name", "properties": { "name": "urn:ogc:def:crs:EPSG::32733" } },
"features": [
{ "type": "Feature", "properties": { "id": 0, "reference_id": 3, "dune_id": 3, "dune_name": "Big Mommy Dune", "acquisition_date": "2023-10-13", "length_m": 340.95139499490023 }, "geometry": { "type": "LineString", "coordinates": [ [ 529374.243011592305265, 7260694.129336779937148 ], [ 529367.91319030651357, 7260697.969539301469922 ], [ 529359.454585945932195, 7260702.675981551408768 ], [ 529349.911959590972401, 7260707.969539300538599 ], [ 529340.075081811286509, 7260714.129336779937148 ], [ 529330.447091679205187, 7260721.628543838858604 ], [ 529321.551677605253644, 7260730.458265855908394 ], [ 529313.758219123352319, 7260740.088040409609675 ], [ 529306.788087141467258, 7260750.011174176819623 ], [ 529300.087148198392242, 7260760.000892210751772 ], [ 529293.671070924960077, 7260770.0 ], [ 529287.794350692536682, 7260780.000000000931323 ], [ 529282.205649307463318, 7260790.0 ], [ 529276.329821285791695, 7260800.0 ], [ 529269.924025978078134, 7260810.0 ], [ 529263.299061057041399, 7260820.0 ], [ 529256.68976476660464, 7260830.0 ], [ 529250.0, 7260840.0 ], [ 529243.310235233511776, 7260850.0 ], [ 529236.700938942958601, 7260860.0 ], [ 529230.075974021921866, 7260870.0 ], [ 529223.670178714208305, 7260880.0 ], [ 529217.794350692536682, 7260890.0 ], [ 529212.206541518098675, 7260900.0 ], [ 529206.3401032515103, 7260910.0 ], [ 529200.000892210751772, 7260919.999107789248228 ], [ 529193.671070924960077, 7260929.987933613359928 ], [ 529187.881498891045339, 7260939.900785414502025 ], [ 529182.664807373774238, 7260949.453693735413253 ], [ 529177.968647089437582, 7260957.913190307095647 ], [ 529174.129336780519225, 7260964.243011592887342 ] ] } },
{ "type": "Feature", "properties": { "id": 1, "reference_id": 3, "dune_id": 3, "dune_name": "Big Mommy Dune", "acquisition_date": "2023-10-13", "length_m": 306.17378647186894 }, "geometry": { "type": "LineString", "coordinates": [ [ 529405.756988407694735, 7260679.552016109228134 ], [ 529412.08680969348643, 7260678.448322394862771 ], [ 529420.546306264819577, 7260676.242673087865114 ], [ 529430.099214585614391, 7260673.222194824367762 ], [ 529440.012066387222148, 7260669.9888258241117 ], [ 529450.000892210751772, 7260666.689764766953886 ], [ 529460.0, 7260663.310235233977437 ], [ 529470.0, 7260660.010281966067851 ], [ 529480.0, 7260656.766630999743938 ], [ 529490.0, 7260653.670178714208305 ], [ 529500.000000000116415, 7260651.10458592697978 ], [ 529510.0, 7260648.906588250771165 ], [ 529520.0, 7260646.405795307829976 ], [ 529530.0, 7260643.594204693101346 ], [ 529540.0, 7260641.094303959980607 ], [ 529550.0, 7260638.906588250771165 ], [ 529560.0, 7260636.416969483718276 ], [ 529570.0, 7260633.680460680276155 ], [ 529580.0, 7260631.530221463181078 ], [ 529590.0, 7260630.35994348116219 ], [ 529600.0, 7260629.64005651883781 ], [ 529610.0, 7260628.470670747570693 ], [ 529620.0, 7260626.330713496543467 ], [ 529630.0, 7260623.670178714208305 ], [ 529640.0, 7260621.540503429248929 ], [ 529650.0, 7260620.447091679088771 ], [ 529659.999107789364643, 7260620.087148198857903 ], [ 529669.987933612894267, 7260620.011174176819623 ], [ 529679.900785414502025, 7260620.000892210751772 ], [ 529689.453693735296838, 7260620.0 ], [ 529697.91319030651357, 7260620.0 ], [ 529704.243011592305265, 7260620.0 ] ] } },
{ "type": "Feature", "properties": { "id": 2, "reference_id": 3, "dune_id": 3, "dune_name": "Big Mommy Dune", "acquisition_date": "2023-10-13", "length_m": 512.66250391716858 }, "geometry": { "type": "LineString", "coordinates": [ [ 529735.756988407694735, 7260610.0 ], [ 529742.08680969348643, 7260610.0 ], [ 529750.546306264819577, 7260610.0 ], [ 529760.099214585614391, 7260610.0 ], [ 529770.012066387222148, 7260610.0 ], [ 529780.000892210751772, 7260610.0 ], [ 529790.0, 7260610.0 ], [ 529800.0, 7260610.0 ], [ 529810.0, 7260610.0 ], [ 529820.0, 7260610.0 ], [ 529830.0, 7260610.0 ], [ 529840.0, 7260610.0 ], [ 529850.0, 7260610.0 ], [ 529860.0, 7260610.0 ], [ 529870.0, 7260610.0 ], [ 529880.0, 7260610.0 ], [ 529890.0, 7260610.0 ], [ 529900.0, 7260610.0 ], [ 529910.0, 7260610.0 ], [ 529920.0, 7260610.0 ], [ 529930.0, 7260610.0 ], [ 529940.0, 7260610.0 ], [ 529950.0, 7260610.0 ], [ 529960.0, 7260610.0 ], [ 529970.0, 7260610.0 ], [ 529980.0, 7260610.0 ], [ 529990.0, 7260610.0 ], [ 530000.0, 7260609.999107789248228 ], [ 530010.0, 7260609.9888258241117 ], [ 530020.0, 7260609.912851802073419 ], [ 530030.0, 7260609.552908320911229 ], [ 530040.0, 7260608.459496571682394 ], [ 530050.0, 7260606.329821286723018 ], [ 530060.0, 7260603.670178715139627 ], [ 530070.0, 7260601.539611218497157 ], [ 530080.0, 7260600.435917503200471 ], [ 530090.0, 7260600.0 ], [ 530100.0, 7260599.564082497730851 ], [ 530110.0, 7260598.459496571682394 ], [ 530120.0, 7260596.318647108972073 ], [ 530130.0, 7260593.583030516281724 ], [ 530140.0, 7260591.093411749228835 ], [ 530150.0, 7260588.906588250771165 ], [ 530160.0, 7260586.416077273897827 ], [ 530170.000000000116415, 7260583.670178714208305 ], [ 530180.0, 7260581.454247441142797 ], [ 530190.0, 7260580.0 ], [ 530199.999107789248228, 7260578.546644769608974 ], [ 530209.987933612894267, 7260576.340995462611318 ], [ 530219.900785414385609, 7260573.671070925891399 ], [ 530229.453693735180423, 7260571.540503429248929 ], [ 530237.91319030651357, 7260570.447091680020094 ], [ 530244.243011592421681, 7260570.087148198857903 ] ] } },
{ "type": "Feature", "properties": { "id": 3, "reference_id": 7, "dune_id": 7, "dune_name": "Inverted Y Dune", "acquisition_date": "2023-10-13", "length_m": 581.3599834537722 }, "geometry": { "type": "LineString", "coordinates": [ [ 530614.243903803057037, 7261365.756988408043981 ], [ 530607.924364482983947, 7261372.086809692904353 ], [ 530599.54084193368908, 7261380.546306265518069 ], [ 530590.348769304226153, 7261390.099214585497975 ], [ 530581.539611218031496, 7261400.012066387571394 ], [ 530573.75643470196519, 7261410.000892210751772 ], [ 530566.776912964996882, 7261420.0 ], [ 530560.000892210751772, 7261430.0 ], [ 530553.234261211473495, 7261440.0 ], [ 530546.329821285791695, 7261450.0 ], [ 530538.895414073951542, 7261460.0 ], [ 530531.092519538826309, 7261470.000000000931323 ], [ 530523.583030515816063, 7261480.0 ], [ 530516.318647109437734, 7261490.0 ], [ 530508.458604360581376, 7261500.0 ], [ 530499.552908320911229, 7261510.0 ], [ 530489.912851801607758, 7261520.0 ], [ 530479.988825823529623, 7261530.0 ], [ 530469.999107789364643, 7261539.999107789248228 ], [ 530460.0, 7261549.9888258241117 ], [ 530450.0, 7261559.911959591321647 ], [ 530440.0, 7261569.541734145022929 ], [ 530430.000000000116415, 7261578.371456162072718 ], [ 530420.0, 7261585.870663220062852 ], [ 530410.0, 7261592.031352911144495 ], [ 530400.0, 7261597.335192626342177 ], [ 530390.0, 7261602.118501110002398 ], [ 530380.0, 7261606.328929075039923 ], [ 530370.0, 7261609.999107789248228 ], [ 530360.0, 7261613.659896748140454 ], [ 530350.0, 7261617.793458482250571 ], [ 530340.0, 7261622.205649307928979 ], [ 530330.0, 7261626.329821285791695 ], [ 530320.0, 7261629.924025978893042 ], [ 530310.0, 7261633.299061057157815 ], [ 530300.0, 7261636.688872556202114 ], [ 530290.0, 7261639.9888258241117 ], [ 530280.0, 7261643.222194824367762 ], [ 530270.0, 7261646.242673087865114 ], [ 530260.0, 7261648.448322394862771 ], [ 530250.0, 7261649.552016111090779 ], [ 530240.0, 7261649.912851802073419 ], [ 530230.0, 7261649.9888258241117 ], [ 530220.0, 7261649.999107790179551 ], [ 530210.0, 7261650.0 ], [ 530200.0, 7261650.0 ], [ 530190.000892210751772, 7261650.0 ], [ 530180.012066387222148, 7261650.0 ], [ 530170.099214585614391, 7261650.0 ], [ 530160.546306264819577, 7261650.0 ], [ 530152.08680969348643, 7261650.0 ], [ 530145.75698840781115, 7261650.0 ] ] } },
{ "type": "Feature", "properties": { "id": 4, "reference_id": 4, "dune_id": 4, "dune_name": "The Star Dune", "acquisition_date": "2023-10-13", "length_m": 638.68274799139783 }, "geometry": { "type": "LineString", "coordinates": [ [ 533005.756988407694735, 7261870.447091680020094 ], [ 533012.08680969348643, 7261871.541395640000701 ], [ 533020.546306264819577, 7261873.681352891027927 ], [ 533030.099214585614391, 7261876.416969484649599 ], [ 533040.012066387105733, 7261878.906588250771165 ], [ 533050.000892210751772, 7261881.094303959980607 ], [ 533060.0, 7261883.594204692170024 ], [ 533070.0, 7261886.405795307829976 ], [ 533080.0, 7261888.905696040019393 ], [ 533090.0, 7261891.094303959980607 ], [ 533100.0, 7261893.594204692170024 ], [ 533110.0, 7261896.405795307829976 ], [ 533120.0, 7261898.906588250771165 ], [ 533130.0, 7261901.104585926048458 ], [ 533140.0, 7261903.670178715139627 ], [ 533150.0, 7261906.765738788992167 ], [ 533160.0, 7261910.0 ], [ 533170.0, 7261913.234261212870479 ], [ 533180.0, 7261916.329821286723018 ], [ 533190.0, 7261918.895414073951542 ], [ 533200.0, 7261921.093411749228835 ], [ 533210.0, 7261923.594204692170024 ], [ 533220.0, 7261926.405795307829976 ], [ 533230.0, 7261928.906588250771165 ], [ 533240.0, 7261931.104585926048458 ], [ 533250.0, 7261933.670178715139627 ], [ 533260.0, 7261936.765738788992167 ], [ 533270.0, 7261940.0 ], [ 533280.0, 7261943.234261211007833 ], [ 533290.0, 7261946.329821284860373 ], [ 533300.0, 7261948.895414074882865 ], [ 533310.0, 7261951.093411749228835 ], [ 533320.0, 7261953.594204692170024 ], [ 533330.0, 7261956.405795307829976 ], [ 533340.0, 7261958.905696040019393 ], [ 533350.0, 7261961.094303959980607 ], [ 533360.0, 7261963.594204693101346 ], [ 533370.0, 7261966.406687518581748 ], [ 533380.000000000116415, 7261968.916870215907693 ], [ 533390.0, 7261971.180559948086739 ], [ 533400.000000000116415, 7261974.031014406122267 ], [ 533410.0, 7261977.870324715040624 ], [ 533420.0, 7261982.215931273065507 ], [ 533430.0, 7261986.330713496543467 ], [ 533440.0, 7261989.924025978893042 ], [ 533450.0, 7261993.299953268840909 ], [ 533460.0, 7261996.700046733021736 ], [ 533470.0, 7262000.076866233721375 ], [ 533480.0, 7262003.680460680276155 ], [ 533490.0, 7262007.871216924861073 ], [ 533500.0, 7262012.576766964048147 ], [ 533510.0, 7262017.510381234809756 ], [ 533520.0, 7262022.500792942941189 ], [ 533530.0, 7262027.499207057058811 ], [ 533540.0, 7262032.488726556301117 ], [ 533550.0, 7262037.412951069884002 ], [ 533560.0, 7262042.052809053100646 ], [ 533569.999107789364643, 7262045.958703628741205 ], [ 533579.987933612894267, 7262048.818547841161489 ], [ 533589.900785414502025, 7262051.082237573340535 ], [ 533599.453693735180423, 7262053.582138305529952 ], [ 533607.91319030651357, 7262056.318647109903395 ], [ 533614.243011592421681, 7262058.458604361861944 ] ] } },
{ "type": "Feature", "properties": { "id": 5, "reference_id": 2, "dune_id": 2, "dune_name": "Big Mommy Dune", "acquisition_date": "2023-10-13", "length_m": 497.36195009072577 }, "geometry": { "type": "LineString", "coordinates": [ [ 528944.243011592305265, 7260909.912851802073419 ], [ 528937.913190306629986, 7260909.552016111090779 ], [ 528929.453693735296838, 7260908.448322394862771 ], [ 528919.900785414385609, 7260906.242673087865114 ], [ 528909.987933612894267, 7260903.222194825299084 ], [ 528899.999107789364643, 7260899.988825823180377 ], [ 528890.0, 7260896.689764766953886 ], [ 528880.0, 7260893.309343023225665 ], [ 528870.0, 7260890.0 ], [ 528860.0, 7260886.690656976774335 ], [ 528850.0, 7260883.309343023225665 ], [ 528840.0, 7260880.0 ], [ 528830.0, 7260876.689764766953886 ], [ 528820.0, 7260873.299061057157815 ], [ 528810.0, 7260869.924025978893042 ], [ 528800.0, 7260866.329821286723018 ], [ 528790.0, 7260862.205649307928979 ], [ 528780.0, 7260857.794350693002343 ], [ 528770.0, 7260853.670178714208305 ], [ 528760.0, 7260850.075974022038281 ], [ 528750.0, 7260846.700046733021736 ], [ 528740.0, 7260843.299953267909586 ], [ 528730.0, 7260839.92313376814127 ], [ 528720.0, 7260836.319539319723845 ], [ 528710.0, 7260832.129675285890698 ], [ 528700.0, 7260827.433515001088381 ], [ 528690.0, 7260822.566484998911619 ], [ 528680.0, 7260817.86943250335753 ], [ 528670.0, 7260813.669286504387856 ], [ 528660.0, 7260809.989718034863472 ], [ 528650.0, 7260806.252955053001642 ], [ 528640.0, 7260801.758557628840208 ], [ 528630.0, 7260796.242673087865114 ], [ 528620.0, 7260789.912851802073419 ], [ 528610.0, 7260783.298168847337365 ], [ 528600.0, 7260776.689764767885208 ], [ 528590.0, 7260770.0 ], [ 528580.0, 7260763.309343023225665 ], [ 528570.0, 7260756.690656976774335 ], [ 528560.0, 7260750.0 ], [ 528550.0, 7260743.309343023225665 ], [ 528540.000892210751772, 7260736.690656977705657 ], [ 528530.012066387105733, 7260730.000892210751772 ], [ 528520.099214585614391, 7260723.321409409865737 ], [ 528510.546306264819577, 7260716.788979351520538 ], [ 528502.08680969348643, 7260710.535132088698447 ], [ 528495.756988407694735, 7260705.309004518203437 ] ] } },
{ "type": "Feature", "properties": { "id": 6, "reference_id": 2, "dune_id": 2, "dune_name": "Big Mommy Dune", "acquisition_date": "2023-10-13", "length_m": 115.09057185448172 }, "geometry": { "type": "LineString", "coordinates": [ [ 529015.756988407694735, 7260930.458265855908394 ], [ 529022.08680969348643, 7260931.627651628106833 ], [ 529030.546306264819577, 7260934.118162604048848 ], [ 529040.099214585614391, 7260937.881498890928924 ], [ 529050.012066387222148, 7260942.216823483817279 ], [ 529060.000892210751772, 7260946.330713496543467 ], [ 529070.0, 7260949.924025978893042 ], [ 529079.999107789248228, 7260953.299061058089137 ], [ 529089.987933612894267, 7260956.688872556202114 ], [ 529099.900785414502025, 7260959.9888258241117 ], [ 529109.453693735296838, 7260963.222194824367762 ], [ 529117.91319030651357, 7260966.242673087865114 ], [ 529124.243011592421681, 7260968.448322394862771 ] ] } },
{ "type": "Feature", "properties": { "id": 7, "reference_id": 1, "dune_id": 1, "dune_name": "Big Mommy Dune", "acquisition_date": "2023-10-13", "length_m": 359.15996014495909 }, "geometry": { "type": "LineString", "coordinates": [ [ 529084.254185768775642, 7261915.756988408043981 ], [ 529078.001230715657584, 7261922.086809693835676 ], [ 529069.911959590972401, 7261930.546306265518069 ], [ 529061.528437041561119, 7261940.099214585497975 ], [ 529054.106096216943115, 7261950.012066386640072 ], [ 529047.880606680293567, 7261960.000892210751772 ], [ 529042.217715694569051, 7261970.0 ], [ 529036.341887672897428, 7261980.0 ], [ 529030.011174176586792, 7261990.0 ], [ 529023.747044946881942, 7262000.0 ], [ 529018.241442371741869, 7262010.0 ], [ 529013.757326912600547, 7262020.0 ], [ 529010.087148198508658, 7262030.0 ], [ 529006.700938943075016, 7262040.0 ], [ 529003.299953267676756, 7262050.0 ], [ 528999.923133767442778, 7262060.0 ], [ 528996.31953932007309, 7262070.0 ], [ 528992.128783074789681, 7262080.0 ], [ 528987.42234082473442, 7262090.0 ], [ 528982.478444589767605, 7262100.0 ], [ 528977.411166648264043, 7262110.0 ], [ 528972.041634876397438, 7262120.0 ], [ 528965.871555430116132, 7262130.0 ], [ 528958.371456162189133, 7262140.0 ], [ 528949.541734144324437, 7262150.0 ], [ 528939.911959590972401, 7262159.999107789248228 ], [ 528929.989718034281395, 7262169.987933613359928 ], [ 528920.011174176470377, 7262179.900785414502025 ], [ 528910.099214585497975, 7262189.453693735413253 ], [ 528900.546306264819577, 7262197.913190307095647 ], [ 528892.08680969348643, 7262204.243011591956019 ], [ 528885.756988407694735, 7262207.913190307095647 ] ] } },
{ "type": "Feature", "properties": { "id": 8, "reference_id": 1, "dune_id": 1, "dune_name": "Big Mommy Dune", "acquisition_date": "2023-10-13", "length_m": 880.9567233782152 }, "geometry": { "type": "LineString", "coordinates": [ [ 529179.999107789364643, 7261035.756988408043981 ], [ 529179.988825823529623, 7261042.086809693835676 ], [ 529179.912851801607758, 7261050.546306265518069 ], [ 529179.552908320794813, 7261060.099214585497975 ], [ 529178.459496571333148, 7261070.012066387571394 ], [ 529176.329821285791695, 7261080.000892210751772 ], [ 529173.669286503456533, 7261090.0 ], [ 529171.529329252312891, 7261100.0 ], [ 529170.359943480812944, 7261110.0 ], [ 529169.639164308551699, 7261120.000000000931323 ], [ 529168.459496571333148, 7261130.0 ], [ 529166.242673087399453, 7261140.0 ], [ 529163.211912858532742, 7261150.0 ], [ 529159.912851801607758, 7261160.0 ], [ 529156.328929075156339, 7261170.0 ], [ 529152.205649307463318, 7261180.0 ], [ 529147.794350692536682, 7261190.0 ], [ 529143.670178714208305, 7261200.0 ], [ 529140.075974022038281, 7261210.000000000931323 ], [ 529136.700046732323244, 7261220.0 ], [ 529133.299953267676756, 7261230.0 ], [ 529129.923133767326362, 7261240.0 ], [ 529126.31953932007309, 7261250.0 ], [ 529122.129675285541452, 7261260.0 ], [ 529117.433515001204796, 7261270.0 ], [ 529112.566484998911619, 7261280.0 ], [ 529107.869432503823191, 7261290.0 ], [ 529103.670178714208305, 7261300.0 ], [ 529100.0, 7261310.000000000931323 ], [ 529096.329821285791695, 7261320.0 ], [ 529092.130567496176809, 7261330.0 ], [ 529087.433515001088381, 7261340.0 ], [ 529082.566484998911619, 7261350.0 ], [ 529077.870324714574963, 7261360.0 ], [ 529073.680460680043325, 7261370.0 ], [ 529070.076866232673638, 7261380.0 ], [ 529066.700046732323244, 7261390.0 ], [ 529063.299953267676756, 7261400.0 ], [ 529059.924025978078134, 7261410.0 ], [ 529056.329821285791695, 7261420.0 ], [ 529052.205649307463318, 7261430.0 ], [ 529047.794350692536682, 7261440.0 ], [ 529043.670178714208305, 7261450.0 ], [ 529040.075974022038281, 7261460.0 ], [ 529036.700938943075016, 7261470.000000000931323 ], [ 529033.311127444263548, 7261480.0 ], [ 529030.01028196583502, 7261490.0 ], [ 529026.766630999278277, 7261500.0 ], [ 529023.670178714208305, 7261510.0 ], [ 529021.104585926048458, 7261520.0 ], [ 529018.907480461173691, 7261530.0 ], [ 529016.416969484183937, 7261540.0 ], [ 529013.681352890795097, 7261550.0 ], [ 529011.541395639418624, 7261560.000000000931323 ], [ 529010.447091679205187, 7261570.0 ], [ 529010.087148198508658, 7261580.0 ], [ 529010.011174176470377, 7261590.0 ], [ 529010.000892210751772, 7261600.0 ], [ 529010.0, 7261610.0 ], [ 529010.000892210751772, 7261620.0 ], [ 529010.011174176470377, 7261630.0 ], [ 529010.087148198508658, 7261640.0 ], [ 529010.447983889840543, 7261650.0 ], [ 529011.551677605253644, 7261660.0 ], [ 529013.758219123352319, 7261670.0 ], [ 529016.788087141467258, 7261680.0 ], [ 529020.088040409144014, 7261690.0 ], [ 529023.681352890678681, 7261700.0 ], [ 529027.871216925326735, 7261710.0 ], [ 529032.576766964746639, 7261720.0 ], [ 529037.510381233878434, 7261730.000000000931323 ], [ 529042.501685153343715, 7261740.0 ], [ 529047.511273444397375, 7261750.0 ], [ 529052.587048930465244, 7261760.0 ], [ 529057.947190947132185, 7261770.0 ], [ 529064.040404160739854, 7261780.0 ], [ 529071.169385771499947, 7261790.0 ], [ 529078.81854784139432, 7261800.0 ], [ 529085.872447640867904, 7261810.0 ], [ 529091.605717373662628, 7261819.999107789248228 ], [ 529095.871555430232547, 7261829.987933613359928 ], [ 529098.807373664807528, 7261839.900785414502025 ], [ 529101.081345362355933, 7261849.453693735413253 ], [ 529103.582138305064291, 7261857.913190307095647 ], [ 529106.318647109321319, 7261864.243011591956019 ] ] } },
{ "type": "Feature", "properties": { "id": 9, "reference_id": 9, "dune_id": 9, "dune_name": "Inverted Y Dune", "acquisition_date": "2023-10-13", "length_m": 826.32657021453781 }, "geometry": { "type": "LineString", "coordinates": [ [ 530084.243011592421681, 7261605.309004518203437 ], [ 530077.91319030651357, 7261610.535132088698447 ], [ 530069.453693735180423, 7261616.788979352451861 ], [ 530059.900785414502025, 7261623.321409409865737 ], [ 530049.987933612894267, 7261630.000892210751772 ], [ 530039.999107789364643, 7261636.690656977705657 ], [ 530030.0, 7261643.309343023225665 ], [ 530020.0, 7261650.0 ], [ 530010.0, 7261656.689764766022563 ], [ 530000.0, 7261663.299061058089137 ], [ 529990.0, 7261669.924025977961719 ], [ 529980.0, 7261676.330713496543467 ], [ 529970.0, 7261682.21593127399683 ], [ 529960.0, 7261687.870324714109302 ], [ 529950.0, 7261694.031014406122267 ], [ 529940.0, 7261701.180559948086739 ], [ 529930.0, 7261708.917762426659465 ], [ 529920.0, 7261716.417861695401371 ], [ 529910.0, 7261723.681352891027927 ], [ 529900.0, 7261731.541395640000701 ], [ 529890.0, 7261740.447091680020094 ], [ 529880.0, 7261750.087148198857903 ], [ 529870.000892210751772, 7261760.011174176819623 ], [ 529860.011174176470377, 7261770.000892210751772 ], [ 529850.087148198392242, 7261780.0 ], [ 529840.447091679205187, 7261790.0 ], [ 529831.541395639418624, 7261800.0 ], [ 529823.681352890678681, 7261810.0 ], [ 529816.417861694935709, 7261820.0 ], [ 529808.918654637644067, 7261830.0 ], [ 529801.1917341244407, 7261840.000000000931323 ], [ 529794.118162604048848, 7261850.0 ], [ 529788.318308604415506, 7261860.0 ], [ 529783.767608878435567, 7261870.0 ], [ 529780.088040409144014, 7261880.0 ], [ 529776.701831153710373, 7261890.0 ], [ 529773.310235233511776, 7261900.0 ], [ 529770.0, 7261910.0 ], [ 529766.690656977239996, 7261920.0 ], [ 529763.309343022760004, 7261930.0 ], [ 529760.0, 7261940.0 ], [ 529756.689764766488224, 7261950.0 ], [ 529753.299061056924984, 7261960.0 ], [ 529749.923133767326362, 7261970.0 ], [ 529746.31953932007309, 7261980.0 ], [ 529742.129675285541452, 7261990.0 ], [ 529737.433515001088381, 7262000.0 ], [ 529732.566484998911619, 7262010.0 ], [ 529727.869432503939606, 7262020.0 ], [ 529723.670178714208305, 7262030.0 ], [ 529720.0, 7262040.0 ], [ 529716.329821285791695, 7262050.0 ], [ 529712.130567496176809, 7262060.0 ], [ 529707.433515001088381, 7262070.0 ], [ 529702.566484998911619, 7262080.0 ], [ 529697.870324714574963, 7262090.0 ], [ 529693.680460680043325, 7262100.0 ], [ 529690.076866232673638, 7262110.0 ], [ 529686.700046732323244, 7262120.0 ], [ 529683.299953267676756, 7262130.0 ], [ 529679.923133767442778, 7262140.0 ], [ 529676.31953932007309, 7262150.0 ], [ 529672.129675285541452, 7262160.0 ], [ 529667.434407211840153, 7262170.0 ], [ 529662.576766964746639, 7262180.0 ], [ 529657.946298736613244, 7262190.0 ], [ 529654.041296371491626, 7262200.0 ], [ 529651.181452158722095, 7262210.0 ], [ 529648.917762426892295, 7262219.999107789248228 ], [ 529646.417861694935709, 7262229.987933613359928 ], [ 529643.681352890678681, 7262239.900785414502025 ], [ 529641.541395639418624, 7262249.453693735413253 ], [ 529640.447091679205187, 7262257.913190307095647 ], [ 529640.087148198392242, 7262264.243011591956019 ] ] } },
{ "type": "Feature", "properties": { "id": 10, "reference_id": 5, "dune_id": 5, "dune_name": "The Star Dune", "acquisition_date": "2023-10-13", "length_m": 405.79499938077709 }, "geometry": { "type": "LineString", "coordinates": [ [ 534144.243011592305265, 7261670.087148198857903 ], [ 534137.91319030651357, 7261670.447091679088771 ], [ 534129.453693735296838, 7261671.540503429248929 ], [ 534119.900785414502025, 7261673.670178714208305 ], [ 534109.987933612894267, 7261676.329821285791695 ], [ 534099.999107789248228, 7261678.459496570751071 ], [ 534090.0, 7261679.553800531663001 ], [ 534080.0, 7261679.924025977961719 ], [ 534070.0, 7261680.075974022038281 ], [ 534060.0, 7261680.446199468336999 ], [ 534050.0, 7261681.540503429248929 ], [ 534040.0, 7261683.670178715139627 ], [ 534030.0, 7261686.33071349747479 ], [ 534020.0, 7261688.470670748502016 ], [ 534010.0, 7261689.64005651883781 ], [ 534000.0, 7261690.360835691913962 ], [ 533990.0, 7261691.540503429248929 ], [ 533980.0, 7261693.756434702314436 ], [ 533970.0, 7261696.776912965811789 ], [ 533960.0, 7261700.000892210751772 ], [ 533950.0, 7261703.234261211939156 ], [ 533940.0, 7261706.330713496543467 ], [ 533930.0, 7261708.906588250771165 ], [ 533920.0, 7261711.180559948086739 ], [ 533910.0, 7261714.041296371258795 ], [ 533900.0, 7261717.946298737078905 ], [ 533890.0, 7261722.576766964048147 ], [ 533880.0, 7261727.434407211840153 ], [ 533870.0, 7261732.13056749664247 ], [ 533860.0, 7261736.33071349747479 ], [ 533850.0, 7261740.011174176819623 ], [ 533840.0, 7261743.757326913997531 ], [ 533830.0, 7261748.317416394129395 ], [ 533820.0, 7261754.118162604048848 ], [ 533810.000892210635357, 7261761.190841914154589 ], [ 533800.012066387105733, 7261768.906588250771165 ], [ 533790.099214585614391, 7261776.318647109903395 ], [ 533780.546306264819577, 7261783.135046626441181 ], [ 533772.08680969348643, 7261789.454585945233703 ], [ 533765.756988407694735, 7261794.690103271976113 ] ] } },
{ "type": "Feature", "properties": { "id": 11, "reference_id": 5, "dune_id": 5, "dune_name": "The Star Dune", "acquisition_date": "2023-10-13", "length_m": 205.9014343728046 }, "geometry": { "type": "LineString", "coordinates": [ [ 534175.756988407694735, 7261658.371456163004041 ], [ 534182.08680969348643, 7261655.871555430814624 ], [ 534190.546306264819577, 7261652.041634876281023 ], [ 534200.099214585614391, 7261647.411166649311781 ], [ 534210.012066387105733, 7261642.477552379481494 ], [ 534220.000892210751772, 7261637.41205885913223 ], [ 534230.0, 7261632.052809053100646 ], [ 534240.0, 7261625.958703628741205 ], [ 534250.0, 7261618.818547841161489 ], [ 534259.999107789248228, 7261611.082237573340535 ], [ 534269.988825823529623, 7261603.582138305529952 ], [ 534279.911959590855986, 7261596.318647108972073 ], [ 534289.54084193368908, 7261588.458604360930622 ], [ 534298.360281985718757, 7261579.552908320911229 ], [ 534305.783515021088533, 7261569.913744012825191 ], [ 534311.583369020721875, 7261560.000892210751772 ], [ 534315.783515021088533, 7261550.098322374746203 ], [ 534318.360281985718757, 7261540.546306265518069 ], [ 534319.54084193368908, 7261532.086809693835676 ], [ 534319.911959590855986, 7261525.756988408043981 ] ] } },
{ "type": "Feature", "properties": { "id": 12, "reference_id": 5, "dune_id": 5, "dune_name": "The Star Dune", "acquisition_date": "2023-10-13", "length_m": 142.81673096776709 }, "geometry": { "type": "LineString", "coordinates": [ [ 533718.371456162189133, 7261915.756988408043981 ], [ 533715.870663219597191, 7261922.086809693835676 ], [ 533712.031352910678834, 7261930.546306265518069 ], [ 533707.335192626342177, 7261940.099214585497975 ], [ 533702.118501109071076, 7261950.012066386640072 ], [ 533696.328929075156339, 7261960.000892210751772 ], [ 533689.999107789364643, 7261970.0 ], [ 533683.659896748373285, 7261980.0 ], [ 533677.794350692536682, 7261989.999553894624114 ], [ 533672.217715694569051, 7261999.993520701304078 ], [ 533666.428143660770729, 7262009.944359513930976 ], [ 533660.45915806631092, 7262019.677239574491978 ], [ 533655.298722552019171, 7262028.683442020788789 ], [ 533651.998769284458831, 7262036.078100949525833 ], [ 533650.535132088349201, 7262041.078100949525833 ] ] } },
{ "type": "Feature", "properties": { "id": 13, "reference_id": 5, "dune_id": 5, "dune_name": "The Star Dune", "acquisition_date": "2023-10-13", "length_m": 52.415226962522055 }, "geometry": { "type": "LineString", "coordinates": [ [ 534324.790210067876615, 7261305.756988408043981 ], [ 534320.011174176470377, 7261312.085917483083904 ], [ 534315.297830341383815, 7261320.534239877946675 ], [ 534312.434686787077226, 7261330.0 ], [ 534312.074743306264281, 7261339.465760122984648 ], [ 534313.768501089187339, 7261347.914082517847419 ], [ 534316.341887673013844, 7261354.243011591956019 ] ] } },
{ "type": "Feature", "properties": { "id": 14, "reference_id": 8, "dune_id": 8, "dune_name": "Inverted Y Dune", "acquisition_date": "2023-10-13", "length_m": 68.486023185774684 }, "geometry": { "type": "LineString", "coordinates": [ [ 530100.0, 7261564.243011593818665 ], [ 530100.0, 7261557.913190307095647 ], [ 530100.0, 7261549.453693735413253 ], [ 530100.0, 7261539.901677625253797 ], [ 530100.0, 7261530.0 ], [ 530100.0, 7261520.098322374746203 ], [ 530100.0, 7261510.546306264586747 ], [ 530100.0, 7261502.086809692904353 ], [ 530100.0, 7261495.756988408043981 ] ] } },
{ "type": "Feature", "properties": { "id": 15, "reference_id": 8, "dune_id": 8, "dune_name": "Inverted Y Dune", "acquisition_date": "2023-10-13", "length_m": 408.93120361231678 }, "geometry": { "type": "LineString", "coordinates": [ [ 530364.243011592305265, 7261200.087148198857903 ], [ 530357.91319030651357, 7261200.447091678157449 ], [ 530349.453693735180423, 7261201.540503428317606 ], [ 530339.900785414502025, 7261203.670178713276982 ], [ 530329.987933612894267, 7261206.330713496543467 ], [ 530319.999107789248228, 7261208.470670748502016 ], [ 530310.0, 7261209.640056519769132 ], [ 530300.0, 7261210.360835691913962 ], [ 530290.0, 7261211.540503429248929 ], [ 530280.0, 7261213.757326913997531 ], [ 530270.0, 7261216.788979353383183 ], [ 530260.0, 7261220.099214585497975 ], [ 530250.0, 7261223.769393300637603 ], [ 530240.0, 7261228.329482780769467 ], [ 530230.0, 7261234.205310802906752 ], [ 530220.0, 7261241.638825803995132 ], [ 530210.0, 7261250.459158066660166 ], [ 530200.000892210751772, 7261260.088040409609675 ], [ 530190.011174176470377, 7261270.011174176819623 ], [ 530180.088040409144014, 7261280.000892210751772 ], [ 530170.459158066427335, 7261290.0 ], [ 530161.638825803645886, 7261300.0 ], [ 530154.205310802557506, 7261310.000000000931323 ], [ 530148.329482780885883, 7261320.0 ], [ 530143.768501089187339, 7261330.0 ], [ 530140.088040409144014, 7261340.0 ], [ 530136.701831153710373, 7261350.0 ], [ 530133.311127444147132, 7261360.0 ], [ 530130.01028196583502, 7261370.0 ], [ 530126.766630999278277, 7261380.0 ], [ 530123.670178714208305, 7261390.0 ], [ 530121.104585926048458, 7261400.0 ], [ 530118.907480461173691, 7261410.0 ], [ 530116.416969484300353, 7261419.999107789248228 ], [ 530113.681352890678681, 7261429.987933613359928 ], [ 530111.541395639418624, 7261439.900785414502025 ], [ 530110.447091679205187, 7261449.453693736344576 ], [ 530110.087148198392242, 7261457.913190307095647 ], [ 530110.011174176470377, 7261464.243011591956019 ] ] } },
{ "type": "Feature", "properties": { "id": 16, "reference_id": 8, "dune_id": 8, "dune_name": "Inverted Y Dune", "acquisition_date": "2023-10-13", "length_m": 166.50464271575177 }, "geometry": { "type": "LineString", "coordinates": [ [ 530395.756988407694735, 7261210.000000000931323 ], [ 530402.08680969348643, 7261210.000000000931323 ], [ 530410.546306264819577, 7261210.000000000931323 ], [ 530420.099214585614391, 7261210.000000000931323 ], [ 530430.012066387222148, 7261210.000000000931323 ], [ 530440.000892210751772, 7261209.999107790179551 ], [ 530450.0, 7261209.987933613359928 ], [ 530460.0, 7261209.900785414502025 ], [ 530470.0, 7261209.454585946165025 ], [ 530480.0, 7261207.924364482983947 ], [ 530490.0, 7261204.331944212317467 ], [ 530500.0, 7261198.383522549644113 ], [ 530509.999107789248228, 7261191.180559948086739 ], [ 530519.987933612894267, 7261184.564362072385848 ], [ 530529.900785414385609, 7261179.945068021304905 ], [ 530539.453693735296838, 7261177.885771483182907 ], [ 530547.91319030651357, 7261177.969539300538599 ], [ 530554.243011592305265, 7261178.918654637411237 ] ] } },
{ "type": "Feature", "properties": { "id": 17, "reference_id": 6, "dune_id": 6, "dune_name": "The Star Dune", "acquisition_date": "2023-10-13", "length_m": 145.53809441678669 }, "geometry": { "type": "LineString", "coordinates": [ [ 533650.075974022038281, 7262048.921899050474167 ], [ 533650.359943480812944, 7262053.921899050474167 ], [ 533651.093411749578081, 7262061.316557979211211 ], [ 533652.129675285425037, 7262070.322760425508022 ], [ 533652.659642571699806, 7262080.055640487000346 ], [ 533652.129675285425037, 7262090.006479298695922 ], [ 533651.093411749578081, 7262100.000446105375886 ], [ 533650.359943480812944, 7262110.0 ], [ 533650.075974022038281, 7262120.0 ], [ 533650.01028196583502, 7262130.0 ], [ 533650.000892210751772, 7262140.0 ], [ 533650.0, 7262149.999107789248228 ], [ 533650.0, 7262159.987933613359928 ], [ 533650.0, 7262169.900785414502025 ], [ 533650.0, 7262179.453693735413253 ], [ 533650.0, 7262187.913190307095647 ], [ 533650.0, 7262194.243011591956019 ] ] } },
{ "type": "Feature", "properties": { "id": 18, "reference_id": 6, "dune_id": 6, "dune_name": "The Star Dune", "acquisition_date": "2023-10-13", "length_m": 68.486023183912039 }, "geometry": { "type": "LineString", "coordinates": [ [ 533670.0, 7262354.243011591956019 ], [ 533670.0, 7262347.913190307095647 ], [ 533670.0, 7262339.453693736344576 ], [ 533670.0, 7262329.901677625253797 ], [ 533670.0, 7262320.0 ], [ 533670.0, 7262310.098322374746203 ], [ 533670.0, 7262300.546306265518069 ], [ 533670.0, 7262292.086809692904353 ], [ 533670.0, 7262285.756988408043981 ] ] } }
]
}
