{
"type": "FeatureCollection",
"name": "crests_2018_10_2018-10-24",
"crs": { "type": "name", "properties": { "name": "urn:ogc:def:crs:EPSG::32733" } },
"features": [
{ "type": "Feature", "properties": { "id": 0, "reference_id": 1, "dune_id": 1, "dune_name": "Big Mommy Dune", "acquisition_date": "2018-10-24", "length_m": 264.90874512696217 }, "geometry": { "type": "LineString", "coordinates": [ [ 529085.881837395951152, 7261814.243011592887342 ], [ 529082.118501109071076, 7261807.913190307095647 ], [ 529077.782284305430949, 7261799.453693735413253 ], [ 529073.659004537737928, 7261789.900785414502025 ], [ 529069.999107789364643, 7261779.987933613359928 ], [ 529066.329821285791695, 7261769.999107789248228 ], [ 529062.129675285541452, 7261760.0 ], [ 529057.423233035369776, 7261750.0 ], [ 529052.489618766121566, 7261740.0 ], [ 529047.499207057291642, 7261730.000000000931323 ], [ 529042.500792942708358, 7261720.0 ], [ 529037.510381233878434, 7261710.0 ], [ 529032.576766964746639, 7261700.0 ], [ 529027.871216925326735, 7261690.0 ], [ 529023.681352890678681, 7261680.0 ], [ 529020.088932619895786, 7261670.0 ], [ 529016.798369107302278, 7261660.0 ], [ 529013.8341931453906, 7261650.0 ], [ 529011.911621085950173, 7261640.0 ], [ 529011.541395639418624, 7261630.0 ], [ 529012.217715694569051, 7261620.0 ], [ 529012.681990924640559, 7261610.000892210751772 ], [ 529012.217715694569051, 7261600.012066387571394 ], [ 529011.540503428783268, 7261590.099214585497975 ], [ 529011.900446909479797, 7261580.546306265518069 ], [ 529013.746152736246586, 7261572.086809693835676 ], [ 529016.340103251626715, 7261565.756988408043981 ] ] } },
{ "type": "Feature", "properties": { "id": 1, "reference_id": 1, "dune_id": 1, "dune_name": "Big Mommy Dune", "acquisition_date": "2018-10-24", "length_m": 388.92839973784589 }, "geometry": { "type": "LineString", "coordinates": [ [ 528865.756988407694735, 7262224.701277447864413 ], [ 528872.08680969348643, 7262219.540841933339834 ], [ 528880.546306264819577, 7262213.57096412871033 ], [ 528890.099214585614391, 7262207.771110128611326 ], [ 528900.012066387105733, 7262202.117608899250627 ], [ 528910.000892210751772, 7262195.881837395951152 ], [ 528919.999107789364643, 7262188.37234837282449 ], [ 528929.988825823529623, 7262179.541734144091606 ], [ 528939.911959590972401, 7262169.911959591321647 ], [ 528949.541734144324437, 7262159.9888258241117 ], [ 528958.371456162189133, 7262149.999107789248228 ], [ 528965.871555430116132, 7262140.0 ], [ 528972.042527087032795, 7262130.0 ], [ 528977.42234082473442, 7262120.0 ], [ 528982.564700577524491, 7262110.0 ], [ 528987.859150537988171, 7262100.0 ], [ 528993.593312481534667, 7262090.0 ], [ 528999.628882342833094, 7262080.0 ], [ 529005.149261337821372, 7262070.0 ], [ 529009.552908320911229, 7262060.0 ], [ 529013.223087035119534, 7262050.0 ], [ 529016.690656977239996, 7262040.0 ], [ 529020.086255987873301, 7262030.0 ], [ 529023.757326912600547, 7262020.0 ], [ 529028.242334582377225, 7262010.0 ], [ 529033.758219123352319, 7262000.0 ], [ 529040.097430164227262, 7261990.0 ], [ 529046.777805175632238, 7261980.0 ], [ 529053.670178714208305, 7261970.0 ], [ 529061.092519538826309, 7261960.000892210751772 ], [ 529068.8082658755593, 7261950.012066386640072 ], [ 529075.870663219480775, 7261940.099214585497975 ], [ 529081.594543197192252, 7261930.546306265518069 ], [ 529085.78440723172389, 7261922.086809693835676 ], [ 529088.360281985718757, 7261915.756988408043981 ] ] } },
{ "type": "Feature", "properties": { "id": 2, "reference_id": 5, "dune_id": 5, "dune_name": "The Star Dune", "acquisition_date": "2018-10-24", "length_m": 196.91849605558511 }, "geometry": { "type": "LineString", "coordinates": [ [ 533746.788087141467258, 7261874.243011592887342 ], [ 533745.298722552019171, 7261867.913190307095647 ], [ 533745.669840209186077, 7261859.453693735413253 ], [ 533748.415738768642768, 7261849.900785414502025 ], [ 533752.75195557216648, 7261839.987933613359928 ], [ 533757.893565278151073, 7261830.0 ], [ 533763.68313731206581, 7261820.012066387571394 ], [ 533770.088040409144014, 7261810.098322374746203 ], [ 533776.788087141467258, 7261800.534239877946675 ], [ 533783.758219123352319, 7261791.98848731815815 ], [ 533791.551677605137229, 7261785.221856319345534 ], [ 533800.447983889840543, 7261780.088040409609675 ], [ 533810.087148198392242, 7261775.247583713382483 ], [ 533820.011174176470377, 7261769.640948729589581 ], [ 533830.0, 7261763.595096902921796 ], [ 533839.987933612894267, 7261757.871216924861073 ], [ 533849.900785414502025, 7261752.663915162906051 ], [ 533859.453693735180423, 7261747.968647089786828 ], [ 533867.91319030651357, 7261744.129336779937148 ], [ 533874.243011592305265, 7261741.628543838858604 ] ] } },
{ "type": "Feature", "properties": { "id": 3, "reference_id": 5, "dune_id": 5, "dune_name": "The Star Dune", "acquisition_date": "2018-10-24", "length_m": 54.065429436422257 }, "geometry": { "type": "LineString", "coordinates": [ [ 534268.416630979278125, 7261614.690103271976113 ], [ 534269.426274911151268, 7261609.454585946165025 ], [ 534273.615246735047549, 7261603.135938837192953 ], [ 534280.894183358410373, 7261596.329821285791695 ], [ 534289.640056519303471, 7261588.993736448697746 ], [ 534297.93643087008968, 7261581.638825803995132 ], [ 534304.244796013692394, 7261575.669840209186077 ] ] } },
{ "type": "Feature", "properties": { "id": 4, "reference_id": 6, "dune_id": 6, "dune_name": "The Star Dune", "acquisition_date": "2018-10-24", "length_m": 255.59369417292294 }, "geometry": { "type": "LineString", "coordinates": [ [ 533620.447983889840543, 7262534.243011591956019 ], [ 533621.551677605137229, 7262527.913190307095647 ], [ 533623.757326912600547, 7262519.453693736344576 ], [ 533626.777805175632238, 7262509.900785414502025 ], [ 533630.011174176470377, 7262499.987933613359928 ], [ 533633.310235233511776, 7262489.999107789248228 ], [ 533636.690656977239996, 7262480.0 ], [ 533640.000000000116415, 7262470.0 ], [ 533643.309343022760004, 7262460.0 ], [ 533646.689764766488224, 7262450.0 ], [ 533649.989718034281395, 7262440.0 ], [ 533653.233369000838138, 7262430.0 ], [ 533656.329821285791695, 7262420.0 ], [ 533658.895414073951542, 7262410.0 ], [ 533661.092519538942724, 7262400.0 ], [ 533663.583030515816063, 7262390.0 ], [ 533666.318647109437734, 7262380.0 ], [ 533668.458604360697791, 7262370.0 ], [ 533669.552908320911229, 7262360.0 ], [ 533669.912851801607758, 7262350.0 ], [ 533669.988825823646039, 7262340.000000000931323 ], [ 533669.999107789364643, 7262330.000892210751772 ], [ 533670.0, 7262320.012066386640072 ], [ 533670.0, 7262310.099214585497975 ], [ 533670.0, 7262300.546306265518069 ], [ 533670.0, 7262292.086809692904353 ], [ 533670.0, 7262285.756988408043981 ] ] } },
{ "type": "Feature", "properties": { "id": 5, "reference_id": 6, "dune_id": 6, "dune_name": "The Star Dune", "acquisition_date": "2018-10-24", "length_m": 119.49967551811989 }, "geometry": { "type": "LineString", "coordinates": [ [ 533660.0, 7262254.243011592887342 ], [ 533660.0, 7262247.913190307095647 ], [ 533660.0, 7262239.453693734481931 ], [ 533660.0, 7262229.900785414502025 ], [ 533660.0, 7262219.987933613359928 ], [ 533659.999107789248228, 7262209.999107789248228 ], [ 533659.988825823529623, 7262200.0 ], [ 533659.912851801607758, 7262190.0 ], [ 533659.552908320911229, 7262180.000892210751772 ], [ 533658.459496571216732, 7262170.012066387571394 ], [ 533656.329821285791695, 7262160.099214585497975 ], [ 533653.670178714208305, 7262150.546306265518069 ], [ 533651.540503428783268, 7262142.086809693835676 ], [ 533650.447091679205187, 7262135.756988408043981 ] ] } },
{ "type": "Feature", "properties": { "id": 6, "reference_id": 2, "dune_id": 2, "dune_name": "Big Mommy Dune", "acquisition_date": "2018-10-24", "length_m": 247.94399738353064 }, "geometry": { "type": "LineString", "coordinates": [ [ 528425.756988407694735, 7260645.309896728955209 ], [ 528432.08680969348643, 7260650.545414054766297 ], [ 528440.546306264819577, 7260656.864953374490142 ], [ 528450.099214585614391, 7260663.681352891027927 ], [ 528460.012066387105733, 7260671.094303959980607 ], [ 528470.000892210751772, 7260678.819440051913261 ], [ 528480.0, 7260685.958703629672527 ], [ 528490.0, 7260692.053701263852417 ], [ 528500.0, 7260697.424125246703625 ], [ 528510.0, 7260702.57587475515902 ], [ 528520.0, 7260707.946298737078905 ], [ 528530.0, 7260714.040404161438346 ], [ 528540.0, 7260721.170277982018888 ], [ 528550.0, 7260728.830614229664207 ], [ 528560.0, 7260735.969877805560827 ], [ 528570.0, 7260742.129675285890698 ], [ 528580.0, 7260747.783176516182721 ], [ 528589.999107789248228, 7260753.65811232663691 ], [ 528599.987933612894267, 7260759.987933613359928 ], [ 528609.900785414385609, 7260766.241780877113342 ], [ 528619.453693735180423, 7260771.671409429982305 ], [ 528627.91319030651357, 7260775.794689197093248 ], [ 528634.243011592421681, 7260778.36117419693619 ] ] } },
{ "type": "Feature", "properties": { "id": 7, "reference_id": 3, "dune_id": 3, "dune_name": "Big Mommy Dune", "acquisition_date": "2018-10-24", "length_m": 440.43665354904238 }, "geometry": { "type": "LineString", "coordinates": [ [ 529605.756988407694735, 7260629.552908320911229 ], [ 529612.08680969348643, 7260628.459496570751071 ], [ 529620.546306264819577, 7260626.329821285791695 ], [ 529630.099214585614391, 7260623.670178714208305 ], [ 529640.012066387105733, 7260621.539611218497157 ], [ 529650.000892210751772, 7260620.435917503200471 ], [ 529660.0, 7260620.0 ], [ 529670.0, 7260619.564082497730851 ], [ 529680.0, 7260618.460388782434165 ], [ 529690.0, 7260616.329821286723018 ], [ 529700.0, 7260613.670178715139627 ], [ 529710.0, 7260611.540503429248929 ], [ 529720.0, 7260610.447091680020094 ], [ 529730.0, 7260610.087148198857903 ], [ 529740.0, 7260610.011174176819623 ], [ 529750.0, 7260610.000892210751772 ], [ 529760.0, 7260610.0 ], [ 529770.0, 7260610.0 ], [ 529780.0, 7260610.0 ], [ 529790.0, 7260610.0 ], [ 529800.0, 7260610.0 ], [ 529810.0, 7260610.0 ], [ 529820.0, 7260610.0 ], [ 529830.0, 7260610.0 ], [ 529840.0, 7260610.0 ], [ 529850.0, 7260610.0 ], [ 529860.0, 7260610.0 ], [ 529870.0, 7260610.0 ], [ 529880.0, 7260610.0 ], [ 529890.0, 7260610.0 ], [ 529900.0, 7260610.0 ], [ 529910.0, 7260610.0 ], [ 529920.0, 7260610.0 ], [ 529930.0, 7260610.0 ], [ 529940.0, 7260610.0 ], [ 529950.0, 7260610.0 ], [ 529960.0, 7260610.0 ], [ 529970.0, 7260610.0 ], [ 529980.0, 7260610.0 ], [ 529990.0, 7260610.0 ], [ 529999.999107789364643, 7260610.0 ], [ 530009.987933612894267, 7260610.0 ], [ 530019.900785414502025, 7260610.0 ], [ 530029.453693735180423, 7260610.0 ], [ 530037.91319030651357, 7260610.0 ], [ 530044.243011592305265, 7260610.0 ] ] } },
{ "type": "Feature", "properties": { "id": 8, "reference_id": 3, "dune_id": 3, "dune_name": "Big Mommy Dune", "acquisition_date": "2018-10-24", "length_m": 206.49524912013339 }, "geometry": { "type": "LineString", "coordinates": [ [ 529304.701277447980829, 7260745.756988408043981 ], [ 529299.54084193368908, 7260752.086809693835676 ], [ 529293.571856339345686, 7260760.546306265518069 ], [ 529287.782284305430949, 7260770.099214585497975 ], [ 529282.205649307463318, 7260780.012066387571394 ], [ 529276.340103251626715, 7260790.000892210751772 ], [ 529270.0, 7260800.0 ], [ 529263.659896748373285, 7260810.0 ], [ 529257.793458481901325, 7260820.0 ], [ 529252.20654151821509, 7260830.0 ], [ 529246.340103251626715, 7260840.0 ], [ 529240.000892210635357, 7260850.0 ], [ 529233.670178714208305, 7260860.0 ], [ 529227.870324714574963, 7260870.0 ], [ 529222.57765917526558, 7260879.999107789248228 ], [ 529217.521555410232395, 7260889.987933613359928 ], [ 529212.588833351852372, 7260899.900785414502025 ], [ 529207.958365123718977, 7260909.453693735413253 ], [ 529204.128444569883868, 7260917.913190307095647 ], [ 529201.628543837810867, 7260924.243011592887342 ] ] } },
{ "type": "Feature", "properties": { "id": 9, "reference_id": 8, "dune_id": 8, "dune_name": "Inverted Y Dune", "acquisition_date": "2018-10-24", "length_m": 113.19463858255105 }, "geometry": { "type": "LineString", "coordinates": [ [ 530235.756988407694735, 7261218.012404892593622 ], [ 530242.08680969348643, 7261214.789317857474089 ], [ 530250.546306264819577, 7261210.000000000931323 ], [ 530260.099214585614391, 7261205.211574353277683 ], [ 530270.012066387105733, 7261201.998769284226 ], [ 530280.000892210751772, 7261200.621388075873256 ], [ 530290.0, 7261200.545414054766297 ], [ 530299.999107789364643, 7261201.552569815889001 ], [ 530309.987933612894267, 7261203.671070924028754 ], [ 530319.900785414502025, 7261206.329821285791695 ], [ 530329.453693735180423, 7261208.459496571682394 ], [ 530337.91319030651357, 7261209.552908320911229 ], [ 530344.243011592305265, 7261209.912851802073419 ] ] } },
{ "type": "Feature", "properties": { "id": 10, "reference_id": 4, "dune_id": 4, "dune_name": "The Star Dune", "acquisition_date": "2018-10-24", "length_m": 52.720403510881027 }, "geometry": { "type": "LineString", "coordinates": [ [ 533504.216484978911467, 7262005.668947998434305 ], [ 533508.415738768526353, 7262011.627651628106833 ], [ 533514.204418591805734, 7262018.906588250771165 ], [ 533521.540503428783268, 7262025.882729606702924 ], [ 533529.912851801607758, 7262031.595435408875346 ], [ 533538.001230715657584, 7262035.78440723195672 ], [ 533544.254185768775642, 7262038.360281986184418 ] ] } }
]
}
