{
"type": "FeatureCollection",
"name": "crests_2022_10_2022-10-06",
"crs": { "type": "name", "properties": { "name": "urn:ogc:def:crs:EPSG::32733" } },
"features": [
{ "type": "Feature", "properties": { "id": 0, "reference_id": 7, "dune_id": 7, "dune_name": "Inverted Y Dune", "acquisition_date": "2022-10-06", "length_m": 661.61600033552531 }, "geometry": { "type": "LineString", "coordinates": [ [ 530125.756988407694735, 7261640.0111741758883 ], [ 530132.08680969348643, 7261640.087148198857903 ], [ 530140.546306264819577, 7261640.447091680020094 ], [ 530150.099214585614391, 7261641.540503429248929 ], [ 530160.012066387222148, 7261643.670178715139627 ], [ 530170.000892210751772, 7261646.329821286723018 ], [ 530180.0, 7261648.459496572613716 ], [ 530190.0, 7261649.552908321842551 ], [ 530200.0, 7261649.912851802073419 ], [ 530210.0, 7261649.9888258241117 ], [ 530220.0, 7261649.998215579427779 ], [ 530230.0, 7261649.9888258241117 ], [ 530240.0, 7261649.912851802073419 ], [ 530250.0, 7261649.552016111090779 ], [ 530260.0, 7261648.448322394862771 ], [ 530270.0, 7261646.242673087865114 ], [ 530280.0, 7261643.222194824367762 ], [ 530290.0, 7261639.9888258241117 ], [ 530300.0, 7261636.689764766953886 ], [ 530310.0, 7261633.309343023225665 ], [ 530320.0, 7261630.0 ], [ 530330.0, 7261626.690656976774335 ], [ 530340.0, 7261623.309343023225665 ], [ 530350.0, 7261620.0 ], [ 530360.0, 7261616.689764766953886 ], [ 530370.0, 7261613.298168847337365 ], [ 530380.0, 7261609.912851801142097 ], [ 530390.0, 7261606.242673087865114 ], [ 530400.0, 7261601.757665418088436 ], [ 530410.0, 7261596.241780877113342 ], [ 530420.0, 7261589.901677625253797 ], [ 530430.000000000116415, 7261583.211020648479462 ], [ 530440.0, 7261576.241780877113342 ], [ 530450.0, 7261568.448322394862771 ], [ 530459.999107789364643, 7261559.552016111090779 ], [ 530469.988825823529623, 7261549.912851801142097 ], [ 530479.912851801607758, 7261539.9888258241117 ], [ 530489.552016110159457, 7261529.999107789248228 ], [ 530498.448322394862771, 7261520.0 ], [ 530506.242673087399453, 7261510.0 ], [ 530513.222194824367762, 7261500.0 ], [ 530519.988825823529623, 7261490.0 ], [ 530526.689764766488224, 7261480.0 ], [ 530533.309343022760004, 7261470.000000000931323 ], [ 530540.0, 7261460.0 ], [ 530546.690656977239996, 7261450.0 ], [ 530553.310235233511776, 7261440.0 ], [ 530560.011174176470377, 7261430.0 ], [ 530566.777805175632238, 7261420.0 ], [ 530573.757326912600547, 7261410.0 ], [ 530581.551677605253644, 7261400.0 ], [ 530590.447983889840543, 7261390.0 ], [ 530600.087148198392242, 7261380.0 ], [ 530610.01028196583502, 7261370.000892210751772 ], [ 530619.988825823646039, 7261360.012066386640072 ], [ 530629.900785414502025, 7261350.099214585497975 ], [ 530639.453693735296838, 7261340.546306265518069 ], [ 530647.913190306629986, 7261332.086809693835676 ], [ 530654.243011592305265, 7261325.756988408043981 ] ] } },
{ "type": "Feature", "properties": { "id": 1, "reference_id": 8, "dune_id": 8, "dune_name": "Inverted Y Dune", "acquisition_date": "2022-10-06", "length_m": 429.24360296695022 }, "geometry": { "type": "LineString", "coordinates": [ [ 530264.243011592421681, 7261221.628543838858604 ], [ 530257.913190306629986, 7261224.129336780868471 ], [ 530249.453693735180423, 7261227.969539299607277 ], [ 530239.900785414502025, 7261232.675981549546123 ], [ 530229.987933612777852, 7261237.969539300538599 ], [ 530220.0, 7261244.129336779937148 ], [ 530210.011174176470377, 7261251.628543837927282 ], [ 530200.087148198392242, 7261260.458265855908394 ], [ 530190.447983889840543, 7261270.088040409609675 ], [ 530181.552569815889001, 7261280.0111741758883 ], [ 530173.768501089187339, 7261290.000892210751772 ], [ 530166.864953374140896, 7261300.0 ], [ 530160.45915806631092, 7261310.000000000931323 ], [ 530154.861912838649005, 7261320.0 ], [ 530150.447983889840543, 7261330.0 ], [ 530146.777805175632238, 7261340.0 ], [ 530143.321409409982152, 7261350.0 ], [ 530140.011174176586792, 7261360.0 ], [ 530136.766630999278277, 7261370.0 ], [ 530133.670178714208305, 7261380.0 ], [ 530131.104585926048458, 7261390.0 ], [ 530128.907480461173691, 7261400.0 ], [ 530126.416969484183937, 7261410.0 ], [ 530123.680460680043325, 7261420.0 ], [ 530121.530221462948248, 7261430.0 ], [ 530120.359943480812944, 7261440.0 ], [ 530119.640056519303471, 7261450.0 ], [ 530118.470670747803524, 7261460.0 ], [ 530116.330713496543467, 7261470.000000000931323 ], [ 530113.670178714208305, 7261480.0 ], [ 530111.540503428666852, 7261490.0 ], [ 530110.44619946856983, 7261500.0 ], [ 530110.075974022038281, 7261510.0 ], [ 530109.924025978078134, 7261520.0 ], [ 530109.553800531546585, 7261530.0 ], [ 530108.459050465957262, 7261539.999553894624114 ], [ 530106.324234197614715, 7261549.993520701304078 ], [ 530103.626604615012184, 7261559.944359513930976 ], [ 530101.316957589122467, 7261569.6772395754233 ], [ 530099.676839964813553, 7261578.683442020788789 ], [ 530098.25205884128809, 7261586.078100949525833 ], [ 530096.846263533574529, 7261591.078100949525833 ] ] } },
{ "type": "Feature", "properties": { "id": 2, "reference_id": 8, "dune_id": 8, "dune_name": "Inverted Y Dune", "acquisition_date": "2022-10-06", "length_m": 274.42108128120753 }, "geometry": { "type": "LineString", "coordinates": [ [ 530554.243011592305265, 7261165.745814232155681 ], [ 530547.91319030651357, 7261171.998769285157323 ], [ 530539.453693735296838, 7261180.087148198857903 ], [ 530529.900785414385609, 7261188.459496572613716 ], [ 530519.987933612894267, 7261195.795581408776343 ], [ 530509.999107789248228, 7261201.584261231124401 ], [ 530500.0, 7261205.783515021204948 ], [ 530490.0, 7261208.360281986184418 ], [ 530480.0, 7261209.540841934271157 ], [ 530470.0, 7261209.911959591321647 ], [ 530460.0, 7261209.9888258241117 ], [ 530450.0, 7261209.999107790179551 ], [ 530440.0, 7261209.999107790179551 ], [ 530430.000000000116415, 7261209.9888258241117 ], [ 530420.0, 7261209.912851802073419 ], [ 530410.0, 7261209.552908320911229 ], [ 530400.0, 7261208.459496571682394 ], [ 530390.0, 7261206.330713496543467 ], [ 530380.0, 7261203.681352891027927 ], [ 530370.0, 7261201.62765162717551 ], [ 530360.0, 7261200.894183358177543 ], [ 530350.0, 7261201.62765162717551 ], [ 530340.000892210751772, 7261203.681352891027927 ], [ 530330.012066387105733, 7261206.330713496543467 ], [ 530320.099214585614391, 7261208.459496571682394 ], [ 530310.546306264819577, 7261209.552908320911229 ], [ 530302.08680969348643, 7261209.912851802073419 ], [ 530295.756988407694735, 7261209.9888258241117 ] ] } },
{ "type": "Feature", "properties": { "id": 3, "reference_id": 9, "dune_id": 9, "dune_name": "Inverted Y Dune", "acquisition_date": "2022-10-06", "length_m": 832.39278441793101 }, "geometry": { "type": "LineString", "coordinates": [ [ 530091.078100949525833, 7261598.910724874585867 ], [ 530086.078100949409418, 7261603.834750852547586 ], [ 530078.683442020905204, 7261610.868574090301991 ], [ 530069.677239574841224, 7261618.771082820370793 ], [ 530059.944359513698146, 7261626.298313573934138 ], [ 530049.993520701071247, 7261633.228674123063684 ], [ 530039.999553894624114, 7261639.989271929487586 ], [ 530030.0, 7261646.689764767885208 ], [ 530020.0, 7261653.309343023225665 ], [ 530010.0, 7261660.0 ], [ 530000.0, 7261666.690656976774335 ], [ 529990.0, 7261673.309343023225665 ], [ 529980.0, 7261680.0 ], [ 529970.0, 7261686.690656976774335 ], [ 529960.0, 7261693.310235233977437 ], [ 529950.0, 7261700.011174177750945 ], [ 529940.0, 7261706.777805175632238 ], [ 529930.0, 7261713.757326913066208 ], [ 529920.0, 7261721.551677605137229 ], [ 529910.0, 7261730.447983890771866 ], [ 529900.0, 7261740.087148198857903 ], [ 529890.0, 7261750.011174176819623 ], [ 529880.0, 7261760.000892210751772 ], [ 529870.0, 7261770.0 ], [ 529860.000892210751772, 7261780.0 ], [ 529850.011174176470377, 7261790.0 ], [ 529840.087148198392242, 7261800.0 ], [ 529830.447983889840543, 7261810.0 ], [ 529821.552569815889001, 7261820.0 ], [ 529813.768501089187339, 7261830.0 ], [ 529806.864953374140896, 7261840.000000000931323 ], [ 529800.45915806631092, 7261850.0 ], [ 529794.861912838649005, 7261860.0 ], [ 529790.447983889840543, 7261870.0 ], [ 529786.777805175632238, 7261880.0 ], [ 529783.32051719923038, 7261890.0 ], [ 529780.000892210751772, 7261900.0 ], [ 529776.689764766488224, 7261910.0 ], [ 529773.299061056924984, 7261920.0 ], [ 529769.924025978078134, 7261930.0 ], [ 529766.329821285791695, 7261940.0 ], [ 529762.205649307463318, 7261950.0 ], [ 529757.79345848178491, 7261960.0 ], [ 529753.659896748373285, 7261970.0 ], [ 529749.999107789364643, 7261980.0 ], [ 529746.329821285791695, 7261990.0 ], [ 529742.130567496176809, 7262000.0 ], [ 529737.433515001088381, 7262010.0 ], [ 529732.566484998911619, 7262020.0 ], [ 529727.869432503939606, 7262030.0 ], [ 529723.670178714208305, 7262040.0 ], [ 529720.0, 7262050.0 ], [ 529716.329821285791695, 7262060.0 ], [ 529712.129675285425037, 7262070.0 ], [ 529707.423233035369776, 7262080.0 ], [ 529702.490510976873338, 7262090.0 ], [ 529697.509489023126662, 7262100.0 ], [ 529692.576766964630224, 7262110.0 ], [ 529687.870324714458548, 7262120.0 ], [ 529683.670178714208305, 7262130.0 ], [ 529680.0, 7262140.0 ], [ 529676.329821285791695, 7262150.0 ], [ 529672.130567496176809, 7262160.0 ], [ 529667.434407211840153, 7262170.0 ], [ 529662.577659175381996, 7262180.0 ], [ 529657.956580702331848, 7262190.0 ], [ 529654.117270393413492, 7262200.0 ], [ 529651.541395639418624, 7262210.0 ], [ 529650.011174176470377, 7262219.999107789248228 ], [ 529648.547536980360746, 7262229.987933613359928 ], [ 529646.340995462378487, 7262239.900785414502025 ], [ 529643.671070924960077, 7262249.453693735413253 ], [ 529641.540503428783268, 7262257.913190307095647 ], [ 529640.447091679205187, 7262264.243011591956019 ] ] } },
{ "type": "Feature", "properties": { "id": 4, "reference_id": 3, "dune_id": 3, "dune_name": "Big Mommy Dune", "acquisition_date": "2022-10-06", "length_m": 359.28201386533129 }, "geometry": { "type": "LineString", "coordinates": [ [ 529374.243011592305265, 7260695.756988408043981 ], [ 529367.91319030651357, 7260702.086809693835676 ], [ 529359.453693735180423, 7260710.546306265518069 ], [ 529349.900785414502025, 7260720.099214585497975 ], [ 529339.988825823529623, 7260730.012066388502717 ], [ 529330.01028196583502, 7260740.000892210751772 ], [ 529320.087148198508658, 7260750.0 ], [ 529310.447983889956959, 7260760.0 ], [ 529301.551677605253644, 7260770.0 ], [ 529293.758219123352319, 7260780.000000000931323 ], [ 529286.788087141467258, 7260790.0 ], [ 529280.087148198392242, 7260800.0 ], [ 529273.671070924960077, 7260810.0 ], [ 529267.794350692536682, 7260820.0 ], [ 529262.205649307463318, 7260830.0 ], [ 529256.32982128590811, 7260840.0 ], [ 529249.924025978078134, 7260850.0 ], [ 529243.299061057041399, 7260860.0 ], [ 529236.689764766488224, 7260870.0 ], [ 529230.0, 7260880.0 ], [ 529223.310235233511776, 7260890.0 ], [ 529216.700938943075016, 7260900.0 ], [ 529210.076866232557222, 7260910.0 ], [ 529203.681352890562266, 7260920.0 ], [ 529197.882391101680696, 7260930.0 ], [ 529192.665253479150124, 7260939.999553894624114 ], [ 529187.974234177614562, 7260949.993520701304078 ], [ 529184.172910879715346, 7260959.944359514862299 ], [ 529181.852089677471668, 7260969.6772395754233 ], [ 529181.228517570067197, 7260978.683442020788789 ], [ 529181.923129766248167, 7260986.078100949525833 ], [ 529183.176084819366224, 7260991.078100949525833 ] ] } },
{ "type": "Feature", "properties": { "id": 5, "reference_id": 3, "dune_id": 3, "dune_name": "Big Mommy Dune", "acquisition_date": "2022-10-06", "length_m": 497.63493553834485 }, "geometry": { "type": "LineString", "coordinates": [ [ 529405.756988407694735, 7260679.552016109228134 ], [ 529412.08680969348643, 7260678.448322394862771 ], [ 529420.546306264819577, 7260676.242673087865114 ], [ 529430.099214585614391, 7260673.222194824367762 ], [ 529440.012066387222148, 7260669.9888258241117 ], [ 529450.000892210751772, 7260666.689764766953886 ], [ 529460.0, 7260663.310235233977437 ], [ 529470.0, 7260660.010281966067851 ], [ 529480.0, 7260656.766630999743938 ], [ 529490.0, 7260653.670178714208305 ], [ 529500.000000000116415, 7260651.103693716228008 ], [ 529510.0, 7260648.896306285634637 ], [ 529520.0, 7260646.329821286723018 ], [ 529530.0, 7260643.234261212870479 ], [ 529540.0, 7260640.000892210751772 ], [ 529550.0, 7260636.776912964880466 ], [ 529560.0, 7260633.757326912134886 ], [ 529570.0, 7260631.55078539531678 ], [ 529580.0, 7260630.436809713020921 ], [ 529590.0, 7260630.0 ], [ 529600.0, 7260629.564082497730851 ], [ 529610.0, 7260628.460388781502843 ], [ 529620.0, 7260626.329821285791695 ], [ 529630.0, 7260623.670178714208305 ], [ 529640.0, 7260621.540503429248929 ], [ 529650.0, 7260620.446199468336999 ], [ 529660.0, 7260620.075974022038281 ], [ 529670.0, 7260619.924025977961719 ], [ 529680.0, 7260619.553800531663001 ], [ 529690.0, 7260618.459496571682394 ], [ 529700.0, 7260616.329821286723018 ], [ 529710.0, 7260613.670178715139627 ], [ 529720.0, 7260611.540503429248929 ], [ 529730.0, 7260610.447091680020094 ], [ 529740.0, 7260610.087148198857903 ], [ 529750.0, 7260610.011174176819623 ], [ 529760.0, 7260610.0 ], [ 529770.0, 7260609.989718034863472 ], [ 529780.0, 7260609.924025978893042 ], [ 529790.0, 7260609.640056519769132 ], [ 529800.0, 7260608.906588250771165 ], [ 529810.0, 7260607.870324715040624 ], [ 529820.0, 7260607.34035742841661 ], [ 529830.0, 7260607.870324715040624 ], [ 529840.0, 7260608.906588250771165 ], [ 529849.999107789364643, 7260609.640056519769132 ], [ 529859.987933612894267, 7260609.924025978893042 ], [ 529869.900785414385609, 7260609.989718034863472 ], [ 529879.453693735180423, 7260609.999107789248228 ], [ 529887.91319030651357, 7260610.0 ], [ 529894.243011592421681, 7260610.0 ] ] } },
{ "type": "Feature", "properties": { "id": 6, "reference_id": 3, "dune_id": 3, "dune_name": "Big Mommy Dune", "acquisition_date": "2022-10-06", "length_m": 303.46721998188656 }, "geometry": { "type": "LineString", "coordinates": [ [ 529945.756988407578319, 7260610.0 ], [ 529952.08680969348643, 7260610.0 ], [ 529960.546306264819577, 7260610.0 ], [ 529970.099214585614391, 7260610.0 ], [ 529980.012066387105733, 7260610.0 ], [ 529990.000892210751772, 7260610.0 ], [ 530000.0, 7260609.999107789248228 ], [ 530010.0, 7260609.9888258241117 ], [ 530020.0, 7260609.912851802073419 ], [ 530030.0, 7260609.552908320911229 ], [ 530040.0, 7260608.459496571682394 ], [ 530050.0, 7260606.329821286723018 ], [ 530060.0, 7260603.670178715139627 ], [ 530070.0, 7260601.540503429248929 ], [ 530080.0, 7260600.446199469268322 ], [ 530090.0, 7260600.075974022969604 ], [ 530100.0, 7260599.92313376814127 ], [ 530110.0, 7260599.542626354843378 ], [ 530120.0, 7260598.372348373755813 ], [ 530130.0, 7260595.882729606702924 ], [ 530140.0, 7260592.129675285890698 ], [ 530150.0, 7260587.869432504288852 ], [ 530160.0, 7260584.106096217408776 ], [ 530170.000000000116415, 7260581.540503429248929 ], [ 530180.0, 7260580.0111741758883 ], [ 530190.0, 7260578.547536980360746 ], [ 530199.999107789248228, 7260576.340995462611318 ], [ 530209.987933612894267, 7260573.671070925891399 ], [ 530219.900785414385609, 7260571.540503429248929 ], [ 530229.453693735180423, 7260570.447091680020094 ], [ 530237.91319030651357, 7260570.087148198857903 ], [ 530244.243011592421681, 7260570.011174176819623 ] ] } },
{ "type": "Feature", "properties": { "id": 7, "reference_id": 4, "dune_id": 4, "dune_name": "The Star Dune", "acquisition_date": "2022-10-06", "length_m": 596.98702424322482 }, "geometry": { "type": "LineString", "coordinates": [ [ 533005.756988407694735, 7261870.447091680020094 ], [ 533012.08680969348643, 7261871.540503429248929 ], [ 533020.546306264819577, 7261873.671070925891399 ], [ 533030.099214585614391, 7261876.340995462611318 ], [ 533040.012066387105733, 7261878.546644769608974 ], [ 533050.000892210751772, 7261880.0 ], [ 533060.0, 7261881.453355230391026 ], [ 533070.0, 7261883.659896748140454 ], [ 533080.0, 7261886.340103251859546 ], [ 533090.0, 7261888.546644769608974 ], [ 533100.0, 7261890.000892210751772 ], [ 533110.0, 7261891.464529407210648 ], [ 533120.0, 7261893.746152736246586 ], [ 533130.0, 7261896.776912964880466 ], [ 533140.0, 7261900.0111741758883 ], [ 533150.0, 7261903.310235233977437 ], [ 533160.0, 7261906.689764766953886 ], [ 533170.0, 7261909.989718034863472 ], [ 533180.0, 7261913.233369002118707 ], [ 533190.0, 7261916.329821286723018 ], [ 533200.0, 7261918.895414073951542 ], [ 533210.0, 7261921.093411749228835 ], [ 533220.0, 7261923.594204692170024 ], [ 533230.0, 7261926.405795307829976 ], [ 533240.0, 7261928.906588250771165 ], [ 533250.0, 7261931.104585926048458 ], [ 533260.0, 7261933.670178715139627 ], [ 533270.0, 7261936.765738788992167 ], [ 533280.0, 7261940.0 ], [ 533290.0, 7261943.234261211007833 ], [ 533300.0, 7261946.329821284860373 ], [ 533310.0, 7261948.896306285634637 ], [ 533320.0, 7261951.103693716228008 ], [ 533330.0, 7261953.670178715139627 ], [ 533340.0, 7261956.765738788992167 ], [ 533350.0, 7261960.0 ], [ 533360.0, 7261963.234261211939156 ], [ 533370.0, 7261966.329821286723018 ], [ 533380.000000000116415, 7261968.896306285634637 ], [ 533390.0, 7261971.103693716228008 ], [ 533400.000000000116415, 7261973.671070924960077 ], [ 533410.0, 7261976.776912964880466 ], [ 533420.0, 7261980.086255988106132 ], [ 533430.0, 7261983.671070924960077 ], [ 533440.0, 7261987.794350693002343 ], [ 533450.0, 7261992.206541518680751 ], [ 533460.0, 7261996.340103251859546 ], [ 533470.0, 7262000.000892210751772 ], [ 533480.0, 7262003.670178715139627 ], [ 533490.0, 7262007.86943250335753 ], [ 533500.0, 7262012.566484998911619 ], [ 533510.0, 7262017.433515001088381 ], [ 533520.0, 7262022.13056749664247 ], [ 533529.999107789248228, 7262026.329821286723018 ], [ 533539.987933612894267, 7262029.999107789248228 ], [ 533549.900785414502025, 7262033.659004538320005 ], [ 533559.453693735296838, 7262037.782284305430949 ], [ 533567.91319030651357, 7262042.118501109071076 ], [ 533574.243011592421681, 7262045.881837395951152 ] ] } },
{ "type": "Feature", "properties": { "id": 8, "reference_id": 5, "dune_id": 5, "dune_name": "The Star Dune", "acquisition_date": "2022-10-06", "length_m": 936.62327716478148 }, "geometry": { "type": "LineString", "coordinates": [ [ 534335.881837395951152, 7261505.756988408043981 ], [ 534332.118501109071076, 7261512.086809692904353 ], [ 534327.782284305430949, 7261520.546306265518069 ], [ 534323.658112327102572, 7261530.099214585497975 ], [ 534319.987933612894267, 7261540.012066386640072 ], [ 534316.241780876764096, 7261550.000892210751772 ], [ 534311.671409429865889, 7261559.999107790179551 ], [ 534305.79468919755891, 7261569.9888258241117 ], [ 534298.361174196470529, 7261579.912851802073419 ], [ 534289.54084193368908, 7261589.552016110159457 ], [ 534279.911959590855986, 7261598.448322394862771 ], [ 534269.988825823529623, 7261606.241780877113342 ], [ 534259.999107789248228, 7261613.211912859231234 ], [ 534250.0, 7261619.911959590390325 ], [ 534240.0, 7261626.318647108972073 ], [ 534230.0, 7261632.129675285890698 ], [ 534220.0, 7261637.433515001088381 ], [ 534210.0, 7261642.565592788159847 ], [ 534200.0, 7261647.85825832746923 ], [ 534190.0, 7261653.582138305529952 ], [ 534180.0, 7261659.541734144091606 ], [ 534170.0, 7261664.702169658616185 ], [ 534160.0, 7261668.012404892593622 ], [ 534150.0, 7261669.552016110159457 ], [ 534140.0, 7261670.34876930527389 ], [ 534130.0, 7261671.528437041677535 ], [ 534120.0, 7261673.669286503456533 ], [ 534110.0, 7261676.329821285791695 ], [ 534100.0, 7261678.460388781502843 ], [ 534090.0, 7261679.564082497730851 ], [ 534080.0, 7261680.0 ], [ 534070.0, 7261680.435917503200471 ], [ 534060.0, 7261681.539611218497157 ], [ 534050.0, 7261683.671070925891399 ], [ 534040.0, 7261686.340995462611318 ], [ 534030.0, 7261688.546644769608974 ], [ 534020.0, 7261690.0 ], [ 534010.0, 7261691.454247441142797 ], [ 534000.0, 7261693.670178714208305 ], [ 533990.0, 7261696.416077273897827 ], [ 533980.0, 7261698.906588250771165 ], [ 533970.0, 7261701.094303959980607 ], [ 533960.0, 7261703.594204692170024 ], [ 533950.0, 7261706.406687518581748 ], [ 533940.0, 7261708.916870215907693 ], [ 533930.0, 7261711.181452158838511 ], [ 533920.0, 7261714.041296371258795 ], [ 533910.0, 7261717.947190947830677 ], [ 533900.0, 7261722.58704893104732 ], [ 533890.0, 7261727.511273444630206 ], [ 533880.0, 7261732.500792942941189 ], [ 533870.0, 7261737.500099267810583 ], [ 533860.0, 7261742.499900732189417 ], [ 533850.0, 7261747.500099267810583 ], [ 533840.0, 7261752.500792942941189 ], [ 533830.0, 7261757.511273443698883 ], [ 533820.0, 7261762.587941141799092 ], [ 533810.000892210635357, 7261767.958365123718977 ], [ 533800.011174176470377, 7261774.128444570116699 ], [ 533790.088040409144014, 7261781.628543838858604 ], [ 533780.45915806631092, 7261790.458265855908394 ], [ 533771.638825803645886, 7261800.088040409609675 ], [ 533764.205310802557506, 7261810.011174177750945 ], [ 533758.329482780885883, 7261820.000892210751772 ], [ 533753.768501089187339, 7261830.0 ], [ 533750.088040409144014, 7261840.000000000931323 ], [ 533746.700938942958601, 7261850.0 ], [ 533743.299953267676756, 7261860.0 ], [ 533739.923133767442778, 7261870.0 ], [ 533736.31953932007309, 7261880.0 ], [ 533732.128783074906096, 7261890.0 ], [ 533727.423233035253361, 7261900.0 ], [ 533722.489618766237982, 7261910.0 ], [ 533717.499207057291642, 7261920.0 ], [ 533712.499900731956586, 7261930.0 ], [ 533707.500099268043414, 7261940.0 ], [ 533702.499900732073002, 7261950.0 ], [ 533697.500099268043414, 7261960.0 ], [ 533692.499900732073002, 7261970.0 ], [ 533687.499207057291642, 7261980.0 ], [ 533682.489618766237982, 7261989.999553894624114 ], [ 533677.424125246005133, 7261999.993520701304078 ], [ 533672.140849462011829, 7262009.944359513930976 ], [ 533666.417861694935709, 7262019.677239574491978 ], [ 533660.458265855675563, 7262028.683442020788789 ], [ 533655.298722552019171, 7262036.078100949525833 ], [ 533651.998769284458831, 7262041.078100949525833 ] ] } },
{ "type": "Feature", "properties": { "id": 9, "reference_id": 5, "dune_id": 5, "dune_name": "The Star Dune", "acquisition_date": "2022-10-06", "length_m": 155.50544462371025 }, "geometry": { "type": "LineString", "coordinates": [ [ 534334.353400354390033, 7261305.756988408043981 ], [ 534328.54664476972539, 7261312.086809693835676 ], [ 534321.987595107872039, 7261320.546306264586747 ], [ 534317.198277250863612, 7261330.099214585497975 ], [ 534315.744922020589001, 7261340.012066386640072 ], [ 534316.875235339859501, 7261350.000892210751772 ], [ 534318.558711156831123, 7261360.0 ], [ 534319.564974708016962, 7261370.0 ], [ 534319.914636222994886, 7261380.0 ], [ 534320.0, 7261390.0 ], [ 534320.086255987756886, 7261400.0 ], [ 534320.447091679205187, 7261409.999107789248228 ], [ 534321.540503428666852, 7261419.987933613359928 ], [ 534323.670178714208305, 7261429.900785414502025 ], [ 534326.329821285791695, 7261439.453693735413253 ], [ 534328.459496571333148, 7261447.913190307095647 ], [ 534329.552908320794813, 7261454.243011592887342 ] ] } },
{ "type": "Feature", "properties": { "id": 10, "reference_id": 1, "dune_id": 1, "dune_name": "Big Mommy Dune", "acquisition_date": "2022-10-06", "length_m": 1350.5298076292506 }, "geometry": { "type": "LineString", "coordinates": [ [ 529180.0, 7261035.756988408043981 ], [ 529180.0, 7261042.086809693835676 ], [ 529180.0, 7261050.546306265518069 ], [ 529180.0, 7261060.099214585497975 ], [ 529179.999107789364643, 7261070.012066387571394 ], [ 529179.988825823529623, 7261080.000892210751772 ], [ 529179.912851801607758, 7261090.0 ], [ 529179.552908320794813, 7261100.0 ], [ 529178.458604360581376, 7261110.0 ], [ 529176.318647109321319, 7261120.000000000931323 ], [ 529173.582138305064291, 7261130.0 ], [ 529171.082237573107705, 7261140.0 ], [ 529168.81854784139432, 7261150.0 ], [ 529165.958703628741205, 7261160.0 ], [ 529162.053701263619587, 7261170.0 ], [ 529157.423233035369776, 7261180.0 ], [ 529152.565592788159847, 7261190.0 ], [ 529147.869432503823191, 7261200.0 ], [ 529143.670178714208305, 7261210.000000000931323 ], [ 529140.0, 7261220.0 ], [ 529136.329821285791695, 7261230.0 ], [ 529132.130567496176809, 7261240.0 ], [ 529127.433515001204796, 7261250.0 ], [ 529122.566484998911619, 7261260.0 ], [ 529117.870324714574963, 7261270.0 ], [ 529113.680460680043325, 7261280.0 ], [ 529110.075974021921866, 7261290.0 ], [ 529106.689764766488224, 7261300.0 ], [ 529103.22397924575489, 7261310.000000000931323 ], [ 529099.563190286746249, 7261320.0 ], [ 529095.226127570495009, 7261330.0 ], [ 529090.0, 7261340.0 ], [ 529084.773872429504991, 7261350.0 ], [ 529080.436809713370167, 7261360.0 ], [ 529076.776020754361525, 7261370.0 ], [ 529073.310235233511776, 7261380.0 ], [ 529069.924918188713491, 7261390.0 ], [ 529066.329821285791695, 7261400.0 ], [ 529062.205649307463318, 7261410.0 ], [ 529057.794350692536682, 7261420.0 ], [ 529053.670178714208305, 7261430.0 ], [ 529050.075974021921866, 7261440.0 ], [ 529046.700938942958601, 7261450.0 ], [ 529043.311127444147132, 7261460.0 ], [ 529040.01028196583502, 7261470.000000000931323 ], [ 529036.766630999278277, 7261480.0 ], [ 529033.670178714208305, 7261490.0 ], [ 529031.104585926048458, 7261500.0 ], [ 529028.907480461173691, 7261510.0 ], [ 529026.416969484183937, 7261520.0 ], [ 529023.681352890678681, 7261530.0 ], [ 529021.541395639418624, 7261540.0 ], [ 529020.447091679205187, 7261550.0 ], [ 529020.087148198508658, 7261560.000000000931323 ], [ 529020.011174176470377, 7261570.0 ], [ 529020.000892210751772, 7261580.0 ], [ 529020.0, 7261590.0 ], [ 529020.0, 7261600.0 ], [ 529020.0, 7261610.0 ], [ 529020.0, 7261620.0 ], [ 529020.000892210751772, 7261630.0 ], [ 529020.011174176470377, 7261640.0 ], [ 529020.087148198508658, 7261650.0 ], [ 529020.447983889840543, 7261660.0 ], [ 529021.551677605137229, 7261670.0 ], [ 529023.758219123352319, 7261680.0 ], [ 529026.78897935221903, 7261690.0 ], [ 529030.099214585614391, 7261700.0 ], [ 529033.768501089187339, 7261710.0 ], [ 529038.317416393663734, 7261720.0 ], [ 529044.106988427578472, 7261730.000000000931323 ], [ 529051.104585926048458, 7261740.0 ], [ 529058.470670747803524, 7261750.0 ], [ 529064.86618408979848, 7261760.0 ], [ 529069.923133767326362, 7261770.0 ], [ 529074.752416287316009, 7261780.0 ], [ 529080.348769304342568, 7261790.0 ], [ 529086.328929075156339, 7261800.0 ], [ 529091.768839594093151, 7261810.0 ], [ 529096.241780876764096, 7261820.0 ], [ 529099.889611237915233, 7261830.0 ], [ 529103.112698273034766, 7261840.000000000931323 ], [ 529105.706648788414896, 7261850.0 ], [ 529106.448660899768583, 7261860.0 ], [ 529104.243011592421681, 7261870.0 ], [ 529099.377719713374972, 7261880.0 ], [ 529093.199846471427009, 7261890.0 ], [ 529086.677698379382491, 7261900.0 ], [ 529079.999107789248228, 7261910.0 ], [ 529073.309343022760004, 7261920.0 ], [ 529066.690656977239996, 7261930.0 ], [ 529060.0, 7261940.0 ], [ 529053.310235233511776, 7261950.0 ], [ 529046.700938942958601, 7261960.0 ], [ 529040.076866232673638, 7261970.0 ], [ 529033.681352890795097, 7261980.0 ], [ 529027.881498891045339, 7261990.0 ], [ 529022.653633197303861, 7262000.0 ], [ 529017.881498890928924, 7262010.0 ], [ 529013.681352890795097, 7262020.0 ], [ 529010.076866232673638, 7262030.0 ], [ 529006.700046732323244, 7262040.0 ], [ 529003.299953267676756, 7262050.0 ], [ 528999.923133767442778, 7262060.0 ], [ 528996.31953932007309, 7262070.0 ], [ 528992.128783074789681, 7262080.0 ], [ 528987.42234082473442, 7262090.0 ], [ 528982.478444589767605, 7262100.0 ], [ 528977.411166648264043, 7262110.0 ], [ 528972.041634876397438, 7262120.0 ], [ 528965.871555430116132, 7262130.0 ], [ 528958.371456162189133, 7262140.0 ], [ 528949.541734144324437, 7262149.999107789248228 ], [ 528939.911959590972401, 7262159.9888258241117 ], [ 528929.988825823529623, 7262169.912851802073419 ], [ 528919.999107789364643, 7262179.552908320911229 ], [ 528910.0, 7262188.458604360930622 ], [ 528900.0, 7262196.318647108972073 ], [ 528890.0, 7262203.582138305529952 ], [ 528880.000892210751772, 7262211.081345362588763 ], [ 528870.012066387105733, 7262218.80737366527319 ], [ 528860.099214585614391, 7262225.870663220062852 ], [ 528850.546306264819577, 7262231.594543197192252 ], [ 528842.086809693370014, 7262235.78440723195672 ], [ 528835.756988407694735, 7262238.360281985253096 ] ] } },
{ "type": "Feature", "properties": { "id": 11, "reference_id": 6, "dune_id": 6, "dune_name": "The Star Dune", "acquisition_date": "2022-10-06", "length_m": 643.01696927772525 }, "geometry": { "type": "LineString", "coordinates": [ [ 533656.340995462262072, 7262115.756988408043981 ], [ 533653.757326912600547, 7262122.086809693835676 ], [ 533651.987595107988454, 7262130.546306265518069 ], [ 533651.987595107988454, 7262140.099214585497975 ], [ 533653.757326912600547, 7262150.012066386640072 ], [ 533656.340995462262072, 7262160.000892210751772 ], [ 533658.460388781968504, 7262170.0 ], [ 533659.553800531546585, 7262180.0 ], [ 533659.924025977961719, 7262190.0 ], [ 533660.075974022038281, 7262200.0 ], [ 533660.44619946856983, 7262210.0 ], [ 533661.540503428783268, 7262220.0 ], [ 533663.670178714208305, 7262230.0 ], [ 533666.330713496543467, 7262240.0 ], [ 533668.470670747803524, 7262250.0 ], [ 533669.640056519303471, 7262260.0 ], [ 533670.359943480696529, 7262270.0 ], [ 533671.529329252196476, 7262280.0 ], [ 533673.669286503456533, 7262290.0 ], [ 533676.328929075156339, 7262300.0 ], [ 533678.448322394862771, 7262310.0 ], [ 533679.465760122518986, 7262320.0 ], [ 533679.465760122518986, 7262330.0 ], [ 533678.448322394862771, 7262340.000000000931323 ], [ 533676.328036864520982, 7262350.0 ], [ 533673.659004537737928, 7262360.0 ], [ 533671.453355230391026, 7262370.0 ], [ 533669.999107789364643, 7262380.0 ], [ 533668.535470593255013, 7262390.0 ], [ 533666.253847263869829, 7262400.0 ], [ 533663.223087035119534, 7262410.0 ], [ 533659.988825823529623, 7262420.0 ], [ 533656.689764766488224, 7262430.0 ], [ 533653.310235233511776, 7262440.0 ], [ 533650.01028196583502, 7262450.0 ], [ 533646.766630999161862, 7262460.0 ], [ 533643.670178714208305, 7262470.0 ], [ 533641.103693715413101, 7262480.0 ], [ 533638.896306284703314, 7262490.0 ], [ 533636.329821285791695, 7262500.0 ], [ 533633.234261211473495, 7262510.0 ], [ 533630.0, 7262520.0 ], [ 533626.765738788526505, 7262530.0 ], [ 533623.670178714208305, 7262540.0 ], [ 533621.104585925932042, 7262550.0 ], [ 533618.907480461173691, 7262560.0 ], [ 533616.416969484183937, 7262570.0 ], [ 533613.680460680043325, 7262580.0 ], [ 533611.530221462948248, 7262590.0 ], [ 533610.359943480696529, 7262600.000000000931323 ], [ 533609.640056519303471, 7262610.0 ], [ 533608.470670747803524, 7262620.0 ], [ 533606.330713496543467, 7262630.0 ], [ 533603.669286503456533, 7262640.0 ], [ 533601.529329252312891, 7262650.0 ], [ 533600.359943480696529, 7262660.0 ], [ 533599.640056519303471, 7262670.0 ], [ 533598.470670747803524, 7262680.0 ], [ 533596.330713496543467, 7262690.0 ], [ 533593.670178714208305, 7262699.999107790179551 ], [ 533591.540503428783268, 7262709.987933613359928 ], [ 533590.447091679205187, 7262719.900785414502025 ], [ 533590.087148198392242, 7262729.453693736344576 ], [ 533590.011174176470377, 7262737.913190307095647 ], [ 533590.000892210751772, 7262744.243011592887342 ] ] } },
{ "type": "Feature", "properties": { "id": 12, "reference_id": 2, "dune_id": 2, "dune_name": "Big Mommy Dune", "acquisition_date": "2022-10-06", "length_m": 708.56436224233335 }, "geometry": { "type": "LineString", "coordinates": [ [ 529144.243011592421681, 7260976.241780877113342 ], [ 529137.913190306629986, 7260973.211912859231234 ], [ 529129.453693735296838, 7260969.912851801142097 ], [ 529119.900785414385609, 7260966.328929075971246 ], [ 529109.987933612894267, 7260962.205649307928979 ], [ 529099.999107789364643, 7260957.793458482250571 ], [ 529090.0, 7260953.659896749071777 ], [ 529080.0, 7260949.999107790179551 ], [ 529070.0, 7260946.329821285791695 ], [ 529060.0, 7260942.13056749664247 ], [ 529050.0, 7260937.434407211840153 ], [ 529040.0, 7260932.577659174799919 ], [ 529030.0, 7260927.956580702215433 ], [ 529020.0, 7260924.117270393297076 ], [ 529010.0, 7260921.541395640000701 ], [ 529000.0, 7260920.0111741758883 ], [ 528990.0, 7260918.547536980360746 ], [ 528980.0, 7260916.340103251859546 ], [ 528970.0, 7260913.659896748140454 ], [ 528960.0, 7260911.453355230391026 ], [ 528950.0, 7260910.0 ], [ 528940.0, 7260908.545752558857203 ], [ 528930.0, 7260906.329821286723018 ], [ 528920.0, 7260903.583922727033496 ], [ 528910.0, 7260901.092519539408386 ], [ 528900.0, 7260898.895414073951542 ], [ 528890.0, 7260896.329821285791695 ], [ 528880.0, 7260893.233369001187384 ], [ 528870.0, 7260889.989718034863472 ], [ 528860.0, 7260886.689764766022563 ], [ 528850.0, 7260883.309343023225665 ], [ 528840.0, 7260880.0 ], [ 528830.0, 7260876.689764766953886 ], [ 528820.0, 7260873.299061057157815 ], [ 528810.0, 7260869.924025978893042 ], [ 528800.0, 7260866.329821286723018 ], [ 528790.0, 7260862.205649307928979 ], [ 528780.0, 7260857.794350693002343 ], [ 528770.0, 7260853.670178714208305 ], [ 528760.0, 7260850.075974022038281 ], [ 528750.0, 7260846.700046733021736 ], [ 528740.0, 7260843.299953267909586 ], [ 528730.0, 7260839.92313376814127 ], [ 528720.0, 7260836.319539319723845 ], [ 528710.0, 7260832.128783075138927 ], [ 528700.0, 7260827.423233035951853 ], [ 528690.0, 7260822.489618766121566 ], [ 528680.0, 7260817.499207057058811 ], [ 528670.0, 7260812.499900732189417 ], [ 528660.0, 7260807.499207057058811 ], [ 528650.0, 7260802.489618767052889 ], [ 528640.0, 7260797.423233035951853 ], [ 528630.0, 7260792.129675285890698 ], [ 528620.0, 7260786.329821286723018 ], [ 528610.0, 7260779.999107790179551 ], [ 528600.0, 7260773.659896748140454 ], [ 528590.0, 7260767.793458482250571 ], [ 528580.0, 7260762.205649306997657 ], [ 528570.0, 7260756.329821286723018 ], [ 528560.0, 7260749.924025977961719 ], [ 528550.0, 7260743.299061057157815 ], [ 528540.000892210751772, 7260736.689764766953886 ], [ 528530.012066387105733, 7260730.000892210751772 ], [ 528520.099214585614391, 7260723.321409409865737 ], [ 528510.546306264819577, 7260716.788979351520538 ], [ 528502.08680969348643, 7260710.535132088698447 ], [ 528495.756988407694735, 7260705.309004518203437 ] ] } }
]
}
