{
"type": "FeatureCollection",
"name": "crests_2023_03_2023-03-12",
"crs": { "type": "name", "properties": { "name": "urn:ogc:def:crs:EPSG::32733" } },
"features": [
{ "type": "Feature", "properties": { "id": 0, "reference_id": 2, "dune_id": 2, "dune_name": "Big Mommy Dune", "acquisition_date": "2023-03-12", "length_m": 107.88023436682678 }, "geometry": { "type": "LineString", "coordinates": [ [ 528504.330159790813923, 7260714.243011591956019 ], [ 528498.360281985718757, 7260707.914082517847419 ], [ 528490.99419716396369, 7260699.464867912232876 ], [ 528483.57096412871033, 7260689.987933613359928 ], [ 528476.317754898685962, 7260680.435917502269149 ], [ 528468.459496571216732, 7260671.551677605137229 ], [ 528459.564974708016962, 7260663.76939329970628 ], [ 528450.012066387222148, 7260656.876127550378442 ], [ 528440.535132088349201, 7260650.546306265518069 ], [ 528432.085917482851073, 7260645.309896728955209 ], [ 528425.756988407694735, 7260641.999661494977772 ] ] } },
{ "type": "Feature", "properties": { "id": 1, "reference_id": 2, "dune_id": 2, "dune_name": "Big Mommy Dune", "acquisition_date": "2023-03-12", "length_m": 597.4581018585294 }, "geometry": { "type": "LineString", "coordinates": [ [ 528575.756988407694735, 7260745.745814231224358 ], [ 528582.086809693370014, 7260751.999661495909095 ], [ 528590.546306264819577, 7260760.098322374746203 ], [ 528600.099214585730806, 7260768.547536980360746 ], [ 528610.012066387105733, 7260776.253847263753414 ], [ 528620.000892210635357, 7260783.212805069983006 ], [ 528630.0, 7260789.911959591321647 ], [ 528640.0, 7260796.318647108972073 ], [ 528650.0, 7260802.128783075138927 ], [ 528660.0, 7260807.422340825200081 ], [ 528670.0, 7260812.479336800053716 ], [ 528680.0, 7260817.422340825200081 ], [ 528690.0, 7260822.128783075138927 ], [ 528700.0, 7260826.319539320655167 ], [ 528710.0, 7260829.92313376814127 ], [ 528720.0, 7260833.299953267909586 ], [ 528730.0, 7260836.700046733021736 ], [ 528740.0, 7260840.075974022969604 ], [ 528750.0, 7260843.670178714208305 ], [ 528760.0, 7260847.794350693002343 ], [ 528770.0, 7260852.206541517749429 ], [ 528780.0, 7260856.340103251859546 ], [ 528790.0, 7260860.0 ], [ 528800.0, 7260863.659896749071777 ], [ 528810.0, 7260867.793458482250571 ], [ 528820.0, 7260872.205649306997657 ], [ 528830.0, 7260876.329821286723018 ], [ 528840.0, 7260879.924025978893042 ], [ 528850.0, 7260883.299061058089137 ], [ 528860.0, 7260886.688872557133436 ], [ 528870.0, 7260889.989718034863472 ], [ 528880.0, 7260893.233369001187384 ], [ 528890.0, 7260896.329821285791695 ], [ 528900.0, 7260898.895414073951542 ], [ 528910.0, 7260901.093411750160158 ], [ 528920.0, 7260903.594204693101346 ], [ 528930.0, 7260906.405795308761299 ], [ 528940.0, 7260908.905696040019393 ], [ 528950.0, 7260911.094303959980607 ], [ 528960.0, 7260913.594204692170024 ], [ 528970.0, 7260916.405795307829976 ], [ 528980.0, 7260918.905696040019393 ], [ 528990.0, 7260921.094303959980607 ], [ 529000.0, 7260923.594204692170024 ], [ 529010.0, 7260926.406687518581748 ], [ 529020.0, 7260928.916870215907693 ], [ 529030.0, 7260931.180559948086739 ], [ 529040.0, 7260934.031014405190945 ], [ 529050.0, 7260937.870324714109302 ], [ 529060.0, 7260942.216823483817279 ], [ 529070.0, 7260946.340995462611318 ], [ 529079.999107789248228, 7260950.000000000931323 ], [ 529089.987933612894267, 7260953.659004538320005 ], [ 529099.900785414502025, 7260957.782284306362271 ], [ 529109.453693735296838, 7260962.118501110002398 ], [ 529117.91319030651357, 7260965.881837395951152 ], [ 529124.243011592421681, 7260968.37234837282449 ] ] } },
{ "type": "Feature", "properties": { "id": 2, "reference_id": 3, "dune_id": 3, "dune_name": "Big Mommy Dune", "acquisition_date": "2023-03-12", "length_m": 298.48602318461053 }, "geometry": { "type": "LineString", "coordinates": [ [ 530044.243011592305265, 7260610.0 ], [ 530037.91319030651357, 7260610.0 ], [ 530029.453693735180423, 7260610.0 ], [ 530019.900785414502025, 7260610.0 ], [ 530009.987933612894267, 7260610.0 ], [ 529999.999107789364643, 7260610.0 ], [ 529990.0, 7260610.0 ], [ 529980.0, 7260610.0 ], [ 529970.0, 7260610.0 ], [ 529960.0, 7260610.0 ], [ 529950.0, 7260610.0 ], [ 529940.0, 7260610.0 ], [ 529930.0, 7260610.0 ], [ 529920.0, 7260610.0 ], [ 529910.0, 7260610.0 ], [ 529900.0, 7260610.0 ], [ 529890.0, 7260610.0 ], [ 529880.0, 7260610.0 ], [ 529870.0, 7260610.0 ], [ 529860.0, 7260610.0 ], [ 529850.0, 7260610.0 ], [ 529840.0, 7260610.0 ], [ 529830.0, 7260610.0 ], [ 529820.0, 7260610.0 ], [ 529810.0, 7260610.0 ], [ 529800.0, 7260610.0 ], [ 529790.000892210751772, 7260610.0 ], [ 529780.012066387105733, 7260610.0 ], [ 529770.099214585614391, 7260610.0 ], [ 529760.546306264819577, 7260610.0 ], [ 529752.08680969348643, 7260610.0 ], [ 529745.756988407694735, 7260610.0 ] ] } },
{ "type": "Feature", "properties": { "id": 3, "reference_id": 3, "dune_id": 3, "dune_name": "Big Mommy Dune", "acquisition_date": "2023-03-12", "length_m": 110.68799225382554 }, "geometry": { "type": "LineString", "coordinates": [ [ 530204.243011592305265, 7260580.0111741758883 ], [ 530197.91319030651357, 7260580.087148198857903 ], [ 530189.453693735180423, 7260580.447091679088771 ], [ 530179.900785414385609, 7260581.541395640000701 ], [ 530169.987933612894267, 7260583.681352891027927 ], [ 530159.999107789364643, 7260586.416969484649599 ], [ 530150.0, 7260588.906588250771165 ], [ 530140.000892210751772, 7260591.093411749228835 ], [ 530130.012066387222148, 7260593.583030516281724 ], [ 530120.099214585614391, 7260596.318647108972073 ], [ 530110.546306264819577, 7260598.458604360930622 ], [ 530102.08680969348643, 7260599.552908321842551 ], [ 530095.756988407694735, 7260599.912851802073419 ] ] } },
{ "type": "Feature", "properties": { "id": 4, "reference_id": 3, "dune_id": 3, "dune_name": "Big Mommy Dune", "acquisition_date": "2023-03-12", "length_m": 362.92143594523253 }, "geometry": { "type": "LineString", "coordinates": [ [ 529374.243011592305265, 7260695.756988408043981 ], [ 529367.91319030651357, 7260702.086809693835676 ], [ 529359.453693735180423, 7260710.546306265518069 ], [ 529349.900785414502025, 7260720.099214585497975 ], [ 529339.988825823529623, 7260730.012066388502717 ], [ 529330.01028196583502, 7260740.000892210751772 ], [ 529320.087148198508658, 7260750.0 ], [ 529310.447983889956959, 7260760.0 ], [ 529301.551677605253644, 7260770.0 ], [ 529293.757326912600547, 7260780.000000000931323 ], [ 529286.777805175632238, 7260790.0 ], [ 529280.011174176470377, 7260800.0 ], [ 529273.310235233511776, 7260810.0 ], [ 529266.690656977239996, 7260820.0 ], [ 529260.0, 7260830.0 ], [ 529253.309343022876419, 7260840.0 ], [ 529246.690656977239996, 7260850.0 ], [ 529240.0, 7260860.0 ], [ 529233.31023523339536, 7260870.0 ], [ 529226.700938943075016, 7260880.0 ], [ 529220.075974022038281, 7260890.0 ], [ 529213.670178714208305, 7260900.0 ], [ 529207.794350692536682, 7260910.0 ], [ 529202.206541518098675, 7260920.0 ], [ 529196.340995462262072, 7260930.0 ], [ 529190.012066387222148, 7260939.999553894624114 ], [ 529183.758219123352319, 7260949.993520701304078 ], [ 529178.328590570134111, 7260959.944359514862299 ], [ 529174.20531080244109, 7260969.6772395754233 ], [ 529171.638825803645886, 7260978.683442020788789 ], [ 529170.45915806631092, 7260986.078100949525833 ], [ 529170.088040409144014, 7260991.078100949525833 ] ] } },
{ "type": "Feature", "properties": { "id": 5, "reference_id": 3, "dune_id": 3, "dune_name": "Big Mommy Dune", "acquisition_date": "2023-03-12", "length_m": 214.83426852579146 }, "geometry": { "type": "LineString", "coordinates": [ [ 529405.756988407694735, 7260679.552016109228134 ], [ 529412.08680969348643, 7260678.448322394862771 ], [ 529420.546306264819577, 7260676.242673087865114 ], [ 529430.099214585614391, 7260673.223087035119534 ], [ 529440.012066387222148, 7260669.999107789248228 ], [ 529450.000892210751772, 7260666.765738788992167 ], [ 529460.0, 7260663.670178714208305 ], [ 529470.0, 7260661.10458592697978 ], [ 529480.0, 7260658.906588250771165 ], [ 529490.0, 7260656.405795307829976 ], [ 529500.000000000116415, 7260653.594204692170024 ], [ 529510.0, 7260651.094303959980607 ], [ 529520.0, 7260648.905696040019393 ], [ 529530.0, 7260646.405795307829976 ], [ 529540.0, 7260643.594204693101346 ], [ 529550.0, 7260641.094303959980607 ], [ 529560.0, 7260638.906588250771165 ], [ 529569.999107789248228, 7260636.416969483718276 ], [ 529579.987933612894267, 7260633.681352891027927 ], [ 529589.900785414502025, 7260631.541395640000701 ], [ 529599.453693735180423, 7260630.447091680020094 ], [ 529607.91319030651357, 7260630.087148198857903 ], [ 529614.243011592421681, 7260630.011174176819623 ] ] } },
{ "type": "Feature", "properties": { "id": 6, "reference_id": 8, "dune_id": 8, "dune_name": "Inverted Y Dune", "acquisition_date": "2023-03-12", "length_m": 421.20641266218826 }, "geometry": { "type": "LineString", "coordinates": [ [ 530264.243011592421681, 7261221.628543838858604 ], [ 530257.913190306629986, 7261224.129336780868471 ], [ 530249.453693735180423, 7261227.969539299607277 ], [ 530239.900785414502025, 7261232.675981549546123 ], [ 530229.987933612777852, 7261237.969539300538599 ], [ 530219.999107789248228, 7261244.129336779937148 ], [ 530210.000892210751772, 7261251.628543837927282 ], [ 530200.011174176586792, 7261260.458265855908394 ], [ 530190.088040409144014, 7261270.088040409609675 ], [ 530180.458265855675563, 7261280.0111741758883 ], [ 530171.628543837927282, 7261290.000892210751772 ], [ 530164.129336780519225, 7261300.0 ], [ 530157.968647089553997, 7261310.000000000931323 ], [ 530152.664807373890653, 7261320.0 ], [ 530147.882391101680696, 7261330.0 ], [ 530143.681352890678681, 7261340.0 ], [ 530140.076866232673638, 7261350.0 ], [ 530136.700938943075016, 7261360.0 ], [ 530133.311127444147132, 7261370.0 ], [ 530130.01028196583502, 7261380.0 ], [ 530126.766630999278277, 7261390.0 ], [ 530123.670178714208305, 7261400.0 ], [ 530121.104585926048458, 7261410.0 ], [ 530118.907480461173691, 7261420.0 ], [ 530116.416077273548581, 7261430.0 ], [ 530113.670178714208305, 7261440.0 ], [ 530111.454247441026382, 7261450.0 ], [ 530110.0, 7261460.0 ], [ 530108.54664476972539, 7261470.000000000931323 ], [ 530106.340995462262072, 7261480.0 ], [ 530103.671070924960077, 7261490.0 ], [ 530101.540503428783268, 7261500.0 ], [ 530100.447091679205187, 7261510.0 ], [ 530100.087148198508658, 7261520.0 ], [ 530100.010728071210906, 7261529.999553894624114 ], [ 530099.995305122458376, 7261539.993520701304078 ], [ 530099.956425900803879, 7261549.944359513930976 ], [ 530099.776454160455614, 7261559.6772395754233 ], [ 530099.229748285608366, 7261568.683442020788789 ], [ 530098.164910642895848, 7261576.078100949525833 ], [ 530096.835089357104152, 7261581.078100949525833 ] ] } },
{ "type": "Feature", "properties": { "id": 7, "reference_id": 8, "dune_id": 8, "dune_name": "Inverted Y Dune", "acquisition_date": "2023-03-12", "length_m": 78.89134667427183 }, "geometry": { "type": "LineString", "coordinates": [ [ 530554.243011592305265, 7261172.075635517016053 ], [ 530547.91319030651357, 7261175.668947998434305 ], [ 530539.453693735296838, 7261181.627651628106833 ], [ 530529.901677625137381, 7261188.906588250771165 ], [ 530520.0, 7261195.882729606702924 ], [ 530510.098322374862619, 7261201.595435407944024 ], [ 530500.546306264819577, 7261205.78440723195672 ], [ 530492.08680969348643, 7261208.360281986184418 ], [ 530485.756988407694735, 7261209.540841934271157 ] ] } },
{ "type": "Feature", "properties": { "id": 8, "reference_id": 4, "dune_id": 4, "dune_name": "The Star Dune", "acquisition_date": "2023-03-12", "length_m": 413.45367895595228 }, "geometry": { "type": "LineString", "coordinates": [ [ 533005.756988407694735, 7261871.540503429248929 ], [ 533012.08680969348643, 7261873.671070925891399 ], [ 533020.546306264819577, 7261876.340995462611318 ], [ 533030.099214585614391, 7261878.546644769608974 ], [ 533040.012066387105733, 7261880.0 ], [ 533050.000892210751772, 7261881.454247441142797 ], [ 533060.0, 7261883.670178714208305 ], [ 533070.0, 7261886.416077273897827 ], [ 533080.0, 7261888.906588250771165 ], [ 533090.0, 7261891.094303959980607 ], [ 533100.0, 7261893.594204692170024 ], [ 533110.0, 7261896.405795307829976 ], [ 533120.0, 7261898.905696040019393 ], [ 533130.0, 7261901.094303959980607 ], [ 533140.0, 7261903.594204692170024 ], [ 533150.0, 7261906.405795307829976 ], [ 533160.0, 7261908.906588250771165 ], [ 533170.0, 7261911.10458592697978 ], [ 533180.0, 7261913.670178715139627 ], [ 533190.0, 7261916.765738788992167 ], [ 533200.0, 7261920.0 ], [ 533210.0, 7261923.234261211939156 ], [ 533220.0, 7261926.329821286723018 ], [ 533230.0, 7261928.895414074882865 ], [ 533240.0, 7261931.093411750160158 ], [ 533250.0, 7261933.594204692170024 ], [ 533260.0, 7261936.406687518581748 ], [ 533270.0, 7261938.916870216839015 ], [ 533280.0, 7261941.180559948086739 ], [ 533290.0, 7261944.030122194439173 ], [ 533300.0, 7261947.860042748972774 ], [ 533310.0, 7261952.139957251958549 ], [ 533320.0, 7261955.969877805560827 ], [ 533330.0, 7261958.820332262665033 ], [ 533340.0, 7261961.093411749228835 ], [ 533350.0, 7261963.669286503456533 ], [ 533359.999107789364643, 7261966.765738788992167 ], [ 533369.987933612894267, 7261969.999107789248228 ], [ 533379.900785414385609, 7261973.223087035119534 ], [ 533389.453693735296838, 7261976.242673087865114 ], [ 533397.913190306629986, 7261978.448322394862771 ], [ 533404.243011592421681, 7261979.552016111090779 ] ] } },
{ "type": "Feature", "properties": { "id": 9, "reference_id": 4, "dune_id": 4, "dune_name": "The Star Dune", "acquisition_date": "2023-03-12", "length_m": 51.346874423411407 }, "geometry": { "type": "LineString", "coordinates": [ [ 533484.243011592421681, 7262008.448322394862771 ], [ 533477.914082517265342, 7262006.242673087865114 ], [ 533469.465760122402571, 7262003.223087035119534 ], [ 533460.0, 7262000.0 ], [ 533450.534239877597429, 7261996.776912964880466 ], [ 533442.085917482734658, 7261993.757326913997531 ], [ 533435.756988407694735, 7261991.551677605137229 ] ] } },
{ "type": "Feature", "properties": { "id": 10, "reference_id": 4, "dune_id": 4, "dune_name": "The Star Dune", "acquisition_date": "2023-03-12", "length_m": 93.010955170822527 }, "geometry": { "type": "LineString", "coordinates": [ [ 533614.243011592421681, 7262058.458604361861944 ], [ 533607.91319030651357, 7262056.318647109903395 ], [ 533599.453693735180423, 7262053.582138305529952 ], [ 533589.900785414502025, 7262051.082237573340535 ], [ 533579.987933612894267, 7262048.819440051913261 ], [ 533570.0, 7262045.969877805560827 ], [ 533560.012066387105733, 7262042.140849461778998 ], [ 533550.099214585614391, 7262037.871216925792396 ], [ 533540.546306264819577, 7262034.117270394228399 ], [ 533532.086809693602845, 7262031.62765162717551 ], [ 533525.756988407694735, 7262030.458265855908394 ] ] } },
{ "type": "Feature", "properties": { "id": 11, "reference_id": 5, "dune_id": 5, "dune_name": "The Star Dune", "acquisition_date": "2023-03-12", "length_m": 914.2174026955862 }, "geometry": { "type": "LineString", "coordinates": [ [ 533651.628543837927282, 7262041.078100949525833 ], [ 533654.129336780519225, 7262036.078100949525833 ], [ 533657.968647089437582, 7262028.683442020788789 ], [ 533662.664807373774238, 7262019.677239574491978 ], [ 533667.881498891045339, 7262009.944359513930976 ], [ 533673.671070924960077, 7261999.993520701304078 ], [ 533680.0, 7261989.999553894624114 ], [ 533686.329821285791695, 7261980.0 ], [ 533692.129675285541452, 7261970.0 ], [ 533697.423233035369776, 7261960.0 ], [ 533702.489618766237982, 7261950.0 ], [ 533707.498314846656285, 7261940.0 ], [ 533712.489618766237982, 7261930.0 ], [ 533717.423233035253361, 7261920.0 ], [ 533722.128783074906096, 7261910.0 ], [ 533726.319539319956675, 7261900.0 ], [ 533729.923133767326362, 7261890.0 ], [ 533733.299953267676756, 7261880.0 ], [ 533736.700046732323244, 7261870.0 ], [ 533740.076866232673638, 7261860.0 ], [ 533743.681352890678681, 7261850.0 ], [ 533747.882391101680696, 7261840.000000000931323 ], [ 533752.664807373774238, 7261830.0 ], [ 533757.968647089437582, 7261820.000892210751772 ], [ 533764.129336780519225, 7261810.011174177750945 ], [ 533771.628543837810867, 7261800.088040409609675 ], [ 533780.458265855675563, 7261790.458265855908394 ], [ 533790.088040409144014, 7261781.628543838858604 ], [ 533800.011174176470377, 7261774.128444570116699 ], [ 533810.000892210635357, 7261767.958365123718977 ], [ 533820.0, 7261762.587941141799092 ], [ 533830.0, 7261757.511273443698883 ], [ 533840.0, 7261752.500792942941189 ], [ 533850.0, 7261747.500099267810583 ], [ 533860.0, 7261742.500792942941189 ], [ 533870.0, 7261737.510381234809756 ], [ 533880.0, 7261732.576766965910792 ], [ 533890.0, 7261727.871216925792396 ], [ 533900.0, 7261723.680460680276155 ], [ 533910.0, 7261720.076866232790053 ], [ 533920.0, 7261716.700938943773508 ], [ 533930.0, 7261713.311127444729209 ], [ 533940.0, 7261710.0111741758883 ], [ 533950.0, 7261706.776912964880466 ], [ 533960.0, 7261703.746152736246586 ], [ 533970.0, 7261701.464529407210648 ], [ 533980.0, 7261700.000892210751772 ], [ 533990.0, 7261698.546644769608974 ], [ 534000.0, 7261696.340995462611318 ], [ 534010.0, 7261693.671070924960077 ], [ 534020.0, 7261691.539611218497157 ], [ 534030.0, 7261690.435917503200471 ], [ 534040.0, 7261690.0 ], [ 534050.0, 7261689.564082497730851 ], [ 534060.0, 7261688.460388783365488 ], [ 534070.0, 7261686.329821286723018 ], [ 534080.0, 7261683.669286504387856 ], [ 534090.0, 7261681.529329252429307 ], [ 534100.0, 7261680.35994348116219 ], [ 534110.0, 7261679.640056519769132 ], [ 534120.0, 7261678.469778537750244 ], [ 534130.0, 7261676.319539319723845 ], [ 534140.0, 7261673.582138305529952 ], [ 534150.0, 7261671.082237573340535 ], [ 534160.0, 7261668.818547842092812 ], [ 534170.0, 7261665.957811418920755 ], [ 534180.0, 7261662.042527087032795 ], [ 534190.0, 7261657.336084837093949 ], [ 534200.0, 7261652.117608899250627 ], [ 534210.0, 7261646.318647109903395 ], [ 534220.0, 7261639.92313376814127 ], [ 534230.0, 7261633.299061057157815 ], [ 534240.0, 7261626.688872555270791 ], [ 534250.0, 7261619.9888258241117 ], [ 534260.0, 7261613.222194824367762 ], [ 534269.999107789248228, 7261606.242673087865114 ], [ 534279.987933612894267, 7261598.448322394862771 ], [ 534289.900785414502025, 7261589.552016110159457 ], [ 534299.453693735296838, 7261579.912851802073419 ], [ 534307.91319030651357, 7261569.989718034863472 ], [ 534314.243011592305265, 7261560.011174176819623 ], [ 534317.91319030651357, 7261550.099214585497975 ], [ 534319.453693735296838, 7261540.546306265518069 ], [ 534319.900785414385609, 7261532.086809693835676 ], [ 534319.987933612894267, 7261525.756988408043981 ] ] } },
{ "type": "Feature", "properties": { "id": 12, "reference_id": 5, "dune_id": 5, "dune_name": "The Star Dune", "acquisition_date": "2023-03-12", "length_m": 95.687187792080934 }, "geometry": { "type": "LineString", "coordinates": [ [ 534334.342226177919656, 7261305.756988408043981 ], [ 534328.459496571333148, 7261312.086809693835676 ], [ 534321.540503428666852, 7261320.546306264586747 ], [ 534315.657773822080344, 7261330.099214585497975 ], [ 534312.074743306264281, 7261340.012066386640072 ], [ 534310.545414054067805, 7261350.0 ], [ 534310.099214585614391, 7261359.987933613359928 ], [ 534310.012066387222148, 7261369.900785414502025 ], [ 534310.000892210751772, 7261379.453693735413253 ], [ 534310.0, 7261387.913190307095647 ], [ 534310.0, 7261394.243011592887342 ] ] } },
{ "type": "Feature", "properties": { "id": 13, "reference_id": 5, "dune_id": 5, "dune_name": "The Star Dune", "acquisition_date": "2023-03-12", "length_m": 58.486023183912039 }, "geometry": { "type": "LineString", "coordinates": [ [ 534320.0, 7261425.756988408043981 ], [ 534320.0, 7261432.086809692904353 ], [ 534320.0, 7261440.545414054766297 ], [ 534320.0, 7261450.087148198857903 ], [ 534320.0, 7261459.912851801142097 ], [ 534320.0, 7261469.454585947096348 ], [ 534320.0, 7261477.913190307095647 ], [ 534320.0, 7261484.243011591956019 ] ] } },
{ "type": "Feature", "properties": { "id": 14, "reference_id": 9, "dune_id": 9, "dune_name": "Inverted Y Dune", "acquisition_date": "2023-03-12", "length_m": 792.106847055088 }, "geometry": { "type": "LineString", "coordinates": [ [ 530084.243011592421681, 7261605.669840209186077 ], [ 530077.91319030651357, 7261611.638825803995132 ], [ 530069.453693735180423, 7261618.99462866038084 ], [ 530059.900785414502025, 7261626.340995462611318 ], [ 530049.987933612894267, 7261633.223979245871305 ], [ 530039.999107789364643, 7261639.913744011893868 ], [ 530030.0, 7261646.328929075971246 ], [ 530020.0, 7261652.205649306997657 ], [ 530010.0, 7261657.794350693002343 ], [ 530000.0, 7261663.670178715139627 ], [ 529990.0, 7261670.075974022038281 ], [ 529980.0, 7261676.700938943773508 ], [ 529970.0, 7261683.311127444729209 ], [ 529960.0, 7261690.011174176819623 ], [ 529950.0, 7261696.777805175632238 ], [ 529940.0, 7261703.757326913066208 ], [ 529930.0, 7261711.551677605137229 ], [ 529920.0, 7261720.447983889840543 ], [ 529910.0, 7261730.087148198857903 ], [ 529900.0, 7261740.011174176819623 ], [ 529890.0, 7261750.000892210751772 ], [ 529880.0, 7261760.0 ], [ 529870.0, 7261770.0 ], [ 529860.0, 7261780.0 ], [ 529850.000892210635357, 7261790.0 ], [ 529840.011174176586792, 7261800.0 ], [ 529830.088040409144014, 7261810.0 ], [ 529820.458265855675563, 7261820.0 ], [ 529811.628543837927282, 7261830.0 ], [ 529804.129336780519225, 7261840.000000000931323 ], [ 529797.968647089437582, 7261850.0 ], [ 529792.664807373774238, 7261860.0 ], [ 529787.882391101680696, 7261870.0 ], [ 529783.681352890678681, 7261880.0 ], [ 529780.076866232673638, 7261890.0 ], [ 529776.700938943075016, 7261900.0 ], [ 529773.310235233511776, 7261910.0 ], [ 529770.0, 7261920.0 ], [ 529766.689764766488224, 7261930.0 ], [ 529763.299061056924984, 7261940.0 ], [ 529759.923133767326362, 7261950.0 ], [ 529756.319539319956675, 7261960.0 ], [ 529752.129675285425037, 7261970.0 ], [ 529747.433515001204796, 7261980.0 ], [ 529742.566484998911619, 7261990.0 ], [ 529737.869432503823191, 7262000.0 ], [ 529733.670178714208305, 7262010.0 ], [ 529730.000892210635357, 7262020.0 ], [ 529726.340103251626715, 7262030.0 ], [ 529722.205649307463318, 7262040.0 ], [ 529717.783176516066305, 7262050.0 ], [ 529713.583922726451419, 7262060.0 ], [ 529709.639164308551699, 7262070.0 ], [ 529705.236409536330029, 7262080.0 ], [ 529700.000892210751772, 7262090.0 ], [ 529694.773872429504991, 7262100.0 ], [ 529690.436809713486582, 7262110.0 ], [ 529686.776020754361525, 7262120.0 ], [ 529683.310235233511776, 7262130.0 ], [ 529679.924918188829906, 7262140.0 ], [ 529676.329821285791695, 7262150.0 ], [ 529672.205649307463318, 7262160.0 ], [ 529667.794350692536682, 7262170.0 ], [ 529663.671070924843661, 7262180.0 ], [ 529660.087148198508658, 7262189.999107789248228 ], [ 529656.788087141467258, 7262199.987933613359928 ], [ 529653.758219123352319, 7262209.900785414502025 ], [ 529651.551677605253644, 7262219.453693735413253 ], [ 529650.447983889840543, 7262227.913190307095647 ], [ 529650.087148198392242, 7262234.243011592887342 ] ] } },
{ "type": "Feature", "properties": { "id": 15, "reference_id": 6, "dune_id": 6, "dune_name": "The Star Dune", "acquisition_date": "2023-03-12", "length_m": 306.77245912998131 }, "geometry": { "type": "LineString", "coordinates": [ [ 533670.0, 7262285.756988408043981 ], [ 533670.0, 7262292.086809692904353 ], [ 533670.0, 7262300.546306265518069 ], [ 533670.0, 7262310.099214585497975 ], [ 533670.0, 7262320.012066386640072 ], [ 533669.999107789364643, 7262330.000892210751772 ], [ 533669.988825823646039, 7262340.000000000931323 ], [ 533669.912851801607758, 7262350.0 ], [ 533669.552908320911229, 7262360.0 ], [ 533668.458604360697791, 7262370.0 ], [ 533666.318647109437734, 7262380.0 ], [ 533663.583030515816063, 7262390.0 ], [ 533661.092519538942724, 7262400.0 ], [ 533658.895414073951542, 7262410.0 ], [ 533656.329821285791695, 7262420.0 ], [ 533653.233369000838138, 7262430.0 ], [ 533649.989718034281395, 7262440.0 ], [ 533646.689764766488224, 7262450.0 ], [ 533643.309343022760004, 7262460.0 ], [ 533640.000000000116415, 7262470.0 ], [ 533636.690656977239996, 7262480.0 ], [ 533633.310235233511776, 7262490.0 ], [ 533630.01028196583502, 7262500.0 ], [ 533626.766630999161862, 7262510.0 ], [ 533623.670178714208305, 7262520.0 ], [ 533621.104585925932042, 7262530.0 ], [ 533618.907480461173691, 7262539.999107789248228 ], [ 533616.416969484183937, 7262549.987933613359928 ], [ 533613.681352890795097, 7262559.900785414502025 ], [ 533611.541395639418624, 7262569.453693736344576 ], [ 533610.447091679205187, 7262577.913190307095647 ], [ 533610.087148198392242, 7262584.243011591956019 ] ] } },
{ "type": "Feature", "properties": { "id": 16, "reference_id": 6, "dune_id": 6, "dune_name": "The Star Dune", "acquisition_date": "2023-03-12", "length_m": 206.25117100134878 }, "geometry": { "type": "LineString", "coordinates": [ [ 533659.999107789248228, 7262254.243011592887342 ], [ 533659.988825823529623, 7262247.913190307095647 ], [ 533659.912851801607758, 7262239.453693734481931 ], [ 533659.552908320911229, 7262229.900785414502025 ], [ 533658.459496571216732, 7262219.987933613359928 ], [ 533656.329821285791695, 7262209.999107789248228 ], [ 533653.670178714208305, 7262200.0 ], [ 533651.540503428783268, 7262190.0 ], [ 533650.447091679205187, 7262180.0 ], [ 533650.087148198508658, 7262170.0 ], [ 533650.011174176470377, 7262160.0 ], [ 533650.000892210751772, 7262150.0 ], [ 533650.0, 7262140.0 ], [ 533650.0, 7262130.0 ], [ 533650.0, 7262120.0 ], [ 533650.0, 7262110.0 ], [ 533650.0, 7262100.000446105375886 ], [ 533650.0, 7262090.006479298695922 ], [ 533650.0, 7262080.055640487000346 ], [ 533650.0, 7262070.322760425508022 ], [ 533650.0, 7262061.316557979211211 ], [ 533650.0, 7262053.921899050474167 ], [ 533650.0, 7262048.921899050474167 ] ] } },
{ "type": "Feature", "properties": { "id": 17, "reference_id": 1, "dune_id": 1, "dune_name": "Big Mommy Dune", "acquisition_date": "2023-03-12", "length_m": 1331.7771934379662 }, "geometry": { "type": "LineString", "coordinates": [ [ 528845.756988407694735, 7262235.78440723195672 ], [ 528852.086809693602845, 7262231.594543197192252 ], [ 528860.546306264819577, 7262225.870663220062852 ], [ 528870.099214585614391, 7262218.808265876024961 ], [ 528880.012066387222148, 7262211.092519538477063 ], [ 528890.000892210635357, 7262203.669286503456533 ], [ 528900.0, 7262196.765738788992167 ], [ 528909.999107789248228, 7262189.999107789248228 ], [ 528919.988825823529623, 7262183.223087035119534 ], [ 528929.911959590972401, 7262176.242673087865114 ], [ 528939.541734144440852, 7262168.448322395794094 ], [ 528948.371456162189133, 7262159.552016110159457 ], [ 528955.871555430116132, 7262149.912851801142097 ], [ 528962.041634876397438, 7262139.9888258241117 ], [ 528967.4120588588994, 7262129.999107789248228 ], [ 528972.488726555602625, 7262120.0 ], [ 528977.499207057291642, 7262110.0 ], [ 528982.499900732073002, 7262100.0 ], [ 528987.499207057291642, 7262090.0 ], [ 528992.488726555602625, 7262080.0 ], [ 528997.412951069651172, 7262070.0 ], [ 529002.052809052867815, 7262060.0 ], [ 529005.959595839376561, 7262050.0 ], [ 529008.830614228500053, 7262040.0 ], [ 529011.180559947970323, 7262030.0 ], [ 529014.117270393413492, 7262020.0 ], [ 529018.318308604415506, 7262010.0 ], [ 529023.767608878435567, 7262000.0 ], [ 529030.088040409144014, 7261990.0 ], [ 529036.701831153710373, 7261980.0 ], [ 529043.31023523339536, 7261970.0 ], [ 529050.0, 7261960.0 ], [ 529056.68976476660464, 7261950.0 ], [ 529063.299061057041399, 7261940.0 ], [ 529069.923133767326362, 7261930.0 ], [ 529076.318647109321319, 7261920.0 ], [ 529082.117608898319304, 7261910.0 ], [ 529087.335192626225762, 7261900.0 ], [ 529092.031352910562418, 7261890.0 ], [ 529095.869771008845419, 7261880.0 ], [ 529098.360281985718757, 7261870.0 ], [ 529099.453693735413253, 7261860.0 ], [ 529099.453693735413253, 7261850.0 ], [ 529098.360281985718757, 7261840.000000000931323 ], [ 529095.870663219597191, 7261830.0 ], [ 529092.041634876397438, 7261820.0 ], [ 529087.411166648147628, 7261810.0 ], [ 529082.477552379015833, 7261800.0 ], [ 529077.4120588588994, 7261790.0 ], [ 529072.052809052867815, 7261780.0 ], [ 529065.959595839260146, 7261770.0 ], [ 529058.829722017864697, 7261760.0 ], [ 529051.170277982251719, 7261750.0 ], [ 529044.041296371375211, 7261740.0 ], [ 529037.957472912967205, 7261730.000000000931323 ], [ 529032.663915163138881, 7261720.0 ], [ 529027.882391101680696, 7261710.0 ], [ 529023.682245101314038, 7261700.0 ], [ 529020.088040409144014, 7261690.0 ], [ 529016.788087141467258, 7261680.0 ], [ 529013.758219123352319, 7261670.0 ], [ 529011.551677605253644, 7261660.0 ], [ 529010.447983889840543, 7261650.0 ], [ 529010.087148198508658, 7261640.0 ], [ 529010.011174176470377, 7261630.0 ], [ 529010.001784421387129, 7261620.0 ], [ 529010.011174176470377, 7261610.0 ], [ 529010.087148198508658, 7261600.0 ], [ 529010.447091679205187, 7261590.0 ], [ 529011.540503428783268, 7261580.0 ], [ 529013.671070924960077, 7261570.0 ], [ 529016.340995462378487, 7261560.000000000931323 ], [ 529018.54664476972539, 7261550.0 ], [ 529020.000892210751772, 7261540.0 ], [ 529021.464529406744987, 7261530.0 ], [ 529023.746152736246586, 7261520.0 ], [ 529026.776020754361525, 7261510.0 ], [ 529030.000892210751772, 7261500.0 ], [ 529033.234261211473495, 7261490.0 ], [ 529036.330713496543467, 7261480.0 ], [ 529038.906588250538334, 7261470.000000000931323 ], [ 529041.180559947970323, 7261460.0 ], [ 529044.041296371375211, 7261450.0 ], [ 529047.946298736496828, 7261440.0 ], [ 529052.576766964630224, 7261430.0 ], [ 529057.434407211840153, 7261420.0 ], [ 529062.129675285541452, 7261410.0 ], [ 529066.31953932007309, 7261400.0 ], [ 529069.923133767326362, 7261390.0 ], [ 529073.299953267676756, 7261380.0 ], [ 529076.700046732323244, 7261370.0 ], [ 529080.076866232557222, 7261360.0 ], [ 529083.680460680043325, 7261350.0 ], [ 529087.870324714574963, 7261340.0 ], [ 529092.566484998911619, 7261330.0 ], [ 529097.433515001204796, 7261320.0 ], [ 529102.130567496176809, 7261310.000000000931323 ], [ 529106.329821285791695, 7261300.0 ], [ 529110.0, 7261290.0 ], [ 529113.670178714208305, 7261280.0 ], [ 529117.869432503939606, 7261270.0 ], [ 529122.566484998911619, 7261260.0 ], [ 529127.433515001204796, 7261250.0 ], [ 529132.129675285425037, 7261240.0 ], [ 529136.319539319956675, 7261230.0 ], [ 529139.923133767326362, 7261220.0 ], [ 529143.299061056924984, 7261210.000000000931323 ], [ 529146.689764766488224, 7261200.0 ], [ 529150.0, 7261190.0 ], [ 529153.309343022760004, 7261180.0 ], [ 529156.690656977239996, 7261170.0 ], [ 529160.0, 7261160.0 ], [ 529163.309343022760004, 7261150.0 ], [ 529166.689764766488224, 7261140.0 ], [ 529169.988825823529623, 7261130.0 ], [ 529173.222194824367762, 7261120.000000000931323 ], [ 529176.242673087399453, 7261110.0 ], [ 529178.448322394862771, 7261100.0 ], [ 529179.552016110159457, 7261090.000892210751772 ], [ 529179.912851801607758, 7261080.012066387571394 ], [ 529179.988825823529623, 7261070.099214585497975 ], [ 529179.999107789364643, 7261060.546306265518069 ], [ 529180.0, 7261052.086809693835676 ], [ 529180.0, 7261045.756988408043981 ] ] } },
{ "type": "Feature", "properties": { "id": 18, "reference_id": 7, "dune_id": 7, "dune_name": "Inverted Y Dune", "acquisition_date": "2023-03-12", "length_m": 641.30502674924287 }, "geometry": { "type": "LineString", "coordinates": [ [ 530654.243011592305265, 7261325.756988408043981 ], [ 530647.913190306629986, 7261332.086809693835676 ], [ 530639.453693735296838, 7261340.546306265518069 ], [ 530629.900785414502025, 7261350.099214585497975 ], [ 530619.988825823646039, 7261360.012066386640072 ], [ 530610.01028196583502, 7261370.000892210751772 ], [ 530600.087148198392242, 7261380.0 ], [ 530590.447983889840543, 7261390.0 ], [ 530581.551677605253644, 7261400.0 ], [ 530573.757326912600547, 7261410.0 ], [ 530566.777805175632238, 7261420.0 ], [ 530560.011174176470377, 7261430.0 ], [ 530553.310235233511776, 7261440.0 ], [ 530546.690656977239996, 7261450.0 ], [ 530540.0, 7261460.0 ], [ 530533.309343022760004, 7261470.000000000931323 ], [ 530526.689764766488224, 7261480.0 ], [ 530519.988825823529623, 7261490.0 ], [ 530513.222194824367762, 7261500.0 ], [ 530506.242673087399453, 7261510.0 ], [ 530498.448322394862771, 7261520.0 ], [ 530489.552016110159457, 7261529.999107789248228 ], [ 530479.912851801607758, 7261539.9888258241117 ], [ 530469.988825823529623, 7261549.912851801142097 ], [ 530459.999107789364643, 7261559.552016111090779 ], [ 530450.0, 7261568.448322394862771 ], [ 530440.0, 7261576.241780877113342 ], [ 530430.000000000116415, 7261583.211020648479462 ], [ 530420.0, 7261589.901677625253797 ], [ 530410.0, 7261596.241780877113342 ], [ 530400.0, 7261601.758557628840208 ], [ 530390.0, 7261606.252955053001642 ], [ 530380.0, 7261609.9888258241117 ], [ 530370.0, 7261613.659004538320005 ], [ 530360.0, 7261617.793458482250571 ], [ 530350.0, 7261622.205649307928979 ], [ 530340.0, 7261626.329821285791695 ], [ 530330.0, 7261629.924025978893042 ], [ 530320.0, 7261633.299061057157815 ], [ 530310.0, 7261636.688872556202114 ], [ 530300.0, 7261639.9888258241117 ], [ 530290.0, 7261643.222194824367762 ], [ 530280.0, 7261646.242673087865114 ], [ 530270.0, 7261648.448322394862771 ], [ 530260.0, 7261649.552016111090779 ], [ 530250.0, 7261649.912851802073419 ], [ 530240.0, 7261649.9888258241117 ], [ 530230.0, 7261649.999107790179551 ], [ 530220.0, 7261650.0 ], [ 530210.0, 7261650.0 ], [ 530200.0, 7261650.0 ], [ 530190.000892210751772, 7261650.0 ], [ 530180.012066387222148, 7261650.0 ], [ 530170.099214585614391, 7261650.0 ], [ 530160.546306264819577, 7261650.0 ], [ 530152.08680969348643, 7261650.0 ], [ 530145.75698840781115, 7261650.0 ] ] } }
]
}
