{
"type": "FeatureCollection",
"name": "crests_2025_06_2025-06-12",
"crs": { "type": "name", "properties": { "name": "urn:ogc:def:crs:EPSG::32733" } },
"features": [
{ "type": "Feature", "properties": { "id": 0, "reference_id": 5, "dune_id": 5, "dune_name": "The Star Dune", "acquisition_date": "2025-06-12", "length_m": 873.20605689721776 }, "geometry": { "type": "LineString", "coordinates": [ [ 534307.91319030651357, 7261565.756096197292209 ], [ 534304.243011592305265, 7261572.075635517947376 ], [ 534297.913190306629986, 7261580.459158066660166 ], [ 534289.453693735180423, 7261589.651230695657432 ], [ 534279.900785414502025, 7261598.460388782434165 ], [ 534269.987933612894267, 7261606.243565298616886 ], [ 534259.999107789248228, 7261613.222194824367762 ], [ 534250.0, 7261619.9888258241117 ], [ 534240.0, 7261626.689764766022563 ], [ 534230.0, 7261633.309343023225665 ], [ 534220.0, 7261639.999107789248228 ], [ 534210.0, 7261646.678590590134263 ], [ 534200.0, 7261653.211020648479462 ], [ 534190.0, 7261659.464867912232876 ], [ 534180.0, 7261664.690995482727885 ], [ 534170.0, 7261668.000338505022228 ], [ 534160.0, 7261669.465760122984648 ], [ 534150.0, 7261669.912851802073419 ], [ 534140.0, 7261670.075081811286509 ], [ 534130.0, 7261670.446199468336999 ], [ 534120.0, 7261671.540503429248929 ], [ 534110.0, 7261673.671070924960077 ], [ 534100.0, 7261676.340995462611318 ], [ 534090.0, 7261678.546644769608974 ], [ 534080.0, 7261680.0 ], [ 534070.0, 7261681.453355230391026 ], [ 534060.0, 7261683.659004537388682 ], [ 534050.0, 7261686.329821286723018 ], [ 534040.0, 7261688.470670748502016 ], [ 534030.0, 7261689.64005651883781 ], [ 534020.0, 7261690.35994348116219 ], [ 534010.0, 7261691.529329253360629 ], [ 534000.0, 7261693.670178714208305 ], [ 533990.0, 7261696.340995462611318 ], [ 533980.0, 7261698.546644769608974 ], [ 533970.0, 7261700.000892210751772 ], [ 533960.0, 7261701.464529407210648 ], [ 533950.0, 7261703.747044946998358 ], [ 533940.0, 7261706.787194930948317 ], [ 533930.0, 7261710.088040409609675 ], [ 533920.0, 7261713.681352891027927 ], [ 533910.0, 7261717.871216924861073 ], [ 533900.0, 7261722.576766964048147 ], [ 533890.0, 7261727.510381233878434 ], [ 533880.0, 7261732.500792942941189 ], [ 533870.0, 7261737.500099267810583 ], [ 533860.0, 7261742.499900732189417 ], [ 533850.0, 7261747.500099267810583 ], [ 533840.0, 7261752.500792942941189 ], [ 533830.0, 7261757.511273443698883 ], [ 533820.000892210635357, 7261762.587941141799092 ], [ 533810.011174176470377, 7261767.958365123718977 ], [ 533800.088040409144014, 7261774.128444570116699 ], [ 533790.458265855675563, 7261781.628543838858604 ], [ 533781.628543837927282, 7261790.458265855908394 ], [ 533774.129336780519225, 7261800.088040409609675 ], [ 533767.968647089437582, 7261810.011174177750945 ], [ 533762.664807373774238, 7261820.000892210751772 ], [ 533757.882391101680696, 7261830.0 ], [ 533753.681352890678681, 7261840.000000000931323 ], [ 533750.076866232673638, 7261850.0 ], [ 533746.700046732323244, 7261860.0 ], [ 533743.299953267676756, 7261870.0 ], [ 533739.923133767442778, 7261880.0 ], [ 533736.31953932007309, 7261890.0 ], [ 533732.128783074906096, 7261900.0 ], [ 533727.423233035253361, 7261910.0 ], [ 533722.489618766237982, 7261920.0 ], [ 533717.49831484653987, 7261930.0 ], [ 533712.489618766237982, 7261940.0 ], [ 533707.423233035369776, 7261950.0 ], [ 533702.128783074789681, 7261960.0 ], [ 533696.31953932007309, 7261970.0 ], [ 533689.923133767326362, 7261980.0 ], [ 533683.299507162417285, 7261989.999553894624114 ], [ 533676.695351854898036, 7261999.993520701304078 ], [ 533670.044466309947893, 7262009.944359513930976 ], [ 533663.544955249526538, 7262019.677239574491978 ], [ 533657.559231066494249, 7262028.683442020788789 ], [ 533652.370221445336938, 7262036.078100949525833 ], [ 533648.473915160866454, 7262041.078100949525833 ] ] } },
{ "type": "Feature", "properties": { "id": 1, "reference_id": 5, "dune_id": 5, "dune_name": "The Star Dune", "acquisition_date": "2025-06-12", "length_m": 119.42136310916781 }, "geometry": { "type": "LineString", "coordinates": [ [ 534320.011174176470377, 7261375.756988408043981 ], [ 534320.087148198392242, 7261382.086809692904353 ], [ 534320.447091679205187, 7261390.546306265518069 ], [ 534321.540503428666852, 7261400.099214585497975 ], [ 534323.670178714208305, 7261410.012066386640072 ], [ 534326.329821285791695, 7261420.000892210751772 ], [ 534328.459496571333148, 7261430.0 ], [ 534329.552908320794813, 7261440.0 ], [ 534329.912851801607758, 7261449.999107789248228 ], [ 534329.988825823529623, 7261459.987933613359928 ], [ 534329.999107789364643, 7261469.900785414502025 ], [ 534330.0, 7261479.453693735413253 ], [ 534330.0, 7261487.913190307095647 ], [ 534330.0, 7261494.243011591956019 ] ] } },
{ "type": "Feature", "properties": { "id": 2, "reference_id": 4, "dune_id": 4, "dune_name": "The Star Dune", "acquisition_date": "2025-06-12", "length_m": 650.69526278057731 }, "geometry": { "type": "LineString", "coordinates": [ [ 533624.243011592305265, 7262058.459496572613716 ], [ 533617.91319030651357, 7262056.328929075971246 ], [ 533609.453693735180423, 7262053.659004538320005 ], [ 533599.900785414385609, 7262051.452463019639254 ], [ 533589.987933612894267, 7262049.9888258241117 ], [ 533579.999107789364643, 7262048.459496570751071 ], [ 533570.0, 7262045.893011572770774 ], [ 533560.0, 7262042.118501109071076 ], [ 533550.0, 7262037.772002340294421 ], [ 533540.0, 7262033.582138305529952 ], [ 533530.0, 7262029.62888234294951 ], [ 533520.0, 7262025.160435514524579 ], [ 533510.0, 7262019.640056519769132 ], [ 533500.0, 7262013.670178714208305 ], [ 533490.0, 7262008.231160406023264 ], [ 533480.0, 7262003.756434702314436 ], [ 533470.0, 7262000.087148198857903 ], [ 533460.0, 7261996.700938943773508 ], [ 533450.0, 7261993.299953268840909 ], [ 533440.0, 7261989.924025978893042 ], [ 533430.0, 7261986.329821286723018 ], [ 533420.0, 7261982.205649307928979 ], [ 533410.0, 7261977.794350693002343 ], [ 533400.000000000116415, 7261973.670178714208305 ], [ 533390.0, 7261970.075974022969604 ], [ 533380.000000000116415, 7261966.700938943773508 ], [ 533370.0, 7261963.311127444729209 ], [ 533360.0, 7261960.010281966999173 ], [ 533350.0, 7261956.766630999743938 ], [ 533340.0, 7261953.670178715139627 ], [ 533330.0, 7261951.103693716228008 ], [ 533320.0, 7261948.896306285634637 ], [ 533310.0, 7261946.329821284860373 ], [ 533300.0, 7261943.234261211007833 ], [ 533290.0, 7261940.0 ], [ 533280.0, 7261936.765738788992167 ], [ 533270.0, 7261933.670178715139627 ], [ 533260.0, 7261931.104585926048458 ], [ 533250.0, 7261928.906588250771165 ], [ 533240.0, 7261926.405795307829976 ], [ 533230.0, 7261923.594204692170024 ], [ 533220.0, 7261921.093411749228835 ], [ 533210.0, 7261918.895414073951542 ], [ 533200.0, 7261916.329821286723018 ], [ 533190.0, 7261913.233369002118707 ], [ 533180.0, 7261909.989718034863472 ], [ 533170.0, 7261906.689764766953886 ], [ 533160.0, 7261903.310235233977437 ], [ 533150.0, 7261900.0111741758883 ], [ 533140.0, 7261896.776912964880466 ], [ 533130.0, 7261893.746152736246586 ], [ 533120.0, 7261891.464529407210648 ], [ 533110.0, 7261890.000892210751772 ], [ 533100.0, 7261888.545752558857203 ], [ 533090.0, 7261886.329821285791695 ], [ 533080.0, 7261883.583922726102173 ], [ 533070.0, 7261881.093411749228835 ], [ 533060.0, 7261878.905696040019393 ], [ 533050.000892210751772, 7261876.405795307829976 ], [ 533040.012066387105733, 7261873.594204692170024 ], [ 533030.099214585614391, 7261871.094303959980607 ], [ 533020.546306264819577, 7261868.906588250771165 ], [ 533012.08680969348643, 7261866.416969484649599 ], [ 533005.756988407694735, 7261863.681352891027927 ] ] } },
{ "type": "Feature", "properties": { "id": 3, "reference_id": 7, "dune_id": 7, "dune_name": "Inverted Y Dune", "acquisition_date": "2025-06-12", "length_m": 605.50796562310325 }, "geometry": { "type": "LineString", "coordinates": [ [ 530125.756988407694735, 7261643.670178715139627 ], [ 530132.08680969348643, 7261646.329821286723018 ], [ 530140.546306264819577, 7261648.459496572613716 ], [ 530150.099214585614391, 7261649.552908321842551 ], [ 530160.012066387222148, 7261649.912851802073419 ], [ 530170.000892210751772, 7261649.9888258241117 ], [ 530180.0, 7261649.999107790179551 ], [ 530190.0, 7261650.0 ], [ 530200.0, 7261650.0 ], [ 530210.0, 7261649.999107790179551 ], [ 530220.0, 7261649.9888258241117 ], [ 530230.0, 7261649.912851802073419 ], [ 530240.0, 7261649.552908321842551 ], [ 530250.0, 7261648.459496572613716 ], [ 530260.0, 7261646.328929075971246 ], [ 530270.0, 7261643.659004538320005 ], [ 530280.0, 7261641.453355230391026 ], [ 530290.0, 7261640.0 ], [ 530300.0, 7261638.545752558857203 ], [ 530310.0, 7261636.329821285791695 ], [ 530320.0, 7261633.583030516281724 ], [ 530330.0, 7261631.082237573340535 ], [ 530340.0, 7261628.818547841161489 ], [ 530350.0, 7261625.958703628741205 ], [ 530360.0, 7261622.052809053100646 ], [ 530370.0, 7261617.41205885913223 ], [ 530380.0, 7261612.478444589301944 ], [ 530390.0, 7261607.422340825200081 ], [ 530400.0, 7261602.128783075138927 ], [ 530410.0, 7261596.318647108972073 ], [ 530420.0, 7261589.911959591321647 ], [ 530430.000000000116415, 7261583.211912859231234 ], [ 530440.0, 7261576.241780877113342 ], [ 530450.0, 7261568.448322394862771 ], [ 530460.0, 7261559.552016111090779 ], [ 530469.999107789364643, 7261549.912851801142097 ], [ 530479.988825823529623, 7261539.9888258241117 ], [ 530489.912851801607758, 7261529.999107789248228 ], [ 530499.552016110159457, 7261520.0 ], [ 530508.448322394862771, 7261510.0 ], [ 530516.242673087399453, 7261500.0 ], [ 530523.222194824367762, 7261490.0 ], [ 530529.988825823529623, 7261480.0 ], [ 530536.689764766488224, 7261470.000000000931323 ], [ 530543.309343022760004, 7261460.0 ], [ 530550.0, 7261450.0 ], [ 530556.690656977239996, 7261440.0 ], [ 530563.310235233511776, 7261430.0 ], [ 530570.011174176470377, 7261420.0 ], [ 530576.776912964996882, 7261410.000892210751772 ], [ 530583.745260525494814, 7261400.012066387571394 ], [ 530591.452463019639254, 7261390.099214585497975 ], [ 530599.901677625137381, 7261380.546306265518069 ], [ 530608.000338505022228, 7261372.086809692904353 ], [ 530614.254185768775642, 7261365.756988408043981 ] ] } },
{ "type": "Feature", "properties": { "id": 4, "reference_id": 1, "dune_id": 1, "dune_name": "Big Mommy Dune", "acquisition_date": "2025-06-12", "length_m": 109.35523700341014 }, "geometry": { "type": "LineString", "coordinates": [ [ 529020.0, 7261555.756988408043981 ], [ 529020.0, 7261562.086809693835676 ], [ 529020.0, 7261570.546306264586747 ], [ 529020.0, 7261580.099214585497975 ], [ 529020.0, 7261590.012066387571394 ], [ 529020.0, 7261600.000892210751772 ], [ 529020.000892210751772, 7261610.0 ], [ 529020.011174176470377, 7261619.999107789248228 ], [ 529020.087148198508658, 7261629.987933613359928 ], [ 529020.447091679205187, 7261639.900785414502025 ], [ 529021.540503428783268, 7261649.453693735413253 ], [ 529023.670178714208305, 7261657.913190307095647 ], [ 529026.329821285791695, 7261664.243011592887342 ] ] } },
{ "type": "Feature", "properties": { "id": 5, "reference_id": 1, "dune_id": 1, "dune_name": "Big Mommy Dune", "acquisition_date": "2025-06-12", "length_m": 446.37813315306107 }, "geometry": { "type": "LineString", "coordinates": [ [ 529179.912851801607758, 7261105.756988408043981 ], [ 529179.552016110159457, 7261112.086809692904353 ], [ 529178.448322394862771, 7261120.546306265518069 ], [ 529176.241780876647681, 7261130.099214586429298 ], [ 529173.211912858532742, 7261140.012066387571394 ], [ 529169.912851801607758, 7261150.000892210751772 ], [ 529166.328929075156339, 7261160.0 ], [ 529162.205649307463318, 7261170.0 ], [ 529157.794350692536682, 7261180.0 ], [ 529153.670178714208305, 7261190.0 ], [ 529150.075974022038281, 7261200.0 ], [ 529146.700046732323244, 7261210.000000000931323 ], [ 529143.299953267676756, 7261220.0 ], [ 529139.923133767326362, 7261230.0 ], [ 529136.319539319956675, 7261240.0 ], [ 529132.128783074906096, 7261250.0 ], [ 529127.423233035369776, 7261260.0 ], [ 529122.490510976989754, 7261270.0 ], [ 529117.509489023126662, 7261280.0 ], [ 529112.576766964630224, 7261290.0 ], [ 529107.870324714574963, 7261300.0 ], [ 529103.670178714208305, 7261310.000000000931323 ], [ 529100.0, 7261320.0 ], [ 529096.329821285791695, 7261330.0 ], [ 529092.130567496176809, 7261340.0 ], [ 529087.433515001088381, 7261350.0 ], [ 529082.566484998911619, 7261360.0 ], [ 529077.869432503823191, 7261370.0 ], [ 529073.670178714208305, 7261380.0 ], [ 529070.000892210751772, 7261390.0 ], [ 529066.340995462262072, 7261400.0 ], [ 529062.216823483933695, 7261410.0 ], [ 529057.870324714574963, 7261420.0 ], [ 529054.031014405656606, 7261430.0 ], [ 529051.179667737334967, 7261440.0 ], [ 529048.906588250421919, 7261450.0 ], [ 529046.330713496427052, 7261460.0 ], [ 529043.234261211473495, 7261470.000000000931323 ], [ 529040.000892210751772, 7261479.999107789248228 ], [ 529036.776912964996882, 7261489.987933613359928 ], [ 529033.757326912600547, 7261499.900785414502025 ], [ 529031.551677605253644, 7261509.453693735413253 ], [ 529030.447983889840543, 7261517.913190307095647 ], [ 529030.087148198508658, 7261524.243011592887342 ] ] } },
{ "type": "Feature", "properties": { "id": 6, "reference_id": 1, "dune_id": 1, "dune_name": "Big Mommy Dune", "acquisition_date": "2025-06-12", "length_m": 67.608879376022429 }, "geometry": { "type": "LineString", "coordinates": [ [ 529078.001230715657584, 7261784.243011591956019 ], [ 529074.701277447980829, 7261777.913190307095647 ], [ 529069.541734144440852, 7261769.454585946165025 ], [ 529063.583030515816063, 7261759.912851802073419 ], [ 529057.870324714574963, 7261750.087148198857903 ], [ 529052.663915163022466, 7261740.545414054766297 ], [ 529047.968647089437582, 7261732.086809694766998 ], [ 529044.129336780519225, 7261725.756988408043981 ] ] } },
{ "type": "Feature", "properties": { "id": 7, "reference_id": 1, "dune_id": 1, "dune_name": "Big Mommy Dune", "acquisition_date": "2025-06-12", "length_m": 415.74309183789103 }, "geometry": { "type": "LineString", "coordinates": [ [ 529088.000338505022228, 7261905.756988408043981 ], [ 529084.690995482262224, 7261912.086809693835676 ], [ 529079.464867911767215, 7261920.546306264586747 ], [ 529073.211020647897385, 7261930.099214585497975 ], [ 529066.678590590134263, 7261940.012066387571394 ], [ 529059.999107789364643, 7261950.000892210751772 ], [ 529053.310235233511776, 7261960.0 ], [ 529046.701831153710373, 7261970.0 ], [ 529040.087148198392242, 7261980.0 ], [ 529033.757326912600547, 7261990.0 ], [ 529028.241442371741869, 7262000.0 ], [ 529023.747044946881942, 7262010.0 ], [ 529020.011174176470377, 7262020.0 ], [ 529016.340995462378487, 7262030.0 ], [ 529012.20654151821509, 7262040.0 ], [ 529007.793458481901325, 7262050.0 ], [ 529003.6598967484897, 7262060.0 ], [ 528999.999107789364643, 7262070.0 ], [ 528996.328929075156339, 7262080.0 ], [ 528992.119393319706433, 7262090.0 ], [ 528987.346366802696139, 7262100.0 ], [ 528982.118501109071076, 7262110.0 ], [ 528976.317754898685962, 7262120.0 ], [ 528969.911959590855986, 7262130.0 ], [ 528963.211912858532742, 7262139.999107789248228 ], [ 528956.241780876647681, 7262149.9888258241117 ], [ 528948.448322394862771, 7262159.912851801142097 ], [ 528939.552016110159457, 7262169.552016111090779 ], [ 528929.912851801607758, 7262178.448322394862771 ], [ 528919.988825823529623, 7262186.241780877113342 ], [ 528909.999107789248228, 7262193.211912859231234 ], [ 528900.0, 7262199.911959591321647 ], [ 528890.000892210635357, 7262206.317754898220301 ], [ 528880.012066387222148, 7262212.117608899250627 ], [ 528870.099214585614391, 7262217.335192626342177 ], [ 528860.546306264819577, 7262222.031352911144495 ], [ 528852.086809693602845, 7262225.870663220062852 ], [ 528845.756988407694735, 7262228.371456163004041 ] ] } },
{ "type": "Feature", "properties": { "id": 8, "reference_id": 6, "dune_id": 6, "dune_name": "The Star Dune", "acquisition_date": "2025-06-12", "length_m": 567.61064711412939 }, "geometry": { "type": "LineString", "coordinates": [ [ 533551.54139563953504, 7262874.243011591956019 ], [ 533553.681352890795097, 7262867.913190307095647 ], [ 533556.417861694935709, 7262859.453693735413253 ], [ 533558.917762426892295, 7262849.900785414502025 ], [ 533561.18145215860568, 7262839.987933613359928 ], [ 533564.041296371491626, 7262829.999107789248228 ], [ 533567.9471909472486, 7262820.0 ], [ 533572.587048930465244, 7262810.0 ], [ 533577.510381233762018, 7262800.0 ], [ 533582.489618766237982, 7262790.0 ], [ 533587.4120588588994, 7262780.0 ], [ 533592.041634876397438, 7262770.0 ], [ 533595.871555430116132, 7262760.0 ], [ 533598.371456162072718, 7262750.0 ], [ 533599.541734144324437, 7262740.0 ], [ 533599.911959590855986, 7262730.0 ], [ 533599.98971803416498, 7262720.0 ], [ 533600.01028196583502, 7262710.0 ], [ 533600.087148198392242, 7262700.0 ], [ 533600.447091679205187, 7262690.0 ], [ 533601.540503428783268, 7262680.0 ], [ 533603.670178714208305, 7262670.0 ], [ 533606.329821285791695, 7262660.0 ], [ 533608.459496571333148, 7262650.0 ], [ 533609.553800531546585, 7262640.0 ], [ 533609.924025978078134, 7262630.0 ], [ 533610.075974022038281, 7262620.0 ], [ 533610.447091679205187, 7262610.0 ], [ 533611.551677605253644, 7262600.000000000931323 ], [ 533613.757326912600547, 7262590.0 ], [ 533616.776912964996882, 7262580.0 ], [ 533620.000892210635357, 7262570.0 ], [ 533623.234261211473495, 7262560.0 ], [ 533626.329821285791695, 7262550.0 ], [ 533628.895414073951542, 7262540.0 ], [ 533631.093411749578081, 7262530.0 ], [ 533633.594204692286439, 7262520.0 ], [ 533636.405795307829976, 7262510.0 ], [ 533638.905696039786562, 7262500.0 ], [ 533641.094303960213438, 7262490.0 ], [ 533643.594204692286439, 7262480.0 ], [ 533646.405795307829976, 7262470.0 ], [ 533648.906588250538334, 7262460.0 ], [ 533651.104585926048458, 7262450.0 ], [ 533653.670178714208305, 7262440.0 ], [ 533656.765738788526505, 7262430.0 ], [ 533660.0, 7262420.0 ], [ 533663.234261211473495, 7262410.0 ], [ 533666.329821285791695, 7262400.0 ], [ 533668.895414073951542, 7262390.0 ], [ 533671.092519538942724, 7262380.0 ], [ 533673.583030515816063, 7262370.000892210751772 ], [ 533676.318647109437734, 7262360.012066387571394 ], [ 533678.458604360697791, 7262350.099214585497975 ], [ 533679.552908320911229, 7262340.546306265518069 ], [ 533679.912851801607758, 7262332.086809692904353 ], [ 533679.988825823646039, 7262325.756988408043981 ] ] } },
{ "type": "Feature", "properties": { "id": 9, "reference_id": 6, "dune_id": 6, "dune_name": "The Star Dune", "acquisition_date": "2025-06-12", "length_m": 163.01395343788511 }, "geometry": { "type": "LineString", "coordinates": [ [ 533669.552908320911229, 7262224.243011592887342 ], [ 533668.459496571333148, 7262217.913190307095647 ], [ 533666.329821285791695, 7262209.453693736344576 ], [ 533663.670178714208305, 7262199.900785414502025 ], [ 533661.540503428783268, 7262189.987933613359928 ], [ 533660.447091679088771, 7262179.999107789248228 ], [ 533660.087148198392242, 7262170.0 ], [ 533660.011174176470377, 7262160.0 ], [ 533660.000892210751772, 7262150.0 ], [ 533660.0, 7262140.0 ], [ 533659.999107789248228, 7262130.0 ], [ 533659.987933612894267, 7262120.0 ], [ 533659.901677625020966, 7262110.000892210751772 ], [ 533659.465760122402571, 7262100.012066387571394 ], [ 533658.012404892127961, 7262090.099214586429298 ], [ 533654.789317857124843, 7262080.546306265518069 ], [ 533650.0, 7262072.086809692904353 ], [ 533645.210682142875157, 7262065.756988408043981 ] ] } },
{ "type": "Feature", "properties": { "id": 10, "reference_id": 3, "dune_id": 3, "dune_name": "Big Mommy Dune", "acquisition_date": "2025-06-12", "length_m": 1043.9928205753959 }, "geometry": { "type": "LineString", "coordinates": [ [ 530044.243011592305265, 7260610.0 ], [ 530037.91319030651357, 7260610.0 ], [ 530029.453693735180423, 7260610.0 ], [ 530019.900785414502025, 7260610.0 ], [ 530009.987933612894267, 7260610.0 ], [ 529999.999107789364643, 7260610.0 ], [ 529990.0, 7260610.0 ], [ 529980.0, 7260610.0 ], [ 529970.0, 7260610.0 ], [ 529960.0, 7260610.0 ], [ 529950.0, 7260610.0 ], [ 529940.0, 7260610.0 ], [ 529930.0, 7260610.0 ], [ 529920.0, 7260610.0 ], [ 529910.0, 7260610.0 ], [ 529900.0, 7260610.0 ], [ 529890.0, 7260610.0 ], [ 529880.0, 7260610.0 ], [ 529870.0, 7260610.0 ], [ 529860.0, 7260610.0 ], [ 529850.0, 7260610.0 ], [ 529840.0, 7260610.0 ], [ 529830.0, 7260610.0 ], [ 529820.0, 7260610.0 ], [ 529810.0, 7260610.0 ], [ 529800.0, 7260610.0 ], [ 529790.0, 7260610.0 ], [ 529780.0, 7260610.0 ], [ 529770.0, 7260610.0 ], [ 529760.0, 7260610.0 ], [ 529750.0, 7260610.0 ], [ 529740.0, 7260610.0 ], [ 529730.0, 7260610.000892210751772 ], [ 529720.0, 7260610.011174176819623 ], [ 529710.0, 7260610.087148198857903 ], [ 529700.0, 7260610.447091680020094 ], [ 529690.0, 7260611.540503429248929 ], [ 529680.0, 7260613.670178715139627 ], [ 529670.0, 7260616.33071349747479 ], [ 529660.0, 7260618.470670748502016 ], [ 529650.0, 7260619.640056519769132 ], [ 529640.0, 7260620.35994348116219 ], [ 529630.0, 7260621.529329252429307 ], [ 529620.0, 7260623.670178714208305 ], [ 529610.0, 7260626.340995462611318 ], [ 529600.0, 7260628.546644769608974 ], [ 529590.0, 7260630.0 ], [ 529580.0, 7260631.453355230391026 ], [ 529570.0, 7260633.659896748140454 ], [ 529560.0, 7260636.340103251859546 ], [ 529550.0, 7260638.546644769608974 ], [ 529540.0, 7260640.000892210751772 ], [ 529530.0, 7260641.464529407210648 ], [ 529520.0, 7260643.746152736246586 ], [ 529510.0, 7260646.776020754128695 ], [ 529500.000000000116415, 7260650.000892210751772 ], [ 529490.0, 7260653.234261211939156 ], [ 529480.0, 7260656.329821285791695 ], [ 529470.0, 7260658.896306285634637 ], [ 529460.0, 7260661.103693716228008 ], [ 529450.0, 7260663.670178714208305 ], [ 529440.000000000116415, 7260666.766630999743938 ], [ 529430.0, 7260670.0111741758883 ], [ 529420.0, 7260673.321409409865737 ], [ 529410.0, 7260676.777805175632238 ], [ 529400.0, 7260680.447983888909221 ], [ 529390.0, 7260684.861912839114666 ], [ 529380.0, 7260690.459158066660166 ], [ 529370.000892210635357, 7260696.864953374490142 ], [ 529360.011174176353961, 7260703.768501089885831 ], [ 529350.087148198508658, 7260711.552569815889001 ], [ 529340.447091679205187, 7260720.447983889840543 ], [ 529331.54139563953504, 7260730.087148198857903 ], [ 529323.681352890678681, 7260740.011174176819623 ], [ 529316.416969484300353, 7260750.000892210751772 ], [ 529308.907480461173691, 7260760.0 ], [ 529301.104585926048458, 7260770.0 ], [ 529293.671070924960077, 7260780.000000000931323 ], [ 529286.776912964996882, 7260790.0 ], [ 529280.086255987756886, 7260800.0 ], [ 529273.671070924960077, 7260810.0 ], [ 529267.794350692536682, 7260820.0 ], [ 529262.205649307463318, 7260830.0 ], [ 529256.32982128590811, 7260840.0 ], [ 529249.924025978078134, 7260850.0 ], [ 529243.299953267676756, 7260860.0 ], [ 529236.700046732323244, 7260870.0 ], [ 529230.075974021921866, 7260880.0 ], [ 529223.670178714208305, 7260890.0 ], [ 529217.794350692536682, 7260900.0 ], [ 529212.206541518098675, 7260910.0 ], [ 529206.3401032515103, 7260920.0 ], [ 529200.0, 7260929.999107789248228 ], [ 529193.659450643113814, 7260939.987933613359928 ], [ 529187.788763604359701, 7260949.900785415433347 ], [ 529182.17414159537293, 7260959.453693736344576 ], [ 529176.204597821109928, 7260967.913190307095647 ], [ 529169.688906351919286, 7260974.243011591956019 ], [ 529163.463633195031434, 7260977.913190307095647 ], [ 529158.833858641446568, 7260979.453693735413253 ] ] } },
{ "type": "Feature", "properties": { "id": 11, "reference_id": 3, "dune_id": 3, "dune_name": "Big Mommy Dune", "acquisition_date": "2025-06-12", "length_m": 131.86741879264741 }, "geometry": { "type": "LineString", "coordinates": [ [ 530085.756988407694735, 7260599.999107789248228 ], [ 530092.08680969348643, 7260599.9888258241117 ], [ 530100.546306264819577, 7260599.912851802073419 ], [ 530110.099214585614391, 7260599.552908321842551 ], [ 530120.012066387222148, 7260598.458604360930622 ], [ 530130.000892210751772, 7260596.318647108972073 ], [ 530140.0, 7260593.583030516281724 ], [ 530150.0, 7260591.093411749228835 ], [ 530160.0, 7260588.905696040019393 ], [ 530169.999107789364643, 7260586.405795307829976 ], [ 530179.987933612894267, 7260583.594204692170024 ], [ 530189.900785414385609, 7260581.094303959980607 ], [ 530199.453693735180423, 7260578.906588250771165 ], [ 530207.913190306629986, 7260576.416969484649599 ], [ 530214.243011592421681, 7260573.681352891027927 ] ] } },
{ "type": "Feature", "properties": { "id": 12, "reference_id": 2, "dune_id": 2, "dune_name": "Big Mommy Dune", "acquisition_date": "2025-06-12", "length_m": 787.34389681659843 }, "geometry": { "type": "LineString", "coordinates": [ [ 529151.078100949409418, 7260978.448322394862771 ], [ 529146.078100949409418, 7260976.241780877113342 ], [ 529138.683442020905204, 7260973.211912859231234 ], [ 529129.677239574841224, 7260969.911959590390325 ], [ 529119.944359513698146, 7260966.318647108972073 ], [ 529109.993520701071247, 7260962.128783075138927 ], [ 529099.999553894624114, 7260957.423233035951853 ], [ 529090.0, 7260952.490510977804661 ], [ 529080.0, 7260947.510381233878434 ], [ 529070.0, 7260942.58704893104732 ], [ 529060.0, 7260937.947190947830677 ], [ 529050.0, 7260934.041296371258795 ], [ 529040.0, 7260931.180559948086739 ], [ 529030.0, 7260928.906588250771165 ], [ 529020.0, 7260926.33071349747479 ], [ 529010.0, 7260923.234261211007833 ], [ 529000.0, 7260920.0 ], [ 528990.0, 7260916.765738788992167 ], [ 528980.0, 7260913.670178714208305 ], [ 528970.0, 7260911.10458592697978 ], [ 528960.0, 7260908.906588250771165 ], [ 528950.0, 7260906.405795308761299 ], [ 528940.0, 7260903.594204693101346 ], [ 528930.0, 7260901.094303959980607 ], [ 528920.0, 7260898.905696040019393 ], [ 528910.0, 7260896.405795307829976 ], [ 528900.0, 7260893.594204692170024 ], [ 528890.0, 7260891.093411749228835 ], [ 528880.0, 7260888.895414073951542 ], [ 528870.0, 7260886.329821286723018 ], [ 528860.0, 7260883.233369002118707 ], [ 528850.0, 7260879.989718034863472 ], [ 528840.0, 7260876.689764766953886 ], [ 528830.0, 7260873.309343023225665 ], [ 528820.0, 7260870.0 ], [ 528810.0, 7260866.690656977705657 ], [ 528800.0, 7260863.309343023225665 ], [ 528790.0, 7260860.0 ], [ 528780.0, 7260856.689764766953886 ], [ 528770.0, 7260853.299061057157815 ], [ 528760.0, 7260849.92313376814127 ], [ 528750.0, 7260846.319539319723845 ], [ 528740.0, 7260842.128783075138927 ], [ 528730.0, 7260837.423233035951853 ], [ 528720.0, 7260832.489618767052889 ], [ 528710.0, 7260827.499207057058811 ], [ 528700.0, 7260822.499900732189417 ], [ 528690.0, 7260817.500099267810583 ], [ 528680.0, 7260812.499900732189417 ], [ 528670.0, 7260807.500099267810583 ], [ 528660.0, 7260802.499900732189417 ], [ 528650.0, 7260797.500099267810583 ], [ 528640.0, 7260792.499900732189417 ], [ 528630.0, 7260787.499207057058811 ], [ 528620.0, 7260782.489618767052889 ], [ 528610.0, 7260777.423233035951853 ], [ 528600.0, 7260772.129675285890698 ], [ 528590.0, 7260766.329821285791695 ], [ 528580.0, 7260759.999107789248228 ], [ 528570.0, 7260753.659004537388682 ], [ 528560.0, 7260747.783176516182721 ], [ 528550.0, 7260742.129675285890698 ], [ 528540.0, 7260735.968985594809055 ], [ 528530.0, 7260728.820332262665033 ], [ 528520.0, 7260721.093411750160158 ], [ 528510.0, 7260713.669286504387856 ], [ 528500.0, 7260706.766630999743938 ], [ 528490.0, 7260700.010281966067851 ], [ 528480.000892210751772, 7260693.311127444729209 ], [ 528470.012066387105733, 7260686.70183115452528 ], [ 528460.099214585614391, 7260680.088040409609675 ], [ 528450.546306264819577, 7260673.768501089885831 ], [ 528442.08680969348643, 7260668.329482780769467 ], [ 528435.756988407694735, 7260664.205310802906752 ] ] } },
{ "type": "Feature", "properties": { "id": 13, "reference_id": 9, "dune_id": 9, "dune_name": "Inverted Y Dune", "acquisition_date": "2025-06-12", "length_m": 758.88331092987482 }, "geometry": { "type": "LineString", "coordinates": [ [ 529661.62765162717551, 7262194.243011591956019 ], [ 529664.117270393413492, 7262187.913190307095647 ], [ 529667.871216925210319, 7262179.453693735413253 ], [ 529672.140849462011829, 7262169.900785414502025 ], [ 529675.970770015846938, 7262159.987933613359928 ], [ 529678.831506439251825, 7262149.999107789248228 ], [ 529681.180559948086739, 7262140.0 ], [ 529684.116378182778135, 7262130.0 ], [ 529688.30713442794513, 7262120.0 ], [ 529693.680460680043325, 7262110.0 ], [ 529699.640948729938827, 7262100.0 ], [ 529705.160435514291748, 7262090.0 ], [ 529709.628882342833094, 7262080.0 ], [ 529713.583030515699647, 7262070.0 ], [ 529717.783176516066305, 7262060.0 ], [ 529722.205649307463318, 7262050.0 ], [ 529726.340103251626715, 7262040.0 ], [ 529730.000892210635357, 7262030.0 ], [ 529733.670178714208305, 7262020.0 ], [ 529737.869432503823191, 7262010.0 ], [ 529742.566484998911619, 7262000.0 ], [ 529747.433515001204796, 7261990.0 ], [ 529752.129675285425037, 7261980.0 ], [ 529756.319539319956675, 7261970.0 ], [ 529759.923133767326362, 7261960.0 ], [ 529763.299953267676756, 7261950.0 ], [ 529766.700046732323244, 7261940.0 ], [ 529770.075974022038281, 7261930.0 ], [ 529773.670178714208305, 7261920.0 ], [ 529777.794350692536682, 7261910.0 ], [ 529782.206541518098675, 7261900.0 ], [ 529786.340103251626715, 7261890.0 ], [ 529790.000892210751772, 7261880.0 ], [ 529793.671070924843661, 7261870.0 ], [ 529797.881498891045339, 7261860.0 ], [ 529802.664807373774238, 7261850.0 ], [ 529807.968647089437582, 7261840.000000000931323 ], [ 529814.129336780519225, 7261830.0 ], [ 529821.628543837927282, 7261820.0 ], [ 529830.458265855675563, 7261810.0 ], [ 529840.088040409144014, 7261800.0 ], [ 529850.011174176470377, 7261790.0 ], [ 529860.000892210751772, 7261780.0 ], [ 529870.0, 7261770.0 ], [ 529880.0, 7261760.000892210751772 ], [ 529890.0, 7261750.011174176819623 ], [ 529900.0, 7261740.087148198857903 ], [ 529910.0, 7261730.447091680020094 ], [ 529920.0, 7261721.541395640000701 ], [ 529930.0, 7261713.681352891027927 ], [ 529940.0, 7261706.416969484649599 ], [ 529950.0, 7261698.907480461522937 ], [ 529960.0, 7261691.10458592697978 ], [ 529970.0, 7261683.671070925891399 ], [ 529980.0, 7261676.776912964880466 ], [ 529990.0, 7261670.087148198857903 ], [ 530000.0, 7261663.681352891027927 ], [ 530010.0, 7261657.870324715040624 ], [ 530020.0, 7261652.565592788159847 ], [ 530030.0, 7261647.422340825200081 ], [ 530039.999553894624114, 7261642.042973192408681 ], [ 530049.993520701071247, 7261635.878034729510546 ], [ 530059.944359513698146, 7261628.427096649073064 ], [ 530069.677239574841224, 7261619.864494569599628 ], [ 530078.683442020905204, 7261611.228517569601536 ], [ 530086.078100949409418, 7261603.910724874585867 ], [ 530091.078100949525833, 7261598.921006839722395 ] ] } },
{ "type": "Feature", "properties": { "id": 14, "reference_id": 8, "dune_id": 8, "dune_name": "Inverted Y Dune", "acquisition_date": "2025-06-12", "length_m": 719.30293778601265 }, "geometry": { "type": "LineString", "coordinates": [ [ 530096.922237555496395, 7261591.078100949525833 ], [ 530098.612002322101034, 7261586.078100949525833 ], [ 530100.770251714391634, 7261578.683442020788789 ], [ 530103.446632874663919, 7261569.6772395754233 ], [ 530106.286247186595574, 7261559.944359513930976 ], [ 530108.453909483039752, 7261549.993520701304078 ], [ 530109.552462215535343, 7261539.999553894624114 ], [ 530109.913744012243114, 7261530.0 ], [ 530110.0, 7261520.0 ], [ 530110.086255987756886, 7261510.0 ], [ 530110.447091679205187, 7261500.0 ], [ 530111.540503428666852, 7261490.0 ], [ 530113.671070924960077, 7261480.0 ], [ 530116.340995462262072, 7261470.000000000931323 ], [ 530118.54664476972539, 7261460.0 ], [ 530120.0, 7261450.0 ], [ 530121.454247441026382, 7261440.0 ], [ 530123.670178714208305, 7261430.0 ], [ 530126.416077273664996, 7261420.0 ], [ 530128.906588250538334, 7261410.0 ], [ 530131.094303960213438, 7261400.0 ], [ 530133.594204692170024, 7261390.0 ], [ 530136.406687518465333, 7261380.0 ], [ 530138.916870216256939, 7261370.0 ], [ 530141.181452158722095, 7261360.0 ], [ 530144.041296371491626, 7261350.0 ], [ 530147.947190947132185, 7261340.0 ], [ 530152.5879411411006, 7261330.0 ], [ 530157.522447620984167, 7261320.0 ], [ 530162.588833351852372, 7261310.000000000931323 ], [ 530167.958365123602562, 7261300.0 ], [ 530174.128444569883868, 7261290.000892210751772 ], [ 530181.628543837810867, 7261280.0111741758883 ], [ 530190.458265855675563, 7261270.088040409609675 ], [ 530200.088040409144014, 7261260.458265855908394 ], [ 530210.011174176470377, 7261251.628543837927282 ], [ 530220.000892210635357, 7261244.128444569185376 ], [ 530230.0, 7261237.958365123718977 ], [ 530240.0, 7261232.588833352550864 ], [ 530250.0, 7261227.522447621449828 ], [ 530260.0, 7261222.588833352550864 ], [ 530270.0, 7261217.957472912967205 ], [ 530280.0, 7261214.117270393297076 ], [ 530290.0, 7261211.541395640000701 ], [ 530300.0, 7261210.011174176819623 ], [ 530310.0, 7261208.547536980360746 ], [ 530320.0, 7261206.340995462611318 ], [ 530330.0, 7261203.671963134780526 ], [ 530340.0, 7261201.551677605137229 ], [ 530350.0, 7261200.534239877015352 ], [ 530360.0, 7261200.534239877015352 ], [ 530370.0, 7261201.551677605137229 ], [ 530380.0, 7261203.671070924028754 ], [ 530390.0, 7261206.329821285791695 ], [ 530400.0, 7261208.459496571682394 ], [ 530410.0, 7261209.552908320911229 ], [ 530420.0, 7261209.912851802073419 ], [ 530430.000000000116415, 7261209.9888258241117 ], [ 530440.0, 7261209.999107790179551 ], [ 530450.0, 7261209.999107790179551 ], [ 530460.0, 7261209.9888258241117 ], [ 530470.0, 7261209.911959591321647 ], [ 530480.0, 7261209.540841934271157 ], [ 530490.0, 7261208.36117419693619 ], [ 530499.999107789248228, 7261205.79558140784502 ], [ 530509.987933612894267, 7261201.682583605870605 ], [ 530519.900785414385609, 7261196.329821285791695 ], [ 530529.453693735296838, 7261190.447091679088771 ], [ 530537.91319030651357, 7261185.297830341383815 ], [ 530544.243011592305265, 7261181.998769285157323 ] ] } }
]
}
