{
"type": "FeatureCollection",
"name": "crests_2021_03_2021-03-15",
"crs": { "type": "name", "properties": { "name": "urn:ogc:def:crs:EPSG::32733" } },
"features": [
{ "type": "Feature", "properties": { "id": 0, "reference_id": 2, "dune_id": 2, "dune_name": "Big Mommy Dune", "acquisition_date": "2021-03-15", "length_m": 142.70086878191702 }, "geometry": { "type": "LineString", "coordinates": [ [ 528534.243011592421681, 7260734.330159790813923 ], [ 528527.913190306629986, 7260728.360281986184418 ], [ 528519.453693735180423, 7260720.994197164662182 ], [ 528509.900785414385609, 7260713.570964129641652 ], [ 528499.987933612894267, 7260706.317754899151623 ], [ 528489.999107789364643, 7260698.458604360930622 ], [ 528480.0, 7260689.553800531663001 ], [ 528470.000892210751772, 7260679.924918187782168 ], [ 528460.012066387105733, 7260670.088040409609675 ], [ 528450.099214585614391, 7260660.545414054766297 ], [ 528440.546306264819577, 7260652.086809692904353 ], [ 528432.08680969348643, 7260645.756988408043981 ], [ 528425.756988407694735, 7260642.086809693835676 ] ] } },
{ "type": "Feature", "properties": { "id": 1, "reference_id": 2, "dune_id": 2, "dune_name": "Big Mommy Dune", "acquisition_date": "2021-03-15", "length_m": 556.46011325222844 }, "geometry": { "type": "LineString", "coordinates": [ [ 528625.756988407694735, 7260784.205310802906752 ], [ 528632.08680969348643, 7260788.328590570017695 ], [ 528640.546306264819577, 7260793.758219122886658 ], [ 528650.099214585614391, 7260800.011174176819623 ], [ 528660.012066387222148, 7260806.329821284860373 ], [ 528670.000892210751772, 7260812.11939332075417 ], [ 528680.0, 7260817.346366802230477 ], [ 528690.0, 7260822.119393319822848 ], [ 528700.0, 7260826.328929075039923 ], [ 528710.0, 7260829.999107789248228 ], [ 528720.0, 7260833.659896748140454 ], [ 528730.0, 7260837.793458482250571 ], [ 528740.0, 7260842.206541518680751 ], [ 528750.0, 7260846.340103251859546 ], [ 528760.0, 7260850.0 ], [ 528770.0, 7260853.659896748140454 ], [ 528780.0, 7260857.793458482250571 ], [ 528790.0, 7260862.205649307928979 ], [ 528800.0, 7260866.328929075971246 ], [ 528810.0, 7260869.913744012825191 ], [ 528820.0, 7260873.223087035119534 ], [ 528830.0, 7260876.328929075971246 ], [ 528840.0, 7260878.896306285634637 ], [ 528850.0, 7260881.103693716228008 ], [ 528860.0, 7260883.670178715139627 ], [ 528870.0, 7260886.765738788992167 ], [ 528880.0, 7260890.0 ], [ 528890.0, 7260893.234261211939156 ], [ 528900.0, 7260896.329821285791695 ], [ 528910.0, 7260898.895414073951542 ], [ 528920.0, 7260901.093411750160158 ], [ 528930.0, 7260903.594204693101346 ], [ 528940.0, 7260906.405795308761299 ], [ 528950.0, 7260908.905696040019393 ], [ 528960.0, 7260911.093411749228835 ], [ 528970.0, 7260913.583922727033496 ], [ 528980.0, 7260916.329821285791695 ], [ 528990.0, 7260918.545752558857203 ], [ 529000.0, 7260920.0 ], [ 529010.0, 7260921.454247441142797 ], [ 529020.0, 7260923.671070925891399 ], [ 529030.0, 7260926.427251450717449 ], [ 529040.0, 7260928.994628659449518 ], [ 529050.0, 7260931.551677605137229 ], [ 529060.0, 7260935.211574353277683 ], [ 529070.0, 7260940.447091679088771 ], [ 529080.0, 7260946.416077273897827 ], [ 529090.0, 7260952.13056749664247 ], [ 529099.999107789364643, 7260957.347259013913572 ], [ 529109.987933612894267, 7260962.118501110002398 ], [ 529119.900785414385609, 7260966.317754898220301 ], [ 529129.453693735296838, 7260969.911959590390325 ], [ 529137.913190306629986, 7260973.211912859231234 ], [ 529144.243011592421681, 7260976.241780877113342 ] ] } },
{ "type": "Feature", "properties": { "id": 2, "reference_id": 7, "dune_id": 7, "dune_name": "Inverted Y Dune", "acquisition_date": "2021-03-15", "length_m": 661.06136689971015 }, "geometry": { "type": "LineString", "coordinates": [ [ 530125.756988407694735, 7261643.670178715139627 ], [ 530132.08680969348643, 7261646.329821286723018 ], [ 530140.546306264819577, 7261648.459496572613716 ], [ 530150.099214585614391, 7261649.552908321842551 ], [ 530160.012066387222148, 7261649.912851802073419 ], [ 530170.000892210751772, 7261649.9888258241117 ], [ 530180.0, 7261649.999107790179551 ], [ 530190.0, 7261650.0 ], [ 530200.0, 7261650.0 ], [ 530210.0, 7261650.0 ], [ 530220.0, 7261649.999107790179551 ], [ 530230.0, 7261649.9888258241117 ], [ 530240.0, 7261649.912851802073419 ], [ 530250.0, 7261649.552016111090779 ], [ 530260.0, 7261648.448322394862771 ], [ 530270.0, 7261646.242673087865114 ], [ 530280.0, 7261643.222194824367762 ], [ 530290.0, 7261639.9888258241117 ], [ 530300.0, 7261636.689764766953886 ], [ 530310.0, 7261633.309343023225665 ], [ 530320.0, 7261630.0 ], [ 530330.0, 7261626.689764766022563 ], [ 530340.0, 7261623.299061057157815 ], [ 530350.0, 7261619.924025978893042 ], [ 530360.0, 7261616.329821286723018 ], [ 530370.0, 7261612.204757097177207 ], [ 530380.0, 7261607.783176516182721 ], [ 530390.0, 7261603.583030516281724 ], [ 530400.0, 7261599.627990132197738 ], [ 530410.0, 7261595.148369127884507 ], [ 530420.0, 7261589.541734145022929 ], [ 530430.000000000116415, 7261583.135046625509858 ], [ 530440.0, 7261576.231498911976814 ], [ 530450.0, 7261568.447430184110999 ], [ 530459.999107789364643, 7261559.552016111090779 ], [ 530469.988825823529623, 7261549.912851801142097 ], [ 530479.912851801607758, 7261539.9888258241117 ], [ 530489.552016110159457, 7261529.999107789248228 ], [ 530498.448322394862771, 7261520.0 ], [ 530506.242673087399453, 7261510.0 ], [ 530513.222194824367762, 7261500.0 ], [ 530519.988825823529623, 7261490.0 ], [ 530526.689764766488224, 7261480.0 ], [ 530533.31023523339536, 7261470.000000000931323 ], [ 530540.01028196583502, 7261460.0 ], [ 530546.766630999161862, 7261450.0 ], [ 530553.670178714208305, 7261440.0 ], [ 530561.104585926048458, 7261430.0 ], [ 530568.907480461057276, 7261420.0 ], [ 530576.416969484183937, 7261410.0 ], [ 530583.681352890795097, 7261400.0 ], [ 530591.541395639418624, 7261390.0 ], [ 530600.447091679205187, 7261380.0 ], [ 530610.086255987756886, 7261370.000892210751772 ], [ 530619.999107789364643, 7261360.012066386640072 ], [ 530629.901677625137381, 7261350.099214585497975 ], [ 530639.453693735296838, 7261340.546306265518069 ], [ 530647.913190306629986, 7261332.086809693835676 ], [ 530654.243011592305265, 7261325.756988408043981 ] ] } },
{ "type": "Feature", "properties": { "id": 3, "reference_id": 3, "dune_id": 3, "dune_name": "Big Mommy Dune", "acquisition_date": "2021-03-15", "length_m": 359.06023449396395 }, "geometry": { "type": "LineString", "coordinates": [ [ 529374.243011592305265, 7260695.756988408043981 ], [ 529367.91319030651357, 7260702.086809693835676 ], [ 529359.453693735180423, 7260710.546306265518069 ], [ 529349.900785414502025, 7260720.099214585497975 ], [ 529339.988825823529623, 7260730.012066388502717 ], [ 529330.01028196583502, 7260740.000892210751772 ], [ 529320.087148198508658, 7260750.0 ], [ 529310.447983889956959, 7260760.0 ], [ 529301.551677605253644, 7260770.0 ], [ 529293.758219123352319, 7260780.000000000931323 ], [ 529286.788087141467258, 7260790.0 ], [ 529280.087148198392242, 7260800.0 ], [ 529273.671070924960077, 7260810.0 ], [ 529267.794350692536682, 7260820.0 ], [ 529262.205649307463318, 7260830.0 ], [ 529256.32982128590811, 7260840.0 ], [ 529249.924025978078134, 7260850.0 ], [ 529243.299953267676756, 7260860.0 ], [ 529236.700046732323244, 7260870.0 ], [ 529230.075974021921866, 7260880.0 ], [ 529223.670178714208305, 7260890.0 ], [ 529217.794350692536682, 7260900.0 ], [ 529212.206541518098675, 7260910.0 ], [ 529206.340995462262072, 7260920.0 ], [ 529200.012066387105733, 7260930.0 ], [ 529193.758219123352319, 7260939.999553894624114 ], [ 529188.328590570250526, 7260949.993520701304078 ], [ 529184.205310802557506, 7260959.944359514862299 ], [ 529181.638825803645886, 7260969.6772395754233 ], [ 529180.45915806631092, 7260978.683442020788789 ], [ 529180.088040409144014, 7260986.078100949525833 ], [ 529180.011174176470377, 7260991.078100949525833 ] ] } },
{ "type": "Feature", "properties": { "id": 4, "reference_id": 3, "dune_id": 3, "dune_name": "Big Mommy Dune", "acquisition_date": "2021-03-15", "length_m": 214.83426852579146 }, "geometry": { "type": "LineString", "coordinates": [ [ 529405.756988407694735, 7260679.552016109228134 ], [ 529412.08680969348643, 7260678.448322394862771 ], [ 529420.546306264819577, 7260676.242673087865114 ], [ 529430.099214585614391, 7260673.223087035119534 ], [ 529440.012066387222148, 7260669.999107789248228 ], [ 529450.000892210751772, 7260666.765738788992167 ], [ 529460.0, 7260663.670178714208305 ], [ 529470.0, 7260661.10458592697978 ], [ 529480.0, 7260658.906588250771165 ], [ 529490.0, 7260656.405795307829976 ], [ 529500.000000000116415, 7260653.594204692170024 ], [ 529510.0, 7260651.094303959980607 ], [ 529520.0, 7260648.905696040019393 ], [ 529530.0, 7260646.405795307829976 ], [ 529540.0, 7260643.594204693101346 ], [ 529550.0, 7260641.094303959980607 ], [ 529560.0, 7260638.906588250771165 ], [ 529569.999107789248228, 7260636.416969483718276 ], [ 529579.987933612894267, 7260633.681352891027927 ], [ 529589.900785414502025, 7260631.541395640000701 ], [ 529599.453693735180423, 7260630.447091680020094 ], [ 529607.91319030651357, 7260630.087148198857903 ], [ 529614.243011592421681, 7260630.011174176819623 ] ] } },
{ "type": "Feature", "properties": { "id": 5, "reference_id": 3, "dune_id": 3, "dune_name": "Big Mommy Dune", "acquisition_date": "2021-03-15", "length_m": 58.486023184610531 }, "geometry": { "type": "LineString", "coordinates": [ [ 529704.243011592305265, 7260620.0 ], [ 529697.91319030651357, 7260620.0 ], [ 529689.454585945932195, 7260620.0 ], [ 529679.912851801607758, 7260620.0 ], [ 529670.087148198508658, 7260620.0 ], [ 529660.545414054067805, 7260620.0 ], [ 529652.08680969348643, 7260620.0 ], [ 529645.756988407694735, 7260620.0 ] ] } },
{ "type": "Feature", "properties": { "id": 6, "reference_id": 3, "dune_id": 3, "dune_name": "Big Mommy Dune", "acquisition_date": "2021-03-15", "length_m": 308.48602318461053 }, "geometry": { "type": "LineString", "coordinates": [ [ 529735.756988407694735, 7260610.0 ], [ 529742.08680969348643, 7260610.0 ], [ 529750.546306264819577, 7260610.0 ], [ 529760.099214585614391, 7260610.0 ], [ 529770.012066387222148, 7260610.0 ], [ 529780.000892210751772, 7260610.0 ], [ 529790.0, 7260610.0 ], [ 529800.0, 7260610.0 ], [ 529810.0, 7260610.0 ], [ 529820.0, 7260610.0 ], [ 529830.0, 7260610.0 ], [ 529840.0, 7260610.0 ], [ 529850.0, 7260610.0 ], [ 529860.0, 7260610.0 ], [ 529870.0, 7260610.0 ], [ 529880.0, 7260610.0 ], [ 529890.0, 7260610.0 ], [ 529900.0, 7260610.0 ], [ 529910.0, 7260610.0 ], [ 529920.0, 7260610.0 ], [ 529930.0, 7260610.0 ], [ 529940.0, 7260610.0 ], [ 529950.0, 7260610.0 ], [ 529960.0, 7260610.0 ], [ 529970.0, 7260610.0 ], [ 529980.0, 7260610.0 ], [ 529990.0, 7260610.0 ], [ 529999.999107789364643, 7260610.0 ], [ 530009.987933612894267, 7260610.0 ], [ 530019.900785414502025, 7260610.0 ], [ 530029.453693735180423, 7260610.0 ], [ 530037.91319030651357, 7260610.0 ], [ 530044.243011592305265, 7260610.0 ] ] } },
{ "type": "Feature", "properties": { "id": 7, "reference_id": 3, "dune_id": 3, "dune_name": "Big Mommy Dune", "acquisition_date": "2021-03-15", "length_m": 171.72668659567651 }, "geometry": { "type": "LineString", "coordinates": [ [ 530244.243011592421681, 7260570.087148198857903 ], [ 530237.91319030651357, 7260570.447091680020094 ], [ 530229.453693735180423, 7260571.540503429248929 ], [ 530219.900785414385609, 7260573.671070925891399 ], [ 530209.987933612894267, 7260576.340995462611318 ], [ 530199.999107789248228, 7260578.546644769608974 ], [ 530190.0, 7260580.0 ], [ 530180.0, 7260581.454247441142797 ], [ 530170.000000000116415, 7260583.670178714208305 ], [ 530160.0, 7260586.416077273897827 ], [ 530150.0, 7260588.906588250771165 ], [ 530140.0, 7260591.093411749228835 ], [ 530130.0, 7260593.583030516281724 ], [ 530120.000892210751772, 7260596.318647108972073 ], [ 530110.012066387222148, 7260598.458604360930622 ], [ 530100.099214585614391, 7260599.552908321842551 ], [ 530090.546306264819577, 7260599.912851802073419 ], [ 530082.08680969348643, 7260599.9888258241117 ], [ 530075.756988407694735, 7260599.999107789248228 ] ] } },
{ "type": "Feature", "properties": { "id": 8, "reference_id": 8, "dune_id": 8, "dune_name": "Inverted Y Dune", "acquisition_date": "2021-03-15", "length_m": 426.85647593919572 }, "geometry": { "type": "LineString", "coordinates": [ [ 530264.243011592421681, 7261221.639718014746904 ], [ 530257.913190306629986, 7261224.216484978795052 ], [ 530249.453693735180423, 7261228.416630979627371 ], [ 530239.900785414502025, 7261234.216484978795052 ], [ 530229.987933612777852, 7261241.639718014746904 ], [ 530219.999107789248228, 7261250.459158066660166 ], [ 530210.0, 7261260.088040409609675 ], [ 530200.000892210751772, 7261270.011174176819623 ], [ 530190.012066387105733, 7261280.000892210751772 ], [ 530180.098322374862619, 7261290.0 ], [ 530170.535132088349201, 7261300.0 ], [ 530161.999661495094188, 7261310.000000000931323 ], [ 530155.309004517970607, 7261320.0 ], [ 530150.535132088349201, 7261330.0 ], [ 530146.78897935221903, 7261340.0 ], [ 530143.322301620617509, 7261350.0 ], [ 530140.011174176586792, 7261360.0 ], [ 530136.766630999278277, 7261370.0 ], [ 530133.670178714208305, 7261380.0 ], [ 530131.104585926048458, 7261390.0 ], [ 530128.907480461173691, 7261400.0 ], [ 530126.416077273664996, 7261410.0 ], [ 530123.670178714208305, 7261420.0 ], [ 530121.454247441026382, 7261430.0 ], [ 530120.0, 7261440.0 ], [ 530118.54664476972539, 7261450.0 ], [ 530116.340995462262072, 7261460.0 ], [ 530113.671070924960077, 7261470.000000000931323 ], [ 530111.540503428666852, 7261480.0 ], [ 530110.447091679205187, 7261490.0 ], [ 530110.087148198392242, 7261500.0 ], [ 530110.01028196583502, 7261510.0 ], [ 530109.989718034281395, 7261520.0 ], [ 530109.912851801607758, 7261530.0 ], [ 530109.552908320911229, 7261539.999553894624114 ], [ 530108.459496571333148, 7261549.993520701304078 ], [ 530106.329821285791695, 7261559.944359513930976 ], [ 530103.670178714208305, 7261569.6772395754233 ], [ 530101.540503428783268, 7261578.683442020788789 ], [ 530100.447091679205187, 7261586.078100949525833 ], [ 530100.087148198508658, 7261591.078100949525833 ] ] } },
{ "type": "Feature", "properties": { "id": 9, "reference_id": 8, "dune_id": 8, "dune_name": "Inverted Y Dune", "acquisition_date": "2021-03-15", "length_m": 58.486023184726946 }, "geometry": { "type": "LineString", "coordinates": [ [ 530454.243011592421681, 7261210.000000000931323 ], [ 530447.913190306629986, 7261210.000000000931323 ], [ 530439.454585945932195, 7261210.000000000931323 ], [ 530429.912851801607758, 7261210.000000000931323 ], [ 530420.087148198508658, 7261210.000000000931323 ], [ 530410.545414054067805, 7261210.000000000931323 ], [ 530402.08680969348643, 7261210.000000000931323 ], [ 530395.756988407694735, 7261210.000000000931323 ] ] } },
{ "type": "Feature", "properties": { "id": 10, "reference_id": 8, "dune_id": 8, "dune_name": "Inverted Y Dune", "acquisition_date": "2021-03-15", "length_m": 70.095108305550156 }, "geometry": { "type": "LineString", "coordinates": [ [ 530554.243011592305265, 7261172.085917483083904 ], [ 530547.91319030651357, 7261175.744922020472586 ], [ 530539.454585945932195, 7261181.987595107406378 ], [ 530529.912851801607758, 7261190.0 ], [ 530520.087148198392242, 7261198.012404892593622 ], [ 530510.545414054067805, 7261204.255077979527414 ], [ 530502.08680969348643, 7261207.914082517847419 ], [ 530495.756988407694735, 7261209.453693735413253 ] ] } },
{ "type": "Feature", "properties": { "id": 11, "reference_id": 9, "dune_id": 9, "dune_name": "Inverted Y Dune", "acquisition_date": "2021-03-15", "length_m": 764.89955308418041 }, "geometry": { "type": "LineString", "coordinates": [ [ 530097.91319030651357, 7261598.834750852547586 ], [ 530094.243011592421681, 7261603.473915160633624 ], [ 530087.913190306629986, 7261609.764880374073982 ], [ 530079.453693735180423, 7261616.564541302621365 ], [ 530069.900785414502025, 7261623.267553345300257 ], [ 530059.987933612894267, 7261629.919331100769341 ], [ 530049.999107789364643, 7261636.329375180415809 ], [ 530040.0, 7261642.205649307928979 ], [ 530030.0, 7261647.794350693002343 ], [ 530020.0, 7261653.670178714208305 ], [ 530010.0, 7261660.075974022969604 ], [ 530000.0, 7261666.700938943773508 ], [ 529990.0, 7261673.310235233977437 ], [ 529980.0, 7261680.0 ], [ 529970.0, 7261686.690656976774335 ], [ 529960.0, 7261693.310235233977437 ], [ 529950.0, 7261700.011174177750945 ], [ 529940.0, 7261706.777805175632238 ], [ 529930.0, 7261713.757326913066208 ], [ 529920.0, 7261721.551677605137229 ], [ 529910.0, 7261730.447983890771866 ], [ 529900.0, 7261740.087148198857903 ], [ 529890.0, 7261750.011174176819623 ], [ 529880.0, 7261760.000892210751772 ], [ 529870.0, 7261770.0 ], [ 529860.000892210751772, 7261780.0 ], [ 529850.011174176470377, 7261790.0 ], [ 529840.087148198392242, 7261800.0 ], [ 529830.447983889840543, 7261810.0 ], [ 529821.551677605137229, 7261820.0 ], [ 529813.758219123352319, 7261830.0 ], [ 529806.78897935221903, 7261840.000000000931323 ], [ 529800.099214585614391, 7261850.0 ], [ 529793.768501089070924, 7261860.0 ], [ 529788.318308604415506, 7261870.0 ], [ 529784.118162604048848, 7261880.0 ], [ 529781.190841913805343, 7261890.0 ], [ 529778.907480461173691, 7261900.0 ], [ 529776.330713496543467, 7261910.0 ], [ 529773.233369000838138, 7261920.0 ], [ 529769.989718034281395, 7261930.0 ], [ 529766.688872555969283, 7261940.0 ], [ 529763.299061056924984, 7261950.0 ], [ 529759.923133767326362, 7261960.0 ], [ 529756.319539319956675, 7261970.0 ], [ 529752.128783074789681, 7261980.0 ], [ 529747.423233035369776, 7261990.0 ], [ 529742.490510976989754, 7262000.0 ], [ 529737.509489023126662, 7262010.0 ], [ 529732.576766964630224, 7262020.0 ], [ 529727.870324714574963, 7262030.0 ], [ 529723.670178714208305, 7262040.0 ], [ 529720.0, 7262050.0 ], [ 529716.329821285791695, 7262060.0 ], [ 529712.130567496176809, 7262070.0 ], [ 529707.433515001088381, 7262080.0 ], [ 529702.566484998911619, 7262090.0 ], [ 529697.869432503823191, 7262100.0 ], [ 529693.670178714208305, 7262110.0 ], [ 529690.000892210751772, 7262120.0 ], [ 529686.340103251626715, 7262130.0 ], [ 529682.20654151821509, 7262140.0 ], [ 529677.794350692536682, 7262149.999107789248228 ], [ 529673.671070924960077, 7262159.987933613359928 ], [ 529670.087148198508658, 7262169.900785414502025 ], [ 529666.788087141467258, 7262179.453693735413253 ], [ 529663.758219123352319, 7262187.913190307095647 ], [ 529661.551677605137229, 7262194.243011591956019 ] ] } },
{ "type": "Feature", "properties": { "id": 12, "reference_id": 1, "dune_id": 1, "dune_name": "Big Mommy Dune", "acquisition_date": "2021-03-15", "length_m": 1286.049769062193 }, "geometry": { "type": "LineString", "coordinates": [ [ 529180.0, 7260998.921899050474167 ], [ 529180.0, 7261003.921899050474167 ], [ 529180.0, 7261011.316557979211211 ], [ 529180.0, 7261020.322760425508022 ], [ 529180.0, 7261030.055640487000346 ], [ 529180.0, 7261040.006479299627244 ], [ 529180.0, 7261050.000446105375886 ], [ 529180.0, 7261060.0 ], [ 529179.999107789364643, 7261070.0 ], [ 529179.988825823529623, 7261080.0 ], [ 529179.912851801607758, 7261090.0 ], [ 529179.552908320794813, 7261100.0 ], [ 529178.458604360581376, 7261110.0 ], [ 529176.318647109321319, 7261120.000000000931323 ], [ 529173.582138305064291, 7261130.0 ], [ 529171.082237573107705, 7261140.0 ], [ 529168.819440052029677, 7261150.0 ], [ 529165.968985594343394, 7261160.0 ], [ 529162.129675285541452, 7261170.0 ], [ 529157.784068726818077, 7261180.0 ], [ 529153.669286503572948, 7261190.0 ], [ 529150.075081811286509, 7261200.0 ], [ 529146.689764766488224, 7261210.000000000931323 ], [ 529143.223979245638475, 7261220.0 ], [ 529139.563190286629833, 7261230.0 ], [ 529135.226127570495009, 7261240.0 ], [ 529129.999107789364643, 7261250.0 ], [ 529124.763590463786386, 7261260.0 ], [ 529120.360835691448301, 7261270.0 ], [ 529116.416077273548581, 7261280.0 ], [ 529112.216823483933695, 7261290.0 ], [ 529107.794350692536682, 7261300.0 ], [ 529103.659896748373285, 7261310.000000000931323 ], [ 529100.0, 7261320.0 ], [ 529096.340103251626715, 7261330.0 ], [ 529092.20654151821509, 7261340.0 ], [ 529087.793458481901325, 7261350.0 ], [ 529083.659896748373285, 7261360.0 ], [ 529079.999107789248228, 7261370.0 ], [ 529076.329821285791695, 7261380.0 ], [ 529072.130567496176809, 7261390.0 ], [ 529067.433515001088381, 7261400.0 ], [ 529062.566484998911619, 7261410.0 ], [ 529057.870324714574963, 7261420.0 ], [ 529053.681352890678681, 7261430.0 ], [ 529050.087148198508658, 7261440.0 ], [ 529046.776912964880466, 7261450.0 ], [ 529043.671070924843661, 7261460.0 ], [ 529041.104585926048458, 7261470.000000000931323 ], [ 529038.906588250538334, 7261480.0 ], [ 529036.405795307829976, 7261490.0 ], [ 529033.594204692286439, 7261500.0 ], [ 529031.094303960213438, 7261510.0 ], [ 529028.906588250538334, 7261520.0 ], [ 529026.416969484183937, 7261530.0 ], [ 529023.681352890678681, 7261540.0 ], [ 529021.541395639418624, 7261550.0 ], [ 529020.447091679205187, 7261560.000000000931323 ], [ 529020.087148198508658, 7261570.0 ], [ 529020.011174176470377, 7261580.0 ], [ 529020.000892210751772, 7261590.0 ], [ 529020.0, 7261600.0 ], [ 529020.0, 7261610.0 ], [ 529020.0, 7261620.0 ], [ 529020.000892210751772, 7261630.0 ], [ 529020.011174176470377, 7261640.0 ], [ 529020.087148198508658, 7261650.0 ], [ 529020.447983889840543, 7261660.0 ], [ 529021.552569815889001, 7261670.0 ], [ 529023.768501089187339, 7261680.0 ], [ 529026.864953374140896, 7261690.0 ], [ 529030.458265855675563, 7261700.0 ], [ 529034.851630872813985, 7261710.0 ], [ 529040.372009867918678, 7261720.0 ], [ 529046.416969484183937, 7261730.000000000931323 ], [ 529052.216823483933695, 7261740.0 ], [ 529057.794350692536682, 7261750.0 ], [ 529063.659896748373285, 7261760.0 ], [ 529069.999107789364643, 7261770.0 ], [ 529076.328929075039923, 7261780.0 ], [ 529082.118501109071076, 7261790.0 ], [ 529087.335192626225762, 7261800.0 ], [ 529092.031352910562418, 7261810.0 ], [ 529095.870663219597191, 7261820.0 ], [ 529098.370563951553777, 7261830.0 ], [ 529099.530559967970476, 7261840.000000000931323 ], [ 529099.823919181828387, 7261850.0 ], [ 529099.530559967970476, 7261860.0 ], [ 529098.370563951553777, 7261870.0 ], [ 529095.870663219597191, 7261880.0 ], [ 529092.031352910562418, 7261890.0 ], [ 529087.335192626225762, 7261900.0 ], [ 529082.117608898319304, 7261910.0 ], [ 529076.317754898685962, 7261920.0 ], [ 529069.912851801607758, 7261930.0 ], [ 529063.223087035003118, 7261940.0 ], [ 529056.329821285791695, 7261950.0 ], [ 529048.906588250421919, 7261960.0 ], [ 529041.180559947970323, 7261970.0 ], [ 529034.042188582126983, 7261980.0 ], [ 529027.957472912967205, 7261990.0 ], [ 529022.663915163138881, 7262000.0 ], [ 529017.882391101680696, 7262010.0 ], [ 529013.681352890795097, 7262020.0 ], [ 529010.076866232673638, 7262030.0 ], [ 529006.700046732323244, 7262040.0 ], [ 529003.299953267676756, 7262050.0 ], [ 528999.923133767442778, 7262060.0 ], [ 528996.31953932007309, 7262070.0 ], [ 528992.128783074789681, 7262080.0 ], [ 528987.42234082473442, 7262090.0 ], [ 528982.478444589767605, 7262100.0 ], [ 528977.411166648264043, 7262110.0 ], [ 528972.041634876397438, 7262120.0 ], [ 528965.871555430116132, 7262130.0 ], [ 528958.37234837282449, 7262139.999107789248228 ], [ 528949.553800531546585, 7262149.987933613359928 ], [ 528940.011174176470377, 7262159.900785414502025 ], [ 528930.535132088349201, 7262169.453693735413253 ], [ 528922.085917482851073, 7262177.913190307095647 ], [ 528915.756988407694735, 7262184.243011591956019 ] ] } },
{ "type": "Feature", "properties": { "id": 13, "reference_id": 4, "dune_id": 4, "dune_name": "The Star Dune", "acquisition_date": "2021-03-15", "length_m": 648.07552428948111 }, "geometry": { "type": "LineString", "coordinates": [ [ 533005.756988407694735, 7261870.447091680020094 ], [ 533012.08680969348643, 7261871.540503429248929 ], [ 533020.546306264819577, 7261873.671070925891399 ], [ 533030.099214585614391, 7261876.340995462611318 ], [ 533040.012066387105733, 7261878.546644769608974 ], [ 533050.000892210751772, 7261880.0 ], [ 533060.0, 7261881.453355230391026 ], [ 533070.0, 7261883.659896748140454 ], [ 533080.0, 7261886.340103251859546 ], [ 533090.0, 7261888.546644769608974 ], [ 533100.0, 7261890.000892210751772 ], [ 533110.0, 7261891.464529407210648 ], [ 533120.0, 7261893.746152736246586 ], [ 533130.0, 7261896.776912964880466 ], [ 533140.0, 7261900.0111741758883 ], [ 533150.0, 7261903.310235233977437 ], [ 533160.0, 7261906.689764766953886 ], [ 533170.0, 7261909.989718034863472 ], [ 533180.0, 7261913.233369002118707 ], [ 533190.0, 7261916.329821286723018 ], [ 533200.0, 7261918.896306284703314 ], [ 533210.0, 7261921.103693716228008 ], [ 533220.0, 7261923.670178715139627 ], [ 533230.0, 7261926.765738788992167 ], [ 533240.0, 7261930.0 ], [ 533250.0, 7261933.234261211007833 ], [ 533260.0, 7261936.33071349747479 ], [ 533270.0, 7261938.906588250771165 ], [ 533280.0, 7261941.179667737334967 ], [ 533290.0, 7261944.030122194439173 ], [ 533300.0, 7261947.859150538221002 ], [ 533310.0, 7261952.129675285890698 ], [ 533320.0, 7261955.893903782591224 ], [ 533330.0, 7261958.459496571682394 ], [ 533340.0, 7261959.989718034863472 ], [ 533350.0, 7261961.463637197390199 ], [ 533360.0, 7261963.746152736246586 ], [ 533370.0, 7261966.776912965811789 ], [ 533380.000000000116415, 7261970.011174176819623 ], [ 533390.0, 7261973.310235233977437 ], [ 533400.000000000116415, 7261976.690656977705657 ], [ 533410.0, 7261980.0 ], [ 533420.0, 7261983.309343023225665 ], [ 533430.0, 7261986.690656976774335 ], [ 533440.0, 7261990.0 ], [ 533450.0, 7261993.310235233977437 ], [ 533460.0, 7261996.700938943773508 ], [ 533470.0, 7262000.075974022969604 ], [ 533480.0, 7262003.670178715139627 ], [ 533490.0, 7262007.794350693002343 ], [ 533500.0, 7262012.206541517749429 ], [ 533510.0, 7262016.340103251859546 ], [ 533520.0, 7262020.000892210751772 ], [ 533530.0, 7262023.670178715139627 ], [ 533540.0, 7262027.86943250335753 ], [ 533550.0, 7262032.566484998911619 ], [ 533560.0, 7262037.433515001088381 ], [ 533570.0, 7262042.128783075138927 ], [ 533579.999107789364643, 7262046.307472933083773 ], [ 533589.987933612894267, 7262049.824811393395066 ], [ 533599.900785414385609, 7262052.76482117921114 ], [ 533609.453693735180423, 7262054.701277447864413 ], [ 533617.91319030651357, 7262054.778143681585789 ], [ 533624.243011592305265, 7262053.222194824367762 ] ] } },
{ "type": "Feature", "properties": { "id": 14, "reference_id": 5, "dune_id": 5, "dune_name": "The Star Dune", "acquisition_date": "2021-03-15", "length_m": 1142.3878723573087 }, "geometry": { "type": "LineString", "coordinates": [ [ 534334.702169658616185, 7261305.756988408043981 ], [ 534329.553800531546585, 7261312.086809693835676 ], [ 534323.681352890678681, 7261320.546306264586747 ], [ 534318.404564592172392, 7261330.099214585497975 ], [ 534314.65151027101092, 7261340.012066386640072 ], [ 534313.179329232312739, 7261350.000892210751772 ], [ 534314.129336780519225, 7261360.0 ], [ 534316.417861694935709, 7261370.0 ], [ 534318.471562958438881, 7261380.0 ], [ 534319.564974708016962, 7261390.0 ], [ 534320.0, 7261400.0 ], [ 534320.43591750273481, 7261410.0 ], [ 534321.539611218031496, 7261420.0 ], [ 534323.670178714208305, 7261430.0 ], [ 534326.329821285791695, 7261440.0 ], [ 534328.459496571333148, 7261450.0 ], [ 534329.552908320794813, 7261460.0 ], [ 534329.912851801607758, 7261470.000000000931323 ], [ 534329.988825823529623, 7261480.0 ], [ 534329.998215578729287, 7261490.0 ], [ 534329.988825823529623, 7261500.0 ], [ 534329.911959590855986, 7261510.0 ], [ 534329.54084193368908, 7261520.0 ], [ 534328.360281985718757, 7261530.0 ], [ 534325.783515021088533, 7261540.0 ], [ 534321.583369020721875, 7261550.0 ], [ 534315.783515021088533, 7261560.000000000931323 ], [ 534308.360281985718757, 7261569.999107789248228 ], [ 534299.54084193368908, 7261579.9888258241117 ], [ 534289.911959590855986, 7261589.912851802073419 ], [ 534279.988825823529623, 7261599.552016111090779 ], [ 534269.999107789248228, 7261608.448322394862771 ], [ 534260.0, 7261616.241780877113342 ], [ 534250.0, 7261623.211912859231234 ], [ 534240.0, 7261629.911959590390325 ], [ 534230.0, 7261636.318647109903395 ], [ 534220.0, 7261642.128783075138927 ], [ 534210.0, 7261647.422340825200081 ], [ 534200.0, 7261652.478444591164589 ], [ 534190.0, 7261657.411166648380458 ], [ 534180.0, 7261662.042527087032795 ], [ 534170.0, 7261665.882729606702924 ], [ 534160.0, 7261668.458604360930622 ], [ 534150.0, 7261669.9888258241117 ], [ 534140.0, 7261671.452463019639254 ], [ 534130.0, 7261673.659004537388682 ], [ 534120.0, 7261676.328929075039923 ], [ 534110.0, 7261678.460388781502843 ], [ 534100.0, 7261679.564082497730851 ], [ 534090.0, 7261680.0 ], [ 534080.0, 7261680.435917503200471 ], [ 534070.0, 7261681.539611218497157 ], [ 534060.0, 7261683.670178715139627 ], [ 534050.0, 7261686.33071349747479 ], [ 534040.0, 7261688.470670748502016 ], [ 534030.0, 7261689.64005651883781 ], [ 534020.0, 7261690.35994348116219 ], [ 534010.0, 7261691.530221464112401 ], [ 534000.0, 7261693.680460680276155 ], [ 533990.0, 7261696.416969484649599 ], [ 533980.0, 7261698.906588250771165 ], [ 533970.0, 7261701.094303959980607 ], [ 533960.0, 7261703.594204692170024 ], [ 533950.0, 7261706.406687518581748 ], [ 533940.0, 7261708.916870215907693 ], [ 533930.0, 7261711.181452158838511 ], [ 533920.0, 7261714.041296371258795 ], [ 533910.0, 7261717.947190947830677 ], [ 533900.0, 7261722.58704893104732 ], [ 533890.0, 7261727.511273444630206 ], [ 533880.0, 7261732.500792942941189 ], [ 533870.0, 7261737.500099267810583 ], [ 533860.0, 7261742.500792942941189 ], [ 533850.0, 7261747.511273445561528 ], [ 533840.0, 7261752.58794114086777 ], [ 533830.0, 7261757.958365123718977 ], [ 533820.0, 7261764.128444569185376 ], [ 533810.000892210635357, 7261771.628543837927282 ], [ 533800.011174176470377, 7261780.458265855908394 ], [ 533790.088040409144014, 7261790.088040409609675 ], [ 533780.45915806631092, 7261800.011174176819623 ], [ 533771.638825803645886, 7261810.000892210751772 ], [ 533764.205310802557506, 7261820.0 ], [ 533758.329482780885883, 7261830.0 ], [ 533753.768501089187339, 7261840.000000000931323 ], [ 533750.088040409144014, 7261850.0 ], [ 533746.700938942958601, 7261860.0 ], [ 533743.299953267676756, 7261870.0 ], [ 533739.923133767442778, 7261880.0 ], [ 533736.31953932007309, 7261890.0 ], [ 533732.128783074906096, 7261900.0 ], [ 533727.423233035253361, 7261910.0 ], [ 533722.489618766237982, 7261920.0 ], [ 533717.499207057291642, 7261930.0 ], [ 533712.499900731956586, 7261940.0 ], [ 533707.499207057408057, 7261950.0 ], [ 533702.489618766237982, 7261960.0 ], [ 533697.423233035369776, 7261970.0 ], [ 533692.128783074789681, 7261980.0 ], [ 533686.31953932007309, 7261989.999553894624114 ], [ 533679.924025978078134, 7261999.993520701304078 ], [ 533673.311127444263548, 7262009.944359513930976 ], [ 533666.788087141467258, 7262019.677239574491978 ], [ 533660.535132088232785, 7262028.683442020788789 ], [ 533655.309004517737776, 7262036.078100949525833 ], [ 533651.999661495094188, 7262041.078100949525833 ] ] } },
{ "type": "Feature", "properties": { "id": 15, "reference_id": 6, "dune_id": 6, "dune_name": "The Star Dune", "acquisition_date": "2021-03-15", "length_m": 814.00510478165802 }, "geometry": { "type": "LineString", "coordinates": [ [ 533650.0, 7262048.921899050474167 ], [ 533650.000892210751772, 7262053.921899050474167 ], [ 533650.011174176470377, 7262061.316557979211211 ], [ 533650.087148198508658, 7262070.322760425508022 ], [ 533650.447091679205187, 7262080.055640487000346 ], [ 533651.540503428783268, 7262090.006479298695922 ], [ 533653.670178714208305, 7262100.000446105375886 ], [ 533656.329821285791695, 7262110.0 ], [ 533658.459496571216732, 7262120.0 ], [ 533659.552908320911229, 7262130.0 ], [ 533659.912851801607758, 7262140.0 ], [ 533659.988825823529623, 7262150.0 ], [ 533659.999107789248228, 7262160.0 ], [ 533660.0, 7262170.0 ], [ 533660.0, 7262180.0 ], [ 533660.000892210751772, 7262190.0 ], [ 533660.011174176470377, 7262200.0 ], [ 533660.087148198392242, 7262210.0 ], [ 533660.447091679088771, 7262220.0 ], [ 533661.540503428783268, 7262230.0 ], [ 533663.671070924960077, 7262240.0 ], [ 533666.340995462378487, 7262250.0 ], [ 533668.546644769841805, 7262260.0 ], [ 533670.0, 7262270.0 ], [ 533671.453355230391026, 7262280.0 ], [ 533673.659004537737928, 7262290.0 ], [ 533676.328036864520982, 7262300.0 ], [ 533678.448322394862771, 7262310.0 ], [ 533679.465760122518986, 7262320.0 ], [ 533679.465760122518986, 7262330.0 ], [ 533678.448322394862771, 7262340.000000000931323 ], [ 533676.328036864520982, 7262350.0 ], [ 533673.659004537737928, 7262360.0 ], [ 533671.453355230391026, 7262370.0 ], [ 533669.999107789364643, 7262380.0 ], [ 533668.535470593255013, 7262390.0 ], [ 533666.253847263869829, 7262400.0 ], [ 533663.223087035119534, 7262410.0 ], [ 533659.988825823529623, 7262420.0 ], [ 533656.689764766488224, 7262430.0 ], [ 533653.310235233511776, 7262440.0 ], [ 533650.01028196583502, 7262450.0 ], [ 533646.766630999161862, 7262460.0 ], [ 533643.670178714208305, 7262470.0 ], [ 533641.104585926048458, 7262480.0 ], [ 533638.906588250538334, 7262490.0 ], [ 533636.405795307829976, 7262500.0 ], [ 533633.594204692286439, 7262510.0 ], [ 533631.094303960213438, 7262520.0 ], [ 533628.905696039786562, 7262530.0 ], [ 533626.405795307713561, 7262540.0 ], [ 533623.594204692170024, 7262550.0 ], [ 533621.094303960213438, 7262560.0 ], [ 533618.906588250421919, 7262570.0 ], [ 533616.416077273664996, 7262580.0 ], [ 533613.670178714208305, 7262590.0 ], [ 533611.454247441026382, 7262600.000000000931323 ], [ 533610.0, 7262610.0 ], [ 533608.54664476972539, 7262620.0 ], [ 533606.340995462378487, 7262630.0 ], [ 533603.671070924960077, 7262640.0 ], [ 533601.540503428783268, 7262650.0 ], [ 533600.447091679205187, 7262660.0 ], [ 533600.086255987756886, 7262670.0 ], [ 533600.0, 7262680.0 ], [ 533599.913744012243114, 7262690.0 ], [ 533599.552908320794813, 7262700.0 ], [ 533598.459496571216732, 7262710.0 ], [ 533596.328929075039923, 7262720.0 ], [ 533593.659004537737928, 7262730.0 ], [ 533591.45335523027461, 7262740.0 ], [ 533589.999107789248228, 7262750.0 ], [ 533588.535470593255013, 7262760.0 ], [ 533586.252955053234473, 7262770.0 ], [ 533583.212805069284514, 7262780.0 ], [ 533579.912851801607758, 7262790.0 ], [ 533576.32982128590811, 7262799.999107789248228 ], [ 533572.216823483933695, 7262809.987933613359928 ], [ 533567.881498891045339, 7262819.900785414502025 ], [ 533564.118162604048848, 7262829.453693736344576 ], [ 533561.62765162717551, 7262837.913190307095647 ], [ 533560.458265855675563, 7262844.243011592887342 ] ] } }
]
}
