{
"type": "FeatureCollection",
"name": "crests_2026_04_2026-04-23",
"crs": { "type": "name", "properties": { "name": "urn:ogc:def:crs:EPSG::32733" } },
"features": [
{ "type": "Feature", "properties": { "id": 0, "reference_id": 5, "dune_id": 5, "dune_name": "The Star Dune", "acquisition_date": "2026-04-23", "length_m": 883.45906602138143 }, "geometry": { "type": "LineString", "coordinates": [ [ 533657.294247423415072, 7262041.078100949525833 ], [ 533659.803736446541734, 7262036.078100949525833 ], [ 533663.435059088165872, 7262028.683442020788789 ], [ 533668.105044730589725, 7262019.677239574491978 ], [ 533673.714645024156198, 7262009.944359513930976 ], [ 533680.005587088293396, 7261999.993520701304078 ], [ 533686.330267391167581, 7261989.999553894624114 ], [ 533692.129675285541452, 7261980.0 ], [ 533697.423233035369776, 7261970.0 ], [ 533702.489618766237982, 7261960.0 ], [ 533707.499207057408057, 7261950.0 ], [ 533712.499900731956586, 7261940.0 ], [ 533717.499207057291642, 7261930.0 ], [ 533722.489618766237982, 7261920.0 ], [ 533727.423233035253361, 7261910.0 ], [ 533732.128783074906096, 7261900.0 ], [ 533736.31953932007309, 7261890.0 ], [ 533739.923133767442778, 7261880.0 ], [ 533743.299953267676756, 7261870.0 ], [ 533746.700938942958601, 7261860.0 ], [ 533750.088040409144014, 7261850.0 ], [ 533753.768501089187339, 7261840.000000000931323 ], [ 533758.329482780885883, 7261830.0 ], [ 533764.205310802557506, 7261820.0 ], [ 533771.638825803645886, 7261810.000892210751772 ], [ 533780.45915806631092, 7261800.011174176819623 ], [ 533790.088040409144014, 7261790.088040409609675 ], [ 533800.011174176470377, 7261780.458265855908394 ], [ 533810.000892210635357, 7261771.628543837927282 ], [ 533820.0, 7261764.128444569185376 ], [ 533830.0, 7261757.958365123718977 ], [ 533840.0, 7261752.58794114086777 ], [ 533850.0, 7261747.511273445561528 ], [ 533860.0, 7261742.500792942941189 ], [ 533870.0, 7261737.500099267810583 ], [ 533880.0, 7261732.500792942941189 ], [ 533890.0, 7261727.511273444630206 ], [ 533900.0, 7261722.58704893104732 ], [ 533910.0, 7261717.947190947830677 ], [ 533920.0, 7261714.041296371258795 ], [ 533930.0, 7261711.181452158838511 ], [ 533940.0, 7261708.916870215907693 ], [ 533950.0, 7261706.406687518581748 ], [ 533960.0, 7261703.594204692170024 ], [ 533970.0, 7261701.094303959980607 ], [ 533980.0, 7261698.906588250771165 ], [ 533990.0, 7261696.416077273897827 ], [ 534000.0, 7261693.670178714208305 ], [ 534010.0, 7261691.454247441142797 ], [ 534020.0, 7261690.0 ], [ 534030.0, 7261688.546644769608974 ], [ 534040.0, 7261686.340995462611318 ], [ 534050.0, 7261683.670178715139627 ], [ 534060.0, 7261681.529329252429307 ], [ 534070.0, 7261680.35994348116219 ], [ 534080.0, 7261679.640056519769132 ], [ 534090.0, 7261678.470670748502016 ], [ 534100.0, 7261676.330713496543467 ], [ 534110.0, 7261673.670178714208305 ], [ 534120.0, 7261671.540503429248929 ], [ 534130.0, 7261670.446199468336999 ], [ 534140.0, 7261670.075081811286509 ], [ 534150.0, 7261669.912851802073419 ], [ 534160.0, 7261669.465760122984648 ], [ 534170.0, 7261668.001230715774 ], [ 534180.0, 7261664.701277447864413 ], [ 534190.0, 7261659.540841933339834 ], [ 534200.0, 7261653.571856340393424 ], [ 534210.0, 7261647.782284306362271 ], [ 534220.0, 7261642.204757097177207 ], [ 534230.0, 7261636.328929075971246 ], [ 534240.0, 7261629.913744011893868 ], [ 534250.0, 7261623.223087035119534 ], [ 534260.0, 7261616.328929075971246 ], [ 534269.999107789248228, 7261608.895414074882865 ], [ 534279.987933612894267, 7261601.092519540339708 ], [ 534289.900785414502025, 7261593.583922727033496 ], [ 534299.453693735296838, 7261586.33071349747479 ], [ 534307.91319030651357, 7261578.557818946428597 ], [ 534314.243011592305265, 7261570.099214585497975 ], [ 534317.91319030651357, 7261561.999661495909095 ], [ 534319.453693735296838, 7261555.745814232155681 ] ] } },
{ "type": "Feature", "properties": { "id": 1, "reference_id": 1, "dune_id": 1, "dune_name": "Big Mommy Dune", "acquisition_date": "2026-04-23", "length_m": 99.544336592557471 }, "geometry": { "type": "LineString", "coordinates": [ [ 529028.459496571333148, 7261684.243011591956019 ], [ 529026.329821285791695, 7261677.913190307095647 ], [ 529023.670178714208305, 7261669.453693735413253 ], [ 529021.540503428783268, 7261659.900785414502025 ], [ 529020.447091679205187, 7261649.987933613359928 ], [ 529020.087148198508658, 7261639.999107789248228 ], [ 529020.011174176470377, 7261630.000892210751772 ], [ 529020.000892210751772, 7261620.012066386640072 ], [ 529020.0, 7261610.099214585497975 ], [ 529020.0, 7261600.546306265518069 ], [ 529020.0, 7261592.086809692904353 ], [ 529020.0, 7261585.756988408043981 ] ] } },
{ "type": "Feature", "properties": { "id": 2, "reference_id": 1, "dune_id": 1, "dune_name": "Big Mommy Dune", "acquisition_date": "2026-04-23", "length_m": 445.70333795030763 }, "geometry": { "type": "LineString", "coordinates": [ [ 529179.912851801607758, 7261105.756988408043981 ], [ 529179.552016110159457, 7261112.086809692904353 ], [ 529178.448322394862771, 7261120.546306265518069 ], [ 529176.242673087399453, 7261130.099214586429298 ], [ 529173.222194824367762, 7261140.012066387571394 ], [ 529169.988825823529623, 7261150.000892210751772 ], [ 529166.688872555969283, 7261160.0 ], [ 529163.299061057041399, 7261170.0 ], [ 529159.924025978078134, 7261180.0 ], [ 529156.329821285791695, 7261190.0 ], [ 529152.205649307463318, 7261200.0 ], [ 529147.793458481901325, 7261210.000000000931323 ], [ 529143.659896748373285, 7261220.0 ], [ 529139.999107789364643, 7261230.0 ], [ 529136.329821285791695, 7261240.0 ], [ 529132.130567496176809, 7261250.0 ], [ 529127.433515001204796, 7261260.0 ], [ 529122.566484998911619, 7261270.0 ], [ 529117.869432503939606, 7261280.0 ], [ 529113.670178714208305, 7261290.0 ], [ 529110.000892210751772, 7261300.0 ], [ 529106.3401032515103, 7261310.000000000931323 ], [ 529102.206541518098675, 7261320.0 ], [ 529097.794350692536682, 7261330.0 ], [ 529093.670178714208305, 7261340.0 ], [ 529090.075974022038281, 7261350.0 ], [ 529086.700046732323244, 7261360.0 ], [ 529083.299953267676756, 7261370.0 ], [ 529079.923133767326362, 7261380.0 ], [ 529076.319539319956675, 7261390.0 ], [ 529072.129675285425037, 7261400.0 ], [ 529067.434407211840153, 7261410.0 ], [ 529062.576766964630224, 7261420.0 ], [ 529057.946298736496828, 7261430.0 ], [ 529054.041296371375211, 7261440.0 ], [ 529051.180559947970323, 7261450.0 ], [ 529048.906588250421919, 7261460.0 ], [ 529046.330713496427052, 7261470.000000000931323 ], [ 529043.234261211473495, 7261479.999107789248228 ], [ 529040.000892210751772, 7261489.987933613359928 ], [ 529036.776912964996882, 7261499.900785414502025 ], [ 529033.757326912600547, 7261509.453693735413253 ], [ 529031.551677605253644, 7261517.913190307095647 ], [ 529030.447983889840543, 7261524.243011592887342 ] ] } },
{ "type": "Feature", "properties": { "id": 3, "reference_id": 1, "dune_id": 1, "dune_name": "Big Mommy Dune", "acquisition_date": "2026-04-23", "length_m": 63.042330191340511 }, "geometry": { "type": "LineString", "coordinates": [ [ 529074.254185768775642, 7261784.243011591956019 ], [ 529068.001230715657584, 7261777.914082517847419 ], [ 529059.912851801607758, 7261769.465760122984648 ], [ 529051.540503428783268, 7261760.0 ], [ 529044.204418591805734, 7261750.534239877015352 ], [ 529038.415738768642768, 7261742.085917483083904 ], [ 529034.216484979027882, 7261735.756988408043981 ] ] } },
{ "type": "Feature", "properties": { "id": 4, "reference_id": 1, "dune_id": 1, "dune_name": "Big Mommy Dune", "acquisition_date": "2026-04-23", "length_m": 407.04851205962115 }, "geometry": { "type": "LineString", "coordinates": [ [ 528835.756988407694735, 7262238.361174196004868 ], [ 528842.086809693370014, 7262235.794689197093248 ], [ 528850.546306264819577, 7262231.670517219230533 ], [ 528860.099214585614391, 7262226.231498911045492 ], [ 528870.012066387105733, 7262219.911959591321647 ], [ 528880.000892210751772, 7262213.298168846406043 ], [ 528890.0, 7262206.688872556202114 ], [ 528900.0, 7262199.9888258241117 ], [ 528910.0, 7262193.222194824367762 ], [ 528919.999107789364643, 7262186.242673087865114 ], [ 528929.988825823529623, 7262178.448322394862771 ], [ 528939.911959590972401, 7262169.552016111090779 ], [ 528949.541734144324437, 7262159.912851801142097 ], [ 528958.371456162189133, 7262149.9888258241117 ], [ 528965.871555430116132, 7262139.999107789248228 ], [ 528972.041634876397438, 7262130.0 ], [ 528977.4120588588994, 7262120.0 ], [ 528982.488726555602625, 7262110.0 ], [ 528987.498314846656285, 7262100.0 ], [ 528992.489618766237982, 7262090.0 ], [ 528997.423233035369776, 7262080.0 ], [ 529002.129675285541452, 7262070.0 ], [ 529006.32982128590811, 7262060.0 ], [ 529010.0, 7262050.0 ], [ 529013.670178714208305, 7262040.0 ], [ 529017.870324714574963, 7262030.0 ], [ 529022.577659175381996, 7262020.0 ], [ 529027.520663199597038, 7262010.0 ], [ 529032.577659175381996, 7262000.0 ], [ 529037.871216925210319, 7261990.0 ], [ 529043.68046067992691, 7261980.0 ], [ 529050.075974021921866, 7261970.000892210751772 ], [ 529056.688872555852868, 7261960.012066386640072 ], [ 529063.211912858532742, 7261950.099214585497975 ], [ 529069.464867911767215, 7261940.546306264586747 ], [ 529074.690995482262224, 7261932.086809693835676 ], [ 529078.000338505022228, 7261925.756988408043981 ] ] } },
{ "type": "Feature", "properties": { "id": 5, "reference_id": 3, "dune_id": 3, "dune_name": "Big Mommy Dune", "acquisition_date": "2026-04-23", "length_m": 357.14147574234397 }, "geometry": { "type": "LineString", "coordinates": [ [ 529374.243011592305265, 7260695.756988408043981 ], [ 529367.91319030651357, 7260702.086809693835676 ], [ 529359.453693735180423, 7260710.546306265518069 ], [ 529349.901677625253797, 7260720.099214585497975 ], [ 529339.999107789364643, 7260730.012066388502717 ], [ 529330.086255987756886, 7260740.000892210751772 ], [ 529320.447983889956959, 7260750.0 ], [ 529311.551677605253644, 7260760.0 ], [ 529303.757326912600547, 7260770.0 ], [ 529296.777805175632238, 7260780.000000000931323 ], [ 529290.011174176470377, 7260790.0 ], [ 529283.310235233511776, 7260800.0 ], [ 529276.690656977239996, 7260810.0 ], [ 529270.0, 7260820.0 ], [ 529263.309343022760004, 7260830.0 ], [ 529256.690656977356412, 7260840.0 ], [ 529250.0, 7260850.0 ], [ 529243.310235233511776, 7260860.0 ], [ 529236.700938942958601, 7260870.0 ], [ 529230.076866232673638, 7260880.0 ], [ 529223.680460680043325, 7260890.0 ], [ 529217.870324714574963, 7260900.0 ], [ 529212.565592788159847, 7260910.0 ], [ 529207.422340824618004, 7260920.0 ], [ 529202.042973192408681, 7260929.999107789248228 ], [ 529195.8780347291613, 7260939.987933613359928 ], [ 529188.427096648607403, 7260949.900785415433347 ], [ 529179.864494569599628, 7260959.453693736344576 ], [ 529171.228517570067197, 7260967.913190307095647 ], [ 529163.910724874120206, 7260974.243011591956019 ], [ 529158.921006839955226, 7260977.913190307095647 ] ] } },
{ "type": "Feature", "properties": { "id": 6, "reference_id": 3, "dune_id": 3, "dune_name": "Big Mommy Dune", "acquisition_date": "2026-04-23", "length_m": 597.28550590581108 }, "geometry": { "type": "LineString", "coordinates": [ [ 529405.756988407694735, 7260679.552016109228134 ], [ 529412.08680969348643, 7260678.448322394862771 ], [ 529420.546306264819577, 7260676.242673087865114 ], [ 529430.099214585614391, 7260673.222194824367762 ], [ 529440.012066387222148, 7260669.9888258241117 ], [ 529450.000892210751772, 7260666.689764766953886 ], [ 529460.0, 7260663.309343023225665 ], [ 529470.0, 7260660.0 ], [ 529480.0, 7260656.690656977705657 ], [ 529490.0, 7260653.310235233977437 ], [ 529500.000000000116415, 7260650.0111741758883 ], [ 529510.0, 7260646.776912964880466 ], [ 529520.0, 7260643.746152736246586 ], [ 529530.0, 7260641.464529407210648 ], [ 529540.0, 7260640.000892210751772 ], [ 529550.0, 7260638.546644769608974 ], [ 529560.0, 7260636.340995462611318 ], [ 529570.0, 7260633.670178715139627 ], [ 529580.0, 7260631.529329252429307 ], [ 529590.0, 7260630.35994348116219 ], [ 529600.0, 7260629.64005651883781 ], [ 529610.0, 7260628.470670747570693 ], [ 529620.0, 7260626.330713496543467 ], [ 529630.0, 7260623.670178714208305 ], [ 529640.0, 7260621.540503429248929 ], [ 529650.0, 7260620.447091679088771 ], [ 529660.0, 7260620.086255988106132 ], [ 529670.0, 7260620.0 ], [ 529680.0, 7260619.913744012825191 ], [ 529690.0, 7260619.552908320911229 ], [ 529700.0, 7260618.459496571682394 ], [ 529710.0, 7260616.329821286723018 ], [ 529720.0, 7260613.670178715139627 ], [ 529730.0, 7260611.540503429248929 ], [ 529740.0, 7260610.447091680020094 ], [ 529750.0, 7260610.087148198857903 ], [ 529760.0, 7260610.011174176819623 ], [ 529770.0, 7260610.000892210751772 ], [ 529780.0, 7260610.0 ], [ 529790.0, 7260610.0 ], [ 529800.0, 7260610.0 ], [ 529810.0, 7260610.0 ], [ 529820.0, 7260610.0 ], [ 529830.0, 7260610.0 ], [ 529840.0, 7260610.0 ], [ 529850.0, 7260610.0 ], [ 529860.0, 7260610.0 ], [ 529870.0, 7260610.0 ], [ 529880.0, 7260610.0 ], [ 529890.0, 7260610.0 ], [ 529900.0, 7260610.0 ], [ 529910.0, 7260610.0 ], [ 529920.0, 7260610.0 ], [ 529930.0, 7260610.0 ], [ 529940.0, 7260610.0 ], [ 529949.999107789364643, 7260610.0 ], [ 529959.987933612894267, 7260610.0 ], [ 529969.900785414385609, 7260610.0 ], [ 529979.453693735296838, 7260610.0 ], [ 529987.91319030651357, 7260610.0 ], [ 529994.243011592421681, 7260610.0 ] ] } },
{ "type": "Feature", "properties": { "id": 7, "reference_id": 3, "dune_id": 3, "dune_name": "Big Mommy Dune", "acquisition_date": "2026-04-23", "length_m": 141.9494768241004 }, "geometry": { "type": "LineString", "coordinates": [ [ 530244.243011592421681, 7260570.087148198857903 ], [ 530237.91319030651357, 7260570.447091680020094 ], [ 530229.453693735180423, 7260571.541395640000701 ], [ 530219.900785414385609, 7260573.681352891027927 ], [ 530209.987933612894267, 7260576.416969484649599 ], [ 530199.999107789248228, 7260578.906588250771165 ], [ 530190.0, 7260581.094303959980607 ], [ 530180.0, 7260583.594204692170024 ], [ 530170.000000000116415, 7260586.405795307829976 ], [ 530160.0, 7260588.905696040019393 ], [ 530150.000892210751772, 7260591.093411749228835 ], [ 530140.012066387222148, 7260593.583030516281724 ], [ 530130.099214585614391, 7260596.318647108972073 ], [ 530120.546306264819577, 7260598.458604360930622 ], [ 530112.08680969348643, 7260599.552908321842551 ], [ 530105.756988407694735, 7260599.912851802073419 ] ] } },
{ "type": "Feature", "properties": { "id": 8, "reference_id": 7, "dune_id": 7, "dune_name": "Inverted Y Dune", "acquisition_date": "2026-04-23", "length_m": 58.486023184726946 }, "geometry": { "type": "LineString", "coordinates": [ [ 530264.243011592421681, 7261640.0 ], [ 530257.913190306629986, 7261640.0 ], [ 530249.454585945932195, 7261640.0 ], [ 530239.912851801607758, 7261640.0 ], [ 530230.087148198392242, 7261640.0 ], [ 530220.545414054067805, 7261640.0 ], [ 530212.08680969348643, 7261640.0 ], [ 530205.756988407694735, 7261640.0 ] ] } },
{ "type": "Feature", "properties": { "id": 9, "reference_id": 7, "dune_id": 7, "dune_name": "Inverted Y Dune", "acquisition_date": "2026-04-23", "length_m": 372.45717647756629 }, "geometry": { "type": "LineString", "coordinates": [ [ 530574.690995482262224, 7261415.756988408043981 ], [ 530569.464867911767215, 7261422.086809692904353 ], [ 530563.211020647897385, 7261430.546306265518069 ], [ 530556.678590590134263, 7261440.099214585497975 ], [ 530549.999107789364643, 7261450.012066386640072 ], [ 530543.309343022760004, 7261460.000892210751772 ], [ 530536.689764766488224, 7261470.000000000931323 ], [ 530529.988825823529623, 7261480.0 ], [ 530523.222194824367762, 7261490.0 ], [ 530516.242673087399453, 7261500.0 ], [ 530508.448322394862771, 7261510.0 ], [ 530499.552016110159457, 7261520.0 ], [ 530489.912851801607758, 7261530.0 ], [ 530479.988825823529623, 7261539.999107789248228 ], [ 530469.999107789364643, 7261549.9888258241117 ], [ 530460.0, 7261559.911959591321647 ], [ 530450.0, 7261569.541734145022929 ], [ 530440.0, 7261578.37234837282449 ], [ 530430.000000000116415, 7261585.881837395951152 ], [ 530420.0, 7261592.117608897387981 ], [ 530410.0, 7261597.771110128611326 ], [ 530400.0, 7261603.571856339462101 ], [ 530390.0, 7261609.552016110159457 ], [ 530380.0, 7261614.788425646722317 ], [ 530370.0, 7261618.449214605614543 ], [ 530360.0, 7261621.016545517370105 ], [ 530350.0, 7261623.659896748140454 ], [ 530340.000892210751772, 7261626.776020754128695 ], [ 530330.012066387105733, 7261630.086255988106132 ], [ 530320.099214585614391, 7261633.670178714208305 ], [ 530310.546306264819577, 7261637.783176516182721 ], [ 530302.08680969348643, 7261642.118501110002398 ], [ 530295.756988407694735, 7261645.881837395951152 ] ] } },
{ "type": "Feature", "properties": { "id": 10, "reference_id": 2, "dune_id": 2, "dune_name": "Big Mommy Dune", "acquisition_date": "2026-04-23", "length_m": 788.312481577619 }, "geometry": { "type": "LineString", "coordinates": [ [ 529151.078100949409418, 7260978.371456163004041 ], [ 529146.078100949409418, 7260975.871555430814624 ], [ 529138.683442020905204, 7260972.041634876281023 ], [ 529129.677239574841224, 7260967.41205885913223 ], [ 529119.944359513698146, 7260962.489618767052889 ], [ 529109.993520701071247, 7260957.509489024057984 ], [ 529099.999553894624114, 7260952.576766965910792 ], [ 529090.0, 7260947.871216925792396 ], [ 529080.0, 7260943.681352891027927 ], [ 529070.0, 7260940.087148198857903 ], [ 529060.0, 7260936.776912964880466 ], [ 529050.0, 7260933.671070924960077 ], [ 529040.0, 7260931.103693716228008 ], [ 529030.0, 7260928.896306285634637 ], [ 529020.0, 7260926.329821286723018 ], [ 529010.0, 7260923.234261211007833 ], [ 529000.0, 7260920.0 ], [ 528990.0, 7260916.765738788992167 ], [ 528980.0, 7260913.670178714208305 ], [ 528970.0, 7260911.10458592697978 ], [ 528960.0, 7260908.906588250771165 ], [ 528950.0, 7260906.405795308761299 ], [ 528940.0, 7260903.594204693101346 ], [ 528930.0, 7260901.094303959980607 ], [ 528920.0, 7260898.905696040019393 ], [ 528910.0, 7260896.405795307829976 ], [ 528900.0, 7260893.594204692170024 ], [ 528890.0, 7260891.093411749228835 ], [ 528880.0, 7260888.895414073951542 ], [ 528870.0, 7260886.329821286723018 ], [ 528860.0, 7260883.233369002118707 ], [ 528850.0, 7260879.989718034863472 ], [ 528840.0, 7260876.688872556202114 ], [ 528830.0, 7260873.299061057157815 ], [ 528820.0, 7260869.924025978893042 ], [ 528810.0, 7260866.329821286723018 ], [ 528800.0, 7260862.205649307928979 ], [ 528790.0, 7260857.793458482250571 ], [ 528780.0, 7260853.659896748140454 ], [ 528770.0, 7260850.0 ], [ 528760.0, 7260846.340103251859546 ], [ 528750.0, 7260842.206541518680751 ], [ 528740.0, 7260837.793458482250571 ], [ 528730.0, 7260833.659896748140454 ], [ 528720.0, 7260829.999107789248228 ], [ 528710.0, 7260826.329821285791695 ], [ 528700.0, 7260822.129675285890698 ], [ 528690.0, 7260817.423233035951853 ], [ 528680.0, 7260812.489618767052889 ], [ 528670.0, 7260807.499207057058811 ], [ 528660.0, 7260802.499900732189417 ], [ 528650.0, 7260797.499207057990134 ], [ 528640.0, 7260792.489618767052889 ], [ 528630.0, 7260787.423233035951853 ], [ 528620.0, 7260782.129675285890698 ], [ 528610.0, 7260776.329821286723018 ], [ 528600.0, 7260769.999107789248228 ], [ 528590.0, 7260763.659896748140454 ], [ 528580.0, 7260757.793458482250571 ], [ 528570.0, 7260752.205649306997657 ], [ 528560.0, 7260746.329821285791695 ], [ 528550.0, 7260739.924025978893042 ], [ 528540.0, 7260733.299061058089137 ], [ 528530.0, 7260726.689764766022563 ], [ 528520.0, 7260720.0 ], [ 528510.0, 7260713.309343023225665 ], [ 528500.0, 7260706.689764766953886 ], [ 528490.0, 7260699.989718034863472 ], [ 528480.000892210751772, 7260693.234261211007833 ], [ 528470.012066387105733, 7260686.34188767336309 ], [ 528460.099214585614391, 7260678.994628659449518 ], [ 528450.546306264819577, 7260671.638825803995132 ], [ 528442.08680969348643, 7260665.669840209186077 ], [ 528435.756988407694735, 7260662.075635517016053 ] ] } },
{ "type": "Feature", "properties": { "id": 11, "reference_id": 8, "dune_id": 8, "dune_name": "Inverted Y Dune", "acquisition_date": "2026-04-23", "length_m": 528.93730008088426 }, "geometry": { "type": "LineString", "coordinates": [ [ 530100.447091679205187, 7261591.078100949525833 ], [ 530101.540503428783268, 7261586.078100949525833 ], [ 530103.670178714208305, 7261578.683442020788789 ], [ 530106.329821285791695, 7261569.6772395754233 ], [ 530108.459496571333148, 7261559.944359513930976 ], [ 530109.552908320911229, 7261549.993520701304078 ], [ 530109.913744012243114, 7261539.999553894624114 ], [ 530110.0, 7261530.0 ], [ 530110.086255987756886, 7261520.0 ], [ 530110.447091679205187, 7261510.0 ], [ 530111.540503428666852, 7261500.0 ], [ 530113.670178714208305, 7261490.0 ], [ 530116.330713496543467, 7261480.0 ], [ 530118.470670747803524, 7261470.000000000931323 ], [ 530119.640056519303471, 7261460.0 ], [ 530120.359943480812944, 7261450.0 ], [ 530121.530221462948248, 7261440.0 ], [ 530123.680460680043325, 7261430.0 ], [ 530126.416969484183937, 7261420.0 ], [ 530128.906588250538334, 7261410.0 ], [ 530131.094303960213438, 7261400.0 ], [ 530133.594204692170024, 7261390.0 ], [ 530136.406687518465333, 7261380.0 ], [ 530138.916870216256939, 7261370.0 ], [ 530141.181452158722095, 7261360.0 ], [ 530144.042188582126983, 7261350.0 ], [ 530147.958365123718977, 7261340.0 ], [ 530152.675089339609258, 7261330.0 ], [ 530157.969539300072938, 7261320.0 ], [ 530164.129336780519225, 7261310.000000000931323 ], [ 530171.628543837927282, 7261300.0 ], [ 530180.458265855675563, 7261290.0 ], [ 530190.088040409144014, 7261280.000892210751772 ], [ 530200.011174176586792, 7261270.011174176819623 ], [ 530210.000892210751772, 7261260.088040409609675 ], [ 530220.0, 7261250.458265855908394 ], [ 530230.0, 7261241.628543837927282 ], [ 530240.0, 7261234.129336780868471 ], [ 530250.0, 7261227.969539299607277 ], [ 530260.0, 7261222.675981550477445 ], [ 530270.0, 7261217.969539300538599 ], [ 530280.0, 7261214.129336781799793 ], [ 530290.0, 7261211.627651628106833 ], [ 530300.0, 7261210.447091680020094 ], [ 530310.0, 7261210.000892211683095 ], [ 530319.999107789248228, 7261209.564082497730851 ], [ 530329.987933612894267, 7261208.460388782434165 ], [ 530339.900785414502025, 7261206.329821285791695 ], [ 530349.453693735180423, 7261203.670178713276982 ], [ 530357.91319030651357, 7261201.540503428317606 ], [ 530364.243011592305265, 7261200.447091678157449 ] ] } },
{ "type": "Feature", "properties": { "id": 12, "reference_id": 8, "dune_id": 8, "dune_name": "Inverted Y Dune", "acquisition_date": "2026-04-23", "length_m": 154.97107195509494 }, "geometry": { "type": "LineString", "coordinates": [ [ 530544.243011592305265, 7261181.998769285157323 ], [ 530537.91319030651357, 7261185.297830341383815 ], [ 530529.453693735296838, 7261190.447091679088771 ], [ 530519.900785414385609, 7261196.329821285791695 ], [ 530509.987933612894267, 7261201.682583605870605 ], [ 530499.999107789248228, 7261205.79558140784502 ], [ 530490.0, 7261208.36117419693619 ], [ 530480.0, 7261209.540841934271157 ], [ 530470.0, 7261209.911959591321647 ], [ 530460.0, 7261209.9888258241117 ], [ 530450.0, 7261209.999107790179551 ], [ 530440.000892210751772, 7261210.000000000931323 ], [ 530430.012066387222148, 7261210.000000000931323 ], [ 530420.099214585614391, 7261210.000000000931323 ], [ 530410.546306264819577, 7261210.000000000931323 ], [ 530402.08680969348643, 7261210.000000000931323 ], [ 530395.756988407694735, 7261210.000000000931323 ] ] } },
{ "type": "Feature", "properties": { "id": 13, "reference_id": 6, "dune_id": 6, "dune_name": "The Star Dune", "acquisition_date": "2026-04-23", "length_m": 757.25722318302724 }, "geometry": { "type": "LineString", "coordinates": [ [ 533560.458265855675563, 7262844.243011592887342 ], [ 533561.628543837810867, 7262837.913190307095647 ], [ 533564.128444569883868, 7262829.453693736344576 ], [ 533567.957472912967205, 7262819.900785414502025 ], [ 533572.577659175381996, 7262809.987933613359928 ], [ 533577.434407211840153, 7262799.999107789248228 ], [ 533582.129675285541452, 7262790.0 ], [ 533586.318647109437734, 7262780.0 ], [ 533589.911959590855986, 7262770.0 ], [ 533593.211912858532742, 7262760.0 ], [ 533596.241780876647681, 7262750.0 ], [ 533598.449214605498128, 7262740.0 ], [ 533599.563190286629833, 7262730.0 ], [ 533600.0, 7262720.0 ], [ 533600.43591750273481, 7262710.0 ], [ 533601.539611218031496, 7262700.0 ], [ 533603.670178714208305, 7262690.0 ], [ 533606.329821285791695, 7262680.0 ], [ 533608.460388781968504, 7262670.0 ], [ 533609.56408249726519, 7262660.0 ], [ 533610.0, 7262650.0 ], [ 533610.43591750273481, 7262640.0 ], [ 533611.539611218031496, 7262630.0 ], [ 533613.671070924960077, 7262620.0 ], [ 533616.340995462378487, 7262610.0 ], [ 533618.54664476972539, 7262600.000000000931323 ], [ 533620.0, 7262590.0 ], [ 533621.45335523027461, 7262580.0 ], [ 533623.659896748373285, 7262570.0 ], [ 533626.3401032515103, 7262560.0 ], [ 533628.54664476972539, 7262550.0 ], [ 533630.0, 7262540.0 ], [ 533631.454247441026382, 7262530.0 ], [ 533633.670178714208305, 7262520.0 ], [ 533636.416077273548581, 7262510.0 ], [ 533638.907480461173691, 7262500.0 ], [ 533641.104585926048458, 7262490.0 ], [ 533643.670178714208305, 7262480.0 ], [ 533646.765738788526505, 7262470.0 ], [ 533650.0, 7262460.0 ], [ 533653.234261211473495, 7262450.0 ], [ 533656.329821285791695, 7262440.0 ], [ 533658.896306284703314, 7262430.0 ], [ 533661.103693715296686, 7262420.0 ], [ 533663.670178714208305, 7262410.0 ], [ 533666.765738788526505, 7262400.0 ], [ 533669.999107789364643, 7262390.0 ], [ 533673.223087035119534, 7262380.0 ], [ 533676.242673087399453, 7262370.0 ], [ 533678.448322394862771, 7262360.0 ], [ 533679.552016110159457, 7262350.0 ], [ 533679.912851801607758, 7262340.000000000931323 ], [ 533679.988825823646039, 7262330.0 ], [ 533679.998215578729287, 7262320.0 ], [ 533679.988825823646039, 7262310.0 ], [ 533679.912851801607758, 7262300.0 ], [ 533679.552908320911229, 7262290.0 ], [ 533678.459496571333148, 7262280.0 ], [ 533676.328929075156339, 7262270.0 ], [ 533673.659004537737928, 7262260.0 ], [ 533671.453355230391026, 7262250.0 ], [ 533670.0, 7262240.0 ], [ 533668.546644769841805, 7262230.0 ], [ 533666.340995462378487, 7262220.0 ], [ 533663.671070924960077, 7262210.0 ], [ 533661.540503428783268, 7262200.0 ], [ 533660.447091679088771, 7262190.0 ], [ 533660.087148198392242, 7262180.0 ], [ 533660.011174176470377, 7262170.0 ], [ 533660.000892210751772, 7262160.0 ], [ 533660.0, 7262150.000892210751772 ], [ 533660.0, 7262140.012066386640072 ], [ 533660.0, 7262130.099214586429298 ], [ 533660.0, 7262120.546306264586747 ], [ 533660.0, 7262112.086809692904353 ], [ 533660.0, 7262105.756988408043981 ] ] } },
{ "type": "Feature", "properties": { "id": 14, "reference_id": 9, "dune_id": 9, "dune_name": "Inverted Y Dune", "acquisition_date": "2026-04-23", "length_m": 741.69186523382984 }, "geometry": { "type": "LineString", "coordinates": [ [ 529671.541395639418624, 7262174.243011591956019 ], [ 529673.681352890678681, 7262167.913190307095647 ], [ 529676.417861694935709, 7262159.453693735413253 ], [ 529678.918654637644067, 7262149.900785414502025 ], [ 529681.191734124557115, 7262139.987933613359928 ], [ 529684.117270393413492, 7262129.999107789248228 ], [ 529688.30713442794513, 7262120.0 ], [ 529693.680460680043325, 7262110.0 ], [ 529699.640056519303471, 7262100.0 ], [ 529705.150153548456728, 7262090.0 ], [ 529709.552908320911229, 7262080.0 ], [ 529713.223087035003118, 7262070.0 ], [ 529716.689764766488224, 7262060.0 ], [ 529720.075974022038281, 7262050.0 ], [ 529723.680460680043325, 7262040.0 ], [ 529727.871216925210319, 7262030.0 ], [ 529732.576766964630224, 7262020.0 ], [ 529737.509489023126662, 7262010.0 ], [ 529742.490510976989754, 7262000.0 ], [ 529747.423233035369776, 7261990.0 ], [ 529752.129675285425037, 7261980.0 ], [ 529756.329821285791695, 7261970.0 ], [ 529759.999107789364643, 7261960.0 ], [ 529763.659896748373285, 7261950.0 ], [ 529767.793458481901325, 7261940.0 ], [ 529772.205649307463318, 7261930.0 ], [ 529776.329821285791695, 7261920.0 ], [ 529779.924025977961719, 7261910.0 ], [ 529783.299953267676756, 7261900.0 ], [ 529786.700938942958601, 7261890.0 ], [ 529790.087148198392242, 7261880.0 ], [ 529793.757326912600547, 7261870.0 ], [ 529798.242334582377225, 7261860.0 ], [ 529803.758219123352319, 7261850.0 ], [ 529810.098322374979034, 7261840.000000000931323 ], [ 529816.78897935221903, 7261830.0 ], [ 529823.758219123352319, 7261820.0 ], [ 529831.551677605137229, 7261810.0 ], [ 529840.447983889840543, 7261800.0 ], [ 529850.087148198392242, 7261790.0 ], [ 529860.011174176470377, 7261780.0 ], [ 529870.000892210751772, 7261770.0 ], [ 529880.0, 7261760.000892210751772 ], [ 529890.0, 7261750.011174176819623 ], [ 529900.0, 7261740.087148198857903 ], [ 529910.0, 7261730.447983890771866 ], [ 529920.0, 7261721.551677605137229 ], [ 529930.0, 7261713.757326913066208 ], [ 529940.0, 7261706.777805175632238 ], [ 529950.0, 7261700.011174177750945 ], [ 529960.0, 7261693.310235233977437 ], [ 529970.0, 7261686.690656976774335 ], [ 529980.0, 7261680.0 ], [ 529990.0, 7261673.310235233977437 ], [ 530000.0, 7261666.700938943773508 ], [ 530010.0, 7261660.075974022969604 ], [ 530020.0, 7261653.670178714208305 ], [ 530030.0, 7261647.794350693002343 ], [ 530040.0, 7261642.205649307928979 ], [ 530049.999107789364643, 7261636.329375180415809 ], [ 530059.987933612894267, 7261629.919331100769341 ], [ 530069.900785414502025, 7261623.267553345300257 ], [ 530079.453693735180423, 7261616.564541302621365 ], [ 530087.913190306629986, 7261609.764880374073982 ], [ 530094.243011592421681, 7261603.473915160633624 ], [ 530097.91319030651357, 7261598.834750852547586 ] ] } },
{ "type": "Feature", "properties": { "id": 15, "reference_id": 4, "dune_id": 4, "dune_name": "The Star Dune", "acquisition_date": "2026-04-23", "length_m": 656.2213258624846 }, "geometry": { "type": "LineString", "coordinates": [ [ 533005.756988407694735, 7261863.671070925891399 ], [ 533012.08680969348643, 7261866.340995462611318 ], [ 533020.546306264819577, 7261868.546644769608974 ], [ 533030.099214585614391, 7261870.0 ], [ 533040.012066387105733, 7261871.454247441142797 ], [ 533050.000892210751772, 7261873.670178715139627 ], [ 533060.0, 7261876.416077273897827 ], [ 533070.0, 7261878.906588250771165 ], [ 533080.0, 7261881.094303959980607 ], [ 533090.0, 7261883.594204692170024 ], [ 533100.0, 7261886.405795307829976 ], [ 533110.0, 7261888.906588250771165 ], [ 533120.0, 7261891.10458592697978 ], [ 533130.0, 7261893.670178715139627 ], [ 533140.0, 7261896.765738788992167 ], [ 533150.0, 7261900.0 ], [ 533160.0, 7261903.234261211939156 ], [ 533170.0, 7261906.329821286723018 ], [ 533180.0, 7261908.895414074882865 ], [ 533190.0, 7261911.093411750160158 ], [ 533200.0, 7261913.594204692170024 ], [ 533210.0, 7261916.405795307829976 ], [ 533220.0, 7261918.906588250771165 ], [ 533230.0, 7261921.10458592697978 ], [ 533240.0, 7261923.670178715139627 ], [ 533250.0, 7261926.765738788992167 ], [ 533260.0, 7261930.0 ], [ 533270.0, 7261933.234261211007833 ], [ 533280.0, 7261936.329821286723018 ], [ 533290.0, 7261938.896306284703314 ], [ 533300.0, 7261941.103693715296686 ], [ 533310.0, 7261943.670178713276982 ], [ 533320.0, 7261946.765738788992167 ], [ 533330.0, 7261950.0 ], [ 533340.0, 7261953.234261211007833 ], [ 533350.0, 7261956.329821286723018 ], [ 533360.0, 7261958.896306285634637 ], [ 533370.0, 7261961.103693716228008 ], [ 533380.000000000116415, 7261963.670178714208305 ], [ 533390.0, 7261966.766630999743938 ], [ 533400.000000000116415, 7261970.010281966067851 ], [ 533410.0, 7261973.311127444729209 ], [ 533420.0, 7261976.700938943773508 ], [ 533430.0, 7261980.075974022969604 ], [ 533440.0, 7261983.670178715139627 ], [ 533450.0, 7261987.795242903754115 ], [ 533460.0, 7261992.216823484748602 ], [ 533470.0, 7261996.416969485580921 ], [ 533480.0, 7262000.37111765705049 ], [ 533490.0, 7262004.839564485475421 ], [ 533500.0, 7262010.35994348116219 ], [ 533510.0, 7262016.329821285791695 ], [ 533520.0, 7262021.769731804728508 ], [ 533530.0, 7262026.253847263753414 ], [ 533540.0, 7262029.988825823180377 ], [ 533550.0, 7262033.658112327568233 ], [ 533560.0, 7262037.782284305430949 ], [ 533570.0, 7262042.118501109071076 ], [ 533579.999553894740529, 7262045.882283501327038 ], [ 533589.993520701071247, 7262048.377935461699963 ], [ 533599.94435951358173, 7262049.58530824445188 ], [ 533609.677239574841224, 7262050.135505430400372 ], [ 533618.683442020905204, 7262050.759077537804842 ], [ 533626.078100949409418, 7262051.834197146818042 ], [ 533631.078100949525833, 7262053.164910643361509 ] ] } }
]
}
