{
"type": "FeatureCollection",
"name": "crests_2025_03_2025-03-04",
"crs": { "type": "name", "properties": { "name": "urn:ogc:def:crs:EPSG::32733" } },
"features": [
{ "type": "Feature", "properties": { "id": 0, "reference_id": 2, "dune_id": 2, "dune_name": "Big Mommy Dune", "acquisition_date": "2025-03-04", "length_m": 399.1752432138216 }, "geometry": { "type": "LineString", "coordinates": [ [ 528775.756988407578319, 7260843.758219122886658 ], [ 528782.08680969348643, 7260846.788979351520538 ], [ 528790.546306264819577, 7260850.098322374746203 ], [ 528800.099214585614391, 7260853.757326913066208 ], [ 528810.012066387222148, 7260858.230268195271492 ], [ 528820.000892210751772, 7260863.659896749071777 ], [ 528830.0, 7260869.563190286979079 ], [ 528840.0, 7260874.789317857474089 ], [ 528850.0, 7260878.448322394862771 ], [ 528860.0, 7260881.005371340550482 ], [ 528870.0, 7260883.572748551145196 ], [ 528880.0, 7260886.328929075971246 ], [ 528890.0, 7260888.545752558857203 ], [ 528900.0, 7260890.000892210751772 ], [ 528910.0, 7260891.464529406279325 ], [ 528920.0, 7260893.746152736246586 ], [ 528930.0, 7260896.776912964880466 ], [ 528940.0, 7260900.011174176819623 ], [ 528950.0, 7260903.310235233977437 ], [ 528960.0, 7260906.689764766953886 ], [ 528970.0, 7260909.989718034863472 ], [ 528980.0, 7260913.233369001187384 ], [ 528990.0, 7260916.330713496543467 ], [ 529000.0, 7260918.906588250771165 ], [ 529010.0, 7260921.179667737334967 ], [ 529020.0, 7260924.030122195370495 ], [ 529030.0, 7260927.859150538221002 ], [ 529040.0, 7260932.129675285890698 ], [ 529050.0, 7260935.894795994274318 ], [ 529060.0, 7260938.471562959253788 ], [ 529070.0, 7260940.087148198857903 ], [ 529080.0, 7260941.986702896654606 ], [ 529090.0, 7260945.646599645726383 ], [ 529099.999553894624114, 7260951.539611218497157 ], [ 529109.993520701071247, 7260958.459496571682394 ], [ 529119.944359513698146, 7260964.342226178385317 ], [ 529129.677239574841224, 7260967.925256693735719 ], [ 529138.683442020905204, 7260969.454585946165025 ], [ 529146.078100949409418, 7260969.900785414502025 ], [ 529151.078100949409418, 7260969.987933613359928 ] ] } },
{ "type": "Feature", "properties": { "id": 1, "reference_id": 2, "dune_id": 2, "dune_name": "Big Mommy Dune", "acquisition_date": "2025-03-04", "length_m": 279.71153457421423 }, "geometry": { "type": "LineString", "coordinates": [ [ 528664.243011592421681, 7260815.870663220062852 ], [ 528657.913190306629986, 7260812.030460700392723 ], [ 528649.453693735180423, 7260807.324018450453877 ], [ 528639.900785414502025, 7260802.031352911144495 ], [ 528629.987933612894267, 7260795.882729606702924 ], [ 528619.999107789364643, 7260788.469778537750244 ], [ 528610.0, 7260780.075974022038281 ], [ 528600.0, 7260771.899554697796702 ], [ 528590.0, 7260765.200400177389383 ], [ 528580.0, 7260760.010281965136528 ], [ 528570.0, 7260754.876466056331992 ], [ 528560.0, 7260748.459496570751071 ], [ 528550.0, 7260741.007155762985349 ], [ 528540.0, 7260733.583030516281724 ], [ 528530.0, 7260726.404903097078204 ], [ 528520.0, 7260718.906588250771165 ], [ 528510.0, 7260711.104585926048458 ], [ 528500.0, 7260703.670178715139627 ], [ 528490.0, 7260696.765738788992167 ], [ 528480.000892210751772, 7260690.0 ], [ 528470.012066387105733, 7260683.235153421759605 ], [ 528460.099214585614391, 7260676.34188767336309 ], [ 528450.546306264819577, 7260668.99462866038084 ], [ 528442.08680969348643, 7260661.638825803995132 ], [ 528435.756988407694735, 7260655.669840209186077 ] ] } },
{ "type": "Feature", "properties": { "id": 2, "reference_id": 3, "dune_id": 3, "dune_name": "Big Mommy Dune", "acquisition_date": "2025-03-04", "length_m": 583.17231337695057 }, "geometry": { "type": "LineString", "coordinates": [ [ 529181.638825803645886, 7260964.243011592887342 ], [ 529184.205310802557506, 7260957.913190307095647 ], [ 529188.328590570250526, 7260949.453693735413253 ], [ 529193.758219123352319, 7260939.900785414502025 ], [ 529200.012066387105733, 7260929.987933613359928 ], [ 529206.340995462262072, 7260919.999107789248228 ], [ 529212.206541518098675, 7260910.0 ], [ 529217.794350692536682, 7260900.0 ], [ 529223.670178714208305, 7260890.0 ], [ 529230.075974021921866, 7260880.0 ], [ 529236.700046732323244, 7260870.0 ], [ 529243.299953267676756, 7260860.0 ], [ 529249.924025978078134, 7260850.0 ], [ 529256.32982128590811, 7260840.0 ], [ 529262.205649307463318, 7260830.0 ], [ 529267.794350692536682, 7260820.0 ], [ 529273.671070924960077, 7260810.0 ], [ 529280.087148198392242, 7260800.0 ], [ 529286.788087141467258, 7260790.0 ], [ 529293.758219123352319, 7260780.000000000931323 ], [ 529301.551677605253644, 7260770.0 ], [ 529310.447983889956959, 7260760.0 ], [ 529320.087148198508658, 7260750.0 ], [ 529330.011174176470377, 7260740.0 ], [ 529340.000892210751772, 7260730.000892210751772 ], [ 529350.0, 7260720.012066386640072 ], [ 529360.0, 7260710.099214585497975 ], [ 529370.0, 7260700.545414054766297 ], [ 529380.0, 7260692.075635517016053 ], [ 529390.0, 7260685.669840209186077 ], [ 529400.0, 7260681.638825803995132 ], [ 529410.0, 7260678.994628659449518 ], [ 529420.0, 7260676.34188767336309 ], [ 529430.0, 7260673.234261211007833 ], [ 529440.000000000116415, 7260669.989718034863472 ], [ 529450.0, 7260666.689764766953886 ], [ 529460.0, 7260663.310235233977437 ], [ 529470.0, 7260660.010281966067851 ], [ 529480.0, 7260656.766630999743938 ], [ 529490.0, 7260653.670178714208305 ], [ 529500.000000000116415, 7260651.10458592697978 ], [ 529510.0, 7260648.906588250771165 ], [ 529520.0, 7260646.405795307829976 ], [ 529530.0, 7260643.594204693101346 ], [ 529540.0, 7260641.094303959980607 ], [ 529550.0, 7260638.906588250771165 ], [ 529560.0, 7260636.416969483718276 ], [ 529569.999107789248228, 7260633.681352891027927 ], [ 529579.987933612894267, 7260631.541395640000701 ], [ 529589.900785414502025, 7260630.447091680020094 ], [ 529599.453693735180423, 7260630.087148198857903 ], [ 529607.91319030651357, 7260630.011174176819623 ], [ 529614.243011592421681, 7260630.000892210751772 ] ] } },
{ "type": "Feature", "properties": { "id": 3, "reference_id": 3, "dune_id": 3, "dune_name": "Big Mommy Dune", "acquisition_date": "2025-03-04", "length_m": 58.486023184610531 }, "geometry": { "type": "LineString", "coordinates": [ [ 529704.243011592305265, 7260620.0 ], [ 529697.91319030651357, 7260620.0 ], [ 529689.454585945932195, 7260620.0 ], [ 529679.912851801607758, 7260620.0 ], [ 529670.087148198508658, 7260620.0 ], [ 529660.545414054067805, 7260620.0 ], [ 529652.08680969348643, 7260620.0 ], [ 529645.756988407694735, 7260620.0 ] ] } },
{ "type": "Feature", "properties": { "id": 4, "reference_id": 3, "dune_id": 3, "dune_name": "Big Mommy Dune", "acquisition_date": "2025-03-04", "length_m": 308.48602318461053 }, "geometry": { "type": "LineString", "coordinates": [ [ 529735.756988407694735, 7260610.0 ], [ 529742.08680969348643, 7260610.0 ], [ 529750.546306264819577, 7260610.0 ], [ 529760.099214585614391, 7260610.0 ], [ 529770.012066387222148, 7260610.0 ], [ 529780.000892210751772, 7260610.0 ], [ 529790.0, 7260610.0 ], [ 529800.0, 7260610.0 ], [ 529810.0, 7260610.0 ], [ 529820.0, 7260610.0 ], [ 529830.0, 7260610.0 ], [ 529840.0, 7260610.0 ], [ 529850.0, 7260610.0 ], [ 529860.0, 7260610.0 ], [ 529870.0, 7260610.0 ], [ 529880.0, 7260610.0 ], [ 529890.0, 7260610.0 ], [ 529900.0, 7260610.0 ], [ 529910.0, 7260610.0 ], [ 529920.0, 7260610.0 ], [ 529930.0, 7260610.0 ], [ 529940.0, 7260610.0 ], [ 529950.0, 7260610.0 ], [ 529960.0, 7260610.0 ], [ 529970.0, 7260610.0 ], [ 529980.0, 7260610.0 ], [ 529990.0, 7260610.0 ], [ 529999.999107789364643, 7260610.0 ], [ 530009.987933612894267, 7260610.0 ], [ 530019.900785414502025, 7260610.0 ], [ 530029.453693735180423, 7260610.0 ], [ 530037.91319030651357, 7260610.0 ], [ 530044.243011592305265, 7260610.0 ] ] } },
{ "type": "Feature", "properties": { "id": 5, "reference_id": 3, "dune_id": 3, "dune_name": "Big Mommy Dune", "acquisition_date": "2025-03-04", "length_m": 161.73201234061065 }, "geometry": { "type": "LineString", "coordinates": [ [ 530085.756988407694735, 7260599.9888258241117 ], [ 530092.08680969348643, 7260599.912851802073419 ], [ 530100.546306264819577, 7260599.552908321842551 ], [ 530110.099214585614391, 7260598.458604360930622 ], [ 530120.012066387222148, 7260596.318647108972073 ], [ 530130.000892210751772, 7260593.583030516281724 ], [ 530140.0, 7260591.093411749228835 ], [ 530150.0, 7260588.906588250771165 ], [ 530160.0, 7260586.416077273897827 ], [ 530170.000000000116415, 7260583.670178714208305 ], [ 530180.0, 7260581.454247441142797 ], [ 530190.0, 7260580.0 ], [ 530199.999107789248228, 7260578.546644769608974 ], [ 530209.987933612894267, 7260576.340995462611318 ], [ 530219.900785414385609, 7260573.671070925891399 ], [ 530229.453693735180423, 7260571.540503429248929 ], [ 530237.91319030651357, 7260570.447091680020094 ], [ 530244.243011592421681, 7260570.087148198857903 ] ] } },
{ "type": "Feature", "properties": { "id": 6, "reference_id": 5, "dune_id": 5, "dune_name": "The Star Dune", "acquisition_date": "2025-03-04", "length_m": 1143.695400839928 }, "geometry": { "type": "LineString", "coordinates": [ [ 534334.703061869367957, 7261305.756988408043981 ], [ 534329.56408249726519, 7261312.086809693835676 ], [ 534323.757326912716962, 7261320.546306264586747 ], [ 534318.764508072868921, 7261330.099214585497975 ], [ 534315.744922020589001, 7261340.012066386640072 ], [ 534315.309004517854191, 7261350.000892210751772 ], [ 534316.788979352102615, 7261360.0 ], [ 534318.547536980360746, 7261370.0 ], [ 534319.564974708016962, 7261380.0 ], [ 534319.924918188713491, 7261390.0 ], [ 534320.075974021921866, 7261400.0 ], [ 534320.446199468453415, 7261410.0 ], [ 534321.540503428666852, 7261420.0 ], [ 534323.670178714208305, 7261430.0 ], [ 534326.329821285791695, 7261440.0 ], [ 534328.459496571333148, 7261450.0 ], [ 534329.552908320794813, 7261460.0 ], [ 534329.912851801607758, 7261470.000000000931323 ], [ 534329.988825823529623, 7261480.0 ], [ 534329.998215578729287, 7261490.0 ], [ 534329.988825823529623, 7261500.0 ], [ 534329.911959590855986, 7261510.0 ], [ 534329.54084193368908, 7261520.0 ], [ 534328.360281985718757, 7261530.0 ], [ 534325.783515021088533, 7261540.0 ], [ 534321.583369020721875, 7261550.0 ], [ 534315.783515021088533, 7261559.999107790179551 ], [ 534308.360281985718757, 7261569.9888258241117 ], [ 534299.54084193368908, 7261579.912851802073419 ], [ 534289.911959590855986, 7261589.552016110159457 ], [ 534279.988825823529623, 7261598.448322394862771 ], [ 534269.999107789248228, 7261606.242673087865114 ], [ 534260.0, 7261613.222194824367762 ], [ 534250.0, 7261619.9888258241117 ], [ 534240.0, 7261626.688872555270791 ], [ 534230.0, 7261633.299061057157815 ], [ 534220.0, 7261639.92313376814127 ], [ 534210.0, 7261646.318647109903395 ], [ 534200.0, 7261652.117608899250627 ], [ 534190.0, 7261657.335192626342177 ], [ 534180.0, 7261662.032245121896267 ], [ 534170.0, 7261665.881837395951152 ], [ 534160.0, 7261668.458604360930622 ], [ 534150.0, 7261669.9888258241117 ], [ 534140.0, 7261671.452463019639254 ], [ 534130.0, 7261673.659004537388682 ], [ 534120.0, 7261676.328929075039923 ], [ 534110.0, 7261678.460388781502843 ], [ 534100.0, 7261679.564082497730851 ], [ 534090.0, 7261680.0 ], [ 534080.0, 7261680.435917503200471 ], [ 534070.0, 7261681.539611218497157 ], [ 534060.0, 7261683.670178715139627 ], [ 534050.0, 7261686.33071349747479 ], [ 534040.0, 7261688.470670748502016 ], [ 534030.0, 7261689.64005651883781 ], [ 534020.0, 7261690.35994348116219 ], [ 534010.0, 7261691.529329253360629 ], [ 534000.0, 7261693.670178714208305 ], [ 533990.0, 7261696.340995462611318 ], [ 533980.0, 7261698.546644769608974 ], [ 533970.0, 7261700.000892210751772 ], [ 533960.0, 7261701.464529407210648 ], [ 533950.0, 7261703.747044946998358 ], [ 533940.0, 7261706.787194930948317 ], [ 533930.0, 7261710.088040409609675 ], [ 533920.0, 7261713.681352891027927 ], [ 533910.0, 7261717.871216924861073 ], [ 533900.0, 7261722.576766964048147 ], [ 533890.0, 7261727.510381233878434 ], [ 533880.0, 7261732.500792942941189 ], [ 533870.0, 7261737.500099267810583 ], [ 533860.0, 7261742.499900732189417 ], [ 533850.0, 7261747.500099267810583 ], [ 533840.0, 7261752.500792942941189 ], [ 533830.0, 7261757.511273443698883 ], [ 533820.000892210635357, 7261762.587941141799092 ], [ 533810.011174176470377, 7261767.958365123718977 ], [ 533800.088040409144014, 7261774.128444570116699 ], [ 533790.458265855675563, 7261781.628543838858604 ], [ 533781.628543837927282, 7261790.458265855908394 ], [ 533774.129336780519225, 7261800.088040409609675 ], [ 533767.968647089437582, 7261810.011174177750945 ], [ 533762.664807373774238, 7261820.000892210751772 ], [ 533757.882391101680696, 7261830.0 ], [ 533753.681352890678681, 7261840.000000000931323 ], [ 533750.076866232673638, 7261850.0 ], [ 533746.700046732323244, 7261860.0 ], [ 533743.299953267676756, 7261870.0 ], [ 533739.923133767442778, 7261880.0 ], [ 533736.31953932007309, 7261890.0 ], [ 533732.128783074906096, 7261900.0 ], [ 533727.423233035253361, 7261910.0 ], [ 533722.489618766237982, 7261920.0 ], [ 533717.49831484653987, 7261930.0 ], [ 533712.489618766237982, 7261940.0 ], [ 533707.423233035369776, 7261950.0 ], [ 533702.128783074789681, 7261960.0 ], [ 533696.31953932007309, 7261970.0 ], [ 533689.923133767326362, 7261980.0 ], [ 533683.299953267676756, 7261989.999553894624114 ], [ 533676.700938943075016, 7261999.993520701304078 ], [ 533670.088040409144014, 7262009.944359513930976 ], [ 533663.768501089187339, 7262019.677239574491978 ], [ 533658.329482780769467, 7262028.683442020788789 ], [ 533654.20531080244109, 7262036.078100949525833 ], [ 533651.638825803645886, 7262041.078100949525833 ] ] } },
{ "type": "Feature", "properties": { "id": 7, "reference_id": 6, "dune_id": 6, "dune_name": "The Star Dune", "acquisition_date": "2025-03-04", "length_m": 895.70876289099249 }, "geometry": { "type": "LineString", "coordinates": [ [ 533650.000892210751772, 7262048.921899050474167 ], [ 533650.011174176470377, 7262053.921899050474167 ], [ 533650.087148198508658, 7262061.316557979211211 ], [ 533650.447091679205187, 7262070.322760425508022 ], [ 533651.540503428783268, 7262080.055640487000346 ], [ 533653.670178714208305, 7262090.006479298695922 ], [ 533656.329821285791695, 7262100.000446105375886 ], [ 533658.459496571216732, 7262110.0 ], [ 533659.552908320911229, 7262120.0 ], [ 533659.912851801607758, 7262130.0 ], [ 533659.988825823529623, 7262140.0 ], [ 533659.999107789248228, 7262150.0 ], [ 533660.0, 7262160.0 ], [ 533660.0, 7262170.0 ], [ 533660.000892210751772, 7262180.0 ], [ 533660.011174176470377, 7262190.0 ], [ 533660.087148198392242, 7262200.0 ], [ 533660.447091679088771, 7262210.0 ], [ 533661.540503428783268, 7262220.0 ], [ 533663.671070924960077, 7262230.0 ], [ 533666.340995462378487, 7262240.0 ], [ 533668.546644769841805, 7262250.0 ], [ 533670.0, 7262260.0 ], [ 533671.453355230391026, 7262270.0 ], [ 533673.659004537737928, 7262280.0 ], [ 533676.328929075156339, 7262290.0 ], [ 533678.458604360697791, 7262300.0 ], [ 533679.541734144324437, 7262310.0 ], [ 533679.825703603215516, 7262320.0 ], [ 533679.541734144324437, 7262330.0 ], [ 533678.458604360697791, 7262340.000000000931323 ], [ 533676.328929075156339, 7262350.0 ], [ 533673.659004537737928, 7262360.0 ], [ 533671.453355230391026, 7262370.0 ], [ 533669.999107789364643, 7262380.0 ], [ 533668.535470593255013, 7262390.0 ], [ 533666.253847263869829, 7262400.0 ], [ 533663.223979245638475, 7262410.0 ], [ 533659.999107789248228, 7262420.0 ], [ 533656.765738788526505, 7262430.0 ], [ 533653.670178714208305, 7262440.0 ], [ 533651.103693715413101, 7262450.0 ], [ 533648.896306284703314, 7262460.0 ], [ 533646.329821285791695, 7262470.0 ], [ 533643.234261211473495, 7262480.0 ], [ 533640.000000000116415, 7262490.0 ], [ 533636.765738788526505, 7262500.0 ], [ 533633.670178714208305, 7262510.0 ], [ 533631.104585926048458, 7262520.0 ], [ 533628.906588250421919, 7262530.0 ], [ 533626.405795307713561, 7262540.0 ], [ 533623.594204692170024, 7262550.0 ], [ 533621.094303960213438, 7262560.0 ], [ 533618.906588250421919, 7262570.0 ], [ 533616.416969484183937, 7262580.0 ], [ 533613.680460680043325, 7262590.0 ], [ 533611.530221462948248, 7262600.000000000931323 ], [ 533610.359943480696529, 7262610.0 ], [ 533609.640056519303471, 7262620.0 ], [ 533608.470670747803524, 7262630.0 ], [ 533606.330713496543467, 7262640.0 ], [ 533603.670178714208305, 7262650.0 ], [ 533601.540503428783268, 7262660.0 ], [ 533600.447091679205187, 7262670.0 ], [ 533600.087148198392242, 7262680.0 ], [ 533600.01028196583502, 7262690.0 ], [ 533599.98971803416498, 7262700.0 ], [ 533599.912851801607758, 7262710.0 ], [ 533599.552908320794813, 7262720.0 ], [ 533598.458604360581376, 7262730.0 ], [ 533596.318647109321319, 7262740.0 ], [ 533593.583030515816063, 7262750.0 ], [ 533591.092519538942724, 7262760.0 ], [ 533588.895414073951542, 7262770.0 ], [ 533586.328929075156339, 7262780.0 ], [ 533583.223087035119534, 7262790.0 ], [ 533579.91374401235953, 7262800.0 ], [ 533576.328929075156339, 7262810.0 ], [ 533572.205649307463318, 7262820.0 ], [ 533567.794350692653097, 7262830.0 ], [ 533563.671070924843661, 7262840.0 ], [ 533560.087148198392242, 7262850.0 ], [ 533556.788087141467258, 7262860.0 ], [ 533553.758219123352319, 7262870.000000000931323 ], [ 533551.551677605253644, 7262879.999107789248228 ], [ 533550.447983889840543, 7262889.987933613359928 ], [ 533550.087148198392242, 7262899.900785414502025 ], [ 533550.011174176470377, 7262909.453693736344576 ], [ 533550.000892210751772, 7262917.913190307095647 ], [ 533550.0, 7262924.243011591956019 ] ] } },
{ "type": "Feature", "properties": { "id": 8, "reference_id": 1, "dune_id": 1, "dune_name": "Big Mommy Dune", "acquisition_date": "2025-03-04", "length_m": 270.47398239868693 }, "geometry": { "type": "LineString", "coordinates": [ [ 529054.690995482145809, 7261955.756988408043981 ], [ 529049.465760122402571, 7261962.086809694766998 ], [ 529043.222194824251346, 7261970.546306265518069 ], [ 529036.765738788526505, 7261980.099214585497975 ], [ 529030.447091679205187, 7261990.012066387571394 ], [ 529024.861020627897233, 7262000.000892210751772 ], [ 529020.447983889840543, 7262010.0 ], [ 529016.776912965113297, 7262020.0 ], [ 529013.310235233511776, 7262030.0 ], [ 529009.924025978078134, 7262040.0 ], [ 529006.31953932007309, 7262050.0 ], [ 529002.128783074789681, 7262060.0 ], [ 528997.423233035369776, 7262070.0 ], [ 528992.489618766237982, 7262080.0 ], [ 528987.498314846656285, 7262090.0 ], [ 528982.488726555602625, 7262100.0 ], [ 528977.4120588588994, 7262110.0 ], [ 528972.041634876397438, 7262120.0 ], [ 528965.871555430116132, 7262130.0 ], [ 528958.37234837282449, 7262139.999107789248228 ], [ 528949.553800531546585, 7262149.987933613359928 ], [ 528940.011174176470377, 7262159.900785414502025 ], [ 528930.535132088349201, 7262169.453693735413253 ], [ 528922.085917482851073, 7262177.913190307095647 ], [ 528915.756988407694735, 7262184.243011591956019 ] ] } },
{ "type": "Feature", "properties": { "id": 9, "reference_id": 1, "dune_id": 1, "dune_name": "Big Mommy Dune", "acquisition_date": "2025-03-04", "length_m": 1005.7767847667001 }, "geometry": { "type": "LineString", "coordinates": [ [ 529061.999661495094188, 7261944.243011591956019 ], [ 529065.309004517854191, 7261937.913190307095647 ], [ 529070.535132088232785, 7261929.453693735413253 ], [ 529076.788087141467258, 7261919.900785414502025 ], [ 529083.309343022760004, 7261909.987933613359928 ], [ 529089.901677625020966, 7261899.999107789248228 ], [ 529096.144350712536834, 7261890.0 ], [ 529101.223425540025346, 7261880.0 ], [ 529104.253293558140285, 7261870.0 ], [ 529104.679821305791847, 7261860.0 ], [ 529103.122980238753371, 7261850.0 ], [ 529100.99419716396369, 7261840.000000000931323 ], [ 529098.807373664807528, 7261830.0 ], [ 529095.957811417989433, 7261820.0 ], [ 529092.052809052867815, 7261810.0 ], [ 529087.4120588588994, 7261800.0 ], [ 529082.477552379015833, 7261790.0 ], [ 529077.4120588588994, 7261780.0 ], [ 529072.052809052867815, 7261770.0 ], [ 529065.959595839260146, 7261760.0 ], [ 529058.830614228500053, 7261750.0 ], [ 529051.180559947970323, 7261740.0 ], [ 529044.117270393297076, 7261730.000000000931323 ], [ 529038.318308604415506, 7261720.0 ], [ 529033.768501089187339, 7261710.0 ], [ 529030.099214585614391, 7261700.0 ], [ 529026.78897935221903, 7261690.0 ], [ 529023.758219123352319, 7261680.0 ], [ 529021.551677605137229, 7261670.0 ], [ 529020.447983889840543, 7261660.0 ], [ 529020.087148198508658, 7261650.0 ], [ 529020.011174176470377, 7261640.0 ], [ 529020.000892210751772, 7261630.0 ], [ 529020.0, 7261620.0 ], [ 529020.0, 7261610.0 ], [ 529020.0, 7261600.0 ], [ 529020.000892210751772, 7261590.0 ], [ 529020.011174176470377, 7261580.0 ], [ 529020.087148198508658, 7261570.0 ], [ 529020.447091679205187, 7261560.000000000931323 ], [ 529021.541395639418624, 7261550.0 ], [ 529023.681352890678681, 7261540.0 ], [ 529026.416969484183937, 7261530.0 ], [ 529028.907480461173691, 7261520.0 ], [ 529031.104585926048458, 7261510.0 ], [ 529033.670178714208305, 7261500.0 ], [ 529036.766630999278277, 7261490.0 ], [ 529040.01028196583502, 7261480.0 ], [ 529043.31023523339536, 7261470.000000000931323 ], [ 529046.690656977239996, 7261460.0 ], [ 529050.0, 7261450.0 ], [ 529053.310235233511776, 7261440.0 ], [ 529056.700938943075016, 7261430.0 ], [ 529060.075974022038281, 7261420.0 ], [ 529063.670178714208305, 7261410.0 ], [ 529067.794350692536682, 7261400.0 ], [ 529072.20654151821509, 7261390.0 ], [ 529076.340103251626715, 7261380.0 ], [ 529080.000892210751772, 7261370.0 ], [ 529083.670178714208305, 7261360.0 ], [ 529087.869432503823191, 7261350.0 ], [ 529092.566484998911619, 7261340.0 ], [ 529097.433515001204796, 7261330.0 ], [ 529102.130567496176809, 7261320.0 ], [ 529106.329821285791695, 7261310.000000000931323 ], [ 529109.999107789364643, 7261300.0 ], [ 529113.659896748373285, 7261290.0 ], [ 529117.793458481901325, 7261280.0 ], [ 529122.205649307463318, 7261270.0 ], [ 529126.329821285791695, 7261260.0 ], [ 529129.924025978078134, 7261250.0 ], [ 529133.299953267676756, 7261240.0 ], [ 529136.700046732323244, 7261230.0 ], [ 529140.076866232673638, 7261220.0 ], [ 529143.680460680043325, 7261210.000000000931323 ], [ 529147.870324714574963, 7261200.0 ], [ 529152.565592788159847, 7261190.0 ], [ 529157.423233035369776, 7261180.0 ], [ 529162.053701263619587, 7261170.0 ], [ 529165.958703628741205, 7261160.0 ], [ 529168.81854784139432, 7261150.0 ], [ 529171.082237573107705, 7261140.0 ], [ 529173.583030515816063, 7261130.0 ], [ 529176.329821285791695, 7261120.000000000931323 ], [ 529178.544860348454677, 7261110.0 ], [ 529179.988825823529623, 7261100.0 ], [ 529181.366207031882368, 7261090.0 ], [ 529183.211912858532742, 7261080.0 ], [ 529184.788425646489486, 7261070.0 ], [ 529184.789317857124843, 7261060.0 ], [ 529183.223087035119534, 7261050.000446105375886 ], [ 529181.453355230391026, 7261040.006479299627244 ], [ 529180.43591750273481, 7261030.055640487000346 ], [ 529180.086255987756886, 7261020.322760425508022 ], [ 529180.011174176470377, 7261011.316557979211211 ], [ 529180.000892210751772, 7261003.921899050474167 ], [ 529180.0, 7260998.921899050474167 ] ] } },
{ "type": "Feature", "properties": { "id": 10, "reference_id": 8, "dune_id": 8, "dune_name": "Inverted Y Dune", "acquisition_date": "2025-03-04", "length_m": 529.8948364675814 }, "geometry": { "type": "LineString", "coordinates": [ [ 530100.087148198508658, 7261591.078100949525833 ], [ 530100.447091679205187, 7261586.078100949525833 ], [ 530101.540503428783268, 7261578.683442020788789 ], [ 530103.670178714208305, 7261569.6772395754233 ], [ 530106.329821285791695, 7261559.944359513930976 ], [ 530108.459496571333148, 7261549.993520701304078 ], [ 530109.552908320911229, 7261539.999553894624114 ], [ 530109.913744012243114, 7261530.0 ], [ 530110.0, 7261520.0 ], [ 530110.086255987756886, 7261510.0 ], [ 530110.447091679205187, 7261500.0 ], [ 530111.540503428666852, 7261490.0 ], [ 530113.670178714208305, 7261480.0 ], [ 530116.330713496543467, 7261470.000000000931323 ], [ 530118.470670747803524, 7261460.0 ], [ 530119.640056519303471, 7261450.0 ], [ 530120.359943480812944, 7261440.0 ], [ 530121.530221462948248, 7261430.0 ], [ 530123.680460680043325, 7261420.0 ], [ 530126.416969484183937, 7261410.0 ], [ 530128.907480461173691, 7261400.0 ], [ 530131.104585926048458, 7261390.0 ], [ 530133.670178714208305, 7261380.0 ], [ 530136.766630999278277, 7261370.0 ], [ 530140.011174176586792, 7261360.0 ], [ 530143.322301620617509, 7261350.0 ], [ 530146.78897935221903, 7261340.0 ], [ 530150.535132088349201, 7261330.0 ], [ 530155.309004517970607, 7261320.0 ], [ 530161.999661495094188, 7261310.000000000931323 ], [ 530170.535132088349201, 7261300.0 ], [ 530180.098322374862619, 7261290.0 ], [ 530190.012066387105733, 7261280.000892210751772 ], [ 530200.000892210751772, 7261270.011174176819623 ], [ 530210.0, 7261260.088040409609675 ], [ 530220.0, 7261250.458265855908394 ], [ 530230.0, 7261241.628543837927282 ], [ 530240.0, 7261234.129336780868471 ], [ 530250.0, 7261227.969539299607277 ], [ 530260.0, 7261222.675981550477445 ], [ 530270.0, 7261217.969539300538599 ], [ 530280.0, 7261214.128444571048021 ], [ 530290.0, 7261211.617369662038982 ], [ 530300.0, 7261210.371117657981813 ], [ 530310.0, 7261209.640948730520904 ], [ 530319.999107789248228, 7261208.470670748502016 ], [ 530329.987933612894267, 7261206.330713496543467 ], [ 530339.900785414502025, 7261203.670178713276982 ], [ 530349.453693735180423, 7261201.540503428317606 ], [ 530357.91319030651357, 7261200.447091678157449 ], [ 530364.243011592305265, 7261200.087148198857903 ] ] } },
{ "type": "Feature", "properties": { "id": 11, "reference_id": 8, "dune_id": 8, "dune_name": "Inverted Y Dune", "acquisition_date": "2025-03-04", "length_m": 144.77791663347341 }, "geometry": { "type": "LineString", "coordinates": [ [ 530534.243011592305265, 7261185.297830341383815 ], [ 530527.91319030651357, 7261190.447091679088771 ], [ 530519.453693735180423, 7261196.329821285791695 ], [ 530509.900785414385609, 7261201.682583605870605 ], [ 530499.987933612894267, 7261205.79558140784502 ], [ 530489.999107789364643, 7261208.36117419693619 ], [ 530480.0, 7261209.540841934271157 ], [ 530470.0, 7261209.911959591321647 ], [ 530460.0, 7261209.9888258241117 ], [ 530450.0, 7261209.999107790179551 ], [ 530440.000892210751772, 7261210.000000000931323 ], [ 530430.012066387222148, 7261210.000000000931323 ], [ 530420.099214585614391, 7261210.000000000931323 ], [ 530410.546306264819577, 7261210.000000000931323 ], [ 530402.08680969348643, 7261210.000000000931323 ], [ 530395.756988407694735, 7261210.000000000931323 ] ] } },
{ "type": "Feature", "properties": { "id": 12, "reference_id": 4, "dune_id": 4, "dune_name": "The Star Dune", "acquisition_date": "2025-03-04", "length_m": 650.0198311669609 }, "geometry": { "type": "LineString", "coordinates": [ [ 533005.756988407694735, 7261863.671070925891399 ], [ 533012.08680969348643, 7261866.340995462611318 ], [ 533020.546306264819577, 7261868.546644769608974 ], [ 533030.099214585614391, 7261870.000892210751772 ], [ 533040.012066387105733, 7261871.464529407210648 ], [ 533050.000892210751772, 7261873.746152736246586 ], [ 533060.0, 7261876.776020754128695 ], [ 533070.0, 7261880.0 ], [ 533080.0, 7261883.223979245871305 ], [ 533090.0, 7261886.253847263753414 ], [ 533100.0, 7261888.535470593720675 ], [ 533110.0, 7261889.999107789248228 ], [ 533120.0, 7261891.453355230391026 ], [ 533130.0, 7261893.659896748140454 ], [ 533140.0, 7261896.340103251859546 ], [ 533150.0, 7261898.547536980360746 ], [ 533160.0, 7261900.0111741758883 ], [ 533170.0, 7261901.541395640000701 ], [ 533180.0, 7261904.117270393297076 ], [ 533190.0, 7261907.956580702215433 ], [ 533200.0, 7261912.57676696497947 ], [ 533210.0, 7261917.423233035951853 ], [ 533220.0, 7261922.043419297784567 ], [ 533230.0, 7261925.882729606702924 ], [ 533240.0, 7261928.458604360930622 ], [ 533250.0, 7261929.9888258241117 ], [ 533260.0, 7261931.453355230391026 ], [ 533270.0, 7261933.670178715139627 ], [ 533280.0, 7261936.416969483718276 ], [ 533290.0, 7261938.917762427590787 ], [ 533300.0, 7261941.180559948086739 ], [ 533310.0, 7261944.030122194439173 ], [ 533320.0, 7261947.860042748972774 ], [ 533330.0, 7261952.139957251958549 ], [ 533340.0, 7261955.969877805560827 ], [ 533350.0, 7261958.820332262665033 ], [ 533360.0, 7261961.093411749228835 ], [ 533370.0, 7261963.669286503456533 ], [ 533380.000000000116415, 7261966.765738788992167 ], [ 533390.0, 7261970.0 ], [ 533400.000000000116415, 7261973.234261211939156 ], [ 533410.0, 7261976.330713496543467 ], [ 533420.0, 7261978.906588250771165 ], [ 533430.0, 7261981.179667737334967 ], [ 533440.0, 7261984.031014405190945 ], [ 533450.0, 7261987.870324715040624 ], [ 533460.0, 7261992.216823484748602 ], [ 533470.0, 7261996.340995462611318 ], [ 533480.0, 7262000.000892210751772 ], [ 533490.0, 7262003.670178715139627 ], [ 533500.0, 7262007.870324714109302 ], [ 533510.0, 7262012.576766964048147 ], [ 533520.0, 7262017.510381234809756 ], [ 533530.0, 7262022.500792942941189 ], [ 533540.0, 7262027.499207057058811 ], [ 533550.0, 7262032.488726556301117 ], [ 533560.0, 7262037.41205885913223 ], [ 533570.0, 7262042.041634876281023 ], [ 533579.999107789364643, 7262045.871555430814624 ], [ 533589.987933612894267, 7262048.371456163004041 ], [ 533599.900785414385609, 7262049.541734144091606 ], [ 533609.453693735180423, 7262049.911959591321647 ], [ 533617.91319030651357, 7262049.9888258241117 ], [ 533624.243011592305265, 7262049.999107789248228 ] ] } },
{ "type": "Feature", "properties": { "id": 13, "reference_id": 9, "dune_id": 9, "dune_name": "Inverted Y Dune", "acquisition_date": "2025-03-04", "length_m": 807.31206521608692 }, "geometry": { "type": "LineString", "coordinates": [ [ 529650.087148198392242, 7262234.243011592887342 ], [ 529650.447983889840543, 7262227.913190307095647 ], [ 529651.552569815889001, 7262219.453693735413253 ], [ 529653.768501089187339, 7262209.900785414502025 ], [ 529656.864061163505539, 7262199.987933613359928 ], [ 529660.447091679321602, 7262189.999107789248228 ], [ 529664.764482674421743, 7262180.0 ], [ 529669.924025978078134, 7262170.0 ], [ 529674.86618408979848, 7262160.0 ], [ 529678.470670747803524, 7262150.0 ], [ 529681.104585926048458, 7262140.0 ], [ 529684.106096216943115, 7262130.0 ], [ 529688.306242217193358, 7262120.0 ], [ 529693.680460680043325, 7262110.0 ], [ 529699.640056519303471, 7262100.0 ], [ 529705.150153548456728, 7262090.0 ], [ 529709.552908320911229, 7262080.0 ], [ 529713.223087035003118, 7262070.0 ], [ 529716.689764766488224, 7262060.0 ], [ 529720.075974022038281, 7262050.0 ], [ 529723.680460680043325, 7262040.0 ], [ 529727.871216925210319, 7262030.0 ], [ 529732.576766964630224, 7262020.0 ], [ 529737.509489023126662, 7262010.0 ], [ 529742.490510976989754, 7262000.0 ], [ 529747.423233035369776, 7261990.0 ], [ 529752.128783074789681, 7261980.0 ], [ 529756.319539319956675, 7261970.0 ], [ 529759.923133767326362, 7261960.0 ], [ 529763.299061056924984, 7261950.0 ], [ 529766.689764766488224, 7261940.0 ], [ 529770.0, 7261930.0 ], [ 529773.309343022760004, 7261920.0 ], [ 529776.690656977239996, 7261910.0 ], [ 529780.000892210751772, 7261900.0 ], [ 529783.32051719923038, 7261890.0 ], [ 529786.777805175632238, 7261880.0 ], [ 529790.447983889840543, 7261870.0 ], [ 529794.861912838649005, 7261860.0 ], [ 529800.45915806631092, 7261850.0 ], [ 529806.864953374140896, 7261840.000000000931323 ], [ 529813.768501089187339, 7261830.0 ], [ 529821.552569815889001, 7261820.0 ], [ 529830.447983889840543, 7261810.0 ], [ 529840.087148198392242, 7261800.0 ], [ 529850.011174176470377, 7261790.0 ], [ 529860.000892210751772, 7261780.0 ], [ 529870.0, 7261770.0 ], [ 529880.0, 7261760.0 ], [ 529890.0, 7261750.000892210751772 ], [ 529900.0, 7261740.011174176819623 ], [ 529910.0, 7261730.087148198857903 ], [ 529920.0, 7261720.447983889840543 ], [ 529930.0, 7261711.551677605137229 ], [ 529940.0, 7261703.757326913066208 ], [ 529950.0, 7261696.777805175632238 ], [ 529960.0, 7261690.011174176819623 ], [ 529970.0, 7261683.311127444729209 ], [ 529980.0, 7261676.700938943773508 ], [ 529990.0, 7261670.075974022038281 ], [ 530000.0, 7261663.670178715139627 ], [ 530010.0, 7261657.794350693002343 ], [ 530020.0, 7261652.206541517749429 ], [ 530030.0, 7261646.340103251859546 ], [ 530040.0, 7261640.0 ], [ 530049.999107789364643, 7261633.659450643695891 ], [ 530059.987933612894267, 7261627.788763605058193 ], [ 530069.900785414502025, 7261622.174141596071422 ], [ 530079.453693735180423, 7261616.204597821459174 ], [ 530087.913190306629986, 7261609.688906352967024 ], [ 530094.243011592421681, 7261603.463633195497096 ], [ 530097.91319030651357, 7261598.833858641795814 ] ] } },
{ "type": "Feature", "properties": { "id": 14, "reference_id": 7, "dune_id": 7, "dune_name": "Inverted Y Dune", "acquisition_date": "2025-03-04", "length_m": 470.28112882829544 }, "geometry": { "type": "LineString", "coordinates": [ [ 530205.756988407694735, 7261650.0 ], [ 530212.08680969348643, 7261650.0 ], [ 530220.546306264819577, 7261649.999107790179551 ], [ 530230.099214585614391, 7261649.9888258241117 ], [ 530240.012066387222148, 7261649.912851802073419 ], [ 530250.000892210635357, 7261649.552016111090779 ], [ 530260.0, 7261648.448322394862771 ], [ 530270.0, 7261646.242673087865114 ], [ 530280.0, 7261643.222194824367762 ], [ 530290.0, 7261639.9888258241117 ], [ 530300.0, 7261636.689764766953886 ], [ 530310.0, 7261633.309343023225665 ], [ 530320.0, 7261630.0 ], [ 530330.0, 7261626.690656976774335 ], [ 530340.0, 7261623.309343023225665 ], [ 530350.0, 7261620.0 ], [ 530360.0, 7261616.689764766953886 ], [ 530370.0, 7261613.298168847337365 ], [ 530380.0, 7261609.912851801142097 ], [ 530390.0, 7261606.242673087865114 ], [ 530400.0, 7261601.757665418088436 ], [ 530410.0, 7261596.241780877113342 ], [ 530420.0, 7261589.901677625253797 ], [ 530430.000000000116415, 7261583.211020648479462 ], [ 530440.0, 7261576.241780877113342 ], [ 530450.0, 7261568.448322394862771 ], [ 530460.0, 7261559.552016111090779 ], [ 530469.999107789364643, 7261549.912851801142097 ], [ 530479.988825823529623, 7261539.9888258241117 ], [ 530489.912851801607758, 7261529.999107789248228 ], [ 530499.552016110159457, 7261520.0 ], [ 530508.448322394862771, 7261510.0 ], [ 530516.242673087399453, 7261500.0 ], [ 530523.222194824367762, 7261490.0 ], [ 530529.988825823529623, 7261480.0 ], [ 530536.689764766488224, 7261470.000000000931323 ], [ 530543.309343022760004, 7261460.0 ], [ 530549.999107789364643, 7261450.000892210751772 ], [ 530556.678590590134263, 7261440.012066387571394 ], [ 530563.211020647897385, 7261430.099214585497975 ], [ 530569.464867911767215, 7261420.546306264586747 ], [ 530574.690995482262224, 7261412.086809693835676 ], [ 530578.000338505022228, 7261405.756988408043981 ] ] } }
]
}
