{
"type": "FeatureCollection",
"name": "crests_2018_12_2018-12-11",
"crs": { "type": "name", "properties": { "name": "urn:ogc:def:crs:EPSG::32733" } },
"features": [
{ "type": "Feature", "properties": { "id": 0, "reference_id": 8, "dune_id": 8, "dune_name": "Inverted Y Dune", "acquisition_date": "2018-12-11", "length_m": 523.43363049497918 }, "geometry": { "type": "LineString", "coordinates": [ [ 530100.0, 7261591.078100949525833 ], [ 530100.0, 7261586.078100949525833 ], [ 530100.000892210751772, 7261578.683442020788789 ], [ 530100.011174176470377, 7261569.6772395754233 ], [ 530100.087148198508658, 7261559.944359513930976 ], [ 530100.447091679205187, 7261549.993520701304078 ], [ 530101.540503428783268, 7261539.999553894624114 ], [ 530103.670178714208305, 7261530.0 ], [ 530106.329821285791695, 7261520.0 ], [ 530108.460388781968504, 7261510.0 ], [ 530109.564082497381605, 7261500.0 ], [ 530110.0, 7261490.0 ], [ 530110.43591750273481, 7261480.0 ], [ 530111.539611218031496, 7261470.000000000931323 ], [ 530113.671070924960077, 7261460.0 ], [ 530116.340995462262072, 7261450.0 ], [ 530118.54664476972539, 7261440.0 ], [ 530120.0, 7261430.0 ], [ 530121.454247441026382, 7261420.0 ], [ 530123.670178714208305, 7261410.0 ], [ 530126.416077273664996, 7261400.0 ], [ 530128.907480461173691, 7261390.0 ], [ 530131.104585926048458, 7261380.0 ], [ 530133.671070924960077, 7261370.0 ], [ 530136.777805175632238, 7261360.0 ], [ 530140.097430164227262, 7261350.0 ], [ 530143.758219123352319, 7261340.0 ], [ 530148.242334582377225, 7261330.0 ], [ 530153.758219123352319, 7261320.0 ], [ 530160.098322374979034, 7261310.000000000931323 ], [ 530166.788979352102615, 7261300.0 ], [ 530173.758219123352319, 7261290.000892210751772 ], [ 530181.551677605253644, 7261280.0111741758883 ], [ 530190.447983889840543, 7261270.087148198857903 ], [ 530200.087148198392242, 7261260.447983890771866 ], [ 530210.011174176470377, 7261251.552569815889001 ], [ 530220.000892210635357, 7261243.768501089885831 ], [ 530230.0, 7261236.864953374490142 ], [ 530240.0, 7261230.459158066660166 ], [ 530250.0, 7261224.862805049866438 ], [ 530260.0, 7261220.459158066660166 ], [ 530270.0, 7261216.864953374490142 ], [ 530280.0, 7261213.768501089885831 ], [ 530290.0, 7261211.551677606068552 ], [ 530300.0, 7261210.436809713952243 ], [ 530309.999107789364643, 7261210.000000000931323 ], [ 530319.987933612894267, 7261209.564082497730851 ], [ 530329.900785414502025, 7261208.460388782434165 ], [ 530339.453693735180423, 7261206.329821285791695 ], [ 530347.91319030651357, 7261203.670178713276982 ], [ 530354.243011592305265, 7261201.540503428317606 ] ] } },
{ "type": "Feature", "properties": { "id": 1, "reference_id": 8, "dune_id": 8, "dune_name": "Inverted Y Dune", "acquisition_date": "2018-12-11", "length_m": 164.67430984531964 }, "geometry": { "type": "LineString", "coordinates": [ [ 530395.756988407694735, 7261210.000000000931323 ], [ 530402.08680969348643, 7261210.000000000931323 ], [ 530410.546306264819577, 7261210.000000000931323 ], [ 530420.099214585614391, 7261210.000000000931323 ], [ 530430.012066387222148, 7261210.000000000931323 ], [ 530440.000892210751772, 7261210.000000000931323 ], [ 530450.0, 7261209.999107790179551 ], [ 530460.0, 7261209.987933613359928 ], [ 530470.0, 7261209.901677625253797 ], [ 530480.0, 7261209.464867912232876 ], [ 530490.0, 7261208.001230716705322 ], [ 530500.0, 7261204.702169658616185 ], [ 530509.999107789248228, 7261199.552908319979906 ], [ 530519.987933612894267, 7261193.670178714208305 ], [ 530529.900785414385609, 7261188.317416394129395 ], [ 530539.453693735296838, 7261184.20441859215498 ], [ 530547.91319030651357, 7261181.638825803995132 ], [ 530554.243011592305265, 7261180.459158066660166 ] ] } },
{ "type": "Feature", "properties": { "id": 2, "reference_id": 1, "dune_id": 1, "dune_name": "Big Mommy Dune", "acquisition_date": "2018-12-11", "length_m": 234.59407297852326 }, "geometry": { "type": "LineString", "coordinates": [ [ 528951.628543837927282, 7262154.243011591956019 ], [ 528954.129336780519225, 7262147.913190307095647 ], [ 528957.968647089437582, 7262139.453693735413253 ], [ 528962.664807373890653, 7262129.900785414502025 ], [ 528967.881498891045339, 7262119.987933613359928 ], [ 528973.670178714208305, 7262109.999107789248228 ], [ 528979.988825823646039, 7262100.0 ], [ 528986.242673087399453, 7262090.0 ], [ 528991.682583606336266, 7262080.0 ], [ 528995.881837395951152, 7262070.0 ], [ 528998.809158086311072, 7262060.0 ], [ 529001.093411749578081, 7262050.0 ], [ 529003.680460680043325, 7262040.0 ], [ 529006.853779197670519, 7262030.0 ], [ 529010.458265855675563, 7262020.0 ], [ 529014.861912838649005, 7262010.0 ], [ 529020.447983889840543, 7262000.0 ], [ 529026.776912964996882, 7261990.000892210751772 ], [ 529033.309343022760004, 7261980.012066386640072 ], [ 529039.912851801607758, 7261970.099214585497975 ], [ 529046.231498910929076, 7261960.546306265518069 ], [ 529051.670517219114117, 7261952.086809693835676 ], [ 529055.79468919755891, 7261945.756988408043981 ] ] } },
{ "type": "Feature", "properties": { "id": 3, "reference_id": 1, "dune_id": 1, "dune_name": "Big Mommy Dune", "acquisition_date": "2018-12-11", "length_m": 928.26018025952681 }, "geometry": { "type": "LineString", "coordinates": [ [ 529075.222748530097306, 7261914.243011592887342 ], [ 529080.098322374979034, 7261907.913190307095647 ], [ 529085.323557734722272, 7261899.453693736344576 ], [ 529089.999107789248228, 7261889.900785414502025 ], [ 529094.665268088923767, 7261879.987933613359928 ], [ 529099.813637216109782, 7261869.999107789248228 ], [ 529104.318985614343546, 7261860.0 ], [ 529106.382968843681738, 7261850.0 ], [ 529105.336423341883346, 7261840.000000000931323 ], [ 529101.9330305356998, 7261830.0 ], [ 529097.323126239120029, 7261820.0 ], [ 529092.117608898319304, 7261810.0 ], [ 529086.328929075156339, 7261800.0 ], [ 529079.999107789248228, 7261790.0 ], [ 529073.659896748373285, 7261780.0 ], [ 529067.793458481901325, 7261770.0 ], [ 529062.206541518098675, 7261760.0 ], [ 529056.340103251626715, 7261750.0 ], [ 529050.000892210635357, 7261740.0 ], [ 529043.671070924843661, 7261730.000000000931323 ], [ 529037.881498890928924, 7261720.0 ], [ 529032.664807373774238, 7261710.0 ], [ 529027.968647089553997, 7261700.0 ], [ 529024.128444569883868, 7261690.0 ], [ 529021.61736966134049, 7261680.0 ], [ 529020.371117657283321, 7261670.0 ], [ 529019.641840940690599, 7261660.0 ], [ 529018.481844924273901, 7261650.0 ], [ 529016.417861694935709, 7261640.0 ], [ 529014.117270393413492, 7261630.0 ], [ 529013.08100685745012, 7261620.0 ], [ 529014.117270393413492, 7261610.0 ], [ 529016.416969484183937, 7261600.0 ], [ 529018.470670747803524, 7261590.0 ], [ 529019.553800531546585, 7261580.0 ], [ 529019.91374401235953, 7261570.0 ], [ 529020.0, 7261560.000000000931323 ], [ 529020.086255987873301, 7261550.0 ], [ 529020.447983889840543, 7261540.0 ], [ 529021.551677605137229, 7261530.0 ], [ 529023.757326912600547, 7261520.0 ], [ 529026.776912964996882, 7261510.0 ], [ 529030.000892210751772, 7261500.0 ], [ 529033.234261211473495, 7261490.0 ], [ 529036.330713496543467, 7261480.0 ], [ 529038.906588250538334, 7261470.000000000931323 ], [ 529041.180559947970323, 7261460.0 ], [ 529044.041296371375211, 7261450.0 ], [ 529047.946298736496828, 7261440.0 ], [ 529052.576766964630224, 7261430.0 ], [ 529057.434407211840153, 7261420.0 ], [ 529062.129675285541452, 7261410.0 ], [ 529066.31953932007309, 7261400.0 ], [ 529069.923133767326362, 7261390.0 ], [ 529073.299953267676756, 7261380.0 ], [ 529076.700046732323244, 7261370.0 ], [ 529080.076866232557222, 7261360.0 ], [ 529083.680460680043325, 7261350.0 ], [ 529087.870324714574963, 7261340.0 ], [ 529092.566484998911619, 7261330.0 ], [ 529097.433515001204796, 7261320.0 ], [ 529102.130567496176809, 7261310.000000000931323 ], [ 529106.329821285791695, 7261300.0 ], [ 529110.0, 7261290.0 ], [ 529113.670178714208305, 7261280.0 ], [ 529117.869432503939606, 7261270.0 ], [ 529122.566484998911619, 7261260.0 ], [ 529127.433515001204796, 7261250.0 ], [ 529132.130567496176809, 7261240.0 ], [ 529136.329821285791695, 7261230.0 ], [ 529139.999107789364643, 7261220.0 ], [ 529143.659896748373285, 7261210.000000000931323 ], [ 529147.793458481901325, 7261200.0 ], [ 529152.205649307463318, 7261190.0 ], [ 529156.329821285791695, 7261180.0 ], [ 529159.924025978078134, 7261170.0 ], [ 529163.299061057041399, 7261160.0 ], [ 529166.688872555969283, 7261150.0 ], [ 529169.988825823529623, 7261140.0 ], [ 529173.222194824367762, 7261130.0 ], [ 529176.242673087399453, 7261120.000000000931323 ], [ 529178.448322394862771, 7261110.0 ], [ 529179.552016110159457, 7261100.0 ], [ 529179.912851801607758, 7261090.000892210751772 ], [ 529179.988825823529623, 7261080.012066387571394 ], [ 529179.999107789364643, 7261070.099214585497975 ], [ 529180.0, 7261060.546306265518069 ], [ 529180.0, 7261052.086809693835676 ], [ 529180.0, 7261045.756988408043981 ] ] } },
{ "type": "Feature", "properties": { "id": 4, "reference_id": 9, "dune_id": 9, "dune_name": "Inverted Y Dune", "acquisition_date": "2018-12-11", "length_m": 740.52737985719114 }, "geometry": { "type": "LineString", "coordinates": [ [ 530074.243011592421681, 7261614.205310802906752 ], [ 530067.913190306629986, 7261618.329482780769467 ], [ 530059.453693735296838, 7261623.768501088954508 ], [ 530049.900785414502025, 7261630.088040409609675 ], [ 530039.987933612777852, 7261636.70183115452528 ], [ 530029.999107789248228, 7261643.310235233977437 ], [ 530020.0, 7261650.0 ], [ 530010.0, 7261656.690656976774335 ], [ 530000.0, 7261663.309343023225665 ], [ 529990.0, 7261670.0 ], [ 529980.0, 7261676.690656976774335 ], [ 529970.0, 7261683.310235233977437 ], [ 529960.0, 7261690.011174176819623 ], [ 529950.0, 7261696.776912965811789 ], [ 529940.0, 7261703.746152736246586 ], [ 529930.0, 7261711.464529406279325 ], [ 529920.0, 7261720.000892210751772 ], [ 529910.0, 7261728.546644770540297 ], [ 529900.0, 7261736.340995462611318 ], [ 529890.0, 7261743.671070925891399 ], [ 529880.0, 7261751.540503429248929 ], [ 529870.0, 7261760.447091679088771 ], [ 529860.000892210751772, 7261770.087148198857903 ], [ 529850.011174176470377, 7261780.011174176819623 ], [ 529840.087148198392242, 7261790.000892210751772 ], [ 529830.447983889840543, 7261800.0 ], [ 529821.551677605137229, 7261810.0 ], [ 529813.758219123352319, 7261820.0 ], [ 529806.78897935221903, 7261830.0 ], [ 529800.098322374862619, 7261840.000000000931323 ], [ 529793.758219123352319, 7261850.0 ], [ 529788.24233458249364, 7261860.0 ], [ 529783.758219123352319, 7261870.0 ], [ 529780.097430164227262, 7261880.0 ], [ 529776.777805175632238, 7261890.0 ], [ 529773.671070924960077, 7261900.0 ], [ 529771.103693715296686, 7261910.0 ], [ 529768.896306284703314, 7261920.0 ], [ 529766.329821285791695, 7261930.0 ], [ 529763.233369000838138, 7261940.0 ], [ 529759.988825823529623, 7261950.0 ], [ 529756.678590590134263, 7261960.0 ], [ 529753.222194824367762, 7261970.0 ], [ 529749.552908320911229, 7261980.0 ], [ 529745.150153548573144, 7261990.0 ], [ 529739.639164308551699, 7262000.0 ], [ 529733.670178714208305, 7262010.0 ], [ 529728.230268195271492, 7262020.0 ], [ 529723.746152736130171, 7262030.0 ], [ 529720.011174176586792, 7262040.0 ], [ 529716.340995462262072, 7262050.0 ], [ 529712.20654151821509, 7262060.0 ], [ 529707.793458481901325, 7262070.0 ], [ 529703.659896748373285, 7262080.0 ], [ 529699.999107789248228, 7262090.0 ], [ 529696.329821285791695, 7262100.0 ], [ 529692.129675285425037, 7262110.0 ], [ 529687.423233035369776, 7262120.0 ], [ 529682.490510976873338, 7262130.0 ], [ 529677.510381233762018, 7262140.0 ], [ 529672.5879411411006, 7262149.999107789248228 ], [ 529667.958365123718977, 7262159.987933613359928 ], [ 529664.128444569883868, 7262169.900785414502025 ], [ 529661.628543837927282, 7262179.453693735413253 ], [ 529660.458265855675563, 7262187.913190307095647 ], [ 529660.088040409144014, 7262194.243011591956019 ] ] } },
{ "type": "Feature", "properties": { "id": 5, "reference_id": 3, "dune_id": 3, "dune_name": "Big Mommy Dune", "acquisition_date": "2018-12-11", "length_m": 363.97528948411338 }, "geometry": { "type": "LineString", "coordinates": [ [ 529374.243011592305265, 7260695.309896729886532 ], [ 529367.91319030651357, 7260700.546306265518069 ], [ 529359.454585945932195, 7260706.876127550378442 ], [ 529349.911959590972401, 7260713.769393300637603 ], [ 529340.075081811286509, 7260721.552569815889001 ], [ 529330.447091679205187, 7260730.447983890771866 ], [ 529321.551677605253644, 7260740.087148198857903 ], [ 529313.757326912716962, 7260750.011174176819623 ], [ 529306.777805175748654, 7260760.000892210751772 ], [ 529300.011174176470377, 7260770.0 ], [ 529293.310235233511776, 7260780.000000000931323 ], [ 529286.690656977239996, 7260790.0 ], [ 529280.0, 7260800.0 ], [ 529273.309343022760004, 7260810.0 ], [ 529266.690656977239996, 7260820.0 ], [ 529260.0, 7260830.0 ], [ 529253.309343022876419, 7260840.0 ], [ 529246.690656977239996, 7260850.0 ], [ 529240.0, 7260860.0 ], [ 529233.31023523339536, 7260870.0 ], [ 529226.700938943075016, 7260880.0 ], [ 529220.076866232557222, 7260890.0 ], [ 529213.680460680043325, 7260900.0 ], [ 529207.870324714574963, 7260910.0 ], [ 529202.566484998795204, 7260920.0 ], [ 529197.434407211840153, 7260930.0 ], [ 529192.141741672647186, 7260939.999553894624114 ], [ 529186.417861694935709, 7260949.993520701304078 ], [ 529180.458265855675563, 7260959.944359514862299 ], [ 529175.298722552019171, 7260969.6772395754233 ], [ 529171.998769284342416, 7260978.683442020788789 ], [ 529170.535132088349201, 7260986.078100949525833 ], [ 529170.098322374979034, 7260991.078100949525833 ] ] } },
{ "type": "Feature", "properties": { "id": 6, "reference_id": 3, "dune_id": 3, "dune_name": "Big Mommy Dune", "acquisition_date": "2018-12-11", "length_m": 214.99929676925939 }, "geometry": { "type": "LineString", "coordinates": [ [ 529405.756988407694735, 7260679.552016109228134 ], [ 529412.08680969348643, 7260678.448322394862771 ], [ 529420.546306264819577, 7260676.242673087865114 ], [ 529430.099214585614391, 7260673.223087035119534 ], [ 529440.012066387222148, 7260669.999107789248228 ], [ 529450.000892210751772, 7260666.765738788992167 ], [ 529460.0, 7260663.670178714208305 ], [ 529470.0, 7260661.103693716228008 ], [ 529480.0, 7260658.896306285634637 ], [ 529490.0, 7260656.329821285791695 ], [ 529500.000000000116415, 7260653.234261211939156 ], [ 529510.0, 7260650.000892210751772 ], [ 529520.0, 7260646.776020754128695 ], [ 529530.0, 7260643.746152736246586 ], [ 529540.0, 7260641.464529407210648 ], [ 529550.0, 7260640.000892210751772 ], [ 529560.0, 7260638.546644769608974 ], [ 529569.999107789248228, 7260636.340995462611318 ], [ 529579.987933612894267, 7260633.671070925891399 ], [ 529589.900785414502025, 7260631.540503429248929 ], [ 529599.453693735180423, 7260630.447091680020094 ], [ 529607.91319030651357, 7260630.087148198857903 ], [ 529614.243011592421681, 7260630.011174176819623 ] ] } },
{ "type": "Feature", "properties": { "id": 7, "reference_id": 3, "dune_id": 3, "dune_name": "Big Mommy Dune", "acquisition_date": "2018-12-11", "length_m": 58.486023184610531 }, "geometry": { "type": "LineString", "coordinates": [ [ 529704.243011592305265, 7260620.0 ], [ 529697.91319030651357, 7260620.0 ], [ 529689.454585945932195, 7260620.0 ], [ 529679.912851801607758, 7260620.0 ], [ 529670.087148198508658, 7260620.0 ], [ 529660.545414054067805, 7260620.0 ], [ 529652.08680969348643, 7260620.0 ], [ 529645.756988407694735, 7260620.0 ] ] } },
{ "type": "Feature", "properties": { "id": 8, "reference_id": 3, "dune_id": 3, "dune_name": "Big Mommy Dune", "acquisition_date": "2018-12-11", "length_m": 128.48602318461053 }, "geometry": { "type": "LineString", "coordinates": [ [ 529874.243011592305265, 7260610.0 ], [ 529867.91319030651357, 7260610.0 ], [ 529859.453693735180423, 7260610.0 ], [ 529849.900785414385609, 7260610.0 ], [ 529839.987933612894267, 7260610.0 ], [ 529829.999107789364643, 7260610.0 ], [ 529820.0, 7260610.0 ], [ 529810.0, 7260610.0 ], [ 529800.0, 7260610.0 ], [ 529790.000892210751772, 7260610.0 ], [ 529780.012066387105733, 7260610.0 ], [ 529770.099214585614391, 7260610.0 ], [ 529760.546306264819577, 7260610.0 ], [ 529752.08680969348643, 7260610.0 ], [ 529745.756988407694735, 7260610.0 ] ] } },
{ "type": "Feature", "properties": { "id": 9, "reference_id": 3, "dune_id": 3, "dune_name": "Big Mommy Dune", "acquisition_date": "2018-12-11", "length_m": 193.15332316224476 }, "geometry": { "type": "LineString", "coordinates": [ [ 530204.243011592305265, 7260571.540503429248929 ], [ 530197.91319030651357, 7260573.671070925891399 ], [ 530189.453693735180423, 7260576.340995462611318 ], [ 530179.900785414385609, 7260578.546644769608974 ], [ 530169.987933612894267, 7260580.000892210751772 ], [ 530159.999107789364643, 7260581.464529406279325 ], [ 530150.0, 7260583.746152736246586 ], [ 530140.0, 7260586.776020754128695 ], [ 530130.0, 7260590.0 ], [ 530120.0, 7260593.223087035119534 ], [ 530110.0, 7260596.243565298616886 ], [ 530100.0, 7260598.459496571682394 ], [ 530090.0, 7260599.63916430901736 ], [ 530080.0, 7260600.35994348116219 ], [ 530070.0, 7260601.529329252429307 ], [ 530060.000892210751772, 7260603.669286504387856 ], [ 530050.012066387222148, 7260606.329821286723018 ], [ 530040.099214585614391, 7260608.459496571682394 ], [ 530030.546306264819577, 7260609.552908320911229 ], [ 530022.08680969348643, 7260609.912851802073419 ], [ 530015.756988407694735, 7260609.9888258241117 ] ] } },
{ "type": "Feature", "properties": { "id": 10, "reference_id": 2, "dune_id": 2, "dune_name": "Big Mommy Dune", "acquisition_date": "2018-12-11", "length_m": 189.80298997049292 }, "geometry": { "type": "LineString", "coordinates": [ [ 528584.243011592305265, 7260758.371456163004041 ], [ 528577.91319030651357, 7260755.870663220062852 ], [ 528569.453693735296838, 7260752.031352911144495 ], [ 528559.900785414385609, 7260747.335192626342177 ], [ 528549.987933612894267, 7260742.117608898319304 ], [ 528539.999107789364643, 7260736.317754899151623 ], [ 528530.0, 7260729.91195959225297 ], [ 528520.0, 7260723.212805069983006 ], [ 528510.0, 7260716.252955053001642 ], [ 528500.0, 7260708.536362804472446 ], [ 528490.0, 7260700.010281966067851 ], [ 528480.0, 7260691.540503429248929 ], [ 528470.000892210751772, 7260684.106988428160548 ], [ 528460.012066387105733, 7260677.881498890928924 ], [ 528450.099214585614391, 7260672.228889871388674 ], [ 528440.546306264819577, 7260666.42903587128967 ], [ 528432.08680969348643, 7260660.459158066660166 ], [ 528425.756988407694735, 7260655.298722552135587 ] ] } },
{ "type": "Feature", "properties": { "id": 11, "reference_id": 2, "dune_id": 2, "dune_name": "Big Mommy Dune", "acquisition_date": "2018-12-11", "length_m": 51.851553389292803 }, "geometry": { "type": "LineString", "coordinates": [ [ 528724.243011592421681, 7260828.372348373755813 ], [ 528717.914082517148927, 7260825.882729606702924 ], [ 528709.465760122286156, 7260822.129675285890698 ], [ 528700.0, 7260817.870324714109302 ], [ 528690.534239877597429, 7260814.117270393297076 ], [ 528682.085917482851073, 7260811.62765162717551 ], [ 528675.756988407694735, 7260810.458265855908394 ] ] } },
{ "type": "Feature", "properties": { "id": 12, "reference_id": 5, "dune_id": 5, "dune_name": "The Star Dune", "acquisition_date": "2018-12-11", "length_m": 673.16646710537134 }, "geometry": { "type": "LineString", "coordinates": [ [ 534144.243011592305265, 7261670.447091679088771 ], [ 534137.91319030651357, 7261671.540503429248929 ], [ 534129.453693735296838, 7261673.670178714208305 ], [ 534119.900785414502025, 7261676.329821285791695 ], [ 534109.987933612894267, 7261678.460388781502843 ], [ 534099.999107789248228, 7261679.564082497730851 ], [ 534090.0, 7261680.0 ], [ 534080.0, 7261680.435917503200471 ], [ 534070.0, 7261681.539611218497157 ], [ 534060.0, 7261683.670178715139627 ], [ 534050.0, 7261686.33071349747479 ], [ 534040.0, 7261688.470670748502016 ], [ 534030.0, 7261689.64005651883781 ], [ 534020.0, 7261690.35994348116219 ], [ 534010.0, 7261691.529329253360629 ], [ 534000.0, 7261693.670178714208305 ], [ 533990.0, 7261696.340995462611318 ], [ 533980.0, 7261698.546644769608974 ], [ 533970.0, 7261700.000892210751772 ], [ 533960.0, 7261701.464529407210648 ], [ 533950.0, 7261703.747044946998358 ], [ 533940.0, 7261706.787194930948317 ], [ 533930.0, 7261710.088040409609675 ], [ 533920.0, 7261713.681352891027927 ], [ 533910.0, 7261717.871216924861073 ], [ 533900.0, 7261722.576766964048147 ], [ 533890.0, 7261727.509489023126662 ], [ 533880.0, 7261732.490510977804661 ], [ 533870.0, 7261737.424125246703625 ], [ 533860.0, 7261742.139957251027226 ], [ 533850.0, 7261746.406687518581748 ], [ 533840.0, 7261750.37111765705049 ], [ 533830.0, 7261754.851630872115493 ], [ 533820.0, 7261760.458265855908394 ], [ 533810.000892210635357, 7261766.864953374490142 ], [ 533800.011174176470377, 7261773.768501089885831 ], [ 533790.088040409144014, 7261781.552569815889001 ], [ 533780.45915806631092, 7261790.447983890771866 ], [ 533771.638825803645886, 7261800.087148198857903 ], [ 533764.205310802557506, 7261810.011174177750945 ], [ 533758.329482780885883, 7261820.000892210751772 ], [ 533753.768501089187339, 7261830.0 ], [ 533750.088040409144014, 7261840.000000000931323 ], [ 533746.701831153710373, 7261850.0 ], [ 533743.31023523339536, 7261860.0 ], [ 533740.0, 7261870.0 ], [ 533736.689764766488224, 7261880.0 ], [ 533733.299061057041399, 7261890.0 ], [ 533729.923133767326362, 7261900.0 ], [ 533726.319539319956675, 7261910.0 ], [ 533722.128783074906096, 7261920.0 ], [ 533717.42234082473442, 7261930.0 ], [ 533712.479336800519377, 7261940.0 ], [ 533707.42234082473442, 7261950.0 ], [ 533702.128783074789681, 7261960.0 ], [ 533696.31953932007309, 7261970.0 ], [ 533689.923133767326362, 7261980.0 ], [ 533683.299953267676756, 7261989.999553894624114 ], [ 533676.700938943075016, 7261999.993520701304078 ], [ 533670.088040409144014, 7262009.944359513930976 ], [ 533663.768501089187339, 7262019.677239574491978 ], [ 533658.329482780769467, 7262028.683442020788789 ], [ 533654.20531080244109, 7262036.078100949525833 ], [ 533651.638825803645886, 7262041.078100949525833 ] ] } },
{ "type": "Feature", "properties": { "id": 13, "reference_id": 5, "dune_id": 5, "dune_name": "The Star Dune", "acquisition_date": "2018-12-11", "length_m": 437.11355239237304 }, "geometry": { "type": "LineString", "coordinates": [ [ 534334.342226177919656, 7261305.756988408043981 ], [ 534328.459496571333148, 7261312.086809693835676 ], [ 534321.540503428666852, 7261320.546306264586747 ], [ 534315.657773822080344, 7261330.099214585497975 ], [ 534312.074743306264281, 7261340.012066386640072 ], [ 534310.546306264703162, 7261350.000892210751772 ], [ 534310.110388762084767, 7261360.0 ], [ 534310.099214585614391, 7261370.0 ], [ 534310.447983889840543, 7261380.0 ], [ 534311.540503428666852, 7261390.0 ], [ 534313.670178714208305, 7261400.0 ], [ 534316.330713496543467, 7261410.0 ], [ 534318.470670747687109, 7261420.0 ], [ 534319.640056519303471, 7261430.0 ], [ 534320.359943480696529, 7261440.0 ], [ 534321.529329252196476, 7261450.0 ], [ 534323.668394292821176, 7261460.0 ], [ 534326.318647109321319, 7261470.000000000931323 ], [ 534328.37234837282449, 7261480.0 ], [ 534329.105816641706042, 7261490.0 ], [ 534328.371456162189133, 7261500.0 ], [ 534326.307472932850942, 7261510.0 ], [ 534323.581246094428934, 7261520.0 ], [ 534321.081345362355933, 7261530.0 ], [ 534318.807373664923944, 7261540.0 ], [ 534315.870663219480775, 7261550.0 ], [ 534311.594543197192252, 7261559.999107790179551 ], [ 534305.78440723172389, 7261569.9888258241117 ], [ 534298.360281985718757, 7261579.911959591321647 ], [ 534289.54084193368908, 7261589.541734145022929 ], [ 534279.911959590855986, 7261598.372348373755813 ], [ 534269.988825823529623, 7261605.881837396882474 ], [ 534259.999107789248228, 7261612.118501109071076 ], [ 534250.0, 7261617.783176516182721 ], [ 534240.0, 7261623.669286503456533 ], [ 534230.0, 7261630.075081812217832 ], [ 534220.000892210751772, 7261636.688872556202114 ], [ 534210.012066387105733, 7261643.211912859231234 ], [ 534200.099214585614391, 7261649.464867912232876 ], [ 534190.546306264819577, 7261654.690995482727885 ], [ 534182.08680969348643, 7261658.00033850595355 ], [ 534175.756988407694735, 7261659.464867912232876 ] ] } },
{ "type": "Feature", "properties": { "id": 14, "reference_id": 7, "dune_id": 7, "dune_name": "Inverted Y Dune", "acquisition_date": "2018-12-11", "length_m": 590.08314577468161 }, "geometry": { "type": "LineString", "coordinates": [ [ 530195.756988407694735, 7261650.0 ], [ 530202.086809693370014, 7261650.0 ], [ 530210.546306264819577, 7261650.0 ], [ 530220.099214585614391, 7261649.999107790179551 ], [ 530230.012066387105733, 7261649.9888258241117 ], [ 530240.000892210751772, 7261649.912851802073419 ], [ 530250.0, 7261649.552016111090779 ], [ 530260.0, 7261648.448322394862771 ], [ 530270.0, 7261646.242673087865114 ], [ 530280.0, 7261643.222194824367762 ], [ 530290.0, 7261639.9888258241117 ], [ 530300.0, 7261636.689764766953886 ], [ 530310.0, 7261633.309343023225665 ], [ 530320.0, 7261630.0 ], [ 530330.0, 7261626.689764766022563 ], [ 530340.0, 7261623.299061057157815 ], [ 530350.0, 7261619.92313376814127 ], [ 530360.0, 7261616.319539319723845 ], [ 530370.0, 7261612.128783075138927 ], [ 530380.0, 7261607.423233035951853 ], [ 530390.0, 7261602.489618767052889 ], [ 530400.0, 7261597.498314846307039 ], [ 530410.0, 7261592.488726556301117 ], [ 530420.0, 7261587.412058860063553 ], [ 530430.000000000116415, 7261582.041634876281023 ], [ 530440.0, 7261575.871555430814624 ], [ 530450.0, 7261568.371456163004041 ], [ 530459.999107789364643, 7261559.541734145022929 ], [ 530469.988825823529623, 7261549.911959590390325 ], [ 530479.912851801607758, 7261539.9888258241117 ], [ 530489.552016110159457, 7261529.999107789248228 ], [ 530498.448322394862771, 7261520.0 ], [ 530506.242673087399453, 7261510.0 ], [ 530513.222194824367762, 7261500.0 ], [ 530519.988825823529623, 7261490.0 ], [ 530526.689764766488224, 7261480.0 ], [ 530533.309343022760004, 7261470.000000000931323 ], [ 530540.0, 7261460.0 ], [ 530546.690656977239996, 7261450.0 ], [ 530553.310235233511776, 7261440.0 ], [ 530560.011174176470377, 7261430.0 ], [ 530566.777805175632238, 7261420.0 ], [ 530573.757326912600547, 7261410.0 ], [ 530581.551677605253644, 7261400.0 ], [ 530590.447983889840543, 7261390.0 ], [ 530600.087148198392242, 7261380.0 ], [ 530610.01028196583502, 7261370.000892210751772 ], [ 530619.988825823646039, 7261360.012066386640072 ], [ 530629.900785414502025, 7261350.099214585497975 ], [ 530639.453693735296838, 7261340.546306265518069 ], [ 530647.913190306629986, 7261332.086809693835676 ], [ 530654.243011592305265, 7261325.756988408043981 ] ] } },
{ "type": "Feature", "properties": { "id": 15, "reference_id": 6, "dune_id": 6, "dune_name": "The Star Dune", "acquisition_date": "2018-12-11", "length_m": 707.12857895897753 }, "geometry": { "type": "LineString", "coordinates": [ [ 533650.0, 7262048.921899050474167 ], [ 533650.0, 7262053.921899050474167 ], [ 533650.0, 7262061.316557979211211 ], [ 533650.0, 7262070.322760425508022 ], [ 533650.0, 7262080.055640487000346 ], [ 533650.0, 7262090.006479298695922 ], [ 533650.0, 7262100.000446105375886 ], [ 533650.0, 7262110.0 ], [ 533650.0, 7262120.0 ], [ 533650.0, 7262130.0 ], [ 533650.0, 7262140.0 ], [ 533650.000892210751772, 7262150.0 ], [ 533650.011174176470377, 7262160.0 ], [ 533650.087148198508658, 7262170.0 ], [ 533650.447091679205187, 7262180.0 ], [ 533651.540503428783268, 7262190.0 ], [ 533653.671070924960077, 7262200.0 ], [ 533656.340995462262072, 7262210.0 ], [ 533658.546644769841805, 7262220.0 ], [ 533660.0, 7262230.0 ], [ 533661.453355230391026, 7262240.0 ], [ 533663.659004537737928, 7262250.0 ], [ 533666.328929075156339, 7262260.0 ], [ 533668.459496571333148, 7262270.0 ], [ 533669.552908320911229, 7262280.0 ], [ 533669.912851801607758, 7262290.0 ], [ 533669.988825823646039, 7262300.0 ], [ 533669.999107789364643, 7262310.0 ], [ 533670.0, 7262320.0 ], [ 533670.0, 7262330.0 ], [ 533669.999107789364643, 7262340.000000000931323 ], [ 533669.988825823646039, 7262350.0 ], [ 533669.912851801607758, 7262360.0 ], [ 533669.552016110159457, 7262370.0 ], [ 533668.448322394862771, 7262380.0 ], [ 533666.242673087399453, 7262390.0 ], [ 533663.223087035119534, 7262400.0 ], [ 533659.999107789248228, 7262410.0 ], [ 533656.765738788526505, 7262420.0 ], [ 533653.670178714208305, 7262430.0 ], [ 533651.103693715413101, 7262440.0 ], [ 533648.896306284703314, 7262450.0 ], [ 533646.329821285791695, 7262460.0 ], [ 533643.234261211473495, 7262470.0 ], [ 533640.000000000116415, 7262480.0 ], [ 533636.765738788526505, 7262490.0 ], [ 533633.670178714208305, 7262500.0 ], [ 533631.104585926048458, 7262510.0 ], [ 533628.906588250421919, 7262520.0 ], [ 533626.405795307713561, 7262530.0 ], [ 533623.594204692170024, 7262540.0 ], [ 533621.094303960213438, 7262550.0 ], [ 533618.906588250421919, 7262560.0 ], [ 533616.416077273664996, 7262570.0 ], [ 533613.670178714208305, 7262580.0 ], [ 533611.454247441026382, 7262590.0 ], [ 533610.0, 7262600.000000000931323 ], [ 533608.54664476972539, 7262610.0 ], [ 533606.340995462378487, 7262620.0 ], [ 533603.671070924960077, 7262630.0 ], [ 533601.539611218031496, 7262640.0 ], [ 533600.43591750273481, 7262650.0 ], [ 533600.0, 7262660.0 ], [ 533599.56408249726519, 7262670.0 ], [ 533598.460388781968504, 7262680.0 ], [ 533596.329821285791695, 7262690.0 ], [ 533593.670178714208305, 7262699.999107790179551 ], [ 533591.540503428783268, 7262709.987933613359928 ], [ 533590.447091679205187, 7262719.900785414502025 ], [ 533590.087148198392242, 7262729.453693736344576 ], [ 533590.011174176470377, 7262737.913190307095647 ], [ 533590.000892210751772, 7262744.243011592887342 ] ] } },
{ "type": "Feature", "properties": { "id": 16, "reference_id": 4, "dune_id": 4, "dune_name": "The Star Dune", "acquisition_date": "2018-12-11", "length_m": 227.24475208968818 }, "geometry": { "type": "LineString", "coordinates": [ [ 533015.756988407694735, 7261870.447091680020094 ], [ 533022.08680969348643, 7261871.540503429248929 ], [ 533030.546306264819577, 7261873.670178715139627 ], [ 533040.099214585614391, 7261876.33071349747479 ], [ 533050.012066387105733, 7261878.470670748502016 ], [ 533060.000892210751772, 7261879.640056519769132 ], [ 533070.0, 7261880.35994348116219 ], [ 533080.0, 7261881.530221462249756 ], [ 533090.0, 7261883.680460680276155 ], [ 533100.0, 7261886.416969484649599 ], [ 533110.0, 7261888.907480461522937 ], [ 533120.0, 7261891.10458592697978 ], [ 533130.0, 7261893.670178715139627 ], [ 533140.0, 7261896.765738788992167 ], [ 533150.0, 7261899.999107789248228 ], [ 533160.0, 7261903.223979245871305 ], [ 533170.0, 7261906.254739474505186 ], [ 533180.0, 7261908.546644769608974 ], [ 533189.999107789364643, 7261910.086255988106132 ], [ 533199.987933612894267, 7261911.900446909479797 ], [ 533209.900785414502025, 7261915.199507966637611 ], [ 533219.453693735180423, 7261919.999107790179551 ], [ 533227.91319030651357, 7261924.789317857474089 ], [ 533234.243011592421681, 7261928.012404892593622 ] ] } }
]
}
