{
"type": "FeatureCollection",
"name": "crests_2021_11_2021-11-10",
"crs": { "type": "name", "properties": { "name": "urn:ogc:def:crs:EPSG::32733" } },
"features": [
{ "type": "Feature", "properties": { "id": 0, "reference_id": 8, "dune_id": 8, "dune_name": "Inverted Y Dune", "acquisition_date": "2021-11-10", "length_m": 636.98790227351515 }, "geometry": { "type": "LineString", "coordinates": [ [ 530464.243011592305265, 7261209.999107790179551 ], [ 530457.91319030651357, 7261209.9888258241117 ], [ 530449.453693735296838, 7261209.912851802073419 ], [ 530439.900785414502025, 7261209.552908320911229 ], [ 530429.987933612894267, 7261208.459496571682394 ], [ 530419.999107789364643, 7261206.329821285791695 ], [ 530410.0, 7261203.670178713276982 ], [ 530400.0, 7261201.540503428317606 ], [ 530390.0, 7261200.447091678157449 ], [ 530380.0, 7261200.087148198857903 ], [ 530370.0, 7261200.0111741758883 ], [ 530360.0, 7261200.001784421503544 ], [ 530350.0, 7261200.0111741758883 ], [ 530340.0, 7261200.087148198857903 ], [ 530330.0, 7261200.447091678157449 ], [ 530320.0, 7261201.541395639069378 ], [ 530310.0, 7261203.681352891027927 ], [ 530300.0, 7261206.417861694470048 ], [ 530290.0, 7261208.917762426659465 ], [ 530280.0, 7261211.181452158838511 ], [ 530270.0, 7261214.04218858294189 ], [ 530260.0, 7261217.958365123718977 ], [ 530250.0, 7261222.675089339725673 ], [ 530240.0, 7261227.969539299607277 ], [ 530230.0, 7261234.129336780868471 ], [ 530220.0, 7261241.628543837927282 ], [ 530210.000892210751772, 7261250.458265855908394 ], [ 530200.011174176586792, 7261260.088040409609675 ], [ 530190.088040409144014, 7261270.011174176819623 ], [ 530180.458265855675563, 7261280.000892210751772 ], [ 530171.628543837927282, 7261290.0 ], [ 530164.129336780519225, 7261300.0 ], [ 530157.968647089553997, 7261310.000000000931323 ], [ 530152.664807373890653, 7261320.0 ], [ 530147.882391101680696, 7261330.0 ], [ 530143.681352890678681, 7261340.0 ], [ 530140.076866232673638, 7261350.0 ], [ 530136.700938943075016, 7261360.0 ], [ 530133.311127444147132, 7261370.0 ], [ 530130.011174176470377, 7261380.0 ], [ 530126.776912964996882, 7261390.0 ], [ 530123.746152736246586, 7261400.0 ], [ 530121.464529406744987, 7261410.0 ], [ 530120.000892210751772, 7261420.0 ], [ 530118.54664476972539, 7261430.0 ], [ 530116.340995462262072, 7261440.0 ], [ 530113.671070924960077, 7261450.0 ], [ 530111.540503428666852, 7261460.0 ], [ 530110.447091679205187, 7261470.000000000931323 ], [ 530110.086255987756886, 7261480.0 ], [ 530110.0, 7261490.0 ], [ 530109.913744012243114, 7261500.0 ], [ 530109.552908320911229, 7261510.0 ], [ 530108.459496571333148, 7261520.0 ], [ 530106.329821285791695, 7261530.0 ], [ 530103.669732608832419, 7261539.999553894624114 ], [ 530101.534916340489872, 7261549.993520701304078 ], [ 530100.403517580009066, 7261559.944359513930976 ], [ 530099.863602358847857, 7261569.6772395754233 ], [ 530099.240922462078743, 7261578.683442020788789 ], [ 530098.165802853647619, 7261586.078100949525833 ], [ 530096.835089357104152, 7261591.078100949525833 ] ] } },
{ "type": "Feature", "properties": { "id": 1, "reference_id": 8, "dune_id": 8, "dune_name": "Inverted Y Dune", "acquisition_date": "2021-11-10", "length_m": 70.095108305646491 }, "geometry": { "type": "LineString", "coordinates": [ [ 530554.243011592305265, 7261170.546306265518069 ], [ 530547.91319030651357, 7261172.085917483083904 ], [ 530539.454585945932195, 7261175.744922020472586 ], [ 530529.912851801607758, 7261181.987595107406378 ], [ 530520.087148198392242, 7261190.0 ], [ 530510.545414054067805, 7261198.012404892593622 ], [ 530502.08680969348643, 7261204.255077979527414 ], [ 530495.756988407694735, 7261207.914082517847419 ] ] } },
{ "type": "Feature", "properties": { "id": 2, "reference_id": 9, "dune_id": 9, "dune_name": "Inverted Y Dune", "acquisition_date": "2021-11-10", "length_m": 804.82696228717816 }, "geometry": { "type": "LineString", "coordinates": [ [ 530091.078100949525833, 7261598.834750852547586 ], [ 530086.078100949409418, 7261603.473915160633624 ], [ 530078.683442020905204, 7261609.764880374073982 ], [ 530069.677239574841224, 7261616.564541302621365 ], [ 530059.944359513698146, 7261623.267553345300257 ], [ 530049.993520701071247, 7261629.919331100769341 ], [ 530039.999553894624114, 7261636.330267391167581 ], [ 530030.0, 7261642.21593127399683 ], [ 530020.0, 7261647.870324714109302 ], [ 530010.0, 7261654.031014405190945 ], [ 530000.0, 7261661.179667737334967 ], [ 529990.0, 7261668.906588250771165 ], [ 529980.0, 7261676.329821285791695 ], [ 529970.0, 7261683.223087035119534 ], [ 529960.0, 7261689.913744012825191 ], [ 529950.0, 7261696.329821285791695 ], [ 529940.0, 7261702.216823483817279 ], [ 529930.0, 7261707.881498890928924 ], [ 529920.0, 7261714.118162604048848 ], [ 529910.0, 7261721.627651628106833 ], [ 529900.0, 7261730.458265855908394 ], [ 529890.0, 7261740.088040409609675 ], [ 529880.000892210751772, 7261750.011174176819623 ], [ 529870.011174176470377, 7261760.000892210751772 ], [ 529860.087148198392242, 7261770.0 ], [ 529850.447091679088771, 7261780.0 ], [ 529841.541395639418624, 7261790.0 ], [ 529833.681352890678681, 7261800.0 ], [ 529826.416969484183937, 7261810.0 ], [ 529818.907480461173691, 7261820.0 ], [ 529811.104585926048458, 7261830.0 ], [ 529803.671070924843661, 7261840.000000000931323 ], [ 529796.777805175632238, 7261850.0 ], [ 529790.098322374862619, 7261860.0 ], [ 529783.769393299822696, 7261870.0 ], [ 529778.328590570250526, 7261880.0 ], [ 529774.194136626087129, 7261890.0 ], [ 529771.550785394501872, 7261900.0 ], [ 529770.000892210751772, 7261910.0 ], [ 529768.460388781968504, 7261920.0 ], [ 529765.893011572537944, 7261930.0 ], [ 529762.119393319822848, 7261940.0 ], [ 529757.782284305430949, 7261950.0 ], [ 529753.659004537621513, 7261960.0 ], [ 529750.0, 7261970.0 ], [ 529746.340103251626715, 7261980.0 ], [ 529742.205649307463318, 7261990.0 ], [ 529737.783176516066305, 7262000.0 ], [ 529733.583922726451419, 7262010.0 ], [ 529729.639164308551699, 7262020.0 ], [ 529725.236409536330029, 7262030.0 ], [ 529720.0, 7262040.0 ], [ 529714.763590463669971, 7262050.0 ], [ 529710.360835691448301, 7262060.0 ], [ 529706.416077273548581, 7262070.0 ], [ 529702.216823483933695, 7262080.0 ], [ 529697.794350692536682, 7262090.0 ], [ 529693.659896748373285, 7262100.0 ], [ 529690.0, 7262110.0 ], [ 529686.340103251626715, 7262120.0 ], [ 529682.20654151821509, 7262130.0 ], [ 529677.793458481901325, 7262140.0 ], [ 529673.6598967484897, 7262150.0 ], [ 529670.0, 7262160.0 ], [ 529666.340995462262072, 7262170.0 ], [ 529662.217715694569051, 7262180.0 ], [ 529657.881498891045339, 7262189.999107789248228 ], [ 529654.118162604048848, 7262199.987933613359928 ], [ 529651.62765162717551, 7262209.900785414502025 ], [ 529650.458265855675563, 7262219.453693735413253 ], [ 529650.088040409144014, 7262227.913190307095647 ], [ 529650.011174176470377, 7262234.243011592887342 ] ] } },
{ "type": "Feature", "properties": { "id": 3, "reference_id": 1, "dune_id": 1, "dune_name": "Big Mommy Dune", "acquisition_date": "2021-11-10", "length_m": 91.005356637784359 }, "geometry": { "type": "LineString", "coordinates": [ [ 528835.756988407694735, 7262229.540841933339834 ], [ 528842.086809693370014, 7262228.361174196004868 ], [ 528850.546306264819577, 7262225.794689198024571 ], [ 528860.099214585614391, 7262221.670517219230533 ], [ 528870.011174176470377, 7262216.231498911045492 ], [ 528879.988825823529623, 7262209.912851801142097 ], [ 528889.900785414385609, 7262203.310235233977437 ], [ 528899.453693735180423, 7262196.788087140768766 ], [ 528907.91319030651357, 7262190.535132088698447 ], [ 528914.243011592421681, 7262185.309004518203437 ] ] } },
{ "type": "Feature", "properties": { "id": 4, "reference_id": 1, "dune_id": 1, "dune_name": "Big Mommy Dune", "acquisition_date": "2021-11-10", "length_m": 291.36803034174244 }, "geometry": { "type": "LineString", "coordinates": [ [ 528951.998769284342416, 7262154.243011591956019 ], [ 528955.298722552135587, 7262147.913190307095647 ], [ 528960.458265855675563, 7262139.453693735413253 ], [ 528966.417861694935709, 7262129.900785414502025 ], [ 528972.140849462011829, 7262119.987933613359928 ], [ 528977.423233035369776, 7262109.999107789248228 ], [ 528982.479336800519377, 7262100.0 ], [ 528987.42234082473442, 7262090.0 ], [ 528992.128783074789681, 7262080.0 ], [ 528996.31953932007309, 7262070.0 ], [ 528999.923133767442778, 7262060.0 ], [ 529003.299953267676756, 7262050.0 ], [ 529006.700046732323244, 7262040.0 ], [ 529010.076866232673638, 7262030.0 ], [ 529013.681352890795097, 7262020.0 ], [ 529017.882391101680696, 7262010.0 ], [ 529022.664807373890653, 7262000.0 ], [ 529027.968647089553997, 7261990.0 ], [ 529034.129336780519225, 7261980.0 ], [ 529041.628543837810867, 7261970.0 ], [ 529050.457373645040207, 7261960.0 ], [ 529060.075974022038281, 7261950.000892210751772 ], [ 529069.911959590972401, 7261940.012066387571394 ], [ 529079.454585945932195, 7261930.099214585497975 ], [ 529087.913190306629986, 7261920.546306264586747 ], [ 529094.243011592305265, 7261912.086809693835676 ], [ 529097.913190306629986, 7261905.756988408043981 ] ] } },
{ "type": "Feature", "properties": { "id": 5, "reference_id": 1, "dune_id": 1, "dune_name": "Big Mommy Dune", "acquisition_date": "2021-11-10", "length_m": 57.869424568375358 }, "geometry": { "type": "LineString", "coordinates": [ [ 529065.79468919755891, 7261784.243011591956019 ], [ 529061.671409429865889, 7261777.914082517847419 ], [ 529056.242673087399453, 7261769.465760122984648 ], [ 529050.0, 7261760.0 ], [ 529043.757326912600547, 7261750.534239877015352 ], [ 529038.328590570250526, 7261742.085917483083904 ], [ 529034.20531080244109, 7261735.756988408043981 ] ] } },
{ "type": "Feature", "properties": { "id": 6, "reference_id": 1, "dune_id": 1, "dune_name": "Big Mommy Dune", "acquisition_date": "2021-11-10", "length_m": 559.99809419508836 }, "geometry": { "type": "LineString", "coordinates": [ [ 529186.318647109437734, 7261075.756988408043981 ], [ 529183.583030515816063, 7261082.086809693835676 ], [ 529181.093411749578081, 7261090.546306265518069 ], [ 529178.906588250538334, 7261100.099214585497975 ], [ 529176.416077273548581, 7261110.012066386640072 ], [ 529173.670178714208305, 7261120.000892211683095 ], [ 529171.45335523027461, 7261130.0 ], [ 529169.988825823529623, 7261140.0 ], [ 529168.458604360581376, 7261150.0 ], [ 529165.882729606702924, 7261160.0 ], [ 529162.043419297784567, 7261170.0 ], [ 529157.42234082473442, 7261180.0 ], [ 529152.565592788159847, 7261190.0 ], [ 529147.869432503823191, 7261200.0 ], [ 529143.670178714208305, 7261210.000000000931323 ], [ 529140.0, 7261220.0 ], [ 529136.329821285791695, 7261230.0 ], [ 529132.129675285425037, 7261240.0 ], [ 529127.423233035369776, 7261250.0 ], [ 529122.490510976989754, 7261260.0 ], [ 529117.510381233878434, 7261270.0 ], [ 529112.587048930465244, 7261280.0 ], [ 529107.946298736496828, 7261290.0 ], [ 529104.030122194904834, 7261300.0 ], [ 529101.093411749578081, 7261310.000000000931323 ], [ 529098.459496571333148, 7261320.0 ], [ 529094.790210067760199, 7261330.0 ], [ 529089.563190286629833, 7261340.0 ], [ 529083.659896748373285, 7261350.0 ], [ 529078.230268195271492, 7261360.0 ], [ 529073.75643470196519, 7261370.0 ], [ 529070.087148198508658, 7261380.0 ], [ 529066.700938943075016, 7261390.0 ], [ 529063.299953267676756, 7261400.0 ], [ 529059.924025978078134, 7261410.0 ], [ 529056.329821285791695, 7261420.0 ], [ 529052.205649307463318, 7261430.0 ], [ 529047.794350692536682, 7261440.0 ], [ 529043.670178714208305, 7261450.0 ], [ 529040.075974022038281, 7261460.0 ], [ 529036.700938943075016, 7261470.000000000931323 ], [ 529033.311127444263548, 7261480.0 ], [ 529030.011174176586792, 7261490.0 ], [ 529026.777805175632238, 7261500.0 ], [ 529023.757326912600547, 7261510.0 ], [ 529021.551677605137229, 7261520.0 ], [ 529020.447983889840543, 7261530.0 ], [ 529020.087148198508658, 7261540.0 ], [ 529020.011174176470377, 7261550.0 ], [ 529020.000892210751772, 7261559.999107790179551 ], [ 529020.0, 7261569.987933613359928 ], [ 529020.0, 7261579.900785414502025 ], [ 529020.0, 7261589.453693735413253 ], [ 529020.0, 7261597.913190307095647 ], [ 529020.0, 7261604.243011591956019 ] ] } },
{ "type": "Feature", "properties": { "id": 7, "reference_id": 5, "dune_id": 5, "dune_name": "The Star Dune", "acquisition_date": "2021-11-10", "length_m": 207.57051502995728 }, "geometry": { "type": "LineString", "coordinates": [ [ 534329.999107789364643, 7261504.243011591956019 ], [ 534329.988825823529623, 7261497.913190306164324 ], [ 534329.912851801607758, 7261489.453693735413253 ], [ 534329.552908320794813, 7261479.900785415433347 ], [ 534328.459496571333148, 7261469.987933613359928 ], [ 534326.329821285791695, 7261459.999107789248228 ], [ 534323.669286503572948, 7261450.0 ], [ 534321.529329252196476, 7261440.0 ], [ 534320.359943480696529, 7261430.0 ], [ 534319.640056519303471, 7261420.0 ], [ 534318.470670747687109, 7261410.0 ], [ 534316.330713496543467, 7261400.0 ], [ 534313.670178714208305, 7261390.0 ], [ 534311.541395639418624, 7261380.0 ], [ 534310.45915806631092, 7261370.0 ], [ 534310.186362784006633, 7261360.0 ], [ 534310.556588230538182, 7261350.000892210751772 ], [ 534312.075635517016053, 7261340.012066386640072 ], [ 534315.657773822080344, 7261330.099214585497975 ], [ 534321.540503428666852, 7261320.546306264586747 ], [ 534328.459496571333148, 7261312.086809693835676 ], [ 534334.342226177919656, 7261305.756988408043981 ] ] } },
{ "type": "Feature", "properties": { "id": 8, "reference_id": 5, "dune_id": 5, "dune_name": "The Star Dune", "acquisition_date": "2021-11-10", "length_m": 103.59874597810037 }, "geometry": { "type": "LineString", "coordinates": [ [ 534195.756988407694735, 7261648.001230716705322 ], [ 534202.08680969348643, 7261644.701277447864413 ], [ 534210.546306264819577, 7261639.540841933339834 ], [ 534220.099214585614391, 7261633.571856339462101 ], [ 534230.012066387222148, 7261627.782284305430949 ], [ 534240.0, 7261622.205649307928979 ], [ 534249.987933612894267, 7261616.340995462611318 ], [ 534259.900785414385609, 7261610.012066386640072 ], [ 534269.453693735180423, 7261603.75821912381798 ], [ 534277.91319030651357, 7261598.328590570017695 ], [ 534284.243011592305265, 7261594.205310802906752 ] ] } },
{ "type": "Feature", "properties": { "id": 9, "reference_id": 5, "dune_id": 5, "dune_name": "The Star Dune", "acquisition_date": "2021-11-10", "length_m": 272.2678233724198 }, "geometry": { "type": "LineString", "coordinates": [ [ 533765.881837395951152, 7261795.756988408043981 ], [ 533762.118501109071076, 7261802.086809692904353 ], [ 533757.783176516066305, 7261810.546306265518069 ], [ 533753.669286503572948, 7261820.099214586429298 ], [ 533750.075974021921866, 7261830.012066387571394 ], [ 533746.700938942958601, 7261840.000892211683095 ], [ 533743.31023523339536, 7261850.0 ], [ 533740.0, 7261860.0 ], [ 533736.689764766488224, 7261870.0 ], [ 533733.299061057041399, 7261880.0 ], [ 533729.923133767326362, 7261890.0 ], [ 533726.319539319956675, 7261900.0 ], [ 533722.128783074906096, 7261910.0 ], [ 533717.423233035253361, 7261920.0 ], [ 533712.489618766237982, 7261930.0 ], [ 533707.498314846656285, 7261940.0 ], [ 533702.489618766237982, 7261950.0 ], [ 533697.423233035369776, 7261960.0 ], [ 533692.128783074789681, 7261970.0 ], [ 533686.31953932007309, 7261980.0 ], [ 533679.924025978078134, 7261989.999553894624114 ], [ 533673.311127444263548, 7261999.993520701304078 ], [ 533666.788087141467258, 7262009.944359513930976 ], [ 533660.535132088232785, 7262019.677239574491978 ], [ 533655.309004517737776, 7262028.683442020788789 ], [ 533651.999661495094188, 7262036.078100949525833 ], [ 533650.535132088349201, 7262041.078100949525833 ] ] } },
{ "type": "Feature", "properties": { "id": 10, "reference_id": 5, "dune_id": 5, "dune_name": "The Star Dune", "acquisition_date": "2021-11-10", "length_m": 90.200668811170416 }, "geometry": { "type": "LineString", "coordinates": [ [ 533884.243011592305265, 7261721.638825803995132 ], [ 533877.91319030651357, 7261724.205310802906752 ], [ 533869.453693735296838, 7261728.328590570017695 ], [ 533859.900785414502025, 7261733.75821912381798 ], [ 533849.988825823529623, 7261740.011174176819623 ], [ 533840.011174176470377, 7261746.329821286723018 ], [ 533830.099214585614391, 7261752.118501109071076 ], [ 533820.546306264819577, 7261757.335192626342177 ], [ 533812.08680969348643, 7261762.031352911144495 ], [ 533805.756988407694735, 7261765.870663220062852 ] ] } },
{ "type": "Feature", "properties": { "id": 11, "reference_id": 3, "dune_id": 3, "dune_name": "Big Mommy Dune", "acquisition_date": "2021-11-10", "length_m": 247.6472367180636 }, "geometry": { "type": "LineString", "coordinates": [ [ 529183.176084819366224, 7260991.078100949525833 ], [ 529181.923129766248167, 7260986.078100949525833 ], [ 529181.228517570067197, 7260978.683442020788789 ], [ 529181.852089677471668, 7260969.6772395754233 ], [ 529184.172018669079989, 7260959.944359514862299 ], [ 529187.963952211895958, 7260949.993520701304078 ], [ 529192.588387246476486, 7260939.999553894624114 ], [ 529197.511273444397375, 7260930.0 ], [ 529202.501685153343715, 7260920.0 ], [ 529207.511273444397375, 7260910.0 ], [ 529212.587048930465244, 7260900.0 ], [ 529217.947190947132185, 7260890.0 ], [ 529224.041296371375211, 7260880.0 ], [ 529231.180559947970323, 7260870.0 ], [ 529238.906588250421919, 7260860.0 ], [ 529246.330713496543467, 7260850.0 ], [ 529253.233369000838138, 7260840.0 ], [ 529259.98971803416498, 7260830.0 ], [ 529266.688872555852868, 7260820.000892210751772 ], [ 529273.298168846289627, 7260810.012066387571394 ], [ 529279.911959590855986, 7260800.099214585497975 ], [ 529286.231498910929076, 7260790.546306265518069 ], [ 529291.670517219114117, 7260782.086809693835676 ], [ 529295.79468919755891, 7260775.756988408043981 ] ] } },
{ "type": "Feature", "properties": { "id": 12, "reference_id": 3, "dune_id": 3, "dune_name": "Big Mommy Dune", "acquisition_date": "2021-11-10", "length_m": 77.174799914887785 }, "geometry": { "type": "LineString", "coordinates": [ [ 529374.243011592305265, 7260694.216484978795052 ], [ 529367.91319030651357, 7260698.416630979627371 ], [ 529359.454585945932195, 7260704.21559276804328 ], [ 529349.912851801607758, 7260711.62765162717551 ], [ 529340.087148198392242, 7260720.35994348116219 ], [ 529330.545414054067805, 7260729.541734144091606 ], [ 529322.08680969348643, 7260737.924364482983947 ], [ 529315.756988407694735, 7260744.243903802707791 ] ] } },
{ "type": "Feature", "properties": { "id": 13, "reference_id": 3, "dune_id": 3, "dune_name": "Big Mommy Dune", "acquisition_date": "2021-11-10", "length_m": 498.99872765041403 }, "geometry": { "type": "LineString", "coordinates": [ [ 529405.756988407694735, 7260678.448322394862771 ], [ 529412.08680969348643, 7260676.242673087865114 ], [ 529420.546306264819577, 7260673.222194824367762 ], [ 529430.099214585614391, 7260669.9888258241117 ], [ 529440.012066387222148, 7260666.689764766953886 ], [ 529450.000892210751772, 7260663.310235233977437 ], [ 529460.0, 7260660.010281966067851 ], [ 529470.0, 7260656.766630999743938 ], [ 529480.0, 7260653.670178714208305 ], [ 529490.0, 7260651.10458592697978 ], [ 529500.000000000116415, 7260648.906588250771165 ], [ 529510.0, 7260646.405795307829976 ], [ 529520.0, 7260643.594204693101346 ], [ 529530.0, 7260641.094303959980607 ], [ 529540.0, 7260638.905696040019393 ], [ 529550.0, 7260636.405795307829976 ], [ 529560.0, 7260633.594204692170024 ], [ 529570.0, 7260631.094303959980607 ], [ 529580.0, 7260628.906588250771165 ], [ 529590.0, 7260626.416969483718276 ], [ 529600.0, 7260623.681352891027927 ], [ 529610.0, 7260621.541395640000701 ], [ 529620.0, 7260620.447091679088771 ], [ 529630.0, 7260620.087148198857903 ], [ 529640.0, 7260620.010281966067851 ], [ 529650.0, 7260619.989718034863472 ], [ 529660.0, 7260619.912851802073419 ], [ 529670.0, 7260619.552908320911229 ], [ 529680.0, 7260618.459496571682394 ], [ 529690.0, 7260616.329821286723018 ], [ 529700.0, 7260613.670178715139627 ], [ 529710.0, 7260611.540503429248929 ], [ 529720.0, 7260610.447091680020094 ], [ 529730.0, 7260610.087148198857903 ], [ 529740.0, 7260610.010281966067851 ], [ 529750.0, 7260609.989718034863472 ], [ 529760.0, 7260609.912851802073419 ], [ 529770.0, 7260609.552908320911229 ], [ 529780.0, 7260608.460388782434165 ], [ 529790.0, 7260606.340995462611318 ], [ 529800.0, 7260603.757326912134886 ], [ 529810.0, 7260601.9875951083377 ], [ 529820.0, 7260601.9875951083377 ], [ 529830.0, 7260603.757326912134886 ], [ 529840.0, 7260606.340995462611318 ], [ 529849.999107789364643, 7260608.460388782434165 ], [ 529859.987933612894267, 7260609.552908320911229 ], [ 529869.900785414385609, 7260609.912851802073419 ], [ 529879.453693735180423, 7260609.9888258241117 ], [ 529887.91319030651357, 7260609.999107789248228 ], [ 529894.243011592421681, 7260610.0 ] ] } },
{ "type": "Feature", "properties": { "id": 14, "reference_id": 3, "dune_id": 3, "dune_name": "Big Mommy Dune", "acquisition_date": "2021-11-10", "length_m": 265.06598982058546 }, "geometry": { "type": "LineString", "coordinates": [ [ 529955.756988407694735, 7260603.299953268840909 ], [ 529962.086809693602845, 7260605.160435514524579 ], [ 529970.546306264703162, 7260605.969877805560827 ], [ 529980.099214585614391, 7260605.799854 ], [ 529990.012066387222148, 7260605.652609020471573 ], [ 530000.000892210751772, 7260606.224597326479852 ], [ 530010.0, 7260607.422340825200081 ], [ 530020.0, 7260608.383522549644113 ], [ 530030.0, 7260608.089271125383675 ], [ 530040.0, 7260606.25206284224987 ], [ 530050.0, 7260603.648722572252154 ], [ 530060.0, 7260601.452463020570576 ], [ 530070.0, 7260600.0 ], [ 530080.0, 7260598.546644769608974 ], [ 530090.0, 7260596.340103251859546 ], [ 530100.0, 7260593.659896748140454 ], [ 530110.0, 7260591.453355230391026 ], [ 530120.0, 7260590.0 ], [ 530130.0, 7260588.546644769608974 ], [ 530140.0, 7260586.340103251859546 ], [ 530150.0, 7260583.659896748140454 ], [ 530160.0, 7260581.452463019639254 ], [ 530169.999107789364643, 7260579.9888258241117 ], [ 530179.987933612894267, 7260578.459496572613716 ], [ 530189.900785414385609, 7260575.893903783522546 ], [ 530199.453693735180423, 7260572.13056749664247 ], [ 530207.913190306629986, 7260567.870324715040624 ], [ 530214.243011592421681, 7260564.117270393297076 ] ] } },
{ "type": "Feature", "properties": { "id": 15, "reference_id": 4, "dune_id": 4, "dune_name": "The Star Dune", "acquisition_date": "2021-11-10", "length_m": 372.64085858321823 }, "geometry": { "type": "LineString", "coordinates": [ [ 533035.756988407578319, 7261870.447983890771866 ], [ 533042.08680969348643, 7261871.551677605137229 ], [ 533050.546306264819577, 7261873.757326913066208 ], [ 533060.099214585730806, 7261876.776912964880466 ], [ 533070.012066387222148, 7261880.000892210751772 ], [ 533080.000892210751772, 7261883.234261211007833 ], [ 533090.0, 7261886.329821285791695 ], [ 533100.0, 7261888.896306285634637 ], [ 533110.0, 7261891.103693716228008 ], [ 533120.0, 7261893.670178715139627 ], [ 533130.0, 7261896.765738788992167 ], [ 533140.0, 7261899.999107789248228 ], [ 533150.0, 7261903.223979245871305 ], [ 533160.0, 7261906.253847263753414 ], [ 533170.0, 7261908.536362804472446 ], [ 533180.0, 7261910.010281966999173 ], [ 533190.0, 7261911.540503429248929 ], [ 533200.0, 7261914.106096217408776 ], [ 533210.0, 7261917.869432505220175 ], [ 533220.0, 7261922.13056749664247 ], [ 533230.0, 7261925.893903783522546 ], [ 533240.0, 7261928.459496571682394 ], [ 533250.0, 7261929.9888258241117 ], [ 533260.0, 7261931.452463019639254 ], [ 533270.0, 7261933.659896748140454 ], [ 533280.0, 7261936.340103251859546 ], [ 533290.0, 7261938.547536980360746 ], [ 533300.0, 7261940.011174176819623 ], [ 533310.0, 7261941.540503428317606 ], [ 533320.0, 7261944.106096217408776 ], [ 533330.0, 7261947.870324714109302 ], [ 533340.0, 7261952.140849461778998 ], [ 533349.999107789248228, 7261955.969877805560827 ], [ 533359.987933612894267, 7261958.819440051913261 ], [ 533369.900785414502025, 7261961.082237573340535 ], [ 533379.453693735296838, 7261963.582138305529952 ], [ 533387.91319030651357, 7261966.318647109903395 ], [ 533394.243011592305265, 7261968.458604361861944 ] ] } },
{ "type": "Feature", "properties": { "id": 16, "reference_id": 4, "dune_id": 4, "dune_name": "The Star Dune", "acquisition_date": "2021-11-10", "length_m": 115.21699160451527 }, "geometry": { "type": "LineString", "coordinates": [ [ 533584.243011592305265, 7262039.541734144091606 ], [ 533577.91319030651357, 7262038.372348373755813 ], [ 533569.453693735180423, 7262035.882729606702924 ], [ 533559.900785414385609, 7262032.128783075138927 ], [ 533549.987933612894267, 7262027.859150538221002 ], [ 533539.999107789364643, 7262024.029229983687401 ], [ 533530.0, 7262021.169385772198439 ], [ 533520.000892210751772, 7262018.830614228732884 ], [ 533510.012066387222148, 7262015.970770016312599 ], [ 533500.099214585614391, 7262012.140849461778998 ], [ 533490.546306264819577, 7262007.871216924861073 ], [ 533482.08680969348643, 7262004.117270393297076 ], [ 533475.756988407578319, 7262001.627651628106833 ] ] } },
{ "type": "Feature", "properties": { "id": 17, "reference_id": 7, "dune_id": 7, "dune_name": "Inverted Y Dune", "acquisition_date": "2021-11-10", "length_m": 384.20292279192029 }, "geometry": { "type": "LineString", "coordinates": [ [ 530634.243011592421681, 7261345.756988408043981 ], [ 530627.913190306629986, 7261352.086809692904353 ], [ 530619.453693735180423, 7261360.546306265518069 ], [ 530609.901677625137381, 7261370.099214585497975 ], [ 530599.999107789248228, 7261380.012066387571394 ], [ 530590.086255987756886, 7261390.000892210751772 ], [ 530580.447983889840543, 7261400.0 ], [ 530571.551677605137229, 7261410.0 ], [ 530563.757326912600547, 7261420.0 ], [ 530556.777805175632238, 7261430.0 ], [ 530550.011174176470377, 7261440.0 ], [ 530543.31023523339536, 7261450.0 ], [ 530536.690656977239996, 7261460.0 ], [ 530530.0, 7261470.000000000931323 ], [ 530523.309343022760004, 7261480.0 ], [ 530516.689764766488224, 7261490.0 ], [ 530509.988825823529623, 7261500.0 ], [ 530503.222194824367762, 7261510.0 ], [ 530496.242673087399453, 7261519.999107789248228 ], [ 530488.448322394862771, 7261529.9888258241117 ], [ 530479.552016110159457, 7261539.912851801142097 ], [ 530469.912851801607758, 7261549.552016110159457 ], [ 530459.988825823646039, 7261558.448322394862771 ], [ 530449.999107789248228, 7261566.241780877113342 ], [ 530440.0, 7261573.211912859231234 ], [ 530430.000000000116415, 7261579.911959591321647 ], [ 530420.0, 7261586.317754898220301 ], [ 530410.000892210635357, 7261592.117608897387981 ], [ 530400.012066387222148, 7261597.335192626342177 ], [ 530390.099214585614391, 7261602.031352911144495 ], [ 530380.546306264819577, 7261605.870663220062852 ], [ 530372.08680969348643, 7261608.371456163004041 ], [ 530365.756988407694735, 7261609.541734144091606 ] ] } },
{ "type": "Feature", "properties": { "id": 18, "reference_id": 2, "dune_id": 2, "dune_name": "Big Mommy Dune", "acquisition_date": "2021-11-10", "length_m": 139.71663756237459 }, "geometry": { "type": "LineString", "coordinates": [ [ 528625.756988407694735, 7260794.118162604048848 ], [ 528632.08680969348643, 7260797.881498891860247 ], [ 528640.546306264819577, 7260802.217715694569051 ], [ 528650.099214585614391, 7260806.340995462611318 ], [ 528660.012066387222148, 7260810.000892210751772 ], [ 528670.000892210751772, 7260813.670178714208305 ], [ 528680.0, 7260817.86943250335753 ], [ 528690.0, 7260822.566484998911619 ], [ 528700.0, 7260827.433515001088381 ], [ 528709.999107789248228, 7260832.129675285890698 ], [ 528719.987933612894267, 7260836.318647108972073 ], [ 528729.900785414502025, 7260839.911959590390325 ], [ 528739.453693735180423, 7260843.211912859231234 ], [ 528747.91319030651357, 7260846.241780877113342 ], [ 528754.243011592305265, 7260848.448322394862771 ] ] } },
{ "type": "Feature", "properties": { "id": 19, "reference_id": 2, "dune_id": 2, "dune_name": "Big Mommy Dune", "acquisition_date": "2021-11-10", "length_m": 134.13239342083338 }, "geometry": { "type": "LineString", "coordinates": [ [ 528785.756988407694735, 7260861.551677605137229 ], [ 528792.08680969348643, 7260863.757326913066208 ], [ 528800.546306264819577, 7260866.777805175632238 ], [ 528810.099214585614391, 7260870.011174176819623 ], [ 528820.012066387222148, 7260873.310235233977437 ], [ 528830.000892210751772, 7260876.689764766953886 ], [ 528840.0, 7260879.989718034863472 ], [ 528850.0, 7260883.233369002118707 ], [ 528860.0, 7260886.329821286723018 ], [ 528869.999107789364643, 7260888.895414073951542 ], [ 528879.987933612894267, 7260891.092519538477063 ], [ 528889.900785414385609, 7260893.583030516281724 ], [ 528899.453693735180423, 7260896.318647108972073 ], [ 528907.91319030651357, 7260898.458604359999299 ], [ 528914.243011592421681, 7260899.552908320911229 ] ] } },
{ "type": "Feature", "properties": { "id": 20, "reference_id": 2, "dune_id": 2, "dune_name": "Big Mommy Dune", "acquisition_date": "2021-11-10", "length_m": 74.201060986094291 }, "geometry": { "type": "LineString", "coordinates": [ [ 529134.243011592421681, 7260969.541734144091606 ], [ 529127.91319030651357, 7260968.371456163004041 ], [ 529119.453693735296838, 7260965.871555430814624 ], [ 529109.901677625137381, 7260962.042527087032795 ], [ 529100.0, 7260957.423233035951853 ], [ 529090.098322374979034, 7260952.576766965910792 ], [ 529080.546306264819577, 7260947.957472912967205 ], [ 529072.08680969348643, 7260944.128444570116699 ], [ 529065.756988407694735, 7260941.628543836995959 ] ] } },
{ "type": "Feature", "properties": { "id": 21, "reference_id": 6, "dune_id": 6, "dune_name": "The Star Dune", "acquisition_date": "2021-11-10", "length_m": 440.79818588285593 }, "geometry": { "type": "LineString", "coordinates": [ [ 533679.912851801607758, 7262335.756988408043981 ], [ 533679.552908320911229, 7262342.086809693835676 ], [ 533678.459496571333148, 7262350.546306264586747 ], [ 533676.328929075156339, 7262360.099214585497975 ], [ 533673.659004537737928, 7262370.012066387571394 ], [ 533671.452463019639254, 7262380.000892210751772 ], [ 533669.988825823646039, 7262390.0 ], [ 533668.459496571333148, 7262400.0 ], [ 533665.893903783056885, 7262410.0 ], [ 533662.129675285425037, 7262420.0 ], [ 533657.859150537988171, 7262430.0 ], [ 533654.030122194904834, 7262440.0 ], [ 533651.179667737334967, 7262450.0 ], [ 533648.906588250538334, 7262460.0 ], [ 533646.330713496543467, 7262470.0 ], [ 533643.234261211473495, 7262480.0 ], [ 533640.000000000116415, 7262490.0 ], [ 533636.765738788526505, 7262500.0 ], [ 533633.670178714208305, 7262510.0 ], [ 533631.104585926048458, 7262520.0 ], [ 533628.906588250421919, 7262530.0 ], [ 533626.405795307713561, 7262540.0 ], [ 533623.594204692170024, 7262550.0 ], [ 533621.094303960213438, 7262560.0 ], [ 533618.906588250421919, 7262570.0 ], [ 533616.416077273664996, 7262580.0 ], [ 533613.670178714208305, 7262590.0 ], [ 533611.454247441026382, 7262600.000000000931323 ], [ 533610.0, 7262610.0 ], [ 533608.54664476972539, 7262620.0 ], [ 533606.340995462378487, 7262630.0 ], [ 533603.670178714208305, 7262640.0 ], [ 533601.529329252312891, 7262650.0 ], [ 533600.359943480696529, 7262660.0 ], [ 533599.640056519303471, 7262670.0 ], [ 533598.470670747803524, 7262680.0 ], [ 533596.330713496543467, 7262690.0 ], [ 533593.670178714208305, 7262700.0 ], [ 533591.539611218031496, 7262710.0 ], [ 533590.43591750273481, 7262719.999107789248228 ], [ 533590.0, 7262729.987933613359928 ], [ 533589.56408249726519, 7262739.900785414502025 ], [ 533588.460388781968504, 7262749.453693735413253 ], [ 533586.329821285791695, 7262757.913190307095647 ], [ 533583.670178714208305, 7262764.243011591956019 ] ] } },
{ "type": "Feature", "properties": { "id": 22, "reference_id": 6, "dune_id": 6, "dune_name": "The Star Dune", "acquisition_date": "2021-11-10", "length_m": 180.46279160986427 }, "geometry": { "type": "LineString", "coordinates": [ [ 533679.552908320911229, 7262304.243011592887342 ], [ 533678.459496571333148, 7262297.913190307095647 ], [ 533676.329821285791695, 7262289.453693735413253 ], [ 533673.669286503456533, 7262279.900785414502025 ], [ 533671.529329252196476, 7262269.987933613359928 ], [ 533670.359943480696529, 7262259.999107789248228 ], [ 533669.640056519303471, 7262250.0 ], [ 533668.470670747803524, 7262240.0 ], [ 533666.330713496543467, 7262230.0 ], [ 533663.670178714208305, 7262220.0 ], [ 533661.540503428783268, 7262210.0 ], [ 533660.447091679088771, 7262200.0 ], [ 533660.087148198392242, 7262190.0 ], [ 533660.011174176470377, 7262180.0 ], [ 533660.000892210751772, 7262170.000892210751772 ], [ 533660.0, 7262160.012066387571394 ], [ 533660.0, 7262150.099214585497975 ], [ 533660.0, 7262140.546306265518069 ], [ 533660.0, 7262132.086809692904353 ], [ 533660.0, 7262125.756988408043981 ] ] } }
]
}
