{
"type": "FeatureCollection",
"name": "crests_2017_12_2017-12-16",
"crs": { "type": "name", "properties": { "name": "urn:ogc:def:crs:EPSG::32733" } },
"features": [
{ "type": "Feature", "properties": { "id": 0, "reference_id": 5, "dune_id": 5, "dune_name": "The Star Dune", "acquisition_date": "2017-12-16", "length_m": 572.54503468582209 }, "geometry": { "type": "LineString", "coordinates": [ [ 534044.243011592421681, 7261680.447091679088771 ], [ 534037.913190306629986, 7261681.540503429248929 ], [ 534029.453693735296838, 7261683.671070925891399 ], [ 534019.900785414385609, 7261686.340995462611318 ], [ 534009.987933612894267, 7261688.546644769608974 ], [ 533999.999107789364643, 7261690.000892210751772 ], [ 533990.0, 7261691.464529406279325 ], [ 533980.0, 7261693.746152736246586 ], [ 533970.0, 7261696.776912965811789 ], [ 533960.0, 7261700.011174177750945 ], [ 533950.0, 7261703.311127444729209 ], [ 533940.0, 7261706.700938943773508 ], [ 533930.0, 7261710.076866233721375 ], [ 533920.0, 7261713.680460680276155 ], [ 533910.0, 7261717.870324714109302 ], [ 533900.0, 7261722.566484998911619 ], [ 533890.0, 7261727.433515001088381 ], [ 533880.0, 7261732.13056749664247 ], [ 533870.0, 7261736.33071349747479 ], [ 533860.0, 7261740.010281966067851 ], [ 533850.0, 7261743.747044946998358 ], [ 533840.0, 7261748.241442372091115 ], [ 533830.0, 7261753.758219122886658 ], [ 533820.0, 7261760.098322375677526 ], [ 533810.000892210635357, 7261766.788979351520538 ], [ 533800.012066387105733, 7261773.75821912381798 ], [ 533790.098322374979034, 7261781.551677605137229 ], [ 533780.535132088232785, 7261790.447983890771866 ], [ 533771.999661495094188, 7261800.087148198857903 ], [ 533765.309004517854191, 7261810.011174177750945 ], [ 533760.535132088349201, 7261820.000892210751772 ], [ 533756.78897935221903, 7261830.0 ], [ 533753.321409409982152, 7261840.000000000931323 ], [ 533750.000892210751772, 7261850.0 ], [ 533746.689764766488224, 7261860.0 ], [ 533743.299061057041399, 7261870.0 ], [ 533739.923133767442778, 7261880.0 ], [ 533736.31953932007309, 7261890.0 ], [ 533732.128783074906096, 7261900.0 ], [ 533727.423233035253361, 7261910.0 ], [ 533722.489618766237982, 7261920.0 ], [ 533717.49831484653987, 7261930.0 ], [ 533712.489618766237982, 7261940.0 ], [ 533707.423233035369776, 7261950.0 ], [ 533702.129675285541452, 7261960.0 ], [ 533696.32982128590811, 7261970.0 ], [ 533689.999107789364643, 7261980.0 ], [ 533683.659896748373285, 7261989.999553894624114 ], [ 533677.794350692536682, 7261999.993520701304078 ], [ 533672.217715694569051, 7262009.944359513930976 ], [ 533666.428143660770729, 7262019.677239574491978 ], [ 533660.45915806631092, 7262028.683442020788789 ], [ 533655.298722552019171, 7262036.078100949525833 ], [ 533651.998769284458831, 7262041.078100949525833 ] ] } },
{ "type": "Feature", "properties": { "id": 1, "reference_id": 5, "dune_id": 5, "dune_name": "The Star Dune", "acquisition_date": "2017-12-16", "length_m": 418.10891318956033 }, "geometry": { "type": "LineString", "coordinates": [ [ 534195.756988407694735, 7261648.371456163004041 ], [ 534202.08680969348643, 7261645.870663220062852 ], [ 534210.546306264819577, 7261642.031352911144495 ], [ 534220.099214585614391, 7261637.335192626342177 ], [ 534230.012066387222148, 7261632.117608898319304 ], [ 534240.000892210751772, 7261626.317754898220301 ], [ 534250.0, 7261619.911959590390325 ], [ 534260.0, 7261613.211912859231234 ], [ 534270.0, 7261606.241780877113342 ], [ 534279.999107789248228, 7261598.448322394862771 ], [ 534289.987933612894267, 7261589.552016110159457 ], [ 534299.900785414502025, 7261579.912851802073419 ], [ 534309.453693735296838, 7261569.9888258241117 ], [ 534317.91319030651357, 7261559.999107790179551 ], [ 534324.243011592421681, 7261550.0 ], [ 534327.91319030651357, 7261540.0 ], [ 534329.453693735296838, 7261530.0 ], [ 534329.900785414385609, 7261520.0 ], [ 534329.987933612894267, 7261510.0 ], [ 534329.998215578729287, 7261500.0 ], [ 534329.988825823529623, 7261490.0 ], [ 534329.912851801607758, 7261480.0 ], [ 534329.552908320794813, 7261470.000000000931323 ], [ 534328.459496571333148, 7261460.0 ], [ 534326.329821285791695, 7261450.0 ], [ 534323.670178714208305, 7261440.0 ], [ 534321.539611218031496, 7261430.0 ], [ 534320.43591750273481, 7261420.0 ], [ 534320.0, 7261410.0 ], [ 534319.56408249726519, 7261400.0 ], [ 534318.460388781968504, 7261390.0 ], [ 534316.330713496543467, 7261380.0 ], [ 534313.682245101430453, 7261370.0 ], [ 534311.639718014281243, 7261360.0 ], [ 534310.992505733272992, 7261350.000892210751772 ], [ 534312.161891504772939, 7261340.012066386640072 ], [ 534315.668947998550721, 7261330.099214585497975 ], [ 534321.541395639418624, 7261320.546306264586747 ], [ 534328.459496571333148, 7261312.086809693835676 ], [ 534334.342226177919656, 7261305.756988408043981 ] ] } },
{ "type": "Feature", "properties": { "id": 2, "reference_id": 6, "dune_id": 6, "dune_name": "The Star Dune", "acquisition_date": "2017-12-16", "length_m": 748.77003269477075 }, "geometry": { "type": "LineString", "coordinates": [ [ 533650.0, 7262048.921899050474167 ], [ 533650.0, 7262053.921899050474167 ], [ 533650.0, 7262061.316557979211211 ], [ 533650.0, 7262070.322760425508022 ], [ 533650.0, 7262080.055640487000346 ], [ 533650.0, 7262090.006479298695922 ], [ 533650.000892210751772, 7262100.000446105375886 ], [ 533650.011174176470377, 7262110.0 ], [ 533650.087148198508658, 7262120.0 ], [ 533650.447091679205187, 7262130.0 ], [ 533651.540503428783268, 7262140.0 ], [ 533653.670178714208305, 7262150.0 ], [ 533656.329821285791695, 7262160.0 ], [ 533658.459496571216732, 7262170.0 ], [ 533659.552908320911229, 7262180.0 ], [ 533659.912851801607758, 7262190.0 ], [ 533659.98971803416498, 7262200.0 ], [ 533660.01028196583502, 7262210.0 ], [ 533660.087148198392242, 7262220.0 ], [ 533660.447091679088771, 7262230.0 ], [ 533661.540503428783268, 7262240.0 ], [ 533663.670178714208305, 7262250.0 ], [ 533666.330713496543467, 7262260.0 ], [ 533668.470670747803524, 7262270.0 ], [ 533669.639164308551699, 7262280.0 ], [ 533670.348769304342568, 7262290.0 ], [ 533671.442181053804234, 7262300.0 ], [ 533673.222194824367762, 7262310.0 ], [ 533674.789317857124843, 7262320.0 ], [ 533674.789317857124843, 7262330.0 ], [ 533673.222194824367762, 7262340.000000000931323 ], [ 533671.442181053804234, 7262350.0 ], [ 533670.348769304342568, 7262360.0 ], [ 533669.639164308551699, 7262370.0 ], [ 533668.469778537051752, 7262380.0 ], [ 533666.319539319956675, 7262390.0 ], [ 533663.583030515816063, 7262400.0 ], [ 533661.092519538942724, 7262410.0 ], [ 533658.895414073951542, 7262420.0 ], [ 533656.329821285791695, 7262430.0 ], [ 533653.234261211473495, 7262440.0 ], [ 533650.0, 7262450.0 ], [ 533646.765738788526505, 7262460.0 ], [ 533643.670178714208305, 7262470.0 ], [ 533641.103693715413101, 7262480.0 ], [ 533638.896306284703314, 7262490.0 ], [ 533636.329821285791695, 7262500.0 ], [ 533633.234261211473495, 7262510.0 ], [ 533630.000892210751772, 7262520.0 ], [ 533626.77602075424511, 7262530.0 ], [ 533623.746152736130171, 7262540.0 ], [ 533621.464529406744987, 7262550.0 ], [ 533620.000892210635357, 7262560.0 ], [ 533618.545752559090033, 7262570.0 ], [ 533616.329821285791695, 7262580.0 ], [ 533613.583922726567835, 7262590.0 ], [ 533611.093411749578081, 7262600.000000000931323 ], [ 533608.906588250421919, 7262610.0 ], [ 533606.416969484183937, 7262620.0 ], [ 533603.681352890678681, 7262630.0 ], [ 533601.540503428783268, 7262640.0 ], [ 533600.43591750273481, 7262650.0 ], [ 533600.0, 7262660.0 ], [ 533599.56408249726519, 7262670.0 ], [ 533598.460388781968504, 7262680.0 ], [ 533596.329821285791695, 7262690.0 ], [ 533593.670178714208305, 7262700.0 ], [ 533591.539611218031496, 7262710.0 ], [ 533590.43591750273481, 7262720.0 ], [ 533590.0, 7262730.0 ], [ 533589.56408249726519, 7262739.999107789248228 ], [ 533588.460388781968504, 7262749.987933613359928 ], [ 533586.329821285791695, 7262759.900785414502025 ], [ 533583.670178714208305, 7262769.453693735413253 ], [ 533581.540503428783268, 7262777.913190307095647 ], [ 533580.447091679205187, 7262784.243011591956019 ] ] } },
{ "type": "Feature", "properties": { "id": 3, "reference_id": 3, "dune_id": 3, "dune_name": "Big Mommy Dune", "acquisition_date": "2017-12-16", "length_m": 347.00020352722134 }, "geometry": { "type": "LineString", "coordinates": [ [ 529364.243011592305265, 7260705.756988408043981 ], [ 529357.91319030651357, 7260712.086809693835676 ], [ 529349.453693735180423, 7260720.546306265518069 ], [ 529339.901677625137381, 7260730.099214585497975 ], [ 529329.999107789248228, 7260740.012066387571394 ], [ 529320.086255987756886, 7260750.000892210751772 ], [ 529310.447983889956959, 7260760.0 ], [ 529301.551677605253644, 7260770.0 ], [ 529293.758219123352319, 7260780.000000000931323 ], [ 529286.788087141467258, 7260790.0 ], [ 529280.087148198392242, 7260800.0 ], [ 529273.671070924960077, 7260810.0 ], [ 529267.794350692536682, 7260820.0 ], [ 529262.205649307463318, 7260830.0 ], [ 529256.32982128590811, 7260840.0 ], [ 529249.924025978078134, 7260850.0 ], [ 529243.299953267676756, 7260860.0 ], [ 529236.700046732323244, 7260870.0 ], [ 529230.075974021921866, 7260880.0 ], [ 529223.670178714208305, 7260890.0 ], [ 529217.794350692536682, 7260900.0 ], [ 529212.206541518098675, 7260910.0 ], [ 529206.340995462262072, 7260920.0 ], [ 529200.011174176353961, 7260930.0 ], [ 529193.747044946881942, 7260939.999553894624114 ], [ 529188.241442371741869, 7260949.993520701304078 ], [ 529183.758219123352319, 7260959.944359514862299 ], [ 529180.098322374862619, 7260969.6772395754233 ], [ 529176.788979352102615, 7260978.683442020788789 ], [ 529173.758219123352319, 7260986.078100949525833 ], [ 529171.551677605253644, 7260991.078100949525833 ] ] } },
{ "type": "Feature", "properties": { "id": 4, "reference_id": 3, "dune_id": 3, "dune_name": "Big Mommy Dune", "acquisition_date": "2017-12-16", "length_m": 124.60193460492692 }, "geometry": { "type": "LineString", "coordinates": [ [ 529405.756988407694735, 7260678.37234837282449 ], [ 529412.08680969348643, 7260675.881837395951152 ], [ 529420.546306264819577, 7260672.118501109071076 ], [ 529430.099214585614391, 7260667.783176516182721 ], [ 529440.012066387222148, 7260663.670178714208305 ], [ 529450.000892210751772, 7260660.087148198857903 ], [ 529460.0, 7260656.787194930948317 ], [ 529470.0, 7260653.747044946998358 ], [ 529479.999107789364643, 7260651.464529406279325 ], [ 529489.987933612894267, 7260650.000892210751772 ], [ 529499.900785414385609, 7260648.546644769608974 ], [ 529509.453693735180423, 7260646.340995462611318 ], [ 529517.913190306629986, 7260643.671070925891399 ], [ 529524.243011592421681, 7260641.540503429248929 ] ] } },
{ "type": "Feature", "properties": { "id": 5, "reference_id": 3, "dune_id": 3, "dune_name": "Big Mommy Dune", "acquisition_date": "2017-12-16", "length_m": 109.21343474683525 }, "geometry": { "type": "LineString", "coordinates": [ [ 529715.756988407694735, 7260610.0 ], [ 529722.086809693602845, 7260610.0 ], [ 529730.546306264703162, 7260609.999107789248228 ], [ 529740.099214585614391, 7260609.9888258241117 ], [ 529750.012066387222148, 7260609.913744012825191 ], [ 529760.000892210751772, 7260609.564082497730851 ], [ 529770.0, 7260608.546644770540297 ], [ 529779.999107789248228, 7260606.776912964880466 ], [ 529789.987933612894267, 7260605.210682142525911 ], [ 529799.900785414502025, 7260605.210682142525911 ], [ 529809.453693735296838, 7260606.776912964880466 ], [ 529817.91319030651357, 7260608.546644770540297 ], [ 529824.243011592421681, 7260609.564082497730851 ] ] } },
{ "type": "Feature", "properties": { "id": 6, "reference_id": 7, "dune_id": 7, "dune_name": "Inverted Y Dune", "acquisition_date": "2017-12-16", "length_m": 359.5046803968475 }, "geometry": { "type": "LineString", "coordinates": [ [ 530645.783515021088533, 7261325.756988408043981 ], [ 530641.58336902083829, 7261332.086809693835676 ], [ 530635.783515021088533, 7261340.546306265518069 ], [ 530628.360281985718757, 7261350.099214585497975 ], [ 530619.541734144324437, 7261360.012066386640072 ], [ 530609.923133767442778, 7261370.000892210751772 ], [ 530600.075974021921866, 7261380.0 ], [ 530590.447091679205187, 7261390.0 ], [ 530581.551677605253644, 7261400.0 ], [ 530573.757326912600547, 7261410.0 ], [ 530566.777805175632238, 7261420.0 ], [ 530560.011174176470377, 7261430.0 ], [ 530553.310235233511776, 7261440.0 ], [ 530546.690656977239996, 7261450.0 ], [ 530540.0, 7261460.0 ], [ 530533.309343022760004, 7261470.000000000931323 ], [ 530526.689764766488224, 7261480.0 ], [ 530519.988825823529623, 7261490.0 ], [ 530513.222194824367762, 7261500.0 ], [ 530506.242673087399453, 7261509.999107789248228 ], [ 530498.448322394862771, 7261519.9888258241117 ], [ 530489.552016110159457, 7261529.912851801142097 ], [ 530479.912851801607758, 7261539.552016111090779 ], [ 530469.988825823529623, 7261548.447430184110999 ], [ 530459.999107789364643, 7261556.231498911976814 ], [ 530450.000892210751772, 7261563.135046626441181 ], [ 530440.012066387105733, 7261569.540841934271157 ], [ 530430.099214585614391, 7261575.137194950133562 ], [ 530420.546306264819577, 7261579.540841933339834 ], [ 530412.08680969348643, 7261583.135046625509858 ], [ 530405.756988407694735, 7261586.231498911976814 ] ] } },
{ "type": "Feature", "properties": { "id": 7, "reference_id": 7, "dune_id": 7, "dune_name": "Inverted Y Dune", "acquisition_date": "2017-12-16", "length_m": 110.55950115930375 }, "geometry": { "type": "LineString", "coordinates": [ [ 530095.756988407694735, 7261630.447091680020094 ], [ 530102.08680969348643, 7261631.540503429248929 ], [ 530110.546306264819577, 7261633.670178714208305 ], [ 530120.099214585614391, 7261636.329821285791695 ], [ 530130.012066387222148, 7261638.459496570751071 ], [ 530140.000892210751772, 7261639.553800531663001 ], [ 530150.0, 7261639.924025978893042 ], [ 530159.999107789364643, 7261640.075974022038281 ], [ 530169.987933612894267, 7261640.446199469268322 ], [ 530179.900785414385609, 7261641.540503429248929 ], [ 530189.453693735180423, 7261643.670178715139627 ], [ 530197.91319030651357, 7261646.329821286723018 ], [ 530204.243011592305265, 7261648.459496572613716 ] ] } },
{ "type": "Feature", "properties": { "id": 8, "reference_id": 1, "dune_id": 1, "dune_name": "Big Mommy Dune", "acquisition_date": "2017-12-16", "length_m": 217.91347776700169 }, "geometry": { "type": "LineString", "coordinates": [ [ 529048.001230715657584, 7261955.756988408043981 ], [ 529044.701277447980829, 7261962.086809694766998 ], [ 529039.541734144324437, 7261970.546306265518069 ], [ 529033.583030515816063, 7261980.099214585497975 ], [ 529027.869432503823191, 7261990.012066387571394 ], [ 529022.652740986552089, 7262000.000892210751772 ], [ 529017.881498890928924, 7262010.0 ], [ 529013.681352890795097, 7262020.0 ], [ 529010.076866232673638, 7262030.0 ], [ 529006.700938943075016, 7262040.0 ], [ 529003.310235233511776, 7262050.0 ], [ 528999.999107789364643, 7262060.0 ], [ 528996.67948280076962, 7262070.0 ], [ 528993.222194824367762, 7262080.0 ], [ 528989.552908320794813, 7262090.0 ], [ 528985.150153548573144, 7262100.0 ], [ 528979.640056519303471, 7262109.999107789248228 ], [ 528973.681352890678681, 7262119.987933613359928 ], [ 528968.318308604415506, 7262129.900785414502025 ], [ 528964.204418591805734, 7262139.453693735413253 ], [ 528961.638825803645886, 7262147.913190307095647 ], [ 528960.459158066427335, 7262154.243011591956019 ] ] } },
{ "type": "Feature", "properties": { "id": 9, "reference_id": 1, "dune_id": 1, "dune_name": "Big Mommy Dune", "acquisition_date": "2017-12-16", "length_m": 940.92106289563935 }, "geometry": { "type": "LineString", "coordinates": [ [ 529075.221856319345534, 7261914.243011592887342 ], [ 529080.087148198392242, 7261907.913190307095647 ], [ 529085.236409536330029, 7261899.453693736344576 ], [ 529089.552908320911229, 7261889.900785414502025 ], [ 529093.135046625975519, 7261879.987933613359928 ], [ 529096.2203247344587, 7261869.999107789248228 ], [ 529098.3593897750834, 7261860.0 ], [ 529099.093750254483894, 7261850.0 ], [ 529098.284307963796891, 7261840.000000000931323 ], [ 529095.860381253762171, 7261830.0 ], [ 529092.040742665762082, 7261820.0 ], [ 529087.4120588588994, 7261810.0 ], [ 529082.488726555602625, 7261800.0 ], [ 529077.499207057291642, 7261790.0 ], [ 529072.499900731956586, 7261780.0 ], [ 529067.499207057291642, 7261770.0 ], [ 529062.489618766237982, 7261760.0 ], [ 529057.424125246005133, 7261750.0 ], [ 529052.139957251260057, 7261740.0 ], [ 529046.406687518465333, 7261730.000000000931323 ], [ 529040.371117657283321, 7261720.0 ], [ 529034.851630872813985, 7261710.0 ], [ 529030.458265855675563, 7261700.0 ], [ 529026.864061163505539, 7261690.0 ], [ 529023.757326912600547, 7261680.0 ], [ 529021.466313828132115, 7261670.0 ], [ 529020.012066387222148, 7261660.0 ], [ 529018.633792968234047, 7261650.0 ], [ 529016.788087141467258, 7261640.0 ], [ 529015.211574353626929, 7261630.0 ], [ 529015.210682142991573, 7261620.0 ], [ 529016.776912965113297, 7261610.0 ], [ 529018.54664476972539, 7261600.0 ], [ 529019.564082497381605, 7261590.0 ], [ 529019.914636222994886, 7261580.0 ], [ 529020.0, 7261570.0 ], [ 529020.086255987873301, 7261560.000000000931323 ], [ 529020.447091679205187, 7261550.0 ], [ 529021.541395639418624, 7261540.0 ], [ 529023.681352890678681, 7261530.0 ], [ 529026.416969484183937, 7261520.0 ], [ 529028.907480461173691, 7261510.0 ], [ 529031.104585926048458, 7261500.0 ], [ 529033.670178714208305, 7261490.0 ], [ 529036.766630999278277, 7261480.0 ], [ 529040.01028196583502, 7261470.000000000931323 ], [ 529043.311127444147132, 7261460.0 ], [ 529046.700938942958601, 7261450.0 ], [ 529050.076866232673638, 7261440.0 ], [ 529053.680460680043325, 7261430.0 ], [ 529057.870324714574963, 7261420.0 ], [ 529062.566484998911619, 7261410.0 ], [ 529067.433515001088381, 7261400.0 ], [ 529072.129675285425037, 7261390.0 ], [ 529076.319539319956675, 7261380.0 ], [ 529079.923133767326362, 7261370.0 ], [ 529083.299953267676756, 7261360.0 ], [ 529086.700046732323244, 7261350.0 ], [ 529090.076866232673638, 7261340.0 ], [ 529093.680460680043325, 7261330.0 ], [ 529097.870324714574963, 7261320.0 ], [ 529102.566484998911619, 7261310.000000000931323 ], [ 529107.433515001088381, 7261300.0 ], [ 529112.130567496176809, 7261290.0 ], [ 529116.329821285791695, 7261280.0 ], [ 529120.000000000116415, 7261270.0 ], [ 529123.670178714208305, 7261260.0 ], [ 529127.869432503939606, 7261250.0 ], [ 529132.566484998911619, 7261240.0 ], [ 529137.433515001088381, 7261230.0 ], [ 529142.129675285425037, 7261220.0 ], [ 529146.319539319956675, 7261210.000000000931323 ], [ 529149.923133767442778, 7261200.0 ], [ 529153.299061057041399, 7261190.0 ], [ 529156.68976476660464, 7261180.0 ], [ 529160.0, 7261170.0 ], [ 529163.309343022760004, 7261160.0 ], [ 529166.689764766488224, 7261150.0 ], [ 529169.988825823529623, 7261140.0 ], [ 529173.222194824367762, 7261130.0 ], [ 529176.242673087399453, 7261120.000000000931323 ], [ 529178.448322394862771, 7261110.0 ], [ 529179.552016110159457, 7261100.0 ], [ 529179.912851801607758, 7261090.0 ], [ 529179.988825823529623, 7261080.0 ], [ 529179.999107789364643, 7261070.000892210751772 ], [ 529180.0, 7261060.012066387571394 ], [ 529180.0, 7261050.099214585497975 ], [ 529180.0, 7261040.546306265518069 ], [ 529180.0, 7261032.086809692904353 ], [ 529180.0, 7261025.756988408043981 ] ] } },
{ "type": "Feature", "properties": { "id": 10, "reference_id": 9, "dune_id": 9, "dune_name": "Inverted Y Dune", "acquisition_date": "2017-12-16", "length_m": 722.578977373567 }, "geometry": { "type": "LineString", "coordinates": [ [ 530064.243011592305265, 7261628.329482780769467 ], [ 530057.91319030651357, 7261628.979183232411742 ], [ 530049.453693735180423, 7261632.075635517016053 ], [ 530039.900785414385609, 7261637.236071031540632 ], [ 530029.987933612894267, 7261643.40855760872364 ], [ 530019.999107789248228, 7261650.012066387571394 ], [ 530010.0, 7261656.691549187526107 ], [ 530000.0, 7261663.309343023225665 ], [ 529990.0, 7261670.0 ], [ 529980.0, 7261676.690656976774335 ], [ 529970.0, 7261683.310235233977437 ], [ 529960.0, 7261690.011174176819623 ], [ 529950.0, 7261696.777805175632238 ], [ 529940.0, 7261703.757326913066208 ], [ 529930.0, 7261711.551677605137229 ], [ 529920.0, 7261720.447983889840543 ], [ 529910.0, 7261730.087148198857903 ], [ 529900.0, 7261740.011174176819623 ], [ 529890.0, 7261750.000892210751772 ], [ 529880.0, 7261760.0 ], [ 529870.0, 7261770.0 ], [ 529860.000892210751772, 7261780.0 ], [ 529850.011174176470377, 7261790.0 ], [ 529840.087148198392242, 7261800.0 ], [ 529830.447091679205187, 7261810.0 ], [ 529821.541395639418624, 7261820.0 ], [ 529813.682245101430453, 7261830.0 ], [ 529806.429035871406086, 7261840.000000000931323 ], [ 529799.004910625400953, 7261850.0 ], [ 529791.628543837927282, 7261860.0 ], [ 529785.582692010793835, 7261870.0 ], [ 529781.628543837927282, 7261880.0 ], [ 529779.004018414765596, 7261890.0 ], [ 529776.417861694935709, 7261900.0 ], [ 529773.595096902921796, 7261910.0 ], [ 529771.093411749578081, 7261920.0 ], [ 529768.894521863316186, 7261930.0 ], [ 529766.318647109437734, 7261940.0 ], [ 529763.146220802329481, 7261950.0 ], [ 529759.542626355076209, 7261960.0 ], [ 529755.149261337821372, 7261970.0 ], [ 529749.639164308668114, 7261980.0 ], [ 529743.670178714208305, 7261990.0 ], [ 529738.231160406023264, 7262000.0 ], [ 529733.75643470196519, 7262010.0 ], [ 529730.087148198392242, 7262020.0 ], [ 529726.700938943075016, 7262030.0 ], [ 529723.299953267676756, 7262040.0 ], [ 529719.923133767442778, 7262050.0 ], [ 529716.31953932007309, 7262060.0 ], [ 529712.128783074789681, 7262070.0 ], [ 529707.423233035369776, 7262080.0 ], [ 529702.489618766237982, 7262090.0 ], [ 529697.499207057291642, 7262100.0 ], [ 529692.500792942708358, 7262110.0 ], [ 529687.51127344451379, 7262120.0 ], [ 529682.587048930465244, 7262130.0 ], [ 529677.9471909472486, 7262140.0 ], [ 529674.041296371491626, 7262149.999107789248228 ], [ 529671.181452158722095, 7262159.987933613359928 ], [ 529668.917762426892295, 7262169.900785414502025 ], [ 529666.417861694935709, 7262179.453693735413253 ], [ 529663.681352890678681, 7262187.913190307095647 ], [ 529661.541395639418624, 7262194.243011591956019 ] ] } },
{ "type": "Feature", "properties": { "id": 11, "reference_id": 2, "dune_id": 2, "dune_name": "Big Mommy Dune", "acquisition_date": "2017-12-16", "length_m": 762.02155591421274 }, "geometry": { "type": "LineString", "coordinates": [ [ 529114.243011592421681, 7260966.241780877113342 ], [ 529107.91319030651357, 7260963.211912859231234 ], [ 529099.453693735413253, 7260959.912851802073419 ], [ 529089.900785414502025, 7260956.328929075971246 ], [ 529079.987933612894267, 7260952.205649308860302 ], [ 529069.999107789364643, 7260947.794350693002343 ], [ 529060.0, 7260943.670178714208305 ], [ 529050.0, 7260940.075974022038281 ], [ 529040.0, 7260936.700046732090414 ], [ 529030.0, 7260933.299953267909586 ], [ 529020.0, 7260929.924025978893042 ], [ 529010.0, 7260926.33071349747479 ], [ 529000.0, 7260922.215931273065507 ], [ 528990.0, 7260917.870324715040624 ], [ 528980.0, 7260914.031014406122267 ], [ 528970.0, 7260911.180559948086739 ], [ 528960.0, 7260908.916870215907693 ], [ 528950.0, 7260906.406687519513071 ], [ 528940.0, 7260903.594204693101346 ], [ 528930.0, 7260901.093411750160158 ], [ 528920.0, 7260898.895414073951542 ], [ 528910.0, 7260896.329821285791695 ], [ 528900.0, 7260893.233369001187384 ], [ 528890.0, 7260889.989718034863472 ], [ 528880.0, 7260886.689764766022563 ], [ 528870.0, 7260883.310235233977437 ], [ 528860.0, 7260880.010281966999173 ], [ 528850.0, 7260876.766630999743938 ], [ 528840.0, 7260873.670178715139627 ], [ 528830.0, 7260871.103693716228008 ], [ 528820.0, 7260868.896306285634637 ], [ 528810.0, 7260866.328929075971246 ], [ 528800.0, 7260863.223087035119534 ], [ 528790.0, 7260859.913744012825191 ], [ 528780.0, 7260856.328929075039923 ], [ 528770.0, 7260852.205649306997657 ], [ 528760.0, 7260847.794350693002343 ], [ 528750.0, 7260843.670178714208305 ], [ 528740.0, 7260840.075974022969604 ], [ 528730.0, 7260836.700046733021736 ], [ 528720.0, 7260833.299953267909586 ], [ 528710.0, 7260829.92313376814127 ], [ 528700.0, 7260826.319539320655167 ], [ 528690.0, 7260822.128783075138927 ], [ 528680.0, 7260817.423233035951853 ], [ 528670.0, 7260812.489618767052889 ], [ 528660.0, 7260807.499207057058811 ], [ 528650.0, 7260802.499900732189417 ], [ 528640.0, 7260797.499207057990134 ], [ 528630.0, 7260792.489618767052889 ], [ 528620.0, 7260787.423233035951853 ], [ 528610.0, 7260782.128783075138927 ], [ 528600.0, 7260776.319539319723845 ], [ 528590.0, 7260769.923133767209947 ], [ 528580.0, 7260763.299061057157815 ], [ 528570.0, 7260756.689764766953886 ], [ 528560.0, 7260750.0 ], [ 528550.0, 7260743.309343023225665 ], [ 528540.0, 7260736.689764766953886 ], [ 528530.0, 7260729.989718034863472 ], [ 528520.0, 7260723.233369001187384 ], [ 528510.0, 7260716.329821286723018 ], [ 528500.0, 7260708.896306284703314 ], [ 528490.0, 7260701.103693716228008 ], [ 528480.0, 7260693.670178715139627 ], [ 528470.000892210751772, 7260686.766630999743938 ], [ 528460.012066387105733, 7260680.0111741758883 ], [ 528450.099214585614391, 7260673.322301620617509 ], [ 528440.546306264819577, 7260666.788979352451861 ], [ 528432.08680969348643, 7260660.535132088698447 ], [ 528425.756988407694735, 7260655.309004518203437 ] ] } },
{ "type": "Feature", "properties": { "id": 12, "reference_id": 8, "dune_id": 8, "dune_name": "Inverted Y Dune", "acquisition_date": "2017-12-16", "length_m": 460.03526199725741 }, "geometry": { "type": "LineString", "coordinates": [ [ 530294.243011592305265, 7261210.458265855908394 ], [ 530287.913190306629986, 7261211.628543838858604 ], [ 530279.453693735296838, 7261214.129336781799793 ], [ 530269.900785414502025, 7261217.969539300538599 ], [ 530259.987933612894267, 7261222.675981550477445 ], [ 530249.999107789248228, 7261227.969539299607277 ], [ 530240.0, 7261234.129336780868471 ], [ 530230.0, 7261241.628543837927282 ], [ 530220.0, 7261250.458265855908394 ], [ 530210.0, 7261260.088040409609675 ], [ 530200.000892210751772, 7261270.011174176819623 ], [ 530190.011174176470377, 7261280.000892210751772 ], [ 530180.088040409144014, 7261290.0 ], [ 530170.459158066427335, 7261300.0 ], [ 530161.638825803645886, 7261310.000000000931323 ], [ 530154.205310802557506, 7261320.0 ], [ 530148.329482780885883, 7261330.0 ], [ 530143.769393299822696, 7261340.0 ], [ 530140.098322374979034, 7261350.0 ], [ 530136.777805175632238, 7261360.0 ], [ 530133.671070924960077, 7261370.0 ], [ 530131.104585926048458, 7261380.0 ], [ 530128.907480461173691, 7261390.0 ], [ 530126.416969484183937, 7261400.0 ], [ 530123.680460680043325, 7261410.0 ], [ 530121.530221462948248, 7261420.0 ], [ 530120.359943480812944, 7261430.0 ], [ 530119.640056519303471, 7261440.0 ], [ 530118.470670747803524, 7261450.0 ], [ 530116.330713496543467, 7261460.0 ], [ 530113.670178714208305, 7261470.000000000931323 ], [ 530111.539611218031496, 7261480.0 ], [ 530110.43591750273481, 7261490.0 ], [ 530110.0, 7261500.0 ], [ 530109.564082497381605, 7261510.0 ], [ 530108.460388781968504, 7261520.0 ], [ 530106.329821285791695, 7261530.0 ], [ 530103.670178714208305, 7261539.999553894624114 ], [ 530101.540503428783268, 7261549.993520701304078 ], [ 530100.447091679205187, 7261559.944359513930976 ], [ 530100.087148198508658, 7261569.6772395754233 ], [ 530100.011174176470377, 7261578.683442020788789 ], [ 530100.000892210751772, 7261586.078100949525833 ], [ 530100.0, 7261591.078100949525833 ] ] } }
]
}
