{
"type": "FeatureCollection",
"name": "crests_2023_05_2023-05-19",
"crs": { "type": "name", "properties": { "name": "urn:ogc:def:crs:EPSG::32733" } },
"features": [
{ "type": "Feature", "properties": { "id": 0, "reference_id": 1, "dune_id": 1, "dune_name": "Big Mommy Dune", "acquisition_date": "2023-05-19", "length_m": 537.24360779773031 }, "geometry": { "type": "LineString", "coordinates": [ [ 528825.756988407694735, 7262232.041634876281023 ], [ 528832.08680969348643, 7262232.201376715674996 ], [ 528840.546306264819577, 7262230.501131447963417 ], [ 528850.099214585497975, 7262226.964074969291687 ], [ 528860.012066387222148, 7262222.390404180623591 ], [ 528870.000892210751772, 7262217.399992471560836 ], [ 528880.0, 7262212.040742666460574 ], [ 528890.0, 7262205.871555430814624 ], [ 528900.0, 7262198.371456162072718 ], [ 528910.0, 7262189.541734144091606 ], [ 528919.999107789364643, 7262179.911959591321647 ], [ 528929.988825823529623, 7262169.9888258241117 ], [ 528939.911959590972401, 7262159.999107789248228 ], [ 528949.541734144324437, 7262150.0 ], [ 528958.37234837282449, 7262140.0 ], [ 528965.881837395951152, 7262130.0 ], [ 528972.117608898319304, 7262120.0 ], [ 528977.772002339712344, 7262110.0 ], [ 528983.582138305064291, 7262100.0 ], [ 528989.627990132081322, 7262090.0 ], [ 528995.149261337821372, 7262080.0 ], [ 528999.552908320911229, 7262070.0 ], [ 529003.223087035119534, 7262060.0 ], [ 529006.68976476660464, 7262050.0 ], [ 529010.075974022038281, 7262040.0 ], [ 529013.680460680043325, 7262030.0 ], [ 529017.871216925326735, 7262020.0 ], [ 529022.577659175381996, 7262010.0 ], [ 529027.520663199597038, 7262000.0 ], [ 529032.577659175381996, 7261990.0 ], [ 529037.871216925210319, 7261980.0 ], [ 529043.68046067992691, 7261970.0 ], [ 529050.076866232673638, 7261960.0 ], [ 529056.700938943075016, 7261950.0 ], [ 529063.310235233511776, 7261940.0 ], [ 529070.0, 7261930.0 ], [ 529076.689764766488224, 7261920.0 ], [ 529083.298168846289627, 7261910.0 ], [ 529089.911959590855986, 7261900.0 ], [ 529096.231498910929076, 7261890.0 ], [ 529101.670517219230533, 7261880.0 ], [ 529105.793796986807138, 7261870.0 ], [ 529108.34910780924838, 7261860.000892210751772 ], [ 529109.442519558826461, 7261850.012066387571394 ], [ 529109.377719713258557, 7261840.099214586429298 ], [ 529108.001230715657584, 7261830.546306265518069 ], [ 529104.788425646489486, 7261822.086809693835676 ], [ 529100.0, 7261815.756988408043981 ], [ 529095.210682142991573, 7261812.086809693835676 ] ] } },
{ "type": "Feature", "properties": { "id": 1, "reference_id": 1, "dune_id": 1, "dune_name": "Big Mommy Dune", "acquisition_date": "2023-05-19", "length_m": 79.443761977735477 }, "geometry": { "type": "LineString", "coordinates": [ [ 529019.999107789364643, 7261585.756988408043981 ], [ 529019.988825823529623, 7261592.086809692904353 ], [ 529019.912851801607758, 7261600.546306265518069 ], [ 529019.552908320911229, 7261610.099214585497975 ], [ 529018.459496571333148, 7261620.0111741758883 ], [ 529016.329821285791695, 7261629.9888258241117 ], [ 529013.670178714208305, 7261639.900785414502025 ], [ 529011.540503428783268, 7261649.453693735413253 ], [ 529010.447091679205187, 7261657.913190307095647 ], [ 529010.087148198508658, 7261664.243011592887342 ] ] } },
{ "type": "Feature", "properties": { "id": 2, "reference_id": 1, "dune_id": 1, "dune_name": "Big Mommy Dune", "acquisition_date": "2023-05-19", "length_m": 445.77032063562399 }, "geometry": { "type": "LineString", "coordinates": [ [ 529179.912851801607758, 7261105.756988408043981 ], [ 529179.552016110159457, 7261112.086809692904353 ], [ 529178.448322394862771, 7261120.546306265518069 ], [ 529176.241780876647681, 7261130.099214586429298 ], [ 529173.211912858532742, 7261140.012066387571394 ], [ 529169.912851801607758, 7261150.000892210751772 ], [ 529166.328929075156339, 7261160.0 ], [ 529162.205649307463318, 7261170.0 ], [ 529157.794350692536682, 7261180.0 ], [ 529153.670178714208305, 7261190.0 ], [ 529150.075974022038281, 7261200.0 ], [ 529146.700046732323244, 7261210.000000000931323 ], [ 529143.299953267676756, 7261220.0 ], [ 529139.923133767326362, 7261230.0 ], [ 529136.319539319956675, 7261240.0 ], [ 529132.128783074906096, 7261250.0 ], [ 529127.423233035369776, 7261260.0 ], [ 529122.490510976989754, 7261270.0 ], [ 529117.509489023126662, 7261280.0 ], [ 529112.576766964630224, 7261290.0 ], [ 529107.870324714574963, 7261300.0 ], [ 529103.670178714208305, 7261310.000000000931323 ], [ 529100.000892210751772, 7261320.0 ], [ 529096.340103251626715, 7261330.0 ], [ 529092.20654151821509, 7261340.0 ], [ 529087.793458481901325, 7261350.0 ], [ 529083.659896748373285, 7261360.0 ], [ 529080.0, 7261370.0 ], [ 529076.340103251626715, 7261380.0 ], [ 529072.20654151821509, 7261390.0 ], [ 529067.794350692536682, 7261400.0 ], [ 529063.671070924843661, 7261410.0 ], [ 529060.086255987756886, 7261420.0 ], [ 529056.776912964996882, 7261430.0 ], [ 529053.671070924960077, 7261440.0 ], [ 529051.103693715296686, 7261450.0 ], [ 529048.896306284703314, 7261460.0 ], [ 529046.329821285791695, 7261470.000000000931323 ], [ 529043.234261211473495, 7261479.999107789248228 ], [ 529040.000892210751772, 7261489.987933613359928 ], [ 529036.776912964996882, 7261499.900785414502025 ], [ 529033.757326912600547, 7261509.453693735413253 ], [ 529031.551677605253644, 7261517.913190307095647 ], [ 529030.447983889840543, 7261524.243011592887342 ] ] } },
{ "type": "Feature", "properties": { "id": 3, "reference_id": 1, "dune_id": 1, "dune_name": "Big Mommy Dune", "acquisition_date": "2023-05-19", "length_m": 63.042330191340511 }, "geometry": { "type": "LineString", "coordinates": [ [ 529074.254185768775642, 7261784.243011591956019 ], [ 529068.001230715657584, 7261777.914082517847419 ], [ 529059.912851801607758, 7261769.465760122984648 ], [ 529051.540503428783268, 7261760.0 ], [ 529044.204418591805734, 7261750.534239877015352 ], [ 529038.415738768642768, 7261742.085917483083904 ], [ 529034.216484979027882, 7261735.756988408043981 ] ] } },
{ "type": "Feature", "properties": { "id": 4, "reference_id": 8, "dune_id": 8, "dune_name": "Inverted Y Dune", "acquisition_date": "2023-05-19", "length_m": 87.433009880774222 }, "geometry": { "type": "LineString", "coordinates": [ [ 530110.0, 7261505.756988408043981 ], [ 530110.0, 7261512.086809692904353 ], [ 530109.999107789364643, 7261520.546306265518069 ], [ 530109.988825823529623, 7261530.099214585497975 ], [ 530109.912405696231872, 7261540.011620281264186 ], [ 530109.547321232617833, 7261549.99441291205585 ], [ 530108.415922472137026, 7261559.944359513930976 ], [ 530106.106275446247309, 7261569.6772395754233 ], [ 530102.899926999816671, 7261578.683442020788789 ], [ 530099.705414071679115, 7261586.078100949525833 ], [ 530097.282181036309339, 7261591.078100949525833 ] ] } },
{ "type": "Feature", "properties": { "id": 5, "reference_id": 8, "dune_id": 8, "dune_name": "Inverted Y Dune", "acquisition_date": "2023-05-19", "length_m": 505.50249576897238 }, "geometry": { "type": "LineString", "coordinates": [ [ 530514.243011592421681, 7261195.210682143457234 ], [ 530507.91319030651357, 7261200.0 ], [ 530499.453693735296838, 7261204.789317857474089 ], [ 530489.900785414385609, 7261208.012404892593622 ], [ 530479.987933612894267, 7261209.465760122984648 ], [ 530469.999107789364643, 7261209.900785414502025 ], [ 530460.0, 7261209.976759436540306 ], [ 530450.0, 7261209.911959591321647 ], [ 530440.0, 7261209.552908320911229 ], [ 530430.000000000116415, 7261208.459496571682394 ], [ 530420.0, 7261206.329821285791695 ], [ 530410.0, 7261203.670178713276982 ], [ 530400.0, 7261201.540503428317606 ], [ 530390.0, 7261200.447091678157449 ], [ 530380.0, 7261200.087148198857903 ], [ 530370.0, 7261200.012066386640072 ], [ 530360.0, 7261200.012066386640072 ], [ 530350.0, 7261200.087148198857903 ], [ 530340.0, 7261200.447091678157449 ], [ 530330.0, 7261201.541395639069378 ], [ 530320.0, 7261203.681352891027927 ], [ 530310.0, 7261206.417861694470048 ], [ 530300.0, 7261208.917762426659465 ], [ 530290.0, 7261211.181452158838511 ], [ 530280.0, 7261214.041296372190118 ], [ 530270.0, 7261217.947190947830677 ], [ 530260.0, 7261222.587941141799092 ], [ 530250.0, 7261227.522447621449828 ], [ 530240.0, 7261232.588833352550864 ], [ 530230.0, 7261237.958365123718977 ], [ 530220.000892210635357, 7261244.128444569185376 ], [ 530210.011174176470377, 7261251.628543837927282 ], [ 530200.088040409144014, 7261260.458265855908394 ], [ 530190.458265855675563, 7261270.088040409609675 ], [ 530181.628543837810867, 7261280.0111741758883 ], [ 530174.129336780519225, 7261290.000892210751772 ], [ 530167.968647089437582, 7261300.0 ], [ 530162.664807373774238, 7261310.000000000931323 ], [ 530157.882391101680696, 7261320.0 ], [ 530153.681352890678681, 7261330.0 ], [ 530150.076866232673638, 7261340.0 ], [ 530146.700938943075016, 7261350.0 ], [ 530143.311127444263548, 7261360.0 ], [ 530140.011174176586792, 7261369.999107789248228 ], [ 530136.777805175632238, 7261379.987933613359928 ], [ 530133.757326912600547, 7261389.900785414502025 ], [ 530131.551677605137229, 7261399.453693735413253 ], [ 530130.447983889840543, 7261407.913190307095647 ], [ 530130.087148198392242, 7261414.243011591956019 ] ] } },
{ "type": "Feature", "properties": { "id": 6, "reference_id": 9, "dune_id": 9, "dune_name": "Inverted Y Dune", "acquisition_date": "2023-05-19", "length_m": 758.4197258522745 }, "geometry": { "type": "LineString", "coordinates": [ [ 530091.078100949525833, 7261598.910724874585867 ], [ 530086.078100949409418, 7261603.834750852547586 ], [ 530078.683442020905204, 7261610.868574090301991 ], [ 530069.677239574841224, 7261618.771082820370793 ], [ 530059.944359513698146, 7261626.297421364113688 ], [ 530049.993520701071247, 7261633.218392157927155 ], [ 530039.999553894624114, 7261639.913297906517982 ], [ 530030.0, 7261646.328929075971246 ], [ 530020.0, 7261652.205649306997657 ], [ 530010.0, 7261657.794350693002343 ], [ 530000.0, 7261663.671070925891399 ], [ 529990.0, 7261670.086255988106132 ], [ 529980.0, 7261676.776912964880466 ], [ 529970.0, 7261683.671070925891399 ], [ 529960.0, 7261691.10458592697978 ], [ 529950.0, 7261698.907480461522937 ], [ 529940.0, 7261706.416969484649599 ], [ 529930.0, 7261713.681352891027927 ], [ 529920.0, 7261721.541395640000701 ], [ 529910.0, 7261730.447091680020094 ], [ 529900.0, 7261740.087148198857903 ], [ 529890.0, 7261750.011174176819623 ], [ 529880.0, 7261760.000892210751772 ], [ 529870.0, 7261770.0 ], [ 529860.000892210751772, 7261780.0 ], [ 529850.011174176470377, 7261790.0 ], [ 529840.088040409144014, 7261800.0 ], [ 529830.458265855675563, 7261810.0 ], [ 529821.628543837927282, 7261820.0 ], [ 529814.129336780519225, 7261830.0 ], [ 529807.968647089437582, 7261840.000000000931323 ], [ 529802.664807373774238, 7261850.0 ], [ 529797.881498891045339, 7261860.0 ], [ 529793.671070924843661, 7261870.0 ], [ 529790.000892210751772, 7261880.0 ], [ 529786.340995462262072, 7261890.0 ], [ 529782.216823483933695, 7261900.0 ], [ 529777.870324714574963, 7261910.0 ], [ 529774.030122194904834, 7261920.0 ], [ 529771.169385771499947, 7261930.0 ], [ 529768.829722017864697, 7261940.0 ], [ 529765.959595839260146, 7261950.0 ], [ 529762.052809052867815, 7261960.0 ], [ 529757.412951069651172, 7261970.0 ], [ 529752.488726555602625, 7261980.0 ], [ 529747.499207057408057, 7261990.0 ], [ 529742.500792942708358, 7262000.0 ], [ 529737.510381233762018, 7262010.0 ], [ 529732.576766964630224, 7262020.0 ], [ 529727.870324714574963, 7262030.0 ], [ 529723.670178714208305, 7262040.0 ], [ 529720.0, 7262050.0 ], [ 529716.329821285791695, 7262060.0 ], [ 529712.130567496176809, 7262070.0 ], [ 529707.433515001088381, 7262080.0 ], [ 529702.566484998911619, 7262090.0 ], [ 529697.870324714574963, 7262100.0 ], [ 529693.680460680043325, 7262110.0 ], [ 529690.076866232673638, 7262120.0 ], [ 529686.700046732323244, 7262130.0 ], [ 529683.299953267676756, 7262140.0 ], [ 529679.924025978078134, 7262149.999107789248228 ], [ 529676.330713496543467, 7262159.987933613359928 ], [ 529672.216823483933695, 7262169.900785414502025 ], [ 529667.881498891045339, 7262179.453693735413253 ], [ 529664.118162604048848, 7262187.913190307095647 ], [ 529661.62765162717551, 7262194.243011591956019 ] ] } },
{ "type": "Feature", "properties": { "id": 7, "reference_id": 6, "dune_id": 6, "dune_name": "The Star Dune", "acquisition_date": "2023-05-19", "length_m": 779.00873537707037 }, "geometry": { "type": "LineString", "coordinates": [ [ 533551.551677605253644, 7262874.243011591956019 ], [ 533553.758219123352319, 7262867.913190307095647 ], [ 533556.788087141467258, 7262859.453693735413253 ], [ 533560.087148198392242, 7262849.900785414502025 ], [ 533563.671070924843661, 7262839.987933613359928 ], [ 533567.794350692653097, 7262829.999107789248228 ], [ 533572.20654151821509, 7262820.0 ], [ 533576.340103251626715, 7262810.0 ], [ 533580.0, 7262800.0 ], [ 533583.659004537737928, 7262790.0 ], [ 533587.782284305430949, 7262780.0 ], [ 533592.118501109071076, 7262770.0 ], [ 533595.881837395951152, 7262760.0 ], [ 533598.37234837282449, 7262750.0 ], [ 533599.541734144324437, 7262740.0 ], [ 533599.912851801607758, 7262730.0 ], [ 533600.0, 7262720.0 ], [ 533600.086255987756886, 7262710.0 ], [ 533600.447091679205187, 7262700.0 ], [ 533601.540503428783268, 7262690.0 ], [ 533603.670178714208305, 7262680.0 ], [ 533606.329821285791695, 7262670.0 ], [ 533608.459496571333148, 7262660.0 ], [ 533609.553800531546585, 7262650.0 ], [ 533609.924025978078134, 7262640.0 ], [ 533610.075974022038281, 7262630.0 ], [ 533610.44619946856983, 7262620.0 ], [ 533611.541395639418624, 7262610.0 ], [ 533613.681352890795097, 7262600.000000000931323 ], [ 533616.416969484183937, 7262590.0 ], [ 533618.906588250421919, 7262580.0 ], [ 533621.093411749578081, 7262570.0 ], [ 533623.583922726451419, 7262560.0 ], [ 533626.329821285791695, 7262550.0 ], [ 533628.545752558973618, 7262540.0 ], [ 533630.000892210751772, 7262530.0 ], [ 533631.464529406744987, 7262520.0 ], [ 533633.746152736246586, 7262510.0 ], [ 533636.776020754361525, 7262500.0 ], [ 533640.000892210751772, 7262490.0 ], [ 533643.234261211473495, 7262480.0 ], [ 533646.329821285791695, 7262470.0 ], [ 533648.896306284703314, 7262460.0 ], [ 533651.103693715413101, 7262450.0 ], [ 533653.670178714208305, 7262440.0 ], [ 533656.765738788526505, 7262430.0 ], [ 533659.999107789248228, 7262420.0 ], [ 533663.223979245638475, 7262410.0 ], [ 533666.253847263869829, 7262400.0 ], [ 533668.535470593255013, 7262390.0 ], [ 533669.999107789364643, 7262380.0 ], [ 533671.453355230391026, 7262370.0 ], [ 533673.659004537737928, 7262360.0 ], [ 533676.328929075156339, 7262350.0 ], [ 533678.459496571333148, 7262340.000000000931323 ], [ 533679.552908320911229, 7262330.0 ], [ 533679.912851801607758, 7262320.0 ], [ 533679.987933612894267, 7262310.0 ], [ 533679.987933612894267, 7262300.0 ], [ 533679.912851801607758, 7262290.0 ], [ 533679.552908320911229, 7262280.0 ], [ 533678.458604360697791, 7262270.0 ], [ 533676.318647109437734, 7262260.0 ], [ 533673.583030515816063, 7262250.0 ], [ 533671.093411749578081, 7262240.0 ], [ 533668.906588250538334, 7262230.0 ], [ 533666.416969484300353, 7262220.0 ], [ 533663.681352890678681, 7262210.0 ], [ 533661.541395639418624, 7262200.0 ], [ 533660.447091679088771, 7262190.0 ], [ 533660.087148198392242, 7262180.0 ], [ 533660.011174176470377, 7262170.0 ], [ 533660.000892210751772, 7262160.000892210751772 ], [ 533660.0, 7262150.012066386640072 ], [ 533660.0, 7262140.099214585497975 ], [ 533660.0, 7262130.546306265518069 ], [ 533660.0, 7262122.086809693835676 ], [ 533660.0, 7262115.756988408043981 ] ] } },
{ "type": "Feature", "properties": { "id": 8, "reference_id": 3, "dune_id": 3, "dune_name": "Big Mommy Dune", "acquisition_date": "2023-05-19", "length_m": 1037.5986431360095 }, "geometry": { "type": "LineString", "coordinates": [ [ 530044.243011592305265, 7260610.0 ], [ 530037.91319030651357, 7260610.0 ], [ 530029.453693735180423, 7260610.0 ], [ 530019.900785414502025, 7260610.0 ], [ 530009.987933612894267, 7260610.0 ], [ 529999.999107789364643, 7260610.0 ], [ 529990.0, 7260610.0 ], [ 529980.0, 7260610.0 ], [ 529970.0, 7260609.999107789248228 ], [ 529960.0, 7260609.9888258241117 ], [ 529950.0, 7260609.912851802073419 ], [ 529940.0, 7260609.552908320911229 ], [ 529930.0, 7260608.460388782434165 ], [ 529920.0, 7260606.340995462611318 ], [ 529910.0, 7260603.757326912134886 ], [ 529900.0, 7260601.9875951083377 ], [ 529890.0, 7260601.986702897585928 ], [ 529880.0, 7260603.746152736246586 ], [ 529870.0, 7260606.253847263753414 ], [ 529860.0, 7260608.014189314097166 ], [ 529850.0, 7260608.023579068481922 ], [ 529840.0, 7260606.329821286723018 ], [ 529830.0, 7260604.106096217408776 ], [ 529820.0, 7260603.080114646814764 ], [ 529810.0, 7260604.117270393297076 ], [ 529800.0, 7260606.416969485580921 ], [ 529790.0, 7260608.470670748502016 ], [ 529780.0, 7260609.553800531663001 ], [ 529770.0, 7260609.912851802073419 ], [ 529760.0, 7260609.9888258241117 ], [ 529750.0, 7260609.999107789248228 ], [ 529740.0, 7260610.000892210751772 ], [ 529730.0, 7260610.011174176819623 ], [ 529720.0, 7260610.087148198857903 ], [ 529710.0, 7260610.447091680020094 ], [ 529700.0, 7260611.540503429248929 ], [ 529690.0, 7260613.670178715139627 ], [ 529680.0, 7260616.329821286723018 ], [ 529670.0, 7260618.459496571682394 ], [ 529660.0, 7260619.553800531663001 ], [ 529650.0, 7260619.924025977961719 ], [ 529640.0, 7260620.075974022038281 ], [ 529630.0, 7260620.446199468336999 ], [ 529620.0, 7260621.540503429248929 ], [ 529610.0, 7260623.671070924960077 ], [ 529600.0, 7260626.340995462611318 ], [ 529590.0, 7260628.546644769608974 ], [ 529580.0, 7260630.0 ], [ 529570.0, 7260631.454247441142797 ], [ 529560.0, 7260633.670178715139627 ], [ 529550.0, 7260636.416077274829149 ], [ 529540.0, 7260638.906588250771165 ], [ 529530.0, 7260641.094303959980607 ], [ 529520.0, 7260643.594204693101346 ], [ 529510.0, 7260646.405795307829976 ], [ 529500.000000000116415, 7260648.906588250771165 ], [ 529490.0, 7260651.10458592697978 ], [ 529480.0, 7260653.670178714208305 ], [ 529470.0, 7260656.766630999743938 ], [ 529460.0, 7260660.010281966067851 ], [ 529450.0, 7260663.310235233977437 ], [ 529440.000000000116415, 7260666.690656977705657 ], [ 529430.0, 7260670.000892210751772 ], [ 529420.0, 7260673.321409409865737 ], [ 529410.0, 7260676.788979351520538 ], [ 529400.0, 7260680.535132087767124 ], [ 529390.0, 7260685.309004518203437 ], [ 529380.0, 7260691.999661494977772 ], [ 529370.0, 7260700.535132088698447 ], [ 529360.0, 7260710.098322374746203 ], [ 529350.0, 7260720.012066386640072 ], [ 529340.000892210751772, 7260730.000892210751772 ], [ 529330.011174176470377, 7260740.0 ], [ 529320.087148198508658, 7260750.0 ], [ 529310.447983889956959, 7260760.0 ], [ 529301.551677605253644, 7260770.0 ], [ 529293.758219123352319, 7260780.000000000931323 ], [ 529286.788087141467258, 7260790.0 ], [ 529280.087148198392242, 7260800.0 ], [ 529273.671070924960077, 7260810.0 ], [ 529267.794350692536682, 7260820.0 ], [ 529262.205649307463318, 7260830.0 ], [ 529256.32982128590811, 7260840.0 ], [ 529249.924025978078134, 7260850.0 ], [ 529243.299953267676756, 7260860.0 ], [ 529236.700046732323244, 7260870.0 ], [ 529230.075974021921866, 7260880.0 ], [ 529223.670178714208305, 7260890.0 ], [ 529217.794350692536682, 7260900.0 ], [ 529212.205649307463318, 7260910.0 ], [ 529206.328929075039923, 7260919.999107789248228 ], [ 529199.913297906983644, 7260929.987933613359928 ], [ 529193.21839215757791, 7260939.900785414502025 ], [ 529186.297421363065951, 7260949.453693735413253 ], [ 529178.771082820021547, 7260957.913190307095647 ], [ 529170.868574089254253, 7260964.243011592887342 ], [ 529163.83475085219834, 7260967.913190307095647 ], [ 529158.910724874120206, 7260969.453693735413253 ] ] } },
{ "type": "Feature", "properties": { "id": 9, "reference_id": 3, "dune_id": 3, "dune_name": "Big Mommy Dune", "acquisition_date": "2023-05-19", "length_m": 171.65072024033964 }, "geometry": { "type": "LineString", "coordinates": [ [ 530244.243011592421681, 7260570.087148198857903 ], [ 530237.91319030651357, 7260570.447091680020094 ], [ 530229.453693735180423, 7260571.540503429248929 ], [ 530219.900785414385609, 7260573.670178715139627 ], [ 530209.987933612894267, 7260576.33071349747479 ], [ 530199.999107789248228, 7260578.470670748502016 ], [ 530190.0, 7260579.64005651883781 ], [ 530180.0, 7260580.35994348116219 ], [ 530170.000000000116415, 7260581.530221463181078 ], [ 530160.0, 7260583.680460680276155 ], [ 530150.0, 7260586.416969484649599 ], [ 530140.0, 7260588.906588250771165 ], [ 530130.0, 7260591.093411749228835 ], [ 530120.000892210751772, 7260593.583030516281724 ], [ 530110.012066387222148, 7260596.318647108972073 ], [ 530100.099214585614391, 7260598.458604360930622 ], [ 530090.546306264819577, 7260599.552908321842551 ], [ 530082.08680969348643, 7260599.912851802073419 ], [ 530075.756988407694735, 7260599.9888258241117 ] ] } },
{ "type": "Feature", "properties": { "id": 10, "reference_id": 5, "dune_id": 5, "dune_name": "The Star Dune", "acquisition_date": "2023-05-19", "length_m": 673.89580577929075 }, "geometry": { "type": "LineString", "coordinates": [ [ 534144.243011592305265, 7261670.000892210751772 ], [ 534137.91319030651357, 7261670.011174176819623 ], [ 534129.453693735296838, 7261670.087148198857903 ], [ 534119.900785414502025, 7261670.447091679088771 ], [ 534109.987933612894267, 7261671.540503429248929 ], [ 534099.999107789248228, 7261673.670178714208305 ], [ 534090.0, 7261676.329821285791695 ], [ 534080.0, 7261678.460388781502843 ], [ 534070.0, 7261679.564082497730851 ], [ 534060.0, 7261680.0 ], [ 534050.0, 7261680.435917503200471 ], [ 534040.0, 7261681.540503429248929 ], [ 534030.0, 7261683.681352891027927 ], [ 534020.0, 7261686.416969483718276 ], [ 534010.0, 7261688.906588250771165 ], [ 534000.0, 7261691.094303959980607 ], [ 533990.0, 7261693.594204692170024 ], [ 533980.0, 7261696.405795307829976 ], [ 533970.0, 7261698.906588250771165 ], [ 533960.0, 7261701.10458592697978 ], [ 533950.0, 7261703.671070924960077 ], [ 533940.0, 7261706.776912964880466 ], [ 533930.0, 7261710.087148198857903 ], [ 533920.0, 7261713.681352891027927 ], [ 533910.0, 7261717.871216924861073 ], [ 533900.0, 7261722.576766964048147 ], [ 533890.0, 7261727.510381233878434 ], [ 533880.0, 7261732.500792942941189 ], [ 533870.0, 7261737.500099267810583 ], [ 533860.0, 7261742.499900732189417 ], [ 533850.0, 7261747.500099267810583 ], [ 533840.0, 7261752.500792942941189 ], [ 533830.0, 7261757.511273443698883 ], [ 533820.000892210635357, 7261762.587941141799092 ], [ 533810.011174176470377, 7261767.958365123718977 ], [ 533800.088040409144014, 7261774.128444570116699 ], [ 533790.458265855675563, 7261781.628543838858604 ], [ 533781.628543837927282, 7261790.458265855908394 ], [ 533774.129336780519225, 7261800.088040409609675 ], [ 533767.968647089437582, 7261810.011174177750945 ], [ 533762.664807373774238, 7261820.000892210751772 ], [ 533757.882391101680696, 7261830.0 ], [ 533753.681352890678681, 7261840.000000000931323 ], [ 533750.076866232673638, 7261850.0 ], [ 533746.700046732323244, 7261860.0 ], [ 533743.299953267676756, 7261870.0 ], [ 533739.923133767442778, 7261880.0 ], [ 533736.31953932007309, 7261890.0 ], [ 533732.128783074906096, 7261900.0 ], [ 533727.423233035253361, 7261910.0 ], [ 533722.489618766237982, 7261920.0 ], [ 533717.49831484653987, 7261930.0 ], [ 533712.489618766237982, 7261940.0 ], [ 533707.423233035369776, 7261950.0 ], [ 533702.129675285541452, 7261960.0 ], [ 533696.32982128590811, 7261970.0 ], [ 533689.999107789364643, 7261980.0 ], [ 533683.659450643113814, 7261989.999553894624114 ], [ 533677.788763604359701, 7261999.993520701304078 ], [ 533672.17414159537293, 7262009.944359513930976 ], [ 533666.204597821226344, 7262019.677239574491978 ], [ 533659.688906352035701, 7262028.683442020788789 ], [ 533653.463633194915019, 7262036.078100949525833 ], [ 533648.833858641562983, 7262041.078100949525833 ] ] } },
{ "type": "Feature", "properties": { "id": 11, "reference_id": 5, "dune_id": 5, "dune_name": "The Star Dune", "acquisition_date": "2023-05-19", "length_m": 168.74207789504368 }, "geometry": { "type": "LineString", "coordinates": [ [ 534175.756988407694735, 7261659.464867912232876 ], [ 534182.08680969348643, 7261658.001230716705322 ], [ 534190.546306264819577, 7261654.701277447864413 ], [ 534200.099214585614391, 7261649.540841934271157 ], [ 534210.012066387105733, 7261643.571856340393424 ], [ 534220.000892210751772, 7261637.782284305430949 ], [ 534230.0, 7261632.204757097177207 ], [ 534240.0, 7261626.328929075039923 ], [ 534250.0, 7261619.912851801142097 ], [ 534260.0, 7261613.211912859231234 ], [ 534269.999107789248228, 7261606.242673087865114 ], [ 534279.987933612894267, 7261598.460388782434165 ], [ 534289.900785414502025, 7261589.651230695657432 ], [ 534299.453693735296838, 7261580.459158066660166 ], [ 534307.91319030651357, 7261572.075635517947376 ], [ 534314.243011592305265, 7261565.756096197292209 ] ] } },
{ "type": "Feature", "properties": { "id": 12, "reference_id": 5, "dune_id": 5, "dune_name": "The Star Dune", "acquisition_date": "2023-05-19", "length_m": 129.41608259244248 }, "geometry": { "type": "LineString", "coordinates": [ [ 534330.0, 7261514.243011592887342 ], [ 534330.0, 7261507.913190307095647 ], [ 534330.0, 7261499.453693735413253 ], [ 534329.999107789364643, 7261489.900785414502025 ], [ 534329.988825823529623, 7261479.987933613359928 ], [ 534329.912851801607758, 7261469.999107790179551 ], [ 534329.552908320794813, 7261460.0 ], [ 534328.459496571333148, 7261450.0 ], [ 534326.329821285791695, 7261440.0 ], [ 534323.670178714208305, 7261430.000892210751772 ], [ 534321.540503428666852, 7261420.012066387571394 ], [ 534320.447091679205187, 7261410.099214585497975 ], [ 534320.087148198392242, 7261400.546306264586747 ], [ 534320.011174176470377, 7261392.086809693835676 ], [ 534320.000892210751772, 7261385.756988408043981 ] ] } },
{ "type": "Feature", "properties": { "id": 13, "reference_id": 4, "dune_id": 4, "dune_name": "The Star Dune", "acquisition_date": "2023-05-19", "length_m": 655.36957845860184 }, "geometry": { "type": "LineString", "coordinates": [ [ 533631.078100949525833, 7262049.999107789248228 ], [ 533626.078100949409418, 7262049.9888258241117 ], [ 533618.683442020905204, 7262049.912851801142097 ], [ 533609.677239574841224, 7262049.552016111090779 ], [ 533599.94435951358173, 7262048.448322394862771 ], [ 533589.993520701071247, 7262046.242673087865114 ], [ 533579.999553894740529, 7262043.222194824367762 ], [ 533570.0, 7262039.987933613359928 ], [ 533560.0, 7262036.678590590134263 ], [ 533550.0, 7262033.222194824367762 ], [ 533540.0, 7262029.552908320911229 ], [ 533530.0, 7262025.150153548456728 ], [ 533520.0, 7262019.63916430901736 ], [ 533510.0, 7262013.670178714208305 ], [ 533500.0, 7262008.230268195271492 ], [ 533490.0, 7262003.746152736246586 ], [ 533480.0, 7262000.011174176819623 ], [ 533470.0, 7261996.340995462611318 ], [ 533460.0, 7261992.206541518680751 ], [ 533450.0, 7261987.794350693002343 ], [ 533440.0, 7261983.671070924960077 ], [ 533430.0, 7261980.086255988106132 ], [ 533420.0, 7261976.776912964880466 ], [ 533410.0, 7261973.671070924960077 ], [ 533400.000000000116415, 7261971.103693716228008 ], [ 533390.0, 7261968.896306285634637 ], [ 533380.000000000116415, 7261966.329821286723018 ], [ 533370.0, 7261963.233369001187384 ], [ 533360.0, 7261959.989718034863472 ], [ 533350.0, 7261956.689764766953886 ], [ 533340.0, 7261953.310235233977437 ], [ 533330.0, 7261950.010281966999173 ], [ 533320.0, 7261946.766630999743938 ], [ 533310.0, 7261943.670178713276982 ], [ 533300.0, 7261941.103693715296686 ], [ 533290.0, 7261938.896306284703314 ], [ 533280.0, 7261936.329821286723018 ], [ 533270.0, 7261933.234261211007833 ], [ 533260.0, 7261930.0 ], [ 533250.0, 7261926.765738788992167 ], [ 533240.0, 7261923.670178715139627 ], [ 533230.0, 7261921.103693716228008 ], [ 533220.0, 7261918.896306284703314 ], [ 533210.0, 7261916.329821286723018 ], [ 533200.0, 7261913.234261212870479 ], [ 533190.0, 7261910.0 ], [ 533180.0, 7261906.765738788992167 ], [ 533170.0, 7261903.670178715139627 ], [ 533160.0, 7261901.104585926048458 ], [ 533150.0, 7261898.906588250771165 ], [ 533140.0, 7261896.405795307829976 ], [ 533130.0, 7261893.594204692170024 ], [ 533120.0, 7261891.094303959980607 ], [ 533110.0, 7261888.905696040019393 ], [ 533100.0, 7261886.405795307829976 ], [ 533090.0, 7261883.594204692170024 ], [ 533080.0, 7261881.094303959980607 ], [ 533070.0, 7261878.906588250771165 ], [ 533060.0, 7261876.416077273897827 ], [ 533050.000892210751772, 7261873.670178715139627 ], [ 533040.012066387105733, 7261871.454247441142797 ], [ 533030.099214585614391, 7261870.0 ], [ 533020.546306264819577, 7261868.546644769608974 ], [ 533012.08680969348643, 7261866.340995462611318 ], [ 533005.756988407694735, 7261863.671070925891399 ] ] } },
{ "type": "Feature", "properties": { "id": 14, "reference_id": 2, "dune_id": 2, "dune_name": "Big Mommy Dune", "acquisition_date": "2023-05-19", "length_m": 256.68760037127413 }, "geometry": { "type": "LineString", "coordinates": [ [ 528654.243011592421681, 7260798.36117419693619 ], [ 528647.91319030651357, 7260795.794689197093248 ], [ 528639.453693735180423, 7260791.671409429982305 ], [ 528629.900785414502025, 7260786.241780877113342 ], [ 528619.987933612894267, 7260779.987933613359928 ], [ 528609.999107789364643, 7260773.659004537388682 ], [ 528600.0, 7260767.793458482250571 ], [ 528590.0, 7260762.205649306997657 ], [ 528580.0, 7260756.329821286723018 ], [ 528570.0, 7260749.924025977961719 ], [ 528560.0, 7260743.299061057157815 ], [ 528550.0, 7260736.689764766953886 ], [ 528540.0, 7260730.0 ], [ 528530.0, 7260723.309343023225665 ], [ 528520.0, 7260716.690656976774335 ], [ 528510.0, 7260710.0 ], [ 528500.0, 7260703.310235233977437 ], [ 528490.0, 7260696.700938943773508 ], [ 528480.000892210751772, 7260690.076866233721375 ], [ 528470.012066387105733, 7260683.681352891027927 ], [ 528460.099214585614391, 7260677.882391101680696 ], [ 528450.546306264819577, 7260672.664807373657823 ], [ 528442.08680969348643, 7260667.968647089786828 ], [ 528435.756988407694735, 7260664.129336780868471 ] ] } },
{ "type": "Feature", "properties": { "id": 15, "reference_id": 2, "dune_id": 2, "dune_name": "Big Mommy Dune", "acquisition_date": "2023-05-19", "length_m": 479.8148174255706 }, "geometry": { "type": "LineString", "coordinates": [ [ 529151.078100949409418, 7260969.911959590390325 ], [ 529146.078100949409418, 7260969.541734144091606 ], [ 529138.683442020905204, 7260968.37234837282449 ], [ 529129.677239574841224, 7260965.881837395951152 ], [ 529119.944359513698146, 7260962.118501110002398 ], [ 529109.993520701071247, 7260957.782284306362271 ], [ 529099.999553894624114, 7260953.659004538320005 ], [ 529090.0, 7260950.000000000931323 ], [ 529080.0, 7260946.340103251859546 ], [ 529070.0, 7260942.206541517749429 ], [ 529060.0, 7260937.794350693002343 ], [ 529050.0, 7260933.670178714208305 ], [ 529040.0, 7260930.075974021106958 ], [ 529030.0, 7260926.700938943773508 ], [ 529020.0, 7260923.311127444729209 ], [ 529010.0, 7260920.010281965136528 ], [ 529000.0, 7260916.766630999743938 ], [ 528990.0, 7260913.670178714208305 ], [ 528980.0, 7260911.10458592697978 ], [ 528970.0, 7260908.906588250771165 ], [ 528960.0, 7260906.405795308761299 ], [ 528950.0, 7260903.594204693101346 ], [ 528940.0, 7260901.094303959980607 ], [ 528930.0, 7260898.905696040019393 ], [ 528920.0, 7260896.405795307829976 ], [ 528910.0, 7260893.594204692170024 ], [ 528900.0, 7260891.093411749228835 ], [ 528890.0, 7260888.895414073951542 ], [ 528880.0, 7260886.329821286723018 ], [ 528870.0, 7260883.233369002118707 ], [ 528860.0, 7260879.989718034863472 ], [ 528850.0, 7260876.689764766953886 ], [ 528840.0, 7260873.309343023225665 ], [ 528830.0, 7260870.0 ], [ 528820.0, 7260866.689764767885208 ], [ 528810.0, 7260863.299061058089137 ], [ 528800.0, 7260859.924025978893042 ], [ 528790.0, 7260856.329821285791695 ], [ 528780.0, 7260852.205649306997657 ], [ 528770.0, 7260847.794350693002343 ], [ 528760.0, 7260843.670178714208305 ], [ 528750.0, 7260840.075974022969604 ], [ 528740.000892210635357, 7260836.700938943773508 ], [ 528730.012066387105733, 7260833.311127444729209 ], [ 528720.099214585614391, 7260830.011174176819623 ], [ 528710.546306264819577, 7260826.777805175632238 ], [ 528702.08680969348643, 7260823.757326913066208 ], [ 528695.756988407694735, 7260821.551677605137229 ] ] } },
{ "type": "Feature", "properties": { "id": 16, "reference_id": 7, "dune_id": 7, "dune_name": "Inverted Y Dune", "acquisition_date": "2023-05-19", "length_m": 564.65168849053532 }, "geometry": { "type": "LineString", "coordinates": [ [ 530584.254185768775642, 7261405.756988408043981 ], [ 530578.000338505022228, 7261412.086809693835676 ], [ 530569.901677625137381, 7261420.546306264586747 ], [ 530561.452463019639254, 7261430.099214585497975 ], [ 530553.745260525494814, 7261440.012066387571394 ], [ 530546.776912964996882, 7261450.000892210751772 ], [ 530540.011174176470377, 7261460.0 ], [ 530533.31023523339536, 7261470.000000000931323 ], [ 530526.689764766488224, 7261480.0 ], [ 530519.988825823529623, 7261490.0 ], [ 530513.222194824367762, 7261500.0 ], [ 530506.242673087399453, 7261510.0 ], [ 530498.448322394862771, 7261519.999107789248228 ], [ 530489.552016110159457, 7261529.9888258241117 ], [ 530479.912851801607758, 7261539.912851801142097 ], [ 530469.988825823529623, 7261549.552016110159457 ], [ 530459.999107789364643, 7261558.448322394862771 ], [ 530450.0, 7261566.241780877113342 ], [ 530440.0, 7261573.211912859231234 ], [ 530430.000000000116415, 7261579.911959591321647 ], [ 530420.0, 7261586.318647108972073 ], [ 530410.0, 7261592.128783075138927 ], [ 530400.0, 7261597.422340825200081 ], [ 530390.0, 7261602.479336800985038 ], [ 530380.0, 7261607.422340825200081 ], [ 530370.0, 7261612.129675285890698 ], [ 530360.0, 7261616.329821286723018 ], [ 530350.0, 7261619.999107789248228 ], [ 530340.0, 7261623.659004537388682 ], [ 530330.0, 7261627.782284305430949 ], [ 530320.0, 7261632.118501109071076 ], [ 530310.0, 7261635.882729606702924 ], [ 530300.0, 7261638.383522549644113 ], [ 530290.0, 7261639.62888234294951 ], [ 530280.0, 7261640.359051270410419 ], [ 530270.0, 7261641.529329252429307 ], [ 530260.0, 7261643.669286504387856 ], [ 530250.0, 7261646.329821286723018 ], [ 530240.0, 7261648.459496572613716 ], [ 530230.0, 7261649.552016111090779 ], [ 530220.0, 7261649.901677625253797 ], [ 530210.0, 7261649.901677625253797 ], [ 530200.0, 7261649.552016111090779 ], [ 530190.0, 7261648.459496572613716 ], [ 530180.0, 7261646.329821286723018 ], [ 530170.000000000116415, 7261643.669286504387856 ], [ 530160.000892210751772, 7261641.529329252429307 ], [ 530150.012066387222148, 7261640.35994348116219 ], [ 530140.099214585614391, 7261639.64005651883781 ], [ 530130.546306264819577, 7261638.470670748502016 ], [ 530122.08680969348643, 7261636.330713496543467 ], [ 530115.756988407694735, 7261633.670178714208305 ] ] } }
]
}
