{
"type": "FeatureCollection",
"name": "crests_2017_01_2017-01-27",
"crs": { "type": "name", "properties": { "name": "urn:ogc:def:crs:EPSG::32733" } },
"features": [
{ "type": "Feature", "properties": { "id": 0, "reference_id": 4, "dune_id": 4, "dune_name": "The Star Dune", "acquisition_date": "2017-01-27", "length_m": 84.78309017910945 }, "geometry": { "type": "LineString", "coordinates": [ [ 533435.756988407694735, 7261980.535132087767124 ], [ 533442.086809693370014, 7261981.998769285157323 ], [ 533450.546306264703162, 7261985.297830341383815 ], [ 533460.099214585614391, 7261990.447091679088771 ], [ 533470.011174176470377, 7261996.329821286723018 ], [ 533479.988825823529623, 7262001.682583605870605 ], [ 533489.900785414502025, 7262005.79558140784502 ], [ 533499.453693735296838, 7262008.361174196004868 ], [ 533507.91319030651357, 7262009.540841934271157 ], [ 533514.243011592305265, 7262009.911959591321647 ] ] } },
{ "type": "Feature", "properties": { "id": 1, "reference_id": 4, "dune_id": 4, "dune_name": "The Star Dune", "acquisition_date": "2017-01-27", "length_m": 195.5933878675614 }, "geometry": { "type": "LineString", "coordinates": [ [ 533204.243011592305265, 7261909.9888258241117 ], [ 533197.91319030651357, 7261909.912851802073419 ], [ 533189.453693735296838, 7261909.552908321842551 ], [ 533179.900785414502025, 7261908.459496571682394 ], [ 533169.987933612894267, 7261906.328929075971246 ], [ 533159.999107789364643, 7261903.658112327568233 ], [ 533150.0, 7261901.442181054502726 ], [ 533140.0, 7261899.912851801142097 ], [ 533130.0, 7261898.099553091451526 ], [ 533120.0, 7261894.800492033362389 ], [ 533110.0, 7261890.000892210751772 ], [ 533100.0, 7261885.209789931774139 ], [ 533090.0, 7261881.976420931518078 ], [ 533080.0, 7261880.447091679088771 ], [ 533070.0, 7261879.650338485836983 ], [ 533060.000892210751772, 7261878.460388782434165 ], [ 533050.012066387105733, 7261876.243565298616886 ], [ 533040.099214585614391, 7261873.223087035119534 ], [ 533030.546306264819577, 7261870.0 ], [ 533022.08680969348643, 7261866.776912964880466 ], [ 533015.756988407694735, 7261863.757326913066208 ] ] } },
{ "type": "Feature", "properties": { "id": 2, "reference_id": 4, "dune_id": 4, "dune_name": "The Star Dune", "acquisition_date": "2017-01-27", "length_m": 54.916103573805159 }, "geometry": { "type": "LineString", "coordinates": [ [ 533255.756988407694735, 7261925.297830341383815 ], [ 533262.085917482734658, 7261930.447091679088771 ], [ 533270.534239877597429, 7261936.329821286723018 ], [ 533280.0, 7261941.682583605870605 ], [ 533289.465760122286156, 7261945.79558140784502 ], [ 533297.914082517148927, 7261948.361174196004868 ], [ 533304.243011592305265, 7261949.540841933339834 ] ] } },
{ "type": "Feature", "properties": { "id": 3, "reference_id": 3, "dune_id": 3, "dune_name": "Big Mommy Dune", "acquisition_date": "2017-01-27", "length_m": 110.68799225381117 }, "geometry": { "type": "LineString", "coordinates": [ [ 530204.243011592305265, 7260580.087148198857903 ], [ 530197.91319030651357, 7260580.447091679088771 ], [ 530189.453693735180423, 7260581.541395640000701 ], [ 530179.900785414385609, 7260583.681352891027927 ], [ 530169.987933612894267, 7260586.416969484649599 ], [ 530159.999107789364643, 7260588.906588250771165 ], [ 530150.0, 7260591.093411749228835 ], [ 530140.000892210751772, 7260593.583030516281724 ], [ 530130.012066387222148, 7260596.318647108972073 ], [ 530120.099214585614391, 7260598.458604360930622 ], [ 530110.546306264819577, 7260599.552908321842551 ], [ 530102.08680969348643, 7260599.912851802073419 ], [ 530095.756988407694735, 7260599.9888258241117 ] ] } },
{ "type": "Feature", "properties": { "id": 4, "reference_id": 3, "dune_id": 3, "dune_name": "Big Mommy Dune", "acquisition_date": "2017-01-27", "length_m": 335.79824147378179 }, "geometry": { "type": "LineString", "coordinates": [ [ 529374.243011592305265, 7260695.756988408043981 ], [ 529367.91319030651357, 7260702.086809693835676 ], [ 529359.453693735180423, 7260710.546306265518069 ], [ 529349.900785414502025, 7260720.099214585497975 ], [ 529339.988825823529623, 7260730.012066388502717 ], [ 529330.01028196583502, 7260740.000892210751772 ], [ 529320.087148198508658, 7260750.0 ], [ 529310.447983889956959, 7260760.0 ], [ 529301.551677605253644, 7260770.0 ], [ 529293.757326912600547, 7260780.000000000931323 ], [ 529286.777805175632238, 7260790.0 ], [ 529280.011174176470377, 7260800.0 ], [ 529273.310235233511776, 7260810.0 ], [ 529266.690656977239996, 7260820.0 ], [ 529260.0, 7260830.0 ], [ 529253.310235233511776, 7260840.0 ], [ 529246.700938943075016, 7260850.0 ], [ 529240.075974021921866, 7260860.0 ], [ 529233.670178714208305, 7260870.0 ], [ 529227.794350692536682, 7260880.0 ], [ 529222.206541518098675, 7260890.0 ], [ 529216.340103251626715, 7260900.0 ], [ 529210.0, 7260910.0 ], [ 529203.659896748373285, 7260919.999107789248228 ], [ 529197.794350692536682, 7260929.987933613359928 ], [ 529192.217715694685467, 7260939.900785414502025 ], [ 529186.428143660770729, 7260949.453693735413253 ], [ 529180.45915806631092, 7260957.913190307095647 ], [ 529175.298722552019171, 7260964.243011592887342 ] ] } },
{ "type": "Feature", "properties": { "id": 5, "reference_id": 3, "dune_id": 3, "dune_name": "Big Mommy Dune", "acquisition_date": "2017-01-27", "length_m": 118.48602318472695 }, "geometry": { "type": "LineString", "coordinates": [ [ 529904.243011592421681, 7260610.0 ], [ 529897.91319030651357, 7260610.0 ], [ 529889.453693735180423, 7260610.0 ], [ 529879.900785414385609, 7260610.0 ], [ 529869.987933612894267, 7260610.0 ], [ 529859.999107789364643, 7260610.0 ], [ 529850.0, 7260610.0 ], [ 529840.0, 7260610.0 ], [ 529830.000892210751772, 7260610.0 ], [ 529820.012066387105733, 7260610.0 ], [ 529810.099214585614391, 7260610.0 ], [ 529800.546306264819577, 7260610.0 ], [ 529792.08680969348643, 7260610.0 ], [ 529785.756988407694735, 7260610.0 ] ] } },
{ "type": "Feature", "properties": { "id": 6, "reference_id": 3, "dune_id": 3, "dune_name": "Big Mommy Dune", "acquisition_date": "2017-01-27", "length_m": 59.50619170847903 }, "geometry": { "type": "LineString", "coordinates": [ [ 529515.75698840781115, 7260649.552908321842551 ], [ 529522.08680969348643, 7260648.459496571682394 ], [ 529530.545414054067805, 7260646.329821286723018 ], [ 529540.087148198392242, 7260643.670178715139627 ], [ 529549.912851801607758, 7260641.540503429248929 ], [ 529559.454585945932195, 7260640.447091679088771 ], [ 529567.91319030651357, 7260640.087148198857903 ], [ 529574.243011592305265, 7260640.011174176819623 ] ] } },
{ "type": "Feature", "properties": { "id": 7, "reference_id": 1, "dune_id": 1, "dune_name": "Big Mommy Dune", "acquisition_date": "2017-01-27", "length_m": 1214.1688071685537 }, "geometry": { "type": "LineString", "coordinates": [ [ 528954.129336780519225, 7262154.243011591956019 ], [ 528957.968647089437582, 7262147.913190307095647 ], [ 528962.664807373890653, 7262139.453693735413253 ], [ 528967.881498891045339, 7262129.900785414502025 ], [ 528973.670178714208305, 7262119.987933613359928 ], [ 528979.98971803416498, 7262109.999107789248228 ], [ 528986.252955053118058, 7262100.0 ], [ 528991.758557628258131, 7262090.0 ], [ 528996.241780876764096, 7262080.0 ], [ 528999.902569835889153, 7262070.0 ], [ 529003.222194824367762, 7262060.0 ], [ 529006.32982128590811, 7262050.0 ], [ 529008.907480461173691, 7262040.0 ], [ 529011.190841913805343, 7262030.0 ], [ 529014.118162604048848, 7262020.0 ], [ 529018.318308604415506, 7262010.0 ], [ 529023.767608878435567, 7262000.0 ], [ 529030.088040409144014, 7261990.0 ], [ 529036.700938943075016, 7261980.0 ], [ 529043.299953267676756, 7261970.0 ], [ 529049.924025978078134, 7261960.0 ], [ 529056.329821285791695, 7261950.0 ], [ 529062.205649307463318, 7261940.0 ], [ 529067.793458481901325, 7261930.0 ], [ 529073.659004537737928, 7261920.0 ], [ 529079.987933612894267, 7261910.0 ], [ 529086.241780876647681, 7261900.0 ], [ 529091.671409429865889, 7261890.0 ], [ 529095.79468919755891, 7261880.0 ], [ 529098.360281985718757, 7261870.0 ], [ 529099.528775546583347, 7261860.0 ], [ 529099.813637216109782, 7261850.0 ], [ 529099.453693735413253, 7261840.000000000931323 ], [ 529098.000338505022228, 7261830.0 ], [ 529094.701277447980829, 7261820.0 ], [ 529089.54084193368908, 7261810.0 ], [ 529083.571856339229271, 7261800.0 ], [ 529077.782284305430949, 7261790.0 ], [ 529072.205649307463318, 7261780.0 ], [ 529066.340103251626715, 7261770.0 ], [ 529060.000892210751772, 7261760.0 ], [ 529053.670178714208305, 7261750.0 ], [ 529047.870324714458548, 7261740.0 ], [ 529042.577659175381996, 7261730.000000000931323 ], [ 529037.521555410232395, 7261720.0 ], [ 529032.5879411411006, 7261710.0 ], [ 529027.9471909472486, 7261700.0 ], [ 529024.041296371491626, 7261690.0 ], [ 529021.181452158722095, 7261680.0 ], [ 529018.917762426892295, 7261670.0 ], [ 529016.418753905687481, 7261660.0 ], [ 529013.692527067149058, 7261650.0 ], [ 529011.628543837810867, 7261640.0 ], [ 529010.894183358410373, 7261630.0 ], [ 529011.62765162717551, 7261620.0 ], [ 529013.681352890795097, 7261610.0 ], [ 529016.330713496543467, 7261600.0 ], [ 529018.460388781968504, 7261590.0 ], [ 529019.564082497381605, 7261580.0 ], [ 529020.0, 7261570.0 ], [ 529020.43591750273481, 7261560.000000000931323 ], [ 529021.540503428783268, 7261550.0 ], [ 529023.681352890678681, 7261540.0 ], [ 529026.416969484183937, 7261530.0 ], [ 529028.907480461173691, 7261520.0 ], [ 529031.104585926048458, 7261510.0 ], [ 529033.670178714208305, 7261500.0 ], [ 529036.766630999278277, 7261490.0 ], [ 529040.01028196583502, 7261480.0 ], [ 529043.31023523339536, 7261470.000000000931323 ], [ 529046.690656977239996, 7261460.0 ], [ 529050.0, 7261450.0 ], [ 529053.310235233511776, 7261440.0 ], [ 529056.700938943075016, 7261430.0 ], [ 529060.075974022038281, 7261420.0 ], [ 529063.670178714208305, 7261410.0 ], [ 529067.794350692536682, 7261400.0 ], [ 529072.205649307463318, 7261390.0 ], [ 529076.329821285791695, 7261380.0 ], [ 529079.924025977961719, 7261370.0 ], [ 529083.299953267676756, 7261360.0 ], [ 529086.700046732323244, 7261350.0 ], [ 529090.075974022038281, 7261340.0 ], [ 529093.670178714208305, 7261330.0 ], [ 529097.794350692536682, 7261320.0 ], [ 529102.206541518098675, 7261310.000000000931323 ], [ 529106.3401032515103, 7261300.0 ], [ 529110.000892210751772, 7261290.0 ], [ 529113.670178714208305, 7261280.0 ], [ 529117.870324714574963, 7261270.0 ], [ 529122.576766964630224, 7261260.0 ], [ 529127.509489023126662, 7261250.0 ], [ 529132.490510976873338, 7261240.0 ], [ 529137.423233035369776, 7261230.0 ], [ 529142.128783074906096, 7261220.0 ], [ 529146.319539319956675, 7261210.000000000931323 ], [ 529149.923133767442778, 7261200.0 ], [ 529153.299061057041399, 7261190.0 ], [ 529156.688872555969283, 7261180.0 ], [ 529159.989718034281395, 7261170.0 ], [ 529163.233369000954553, 7261160.0 ], [ 529166.329821285791695, 7261150.0 ], [ 529168.895414074067958, 7261140.0 ], [ 529171.092519538942724, 7261130.0 ], [ 529173.583030515816063, 7261120.000000000931323 ], [ 529176.318647109321319, 7261110.0 ], [ 529178.458604360581376, 7261100.0 ], [ 529179.552908320794813, 7261090.0 ], [ 529179.912851801607758, 7261080.0 ], [ 529179.988825823529623, 7261070.000892210751772 ], [ 529179.999107789364643, 7261060.012066387571394 ], [ 529180.0, 7261050.099214585497975 ], [ 529180.0, 7261040.546306265518069 ], [ 529180.0, 7261032.086809692904353 ], [ 529180.0, 7261025.756988408043981 ] ] } },
{ "type": "Feature", "properties": { "id": 8, "reference_id": 8, "dune_id": 8, "dune_name": "Inverted Y Dune", "acquisition_date": "2017-01-27", "length_m": 427.67635807768767 }, "geometry": { "type": "LineString", "coordinates": [ [ 530264.243011592421681, 7261221.639718014746904 ], [ 530257.913190306629986, 7261224.216484978795052 ], [ 530249.453693735180423, 7261228.416630979627371 ], [ 530239.900785414502025, 7261234.216484978795052 ], [ 530229.987933612777852, 7261241.639718014746904 ], [ 530219.999107789248228, 7261250.459158066660166 ], [ 530210.0, 7261260.088040409609675 ], [ 530200.000892210751772, 7261270.011174176819623 ], [ 530190.012066387105733, 7261280.000892210751772 ], [ 530180.098322374862619, 7261290.0 ], [ 530170.535132088349201, 7261300.0 ], [ 530161.999661495094188, 7261310.000000000931323 ], [ 530155.309004517970607, 7261320.0 ], [ 530150.535132088349201, 7261330.0 ], [ 530146.78897935221903, 7261340.0 ], [ 530143.321409409982152, 7261350.0 ], [ 530140.000892210751772, 7261360.0 ], [ 530136.690656977239996, 7261370.0 ], [ 530133.310235233511776, 7261380.0 ], [ 530130.01028196583502, 7261390.0 ], [ 530126.766630999278277, 7261400.0 ], [ 530123.670178714208305, 7261410.0 ], [ 530121.104585926048458, 7261420.0 ], [ 530118.907480461173691, 7261430.0 ], [ 530116.416969484300353, 7261440.0 ], [ 530113.680460680043325, 7261450.0 ], [ 530111.530221462948248, 7261460.0 ], [ 530110.359943480812944, 7261470.000000000931323 ], [ 530109.640056519303471, 7261480.0 ], [ 530108.470670747803524, 7261490.0 ], [ 530106.330713496543467, 7261500.0 ], [ 530103.670178714208305, 7261510.0 ], [ 530101.540503428783268, 7261520.0 ], [ 530100.447091679205187, 7261530.0 ], [ 530100.086702093132772, 7261539.999553894624114 ], [ 530100.005587088293396, 7261549.993520701304078 ], [ 530099.957318111439236, 7261559.944359513930976 ], [ 530099.776454160455614, 7261569.6772395754233 ], [ 530099.229748285608366, 7261578.683442020788789 ], [ 530098.164910642895848, 7261586.078100949525833 ], [ 530096.835089357104152, 7261591.078100949525833 ] ] } },
{ "type": "Feature", "properties": { "id": 9, "reference_id": 9, "dune_id": 9, "dune_name": "Inverted Y Dune", "acquisition_date": "2017-01-27", "length_m": 738.41355465190657 }, "geometry": { "type": "LineString", "coordinates": [ [ 530091.078100949525833, 7261598.921899050474167 ], [ 530086.078100949409418, 7261603.921006839722395 ], [ 530078.683442020905204, 7261611.305383803322911 ], [ 530069.677239574841224, 7261620.234720015898347 ], [ 530059.944359513698146, 7261629.597374631091952 ], [ 530049.993520701071247, 7261638.377935461699963 ], [ 530039.999553894624114, 7261645.87200153619051 ], [ 530030.0, 7261652.041634876281023 ], [ 530020.0, 7261657.41205885913223 ], [ 530010.0, 7261662.489618767052889 ], [ 530000.0, 7261667.510381234809756 ], [ 529990.0, 7261672.58704893104732 ], [ 529980.0, 7261677.947190947830677 ], [ 529970.0, 7261684.041296372190118 ], [ 529960.0, 7261691.181452158838511 ], [ 529950.0, 7261698.917762426659465 ], [ 529940.0, 7261706.417861695401371 ], [ 529930.0, 7261713.681352891027927 ], [ 529920.0, 7261721.541395640000701 ], [ 529910.0, 7261730.447091680020094 ], [ 529900.0, 7261740.087148198857903 ], [ 529890.0, 7261750.011174176819623 ], [ 529880.0, 7261760.000892210751772 ], [ 529870.000892210751772, 7261770.0 ], [ 529860.011174176470377, 7261780.0 ], [ 529850.087148198392242, 7261790.0 ], [ 529840.447091679205187, 7261800.0 ], [ 529831.541395639418624, 7261810.0 ], [ 529823.681352890678681, 7261820.0 ], [ 529816.417861694935709, 7261830.0 ], [ 529808.918654637644067, 7261840.000000000931323 ], [ 529801.192626335192472, 7261850.0 ], [ 529794.128444569883868, 7261860.0 ], [ 529788.394282626337372, 7261870.0 ], [ 529784.128444569883868, 7261880.0 ], [ 529781.192626335192472, 7261890.0 ], [ 529778.917762427008711, 7261900.0 ], [ 529776.406687518465333, 7261910.0 ], [ 529773.593312481534667, 7261920.0 ], [ 529771.083129783859476, 7261930.0 ], [ 529768.81854784139432, 7261940.0 ], [ 529765.958703628624789, 7261950.0 ], [ 529762.052809052867815, 7261960.0 ], [ 529757.412951069651172, 7261970.0 ], [ 529752.489618766237982, 7261980.0 ], [ 529747.509489023126662, 7261990.0 ], [ 529742.576766964630224, 7262000.0 ], [ 529737.870324714574963, 7262010.0 ], [ 529733.670178714208305, 7262020.0 ], [ 529730.0, 7262030.0 ], [ 529726.329821285791695, 7262040.0 ], [ 529722.129675285541452, 7262050.0 ], [ 529717.423233035369776, 7262060.0 ], [ 529712.489618766121566, 7262070.0 ], [ 529707.499207057291642, 7262080.0 ], [ 529702.500792942708358, 7262090.0 ], [ 529697.510381233762018, 7262100.0 ], [ 529692.576766964630224, 7262110.0 ], [ 529687.871216925210319, 7262120.0 ], [ 529683.681352890678681, 7262129.999107789248228 ], [ 529680.088040409144014, 7262139.987933613359928 ], [ 529676.788087141467258, 7262149.900785414502025 ], [ 529673.758219123352319, 7262159.453693735413253 ], [ 529671.551677605253644, 7262167.913190307095647 ], [ 529670.447983889840543, 7262174.243011591956019 ] ] } },
{ "type": "Feature", "properties": { "id": 10, "reference_id": 2, "dune_id": 2, "dune_name": "Big Mommy Dune", "acquisition_date": "2017-01-27", "length_m": 61.724398946940681 }, "geometry": { "type": "LineString", "coordinates": [ [ 528945.756988407694735, 7260900.458265855908394 ], [ 528952.08680969348643, 7260901.62765162717551 ], [ 528960.545414054067805, 7260904.117270394228399 ], [ 528970.087148198392242, 7260907.870324715040624 ], [ 528979.912851801607758, 7260912.129675285890698 ], [ 528989.454585945932195, 7260915.882729606702924 ], [ 528997.913190306629986, 7260918.372348373755813 ], [ 529004.243011592421681, 7260919.541734144091606 ] ] } },
{ "type": "Feature", "properties": { "id": 11, "reference_id": 2, "dune_id": 2, "dune_name": "Big Mommy Dune", "acquisition_date": "2017-01-27", "length_m": 341.54598489506833 }, "geometry": { "type": "LineString", "coordinates": [ [ 528714.243011592305265, 7260835.881837395951152 ], [ 528707.91319030651357, 7260832.118501109071076 ], [ 528699.453693735296838, 7260827.782284305430949 ], [ 528689.900785414502025, 7260823.659004538320005 ], [ 528679.987933612894267, 7260819.999107789248228 ], [ 528669.999107789364643, 7260816.328929075971246 ], [ 528660.0, 7260812.11939332075417 ], [ 528650.0, 7260807.346366802230477 ], [ 528640.0, 7260802.118501110002398 ], [ 528630.0, 7260796.318647108972073 ], [ 528620.0, 7260789.923133767209947 ], [ 528610.0, 7260783.299061057157815 ], [ 528600.0, 7260776.689764767885208 ], [ 528590.0, 7260770.0 ], [ 528580.0, 7260763.309343023225665 ], [ 528570.0, 7260756.690656976774335 ], [ 528560.0, 7260750.0 ], [ 528550.0, 7260743.309343023225665 ], [ 528540.0, 7260736.689764766953886 ], [ 528530.0, 7260729.989718034863472 ], [ 528520.0, 7260723.233369001187384 ], [ 528510.0, 7260716.329821286723018 ], [ 528500.0, 7260708.896306284703314 ], [ 528490.0, 7260701.103693716228008 ], [ 528480.0, 7260693.670178715139627 ], [ 528470.000892210751772, 7260686.766630999743938 ], [ 528460.012066387105733, 7260680.0111741758883 ], [ 528450.099214585614391, 7260673.322301620617509 ], [ 528440.546306264819577, 7260666.788979352451861 ], [ 528432.08680969348643, 7260660.535132088698447 ], [ 528425.756988407694735, 7260655.309004518203437 ] ] } },
{ "type": "Feature", "properties": { "id": 12, "reference_id": 5, "dune_id": 5, "dune_name": "The Star Dune", "acquisition_date": "2017-01-27", "length_m": 1146.5844260123336 }, "geometry": { "type": "LineString", "coordinates": [ [ 534334.342226177919656, 7261305.756988408043981 ], [ 534328.459496571333148, 7261312.086809693835676 ], [ 534321.540503428666852, 7261320.546306264586747 ], [ 534315.657773822080344, 7261330.099214585497975 ], [ 534312.075635517016053, 7261340.012066386640072 ], [ 534310.556588230538182, 7261350.000892210751772 ], [ 534310.186362784006633, 7261360.0 ], [ 534310.45915806631092, 7261370.0 ], [ 534311.541395639418624, 7261380.0 ], [ 534313.670178714208305, 7261390.0 ], [ 534316.329821285791695, 7261400.0 ], [ 534318.459496571216732, 7261410.0 ], [ 534319.553800531546585, 7261420.0 ], [ 534319.924025978078134, 7261430.0 ], [ 534320.075974021921866, 7261440.0 ], [ 534320.446199468453415, 7261450.0 ], [ 534321.540503428666852, 7261460.0 ], [ 534323.670178714208305, 7261470.000000000931323 ], [ 534326.329821285791695, 7261480.0 ], [ 534328.458604360581376, 7261490.0 ], [ 534329.541734144324437, 7261500.0 ], [ 534329.824811392463744, 7261510.0 ], [ 534329.529667757218704, 7261520.0 ], [ 534328.3593897750834, 7261530.0 ], [ 534325.783515021088533, 7261540.0 ], [ 534321.583369020721875, 7261550.0 ], [ 534315.783515021088533, 7261559.999107790179551 ], [ 534308.360281985718757, 7261569.9888258241117 ], [ 534299.54084193368908, 7261579.912851802073419 ], [ 534289.911959590855986, 7261589.552016110159457 ], [ 534279.988825823529623, 7261598.448322394862771 ], [ 534269.999107789248228, 7261606.242673087865114 ], [ 534260.0, 7261613.222194824367762 ], [ 534250.0, 7261619.9888258241117 ], [ 534240.0, 7261626.688872555270791 ], [ 534230.0, 7261633.299061057157815 ], [ 534220.0, 7261639.92313376814127 ], [ 534210.0, 7261646.318647109903395 ], [ 534200.0, 7261652.117608899250627 ], [ 534190.0, 7261657.336084837093949 ], [ 534180.0, 7261662.042527087032795 ], [ 534170.0, 7261665.957811418920755 ], [ 534160.0, 7261668.818547842092812 ], [ 534150.0, 7261671.082237573340535 ], [ 534140.0, 7261673.582138305529952 ], [ 534130.0, 7261676.318647108972073 ], [ 534120.0, 7261678.459496570751071 ], [ 534110.0, 7261679.564082497730851 ], [ 534100.0, 7261680.0 ], [ 534090.0, 7261680.435917503200471 ], [ 534080.0, 7261681.539611218497157 ], [ 534070.0, 7261683.670178715139627 ], [ 534060.0, 7261686.33071349747479 ], [ 534050.0, 7261688.470670748502016 ], [ 534040.0, 7261689.64005651883781 ], [ 534030.0, 7261690.35994348116219 ], [ 534020.0, 7261691.529329253360629 ], [ 534010.0, 7261693.670178714208305 ], [ 534000.0, 7261696.340995462611318 ], [ 533990.0, 7261698.546644769608974 ], [ 533980.0, 7261700.000892210751772 ], [ 533970.0, 7261701.464529407210648 ], [ 533960.0, 7261703.746152736246586 ], [ 533950.0, 7261706.776912964880466 ], [ 533940.0, 7261710.0111741758883 ], [ 533930.0, 7261713.311127444729209 ], [ 533920.0, 7261716.700938943773508 ], [ 533910.0, 7261720.076866232790053 ], [ 533900.0, 7261723.680460680276155 ], [ 533890.0, 7261727.871216925792396 ], [ 533880.0, 7261732.576766965910792 ], [ 533870.0, 7261737.510381234809756 ], [ 533860.0, 7261742.500792942941189 ], [ 533850.0, 7261747.500099267810583 ], [ 533840.0, 7261752.500792942941189 ], [ 533830.0, 7261757.511273443698883 ], [ 533820.0, 7261762.587941141799092 ], [ 533810.000892210635357, 7261767.958365123718977 ], [ 533800.011174176470377, 7261774.128444570116699 ], [ 533790.088040409144014, 7261781.628543838858604 ], [ 533780.45915806631092, 7261790.458265855908394 ], [ 533771.638825803645886, 7261800.088040409609675 ], [ 533764.205310802557506, 7261810.011174177750945 ], [ 533758.329482780885883, 7261820.000892210751772 ], [ 533753.768501089187339, 7261830.0 ], [ 533750.088040409144014, 7261840.000000000931323 ], [ 533746.701831153710373, 7261850.0 ], [ 533743.31023523339536, 7261860.0 ], [ 533740.0, 7261870.0 ], [ 533736.689764766488224, 7261880.0 ], [ 533733.298168846406043, 7261890.0 ], [ 533729.912851801607758, 7261900.0 ], [ 533726.242673087399453, 7261910.0 ], [ 533721.758557628374547, 7261920.0 ], [ 533716.252955053234473, 7261930.0 ], [ 533709.989718034281395, 7261940.0 ], [ 533703.669286503572948, 7261950.0 ], [ 533697.869432503823191, 7261960.0 ], [ 533692.566484998911619, 7261970.0 ], [ 533687.433515001088381, 7261980.0 ], [ 533682.130567496176809, 7261989.999553894624114 ], [ 533676.330713496543467, 7261999.993520701304078 ], [ 533670.011174176586792, 7262009.944359513930976 ], [ 533663.758219123352319, 7262019.677239574491978 ], [ 533658.328590570134111, 7262028.683442020788789 ], [ 533654.20531080244109, 7262036.078100949525833 ], [ 533651.638825803645886, 7262041.078100949525833 ] ] } },
{ "type": "Feature", "properties": { "id": 13, "reference_id": 6, "dune_id": 6, "dune_name": "The Star Dune", "acquisition_date": "2017-01-27", "length_m": 707.69363058437966 }, "geometry": { "type": "LineString", "coordinates": [ [ 533650.0, 7262048.921899050474167 ], [ 533650.0, 7262053.921899050474167 ], [ 533650.0, 7262061.316557979211211 ], [ 533650.0, 7262070.322760425508022 ], [ 533650.0, 7262080.055640487000346 ], [ 533650.0, 7262090.006479298695922 ], [ 533650.0, 7262100.000446105375886 ], [ 533650.0, 7262110.0 ], [ 533650.0, 7262120.0 ], [ 533650.000892210751772, 7262130.0 ], [ 533650.011174176470377, 7262140.0 ], [ 533650.087148198508658, 7262150.0 ], [ 533650.447091679205187, 7262160.0 ], [ 533651.540503428783268, 7262170.0 ], [ 533653.670178714208305, 7262180.0 ], [ 533656.329821285791695, 7262190.0 ], [ 533658.460388781968504, 7262200.0 ], [ 533659.56408249726519, 7262210.0 ], [ 533660.0, 7262220.0 ], [ 533660.43591750273481, 7262230.0 ], [ 533661.539611218031496, 7262240.0 ], [ 533663.670178714208305, 7262250.0 ], [ 533666.329821285791695, 7262260.0 ], [ 533668.459496571333148, 7262270.0 ], [ 533669.552908320911229, 7262280.0 ], [ 533669.912851801607758, 7262290.0 ], [ 533669.988825823646039, 7262300.0 ], [ 533669.999107789364643, 7262310.0 ], [ 533670.0, 7262320.0 ], [ 533670.0, 7262330.0 ], [ 533669.999107789364643, 7262340.000000000931323 ], [ 533669.988825823646039, 7262350.0 ], [ 533669.912851801607758, 7262360.0 ], [ 533669.552016110159457, 7262370.0 ], [ 533668.448322394862771, 7262380.0 ], [ 533666.242673087399453, 7262390.0 ], [ 533663.223087035119534, 7262400.0 ], [ 533659.999107789248228, 7262410.0 ], [ 533656.765738788526505, 7262420.0 ], [ 533653.670178714208305, 7262430.0 ], [ 533651.103693715413101, 7262440.0 ], [ 533648.896306284703314, 7262450.0 ], [ 533646.329821285791695, 7262460.0 ], [ 533643.233369000838138, 7262470.0 ], [ 533639.989718034281395, 7262480.0 ], [ 533636.68976476660464, 7262490.0 ], [ 533633.309343022760004, 7262500.0 ], [ 533630.0, 7262510.0 ], [ 533626.690656977239996, 7262520.0 ], [ 533623.31023523339536, 7262530.0 ], [ 533620.011174176470377, 7262540.0 ], [ 533616.777805175632238, 7262550.0 ], [ 533613.756434701848775, 7262560.0 ], [ 533611.540503428783268, 7262570.0 ], [ 533610.360835691448301, 7262580.0 ], [ 533609.640056519303471, 7262590.0 ], [ 533608.470670747803524, 7262600.000000000931323 ], [ 533606.330713496543467, 7262610.0 ], [ 533603.670178714208305, 7262620.0 ], [ 533601.540503428783268, 7262630.0 ], [ 533600.44619946856983, 7262640.0 ], [ 533600.075974022038281, 7262650.0 ], [ 533599.924025978078134, 7262660.0 ], [ 533599.553800531546585, 7262670.0 ], [ 533598.459496571216732, 7262680.0 ], [ 533596.329821285791695, 7262690.0 ], [ 533593.670178714208305, 7262699.999107790179551 ], [ 533591.540503428783268, 7262709.987933613359928 ], [ 533590.447091679205187, 7262719.900785414502025 ], [ 533590.087148198392242, 7262729.453693736344576 ], [ 533590.011174176470377, 7262737.913190307095647 ], [ 533590.000892210751772, 7262744.243011592887342 ] ] } },
{ "type": "Feature", "properties": { "id": 14, "reference_id": 7, "dune_id": 7, "dune_name": "Inverted Y Dune", "acquisition_date": "2017-01-27", "length_m": 530.56441195982825 }, "geometry": { "type": "LineString", "coordinates": [ [ 530185.756988407694735, 7261650.0 ], [ 530192.086809693370014, 7261650.0 ], [ 530200.546306264819577, 7261650.0 ], [ 530210.099214585614391, 7261650.0 ], [ 530220.012066387105733, 7261649.999107790179551 ], [ 530230.000892210635357, 7261649.9888258241117 ], [ 530240.0, 7261649.912851802073419 ], [ 530250.0, 7261649.552908321842551 ], [ 530260.0, 7261648.458604361861944 ], [ 530270.0, 7261646.318647109903395 ], [ 530280.0, 7261643.583030516281724 ], [ 530290.0, 7261641.092519538477063 ], [ 530300.0, 7261638.895414074882865 ], [ 530310.0, 7261636.329821285791695 ], [ 530320.0, 7261633.233369001187384 ], [ 530330.0, 7261629.989718034863472 ], [ 530340.0, 7261626.688872555270791 ], [ 530350.0, 7261623.299061057157815 ], [ 530360.0, 7261619.92313376814127 ], [ 530370.0, 7261616.318647109903395 ], [ 530380.0, 7261612.118501109071076 ], [ 530390.0, 7261607.346366802230477 ], [ 530400.0, 7261602.118501110002398 ], [ 530410.0, 7261596.317754898220301 ], [ 530420.0, 7261589.911959591321647 ], [ 530430.000000000116415, 7261583.211912859231234 ], [ 530440.0, 7261576.241780877113342 ], [ 530450.0, 7261568.448322394862771 ], [ 530460.0, 7261559.552016111090779 ], [ 530469.999107789364643, 7261549.912851801142097 ], [ 530479.988825823529623, 7261539.9888258241117 ], [ 530489.911959590855986, 7261529.999107789248228 ], [ 530499.541734144324437, 7261520.0 ], [ 530508.37234837282449, 7261510.0 ], [ 530515.881837395951152, 7261500.0 ], [ 530522.118501109071076, 7261490.0 ], [ 530527.783176516182721, 7261480.0 ], [ 530533.670178714208305, 7261470.000000000931323 ], [ 530540.086255987756886, 7261460.0 ], [ 530546.776912964996882, 7261450.0 ], [ 530553.671070924960077, 7261440.0 ], [ 530561.104585926048458, 7261430.0 ], [ 530568.906588250538334, 7261420.000892210751772 ], [ 530576.404903097078204, 7261410.012066386640072 ], [ 530583.582138305064291, 7261400.099214585497975 ], [ 530590.995089374599047, 7261390.546306265518069 ], [ 530598.360281985718757, 7261382.086809692904353 ], [ 530604.330159790813923, 7261375.756988408043981 ] ] } }
]
}
