{
"type": "FeatureCollection",
"name": "crests_2026_07_2026-07-27",
"crs": { "type": "name", "properties": { "name": "urn:ogc:def:crs:EPSG::32733" } },
"features": [
{ "type": "Feature", "properties": { "id": 0, "reference_id": 5, "dune_id": 5, "dune_name": "The Star Dune", "acquisition_date": "2026-07-27", "length_m": 1139.6351978228206 }, "geometry": { "type": "LineString", "coordinates": [ [ 533651.999661495094188, 7262041.078100949525833 ], [ 533655.309004517737776, 7262036.078100949525833 ], [ 533660.535132088232785, 7262028.683442020788789 ], [ 533666.788087141467258, 7262019.677239574491978 ], [ 533673.311127444263548, 7262009.944359513930976 ], [ 533679.924025978078134, 7261999.993520701304078 ], [ 533686.31953932007309, 7261989.999553894624114 ], [ 533692.129675285541452, 7261980.0 ], [ 533697.433515001204796, 7261970.0 ], [ 533702.565592788276263, 7261960.0 ], [ 533707.859150538104586, 7261950.0 ], [ 533713.593312481534667, 7261940.0 ], [ 533719.628882342833094, 7261930.0 ], [ 533725.149261337937787, 7261920.0 ], [ 533729.552908320794813, 7261910.0 ], [ 533733.222194824367762, 7261900.0 ], [ 533736.679482800886035, 7261890.0 ], [ 533739.999107789364643, 7261880.0 ], [ 533743.31023523339536, 7261870.0 ], [ 533746.701831153710373, 7261860.0 ], [ 533750.088040409144014, 7261850.0 ], [ 533753.768501089187339, 7261840.000000000931323 ], [ 533758.329482780885883, 7261830.0 ], [ 533764.205310802557506, 7261820.0 ], [ 533771.638825803645886, 7261810.000892210751772 ], [ 533780.45915806631092, 7261800.011174176819623 ], [ 533790.088040409144014, 7261790.088040409609675 ], [ 533800.011174176470377, 7261780.458265855908394 ], [ 533810.000892210635357, 7261771.628543837927282 ], [ 533820.0, 7261764.128444569185376 ], [ 533830.0, 7261757.958365123718977 ], [ 533840.0, 7261752.58794114086777 ], [ 533850.0, 7261747.511273445561528 ], [ 533860.0, 7261742.500792942941189 ], [ 533870.0, 7261737.500099267810583 ], [ 533880.0, 7261732.500792942941189 ], [ 533890.0, 7261727.510381233878434 ], [ 533900.0, 7261722.576766964048147 ], [ 533910.0, 7261717.871216924861073 ], [ 533920.0, 7261713.681352891027927 ], [ 533930.0, 7261710.087148198857903 ], [ 533940.0, 7261706.776912964880466 ], [ 533950.0, 7261703.671070924960077 ], [ 533960.0, 7261701.10458592697978 ], [ 533970.0, 7261698.907480461522937 ], [ 533980.0, 7261696.416969484649599 ], [ 533990.0, 7261693.680460680276155 ], [ 534000.0, 7261691.530221464112401 ], [ 534010.0, 7261690.35994348116219 ], [ 534020.0, 7261689.64005651883781 ], [ 534030.0, 7261688.470670748502016 ], [ 534040.0, 7261686.33071349747479 ], [ 534050.0, 7261683.669286504387856 ], [ 534060.0, 7261681.529329252429307 ], [ 534070.0, 7261680.35994348116219 ], [ 534080.0, 7261679.640056519769132 ], [ 534090.0, 7261678.470670748502016 ], [ 534100.0, 7261676.330713496543467 ], [ 534110.0, 7261673.670178714208305 ], [ 534120.0, 7261671.539611218497157 ], [ 534130.0, 7261670.435917503200471 ], [ 534140.0, 7261669.999107789248228 ], [ 534150.0, 7261669.552908320911229 ], [ 534160.0, 7261668.37234837282449 ], [ 534170.0, 7261665.870663220062852 ], [ 534180.0, 7261662.031352911144495 ], [ 534190.0, 7261657.335192626342177 ], [ 534200.0, 7261652.117608899250627 ], [ 534210.0, 7261646.318647109903395 ], [ 534220.0, 7261639.92313376814127 ], [ 534230.0, 7261633.299061057157815 ], [ 534240.0, 7261626.688872555270791 ], [ 534250.0, 7261619.9888258241117 ], [ 534260.0, 7261613.222194824367762 ], [ 534269.999107789248228, 7261606.242673087865114 ], [ 534279.988825823529623, 7261598.448322394862771 ], [ 534289.911959590855986, 7261589.552016110159457 ], [ 534299.54084193368908, 7261579.912851802073419 ], [ 534308.360281985718757, 7261569.9888258241117 ], [ 534315.783515021088533, 7261559.999107790179551 ], [ 534321.583369020721875, 7261550.0 ], [ 534325.783515021088533, 7261540.0 ], [ 534328.360281985718757, 7261530.0 ], [ 534329.54084193368908, 7261520.0 ], [ 534329.911959590855986, 7261510.0 ], [ 534329.988825823529623, 7261500.0 ], [ 534329.999107789364643, 7261490.0 ], [ 534329.999107789364643, 7261480.0 ], [ 534329.988825823529623, 7261470.000000000931323 ], [ 534329.912851801607758, 7261460.0 ], [ 534329.552908320794813, 7261450.0 ], [ 534328.459496571333148, 7261440.0 ], [ 534326.329821285791695, 7261430.0 ], [ 534323.670178714208305, 7261420.0 ], [ 534321.540503428666852, 7261410.0 ], [ 534320.447091679205187, 7261400.0 ], [ 534320.087148198392242, 7261390.0 ], [ 534320.011174176470377, 7261380.0 ], [ 534320.001784421387129, 7261370.0 ], [ 534320.012066387105733, 7261360.0 ], [ 534320.098322374862619, 7261350.000892210751772 ], [ 534320.534239877597429, 7261340.012066386640072 ], [ 534321.987595107872039, 7261330.099214585497975 ], [ 534325.210682142991573, 7261320.546306264586747 ], [ 534330.0, 7261312.086809693835676 ], [ 534334.789317857124843, 7261305.756988408043981 ] ] } },
{ "type": "Feature", "properties": { "id": 1, "reference_id": 1, "dune_id": 1, "dune_name": "Big Mommy Dune", "acquisition_date": "2026-07-27", "length_m": 555.7558121289178 }, "geometry": { "type": "LineString", "coordinates": [ [ 529081.62765162717551, 7261785.756988408043981 ], [ 529084.117270393413492, 7261792.086809692904353 ], [ 529087.871216925210319, 7261800.546306265518069 ], [ 529092.140849462011829, 7261810.099214585497975 ], [ 529095.968985594343394, 7261820.012066387571394 ], [ 529098.8082658755593, 7261830.000892210751772 ], [ 529100.99419716396369, 7261840.000000000931323 ], [ 529103.122980238753371, 7261850.0 ], [ 529104.679821305791847, 7261860.0 ], [ 529104.253293558140285, 7261870.0 ], [ 529101.223425540025346, 7261880.0 ], [ 529096.144350712536834, 7261890.0 ], [ 529089.900785414502025, 7261900.0 ], [ 529083.298168846289627, 7261910.0 ], [ 529076.700046732323244, 7261920.0 ], [ 529070.075974022038281, 7261930.0 ], [ 529063.670178714208305, 7261940.0 ], [ 529057.795242903288454, 7261950.0 ], [ 529052.216823483933695, 7261960.0 ], [ 529046.416969484183937, 7261970.0 ], [ 529040.371117657283321, 7261980.0 ], [ 529034.840456696460024, 7261990.0 ], [ 529030.371117657283321, 7262000.0 ], [ 529026.416969484183937, 7262010.0 ], [ 529022.21682348405011, 7262020.0 ], [ 529017.794350692536682, 7262030.0 ], [ 529013.659896748373285, 7262040.0 ], [ 529009.999107789364643, 7262050.0 ], [ 529006.32982128590811, 7262060.0 ], [ 529002.129675285541452, 7262070.0 ], [ 528997.423233035369776, 7262080.0 ], [ 528992.489618766237982, 7262090.0 ], [ 528987.498314846656285, 7262100.0 ], [ 528982.488726555602625, 7262110.0 ], [ 528977.4120588588994, 7262120.0 ], [ 528972.041634876397438, 7262130.0 ], [ 528965.871555430116132, 7262139.999107789248228 ], [ 528958.371456162189133, 7262149.9888258241117 ], [ 528949.541734144324437, 7262159.912851801142097 ], [ 528939.911959590972401, 7262169.552016111090779 ], [ 528929.988825823529623, 7262178.448322394862771 ], [ 528919.999107789364643, 7262186.241780877113342 ], [ 528910.0, 7262193.211912859231234 ], [ 528900.0, 7262199.911959591321647 ], [ 528890.0, 7262206.318647108972073 ], [ 528880.000892210751772, 7262212.128783075138927 ], [ 528870.012066387105733, 7262217.422340825200081 ], [ 528860.099214585614391, 7262222.478444589301944 ], [ 528850.546306264819577, 7262227.411166648380458 ], [ 528842.086809693370014, 7262232.041634876281023 ], [ 528835.756988407694735, 7262235.871555430814624 ] ] } },
{ "type": "Feature", "properties": { "id": 2, "reference_id": 1, "dune_id": 1, "dune_name": "Big Mommy Dune", "acquisition_date": "2026-07-27", "length_m": 211.04851348627574 }, "geometry": { "type": "LineString", "coordinates": [ [ 529020.0, 7261555.756988408043981 ], [ 529020.0, 7261562.086809693835676 ], [ 529020.0, 7261570.546306264586747 ], [ 529020.0, 7261580.099214585497975 ], [ 529020.0, 7261590.012066387571394 ], [ 529020.0, 7261600.000892210751772 ], [ 529020.0, 7261610.0 ], [ 529020.0, 7261620.0 ], [ 529020.0, 7261630.0 ], [ 529020.000892210751772, 7261640.0 ], [ 529020.011174176470377, 7261650.0 ], [ 529020.088040409144014, 7261660.0 ], [ 529020.458265855675563, 7261670.0 ], [ 529021.628543837927282, 7261680.0 ], [ 529024.129336780519225, 7261690.0 ], [ 529027.969539300072938, 7261700.0 ], [ 529032.675089339492843, 7261709.999107789248228 ], [ 529037.957472912967205, 7261719.987933613359928 ], [ 529044.030122194904834, 7261729.900785415433347 ], [ 529051.082237573107705, 7261739.453693736344576 ], [ 529058.371456162189133, 7261747.913190307095647 ], [ 529064.331052001449279, 7261754.243011591956019 ] ] } },
{ "type": "Feature", "properties": { "id": 3, "reference_id": 1, "dune_id": 1, "dune_name": "Big Mommy Dune", "acquisition_date": "2026-07-27", "length_m": 445.76620950212117 }, "geometry": { "type": "LineString", "coordinates": [ [ 529179.912851801607758, 7261105.756988408043981 ], [ 529179.552016110159457, 7261112.086809692904353 ], [ 529178.448322394862771, 7261120.546306265518069 ], [ 529176.241780876647681, 7261130.099214586429298 ], [ 529173.211912858532742, 7261140.012066387571394 ], [ 529169.912851801607758, 7261150.000892210751772 ], [ 529166.328929075156339, 7261160.0 ], [ 529162.205649307463318, 7261170.0 ], [ 529157.794350692536682, 7261180.0 ], [ 529153.670178714208305, 7261190.0 ], [ 529150.075974022038281, 7261200.0 ], [ 529146.700046732323244, 7261210.000000000931323 ], [ 529143.299953267676756, 7261220.0 ], [ 529139.923133767326362, 7261230.0 ], [ 529136.319539319956675, 7261240.0 ], [ 529132.129675285425037, 7261250.0 ], [ 529127.433515001204796, 7261260.0 ], [ 529122.566484998911619, 7261270.0 ], [ 529117.869432503939606, 7261280.0 ], [ 529113.670178714208305, 7261290.0 ], [ 529110.0, 7261300.0 ], [ 529106.329821285791695, 7261310.000000000931323 ], [ 529102.130567496176809, 7261320.0 ], [ 529097.433515001204796, 7261330.0 ], [ 529092.566484998911619, 7261340.0 ], [ 529087.870324714574963, 7261350.0 ], [ 529083.680460680043325, 7261360.0 ], [ 529080.076866232557222, 7261370.0 ], [ 529076.700046732323244, 7261380.0 ], [ 529073.299953267676756, 7261390.0 ], [ 529069.924025978078134, 7261400.0 ], [ 529066.329821285791695, 7261410.0 ], [ 529062.205649307463318, 7261420.0 ], [ 529057.794350692536682, 7261430.0 ], [ 529053.671070924960077, 7261440.0 ], [ 529050.086255987756886, 7261450.0 ], [ 529046.776912964880466, 7261460.0 ], [ 529043.671070924843661, 7261470.000000000931323 ], [ 529041.104585926048458, 7261479.999107789248228 ], [ 529038.907480461057276, 7261489.987933613359928 ], [ 529036.416969484183937, 7261499.900785414502025 ], [ 529033.681352890795097, 7261509.453693735413253 ], [ 529031.54139563953504, 7261517.913190307095647 ], [ 529030.447091679205187, 7261524.243011592887342 ] ] } },
{ "type": "Feature", "properties": { "id": 4, "reference_id": 1, "dune_id": 1, "dune_name": "Big Mommy Dune", "acquisition_date": "2026-07-27", "length_m": 59.470384647286352 }, "geometry": { "type": "LineString", "coordinates": [ [ 529189.912851801607758, 7261074.243011591956019 ], [ 529189.552908320911229, 7261067.913190307095647 ], [ 529188.459496571333148, 7261059.454585946165025 ], [ 529186.329821285791695, 7261049.912851801142097 ], [ 529183.670178714208305, 7261040.087148198857903 ], [ 529181.540503428783268, 7261030.545414054766297 ], [ 529180.447091679205187, 7261022.086809692904353 ], [ 529180.087148198392242, 7261015.756988408043981 ] ] } },
{ "type": "Feature", "properties": { "id": 5, "reference_id": 3, "dune_id": 3, "dune_name": "Big Mommy Dune", "acquisition_date": "2026-07-27", "length_m": 360.88506725814165 }, "geometry": { "type": "LineString", "coordinates": [ [ 529374.243011592305265, 7260695.756988408043981 ], [ 529367.91319030651357, 7260702.086809693835676 ], [ 529359.453693735180423, 7260710.546306265518069 ], [ 529349.901677625253797, 7260720.099214585497975 ], [ 529339.999107789364643, 7260730.012066388502717 ], [ 529330.086255987756886, 7260740.000892210751772 ], [ 529320.447983889956959, 7260750.0 ], [ 529311.551677605253644, 7260760.0 ], [ 529303.757326912600547, 7260770.0 ], [ 529296.777805175632238, 7260780.000000000931323 ], [ 529290.011174176470377, 7260790.0 ], [ 529283.311127444263548, 7260800.0 ], [ 529276.700938943075016, 7260810.0 ], [ 529270.075974022038281, 7260820.0 ], [ 529263.670178714208305, 7260830.0 ], [ 529257.794350692653097, 7260840.0 ], [ 529252.205649307463318, 7260850.0 ], [ 529246.328929075156339, 7260860.0 ], [ 529239.913744012243114, 7260870.0 ], [ 529233.223087035003118, 7260880.0 ], [ 529226.329821285791695, 7260890.0 ], [ 529218.906588250538334, 7260900.0 ], [ 529211.180559948086739, 7260910.0 ], [ 529204.041296371375211, 7260920.0 ], [ 529197.947190947132185, 7260930.0 ], [ 529192.588387246476486, 7260939.999553894624114 ], [ 529187.528034709161147, 7260949.993520701304078 ], [ 529182.632407451048493, 7260959.944359514862299 ], [ 529178.181910963263363, 7260969.6772395754233 ], [ 529174.898696284275502, 7260978.683442020788789 ], [ 529173.463633195031434, 7260986.078100949525833 ], [ 529173.623176498571411, 7260991.078100949525833 ] ] } },
{ "type": "Feature", "properties": { "id": 6, "reference_id": 3, "dune_id": 3, "dune_name": "Big Mommy Dune", "acquisition_date": "2026-07-27", "length_m": 647.23766307252902 }, "geometry": { "type": "LineString", "coordinates": [ [ 529405.756988407694735, 7260678.448322394862771 ], [ 529412.08680969348643, 7260676.242673087865114 ], [ 529420.546306264819577, 7260673.223087035119534 ], [ 529430.099214585614391, 7260669.999107789248228 ], [ 529440.012066387222148, 7260666.765738788992167 ], [ 529450.000892210751772, 7260663.670178714208305 ], [ 529460.0, 7260661.103693716228008 ], [ 529470.0, 7260658.896306285634637 ], [ 529480.0, 7260656.329821285791695 ], [ 529490.0, 7260653.234261211939156 ], [ 529500.000000000116415, 7260650.000892210751772 ], [ 529510.0, 7260646.776020754128695 ], [ 529520.0, 7260643.746152736246586 ], [ 529530.0, 7260641.464529407210648 ], [ 529540.0, 7260640.000892210751772 ], [ 529550.0, 7260638.546644769608974 ], [ 529560.0, 7260636.340103251859546 ], [ 529570.0, 7260633.659896748140454 ], [ 529580.0, 7260631.453355230391026 ], [ 529590.0, 7260630.0 ], [ 529600.0, 7260628.546644769608974 ], [ 529610.0, 7260626.340995462611318 ], [ 529620.0, 7260623.671070924960077 ], [ 529630.0, 7260621.540503429248929 ], [ 529640.0, 7260620.447091679088771 ], [ 529650.0, 7260620.087148198857903 ], [ 529660.0, 7260620.010281966067851 ], [ 529670.0, 7260619.989718034863472 ], [ 529680.0, 7260619.912851802073419 ], [ 529690.0, 7260619.552908320911229 ], [ 529700.0, 7260618.459496571682394 ], [ 529710.0, 7260616.329821286723018 ], [ 529720.0, 7260613.670178715139627 ], [ 529730.0, 7260611.540503429248929 ], [ 529740.0, 7260610.447091680020094 ], [ 529750.0, 7260610.087148198857903 ], [ 529760.0, 7260610.011174176819623 ], [ 529770.0, 7260610.000892210751772 ], [ 529780.0, 7260610.0 ], [ 529790.0, 7260610.0 ], [ 529800.0, 7260610.0 ], [ 529810.0, 7260610.0 ], [ 529820.0, 7260610.0 ], [ 529830.0, 7260610.0 ], [ 529840.0, 7260610.0 ], [ 529850.0, 7260610.0 ], [ 529860.0, 7260609.999107789248228 ], [ 529870.0, 7260609.989718034863472 ], [ 529880.0, 7260609.924025978893042 ], [ 529890.0, 7260609.640056519769132 ], [ 529900.0, 7260608.906588250771165 ], [ 529910.0, 7260607.870324715040624 ], [ 529920.0, 7260607.34035742841661 ], [ 529930.0, 7260607.870324715040624 ], [ 529940.0, 7260608.906588250771165 ], [ 529950.0, 7260609.640056519769132 ], [ 529960.0, 7260609.924025978893042 ], [ 529970.0, 7260609.989718034863472 ], [ 529980.0, 7260609.999107789248228 ], [ 529990.0, 7260610.0 ], [ 529999.999107789364643, 7260610.0 ], [ 530009.987933612894267, 7260610.0 ], [ 530019.900785414502025, 7260610.0 ], [ 530029.453693735180423, 7260610.0 ], [ 530037.91319030651357, 7260610.0 ], [ 530044.243011592305265, 7260610.0 ] ] } },
{ "type": "Feature", "properties": { "id": 7, "reference_id": 3, "dune_id": 3, "dune_name": "Big Mommy Dune", "acquisition_date": "2026-07-27", "length_m": 130.68166463786042 }, "geometry": { "type": "LineString", "coordinates": [ [ 530204.243011592305265, 7260580.087148198857903 ], [ 530197.91319030651357, 7260580.447091679088771 ], [ 530189.453693735180423, 7260581.541395640000701 ], [ 530179.900785414385609, 7260583.681352891027927 ], [ 530169.987933612894267, 7260586.416969484649599 ], [ 530159.999107789364643, 7260588.906588250771165 ], [ 530150.0, 7260591.093411749228835 ], [ 530140.0, 7260593.583030516281724 ], [ 530130.0, 7260596.318647108972073 ], [ 530120.000892210751772, 7260598.458604360930622 ], [ 530110.012066387222148, 7260599.552908321842551 ], [ 530100.099214585614391, 7260599.912851802073419 ], [ 530090.546306264819577, 7260599.9888258241117 ], [ 530082.08680969348643, 7260599.999107789248228 ], [ 530075.756988407694735, 7260600.0 ] ] } },
{ "type": "Feature", "properties": { "id": 8, "reference_id": 8, "dune_id": 8, "dune_name": "Inverted Y Dune", "acquisition_date": "2026-07-27", "length_m": 427.54442168995257 }, "geometry": { "type": "LineString", "coordinates": [ [ 530264.243011592421681, 7261221.638825803995132 ], [ 530257.913190306629986, 7261224.205310802906752 ], [ 530249.453693735180423, 7261228.329482780769467 ], [ 530239.900785414502025, 7261233.76939329970628 ], [ 530229.987933612777852, 7261240.099214585497975 ], [ 530220.0, 7261246.788979351520538 ], [ 530210.011174176470377, 7261253.75821912381798 ], [ 530200.088040409144014, 7261261.551677605137229 ], [ 530190.458265855675563, 7261270.447983890771866 ], [ 530181.628543837810867, 7261280.087148198857903 ], [ 530174.128444569883868, 7261290.0111741758883 ], [ 530167.958365123602562, 7261300.000892210751772 ], [ 530162.588833351852372, 7261310.000000000931323 ], [ 530157.522447620984167, 7261320.0 ], [ 530152.5879411411006, 7261330.0 ], [ 530147.947190947132185, 7261340.0 ], [ 530144.041296371491626, 7261350.0 ], [ 530141.181452158722095, 7261360.0 ], [ 530138.916870216256939, 7261370.0 ], [ 530136.406687518465333, 7261380.0 ], [ 530133.594204692170024, 7261390.0 ], [ 530131.094303960213438, 7261400.0 ], [ 530128.906588250538334, 7261410.0 ], [ 530126.416969484183937, 7261420.0 ], [ 530123.680460680043325, 7261430.0 ], [ 530121.530221462948248, 7261440.0 ], [ 530120.359943480812944, 7261450.0 ], [ 530119.640056519303471, 7261460.0 ], [ 530118.470670747803524, 7261470.000000000931323 ], [ 530116.330713496543467, 7261480.0 ], [ 530113.670178714208305, 7261490.0 ], [ 530111.540503428666852, 7261500.0 ], [ 530110.44619946856983, 7261510.0 ], [ 530110.075974022038281, 7261520.0 ], [ 530109.924025978078134, 7261530.0 ], [ 530109.553800531546585, 7261539.999553894624114 ], [ 530108.459496571333148, 7261549.993520701304078 ], [ 530106.329821285791695, 7261559.944359513930976 ], [ 530103.670178714208305, 7261569.6772395754233 ], [ 530101.540503428783268, 7261578.683442020788789 ], [ 530100.447091679205187, 7261586.078100949525833 ], [ 530100.087148198508658, 7261591.078100949525833 ] ] } },
{ "type": "Feature", "properties": { "id": 9, "reference_id": 8, "dune_id": 8, "dune_name": "Inverted Y Dune", "acquisition_date": "2026-07-27", "length_m": 259.97690021226765 }, "geometry": { "type": "LineString", "coordinates": [ [ 530544.243011592305265, 7261175.309004518203437 ], [ 530537.91319030651357, 7261180.534239877015352 ], [ 530529.453693735296838, 7261186.776912964880466 ], [ 530519.900785414385609, 7261193.223087035119534 ], [ 530509.987933612894267, 7261199.465760122984648 ], [ 530499.999107789248228, 7261204.690995481796563 ], [ 530490.0, 7261208.00033850595355 ], [ 530480.0, 7261209.464867912232876 ], [ 530470.0, 7261209.901677625253797 ], [ 530460.0, 7261209.987933613359928 ], [ 530450.0, 7261209.999107790179551 ], [ 530440.0, 7261209.999107790179551 ], [ 530430.000000000116415, 7261209.9888258241117 ], [ 530420.0, 7261209.912851802073419 ], [ 530410.0, 7261209.552908320911229 ], [ 530400.0, 7261208.459496571682394 ], [ 530390.0, 7261206.329821285791695 ], [ 530380.0, 7261203.671070924028754 ], [ 530370.0, 7261201.551677605137229 ], [ 530360.0, 7261200.534239877015352 ], [ 530350.0, 7261200.534239877015352 ], [ 530340.000892210751772, 7261201.551677605137229 ], [ 530330.012066387105733, 7261203.671070924028754 ], [ 530320.099214585614391, 7261206.329821285791695 ], [ 530310.546306264819577, 7261208.459496571682394 ], [ 530302.08680969348643, 7261209.552908320911229 ], [ 530295.756988407694735, 7261209.912851802073419 ] ] } },
{ "type": "Feature", "properties": { "id": 10, "reference_id": 9, "dune_id": 9, "dune_name": "Inverted Y Dune", "acquisition_date": "2026-07-27", "length_m": 489.04141208511516 }, "geometry": { "type": "LineString", "coordinates": [ [ 529671.551677605253644, 7262174.243011591956019 ], [ 529673.758219123352319, 7262167.913190307095647 ], [ 529676.788087141467258, 7262159.453693735413253 ], [ 529680.088040409144014, 7262149.900785414502025 ], [ 529683.681352890678681, 7262139.987933613359928 ], [ 529687.870324714458548, 7262129.999107789248228 ], [ 529692.566484998911619, 7262120.0 ], [ 529697.433515001088381, 7262110.0 ], [ 529702.130567496176809, 7262100.0 ], [ 529706.329821285791695, 7262090.0 ], [ 529709.999107789248228, 7262080.0 ], [ 529713.659896748373285, 7262070.0 ], [ 529717.793458481901325, 7262060.0 ], [ 529722.20654151821509, 7262050.0 ], [ 529726.340103251626715, 7262040.0 ], [ 529730.000892210635357, 7262030.0 ], [ 529733.670178714208305, 7262020.0 ], [ 529737.869432503823191, 7262010.0 ], [ 529742.566484998911619, 7262000.0 ], [ 529747.433515001204796, 7261990.0 ], [ 529752.129675285425037, 7261980.0 ], [ 529756.319539319956675, 7261970.0 ], [ 529759.923133767326362, 7261960.0 ], [ 529763.299953267676756, 7261950.0 ], [ 529766.700046732323244, 7261940.0 ], [ 529770.075974022038281, 7261930.0 ], [ 529773.670178714208305, 7261920.0 ], [ 529777.794350692536682, 7261910.0 ], [ 529782.206541518098675, 7261900.0 ], [ 529786.340995462262072, 7261890.0 ], [ 529790.011174176470377, 7261880.0 ], [ 529793.747044946881942, 7261870.0 ], [ 529798.241442371741869, 7261860.0 ], [ 529803.758219123352319, 7261850.0 ], [ 529810.098322374979034, 7261840.000000000931323 ], [ 529816.78897935221903, 7261830.0 ], [ 529823.758219123352319, 7261820.0 ], [ 529831.551677605137229, 7261810.0 ], [ 529840.447983889840543, 7261800.0 ], [ 529850.086255987756886, 7261790.000892210751772 ], [ 529859.999107789364643, 7261780.012066387571394 ], [ 529869.901677625137381, 7261770.099214585497975 ], [ 529879.453693735180423, 7261760.546306264586747 ], [ 529887.91319030651357, 7261752.086809693835676 ], [ 529894.243011592421681, 7261745.756988408043981 ] ] } },
{ "type": "Feature", "properties": { "id": 11, "reference_id": 9, "dune_id": 9, "dune_name": "Inverted Y Dune", "acquisition_date": "2026-07-27", "length_m": 222.01094455744237 }, "geometry": { "type": "LineString", "coordinates": [ [ 530097.91319030651357, 7261598.834750852547586 ], [ 530094.243011592421681, 7261603.473915160633624 ], [ 530087.913190306629986, 7261609.764880374073982 ], [ 530079.453693735180423, 7261616.564541302621365 ], [ 530069.900785414502025, 7261623.267553345300257 ], [ 530059.987933612894267, 7261629.919331100769341 ], [ 530049.999107789364643, 7261636.329375180415809 ], [ 530040.0, 7261642.205649307928979 ], [ 530030.0, 7261647.794350693002343 ], [ 530020.0, 7261653.670178714208305 ], [ 530010.0, 7261660.075974022969604 ], [ 530000.0, 7261666.700938943773508 ], [ 529990.0, 7261673.310235233977437 ], [ 529980.0, 7261680.0 ], [ 529970.0, 7261686.690656976774335 ], [ 529960.000892210751772, 7261693.309343023225665 ], [ 529950.012066387105733, 7261699.999107789248228 ], [ 529940.099214585614391, 7261706.678590590134263 ], [ 529930.546306264819577, 7261713.211020648479462 ], [ 529922.08680969348643, 7261719.464867912232876 ], [ 529915.756988407694735, 7261724.690995482727885 ] ] } },
{ "type": "Feature", "properties": { "id": 12, "reference_id": 7, "dune_id": 7, "dune_name": "Inverted Y Dune", "acquisition_date": "2026-07-27", "length_m": 555.69964954575653 }, "geometry": { "type": "LineString", "coordinates": [ [ 530215.756988407694735, 7261640.0 ], [ 530222.08680969348643, 7261640.0 ], [ 530230.546306264703162, 7261640.0 ], [ 530240.099214585614391, 7261640.0 ], [ 530250.012066387105733, 7261640.0 ], [ 530260.000892210751772, 7261639.999107789248228 ], [ 530270.0, 7261639.9888258241117 ], [ 530280.0, 7261639.912851801142097 ], [ 530290.0, 7261639.552016111090779 ], [ 530300.0, 7261638.448322394862771 ], [ 530310.0, 7261636.242673087865114 ], [ 530320.0, 7261633.222194824367762 ], [ 530330.0, 7261629.9888258241117 ], [ 530340.0, 7261626.688872555270791 ], [ 530350.0, 7261623.299061057157815 ], [ 530360.0, 7261619.92313376814127 ], [ 530370.0, 7261616.318647109903395 ], [ 530380.0, 7261612.118501109071076 ], [ 530390.0, 7261607.346366802230477 ], [ 530400.0, 7261602.118501110002398 ], [ 530410.0, 7261596.317754898220301 ], [ 530420.0, 7261589.911959591321647 ], [ 530430.000000000116415, 7261583.211912859231234 ], [ 530440.0, 7261576.241780877113342 ], [ 530450.0, 7261568.448322394862771 ], [ 530460.0, 7261559.552016111090779 ], [ 530469.999107789364643, 7261549.912851801142097 ], [ 530479.988825823529623, 7261539.9888258241117 ], [ 530489.912851801607758, 7261529.999107789248228 ], [ 530499.552016110159457, 7261520.0 ], [ 530508.448322394862771, 7261510.0 ], [ 530516.242673087399453, 7261500.0 ], [ 530523.222194824367762, 7261490.0 ], [ 530529.988825823529623, 7261480.0 ], [ 530536.689764766488224, 7261470.000000000931323 ], [ 530543.309343022760004, 7261460.0 ], [ 530550.0, 7261450.0 ], [ 530556.690656977239996, 7261440.0 ], [ 530563.310235233511776, 7261430.0 ], [ 530570.011174176470377, 7261420.0 ], [ 530576.777805175632238, 7261410.0 ], [ 530583.757326912600547, 7261400.0 ], [ 530591.551677605137229, 7261390.0 ], [ 530600.447091679205187, 7261380.000892210751772 ], [ 530610.075081811286509, 7261370.012066386640072 ], [ 530619.911959590855986, 7261360.099214585497975 ], [ 530629.454585945932195, 7261350.546306265518069 ], [ 530637.913190306629986, 7261342.086809693835676 ], [ 530644.243011592421681, 7261335.756988408043981 ] ] } },
{ "type": "Feature", "properties": { "id": 13, "reference_id": 6, "dune_id": 6, "dune_name": "The Star Dune", "acquisition_date": "2026-07-27", "length_m": 869.88780423599792 }, "geometry": { "type": "LineString", "coordinates": [ [ 533546.776912964996882, 7262924.243011591956019 ], [ 533545.211574353626929, 7262917.913190307095647 ], [ 533545.221856319345534, 7262909.453693736344576 ], [ 533546.864061163505539, 7262899.900785414502025 ], [ 533548.994628659682348, 7262889.987933613359928 ], [ 533551.115760102518834, 7262879.999107789248228 ], [ 533553.671963135595433, 7262870.000000000931323 ], [ 533556.776912964996882, 7262860.0 ], [ 533560.086255987756886, 7262850.0 ], [ 533563.671070924843661, 7262840.0 ], [ 533567.794350692653097, 7262830.0 ], [ 533572.205649307463318, 7262820.0 ], [ 533576.32982128590811, 7262810.0 ], [ 533579.924025978078134, 7262800.0 ], [ 533583.299061057041399, 7262790.0 ], [ 533586.688872555969283, 7262780.0 ], [ 533589.988825823529623, 7262770.0 ], [ 533593.222194824367762, 7262760.0 ], [ 533596.242673087399453, 7262750.0 ], [ 533598.448322394862771, 7262740.0 ], [ 533599.552908320794813, 7262730.0 ], [ 533599.924025978078134, 7262720.0 ], [ 533600.075974022038281, 7262710.0 ], [ 533600.44619946856983, 7262700.0 ], [ 533601.540503428783268, 7262690.0 ], [ 533603.670178714208305, 7262680.0 ], [ 533606.329821285791695, 7262670.0 ], [ 533608.460388781968504, 7262660.0 ], [ 533609.56408249726519, 7262650.0 ], [ 533610.0, 7262640.0 ], [ 533610.43591750273481, 7262630.0 ], [ 533611.539611218031496, 7262620.0 ], [ 533613.671070924960077, 7262610.0 ], [ 533616.340995462378487, 7262600.000000000931323 ], [ 533618.54664476972539, 7262590.0 ], [ 533620.0, 7262580.0 ], [ 533621.454247440909967, 7262570.0 ], [ 533623.670178714208305, 7262560.0 ], [ 533626.416077273548581, 7262550.0 ], [ 533628.907480461173691, 7262540.0 ], [ 533631.104585926048458, 7262530.0 ], [ 533633.670178714208305, 7262520.0 ], [ 533636.765738788526505, 7262510.0 ], [ 533640.000000000116415, 7262500.0 ], [ 533643.234261211473495, 7262490.0 ], [ 533646.329821285791695, 7262480.0 ], [ 533648.896306284703314, 7262470.0 ], [ 533651.103693715413101, 7262460.0 ], [ 533653.670178714208305, 7262450.0 ], [ 533656.765738788526505, 7262440.0 ], [ 533660.0, 7262430.0 ], [ 533663.234261211473495, 7262420.0 ], [ 533666.329821285791695, 7262410.0 ], [ 533668.895414073951542, 7262400.0 ], [ 533671.092519538942724, 7262390.0 ], [ 533673.583030515816063, 7262380.0 ], [ 533676.318647109437734, 7262370.0 ], [ 533678.458604360697791, 7262360.0 ], [ 533679.552908320911229, 7262350.0 ], [ 533679.911959590855986, 7262340.000000000931323 ], [ 533679.977651647059247, 7262330.0 ], [ 533679.911959590855986, 7262320.0 ], [ 533679.552908320911229, 7262310.0 ], [ 533678.459496571333148, 7262300.0 ], [ 533676.329821285791695, 7262290.0 ], [ 533673.670178714208305, 7262280.0 ], [ 533671.539611218031496, 7262270.0 ], [ 533670.43591750273481, 7262260.0 ], [ 533670.0, 7262250.0 ], [ 533669.56408249726519, 7262240.0 ], [ 533668.460388781968504, 7262230.0 ], [ 533666.329821285791695, 7262220.0 ], [ 533663.670178714208305, 7262210.0 ], [ 533661.540503428783268, 7262200.0 ], [ 533660.447091679088771, 7262190.0 ], [ 533660.087148198392242, 7262180.0 ], [ 533660.011174176470377, 7262170.0 ], [ 533660.000892210751772, 7262160.0 ], [ 533660.0, 7262150.0 ], [ 533660.0, 7262140.0 ], [ 533659.999107789248228, 7262130.0 ], [ 533659.988825823529623, 7262120.000892210751772 ], [ 533659.912851801607758, 7262110.012066386640072 ], [ 533659.552908320911229, 7262100.099214585497975 ], [ 533658.459496571216732, 7262090.546306265518069 ], [ 533656.329821285791695, 7262082.086809693835676 ], [ 533653.670178714208305, 7262075.756988408043981 ] ] } },
{ "type": "Feature", "properties": { "id": 14, "reference_id": 2, "dune_id": 2, "dune_name": "Big Mommy Dune", "acquisition_date": "2026-07-27", "length_m": 779.85269948114967 }, "geometry": { "type": "LineString", "coordinates": [ [ 528435.756988407694735, 7260664.205310802906752 ], [ 528442.08680969348643, 7260668.329482780769467 ], [ 528450.546306264819577, 7260673.768501089885831 ], [ 528460.099214585614391, 7260680.088040409609675 ], [ 528470.012066387105733, 7260686.70183115452528 ], [ 528480.000892210751772, 7260693.310235233977437 ], [ 528490.0, 7260700.000000000931323 ], [ 528500.0, 7260706.690656977705657 ], [ 528510.0, 7260713.309343023225665 ], [ 528520.0, 7260720.0 ], [ 528530.0, 7260726.690656976774335 ], [ 528540.0, 7260733.309343023225665 ], [ 528550.0, 7260740.0 ], [ 528560.0, 7260746.689764766953886 ], [ 528570.0, 7260753.299061057157815 ], [ 528580.0, 7260759.92313376814127 ], [ 528590.0, 7260766.319539319723845 ], [ 528600.0, 7260772.128783075138927 ], [ 528610.0, 7260777.423233035951853 ], [ 528620.0, 7260782.489618767052889 ], [ 528630.0, 7260787.499207057058811 ], [ 528640.0, 7260792.499900732189417 ], [ 528650.0, 7260797.500099267810583 ], [ 528660.0, 7260802.499900732189417 ], [ 528670.0, 7260807.500099267810583 ], [ 528680.0, 7260812.499900732189417 ], [ 528690.0, 7260817.499207057058811 ], [ 528700.0, 7260822.489618766121566 ], [ 528710.0, 7260827.423233035951853 ], [ 528720.0, 7260832.128783075138927 ], [ 528730.0, 7260836.319539319723845 ], [ 528740.0, 7260839.92313376814127 ], [ 528750.0, 7260843.299953267909586 ], [ 528760.0, 7260846.700046733021736 ], [ 528770.0, 7260850.075974022038281 ], [ 528780.0, 7260853.670178714208305 ], [ 528790.0, 7260857.794350693002343 ], [ 528800.0, 7260862.205649307928979 ], [ 528810.0, 7260866.329821286723018 ], [ 528820.0, 7260869.924025978893042 ], [ 528830.0, 7260873.299061057157815 ], [ 528840.0, 7260876.688872556202114 ], [ 528850.0, 7260879.989718034863472 ], [ 528860.0, 7260883.233369002118707 ], [ 528870.0, 7260886.329821286723018 ], [ 528880.0, 7260888.895414073951542 ], [ 528890.0, 7260891.093411749228835 ], [ 528900.0, 7260893.594204692170024 ], [ 528910.0, 7260896.405795307829976 ], [ 528920.0, 7260898.905696040019393 ], [ 528930.0, 7260901.094303959980607 ], [ 528940.0, 7260903.594204693101346 ], [ 528950.0, 7260906.405795308761299 ], [ 528960.0, 7260908.905696040019393 ], [ 528970.0, 7260911.094303959980607 ], [ 528980.0, 7260913.594204692170024 ], [ 528990.0, 7260916.406687518581748 ], [ 529000.0, 7260918.916870215907693 ], [ 529010.0, 7260921.181452158838511 ], [ 529020.0, 7260924.041296372190118 ], [ 529030.0, 7260927.946298736147583 ], [ 529040.0, 7260932.57676696497947 ], [ 529050.0, 7260937.434407211840153 ], [ 529060.0, 7260942.13056749664247 ], [ 529070.0, 7260946.329821285791695 ], [ 529080.0, 7260949.999107790179551 ], [ 529090.0, 7260953.659896749071777 ], [ 529099.999107789364643, 7260957.793458482250571 ], [ 529109.987933612894267, 7260962.205649307928979 ], [ 529119.900785414385609, 7260966.328929075971246 ], [ 529129.453693735296838, 7260969.912851801142097 ], [ 529137.913190306629986, 7260973.211912859231234 ], [ 529144.243011592421681, 7260976.241780877113342 ] ] } },
{ "type": "Feature", "properties": { "id": 15, "reference_id": 4, "dune_id": 4, "dune_name": "The Star Dune", "acquisition_date": "2026-07-27", "length_m": 657.97484805490262 }, "geometry": { "type": "LineString", "coordinates": [ [ 533005.756988407694735, 7261863.681352891027927 ], [ 533012.08680969348643, 7261866.416969484649599 ], [ 533020.546306264819577, 7261868.906588250771165 ], [ 533030.099214585614391, 7261871.094303959980607 ], [ 533040.012066387105733, 7261873.594204692170024 ], [ 533050.000892210751772, 7261876.405795307829976 ], [ 533060.0, 7261878.905696040019393 ], [ 533070.0, 7261881.093411749228835 ], [ 533080.0, 7261883.583922726102173 ], [ 533090.0, 7261886.329821285791695 ], [ 533100.0, 7261888.545752558857203 ], [ 533110.0, 7261890.000892210751772 ], [ 533120.0, 7261891.464529407210648 ], [ 533130.0, 7261893.746152736246586 ], [ 533140.0, 7261896.776912964880466 ], [ 533150.0, 7261900.0111741758883 ], [ 533160.0, 7261903.310235233977437 ], [ 533170.0, 7261906.689764766953886 ], [ 533180.0, 7261909.9888258241117 ], [ 533190.0, 7261913.223087035119534 ], [ 533200.0, 7261916.253847263753414 ], [ 533210.0, 7261918.535470593720675 ], [ 533220.0, 7261920.0 ], [ 533230.0, 7261921.464529407210648 ], [ 533240.0, 7261923.746152736246586 ], [ 533250.0, 7261926.776020754128695 ], [ 533260.0, 7261930.000892210751772 ], [ 533270.0, 7261933.234261211007833 ], [ 533280.0, 7261936.329821286723018 ], [ 533290.0, 7261938.896306284703314 ], [ 533300.0, 7261941.103693715296686 ], [ 533310.0, 7261943.670178713276982 ], [ 533320.0, 7261946.766630999743938 ], [ 533330.0, 7261950.010281966999173 ], [ 533340.0, 7261953.310235233977437 ], [ 533350.0, 7261956.690656977705657 ], [ 533360.0, 7261960.0 ], [ 533370.0, 7261963.310235233977437 ], [ 533380.000000000116415, 7261966.700938943773508 ], [ 533390.0, 7261970.075974022969604 ], [ 533400.000000000116415, 7261973.669286503456533 ], [ 533410.0, 7261977.784068726934493 ], [ 533420.0, 7261982.129675285890698 ], [ 533430.0, 7261985.969877805560827 ], [ 533440.0, 7261988.830614228732884 ], [ 533450.0, 7261991.170277982950211 ], [ 533460.0, 7261994.040404161438346 ], [ 533470.0, 7261997.947190947830677 ], [ 533480.0, 7262002.58704893104732 ], [ 533490.0, 7262007.511273445561528 ], [ 533500.0, 7262012.500792942941189 ], [ 533510.0, 7262017.500099267810583 ], [ 533520.0, 7262022.499900732189417 ], [ 533530.0, 7262027.499207057058811 ], [ 533540.0, 7262032.488726556301117 ], [ 533550.0, 7262037.412951069884002 ], [ 533560.0, 7262042.052809053100646 ], [ 533570.0, 7262045.958703628741205 ], [ 533579.999553894740529, 7262048.818547841161489 ], [ 533589.993520701071247, 7262051.082237573340535 ], [ 533599.94435951358173, 7262053.582138305529952 ], [ 533609.677239574841224, 7262056.318647109903395 ], [ 533618.683442020905204, 7262058.458604361861944 ], [ 533626.078100949409418, 7262059.552908321842551 ], [ 533631.078100949525833, 7262059.912851803004742 ] ] } }
]
}
