{
"type": "FeatureCollection",
"name": "crests_2024_10_2024-10-05",
"crs": { "type": "name", "properties": { "name": "urn:ogc:def:crs:EPSG::32733" } },
"features": [
{ "type": "Feature", "properties": { "id": 0, "reference_id": 1, "dune_id": 1, "dune_name": "Big Mommy Dune", "acquisition_date": "2024-10-05", "length_m": 116.25583525939261 }, "geometry": { "type": "LineString", "coordinates": [ [ 529085.79468919755891, 7261814.243011592887342 ], [ 529081.670517219230533, 7261807.913190307095647 ], [ 529076.231498910812661, 7261799.453693735413253 ], [ 529069.911959590972401, 7261789.900785414502025 ], [ 529063.299061057041399, 7261779.987933613359928 ], [ 529056.700046732323244, 7261769.999107789248228 ], [ 529050.076866232673638, 7261760.000892210751772 ], [ 529043.681352890678681, 7261750.012066386640072 ], [ 529037.882391101680696, 7261740.099214586429298 ], [ 529032.664807373774238, 7261730.546306265518069 ], [ 529027.968647089553997, 7261722.086809692904353 ], [ 529024.129336780519225, 7261715.756988408043981 ] ] } },
{ "type": "Feature", "properties": { "id": 1, "reference_id": 1, "dune_id": 1, "dune_name": "Big Mommy Dune", "acquisition_date": "2024-10-05", "length_m": 102.09599433553642 }, "geometry": { "type": "LineString", "coordinates": [ [ 528924.243011592305265, 7262185.222748531028628 ], [ 528917.91319030651357, 7262190.098322374746203 ], [ 528909.453693735296838, 7262195.324449945241213 ], [ 528899.900785414385609, 7262200.011174176819623 ], [ 528889.987933612777852, 7262204.764482675120234 ], [ 528880.0, 7262210.35994348116219 ], [ 528870.012066387105733, 7262216.404903097078204 ], [ 528860.099214585614391, 7262222.128783075138927 ], [ 528850.546306264819577, 7262227.336084837093949 ], [ 528842.086809693370014, 7262232.031352911144495 ], [ 528835.756988407694735, 7262235.870663220062852 ] ] } },
{ "type": "Feature", "properties": { "id": 2, "reference_id": 1, "dune_id": 1, "dune_name": "Big Mommy Dune", "acquisition_date": "2024-10-05", "length_m": 87.697621100936828 }, "geometry": { "type": "LineString", "coordinates": [ [ 528999.54084193368908, 7262075.756988408043981 ], [ 528998.361174196354114, 7262082.086809693835676 ], [ 528995.79468919755891, 7262090.546306265518069 ], [ 528991.671409429865889, 7262100.099214585497975 ], [ 528986.242673087399453, 7262110.0111741758883 ], [ 528980.0, 7262119.988825823180377 ], [ 528973.757326912600547, 7262129.900785414502025 ], [ 528968.328590570250526, 7262139.453693735413253 ], [ 528964.205310802557506, 7262147.913190307095647 ], [ 528961.638825803645886, 7262154.243011591956019 ] ] } },
{ "type": "Feature", "properties": { "id": 3, "reference_id": 1, "dune_id": 1, "dune_name": "Big Mommy Dune", "acquisition_date": "2024-10-05", "length_m": 137.63332584035561 }, "geometry": { "type": "LineString", "coordinates": [ [ 529088.361174196470529, 7261915.756988408043981 ], [ 529085.79468919755891, 7261922.086809693835676 ], [ 529081.670517219230533, 7261930.546306265518069 ], [ 529076.23060670029372, 7261940.099214585497975 ], [ 529069.901677625137381, 7261950.012066386640072 ], [ 529063.222194824367762, 7261960.000892210751772 ], [ 529056.329821285791695, 7261970.0 ], [ 529048.907480461173691, 7261980.0 ], [ 529041.1917341244407, 7261989.999107789248228 ], [ 529034.129336780519225, 7261999.987933613359928 ], [ 529028.405456802807748, 7262009.900785414502025 ], [ 529024.21559276827611, 7262019.453693735413253 ], [ 529021.639718014281243, 7262027.913190307095647 ], [ 529020.459158066427335, 7262034.243011591956019 ] ] } },
{ "type": "Feature", "properties": { "id": 4, "reference_id": 7, "dune_id": 7, "dune_name": "Inverted Y Dune", "acquisition_date": "2024-10-05", "length_m": 303.25850100124893 }, "geometry": { "type": "LineString", "coordinates": [ [ 530375.756988407694735, 7261618.001230715774 ], [ 530382.08680969348643, 7261614.701277447864413 ], [ 530390.546306264819577, 7261609.540841934271157 ], [ 530400.099214585614391, 7261603.571856339462101 ], [ 530410.012066387105733, 7261597.782284305430949 ], [ 530420.000892210751772, 7261592.204757096245885 ], [ 530430.000000000116415, 7261586.328929075971246 ], [ 530440.0, 7261579.912851802073419 ], [ 530450.0, 7261573.211912859231234 ], [ 530459.999107789364643, 7261566.241780877113342 ], [ 530469.988825823529623, 7261558.448322394862771 ], [ 530479.912851801607758, 7261549.552016110159457 ], [ 530489.552016110159457, 7261539.912851801142097 ], [ 530498.448322394862771, 7261529.9888258241117 ], [ 530506.241780876647681, 7261519.999107789248228 ], [ 530513.211912858532742, 7261510.0 ], [ 530519.912851801607758, 7261500.0 ], [ 530526.328929075039923, 7261490.0 ], [ 530532.205649307463318, 7261480.0 ], [ 530537.794350692536682, 7261470.000000000931323 ], [ 530543.671070924843661, 7261460.0 ], [ 530550.086255987756886, 7261450.000892210751772 ], [ 530556.77602075424511, 7261440.012066387571394 ], [ 530563.659004537737928, 7261430.099214585497975 ], [ 530571.005371340434067, 7261420.546306264586747 ], [ 530578.361174196470529, 7261412.086809693835676 ], [ 530584.330159790813923, 7261405.756988408043981 ] ] } },
{ "type": "Feature", "properties": { "id": 5, "reference_id": 4, "dune_id": 4, "dune_name": "The Star Dune", "acquisition_date": "2024-10-05", "length_m": 226.09691633774597 }, "geometry": { "type": "LineString", "coordinates": [ [ 533584.243011592305265, 7262045.881837395951152 ], [ 533577.91319030651357, 7262042.118501109071076 ], [ 533569.453693735180423, 7262037.782284305430949 ], [ 533559.900785414385609, 7262033.658112327568233 ], [ 533549.987933612894267, 7262029.988825823180377 ], [ 533539.999107789364643, 7262026.253847263753414 ], [ 533530.0, 7262021.769731804728508 ], [ 533520.0, 7262016.329821285791695 ], [ 533510.0, 7262010.35994348116219 ], [ 533500.0, 7262004.839564485475421 ], [ 533490.0, 7262000.37111765705049 ], [ 533480.0, 7261996.416969485580921 ], [ 533470.0, 7261992.216823484748602 ], [ 533460.0, 7261987.795242903754115 ], [ 533450.0, 7261983.670178715139627 ], [ 533440.0, 7261980.075974022969604 ], [ 533430.0, 7261976.700938943773508 ], [ 533420.000892210751772, 7261973.311127444729209 ], [ 533410.012066387105733, 7261970.011174176819623 ], [ 533400.099214585614391, 7261966.777805176563561 ], [ 533390.546306264819577, 7261963.757326913066208 ], [ 533382.08680969348643, 7261961.551677605137229 ], [ 533375.756988407694735, 7261960.447983890771866 ] ] } },
{ "type": "Feature", "properties": { "id": 6, "reference_id": 4, "dune_id": 4, "dune_name": "The Star Dune", "acquisition_date": "2024-10-05", "length_m": 173.24826043027673 }, "geometry": { "type": "LineString", "coordinates": [ [ 533035.756988407578319, 7261870.087148198857903 ], [ 533042.08680969348643, 7261870.447091680020094 ], [ 533050.546306264819577, 7261871.541395640000701 ], [ 533060.099214585730806, 7261873.681352891027927 ], [ 533070.012066387222148, 7261876.416969484649599 ], [ 533080.000892210751772, 7261878.906588250771165 ], [ 533090.0, 7261881.094303959980607 ], [ 533100.0, 7261883.594204692170024 ], [ 533110.0, 7261886.405795307829976 ], [ 533120.0, 7261888.905696040019393 ], [ 533130.0, 7261891.094303959980607 ], [ 533140.0, 7261893.594204692170024 ], [ 533150.0, 7261896.405795307829976 ], [ 533159.999107789364643, 7261898.905696040019393 ], [ 533169.987933612894267, 7261901.093411749228835 ], [ 533179.900785414502025, 7261903.583030516281724 ], [ 533189.453693735296838, 7261906.318647109903395 ], [ 533197.91319030651357, 7261908.458604360930622 ], [ 533204.243011592305265, 7261909.552908321842551 ] ] } },
{ "type": "Feature", "properties": { "id": 7, "reference_id": 5, "dune_id": 5, "dune_name": "The Star Dune", "acquisition_date": "2024-10-05", "length_m": 126.04014977495204 }, "geometry": { "type": "LineString", "coordinates": [ [ 533894.243011592305265, 7261731.628543838858604 ], [ 533887.91319030651357, 7261734.128444570116699 ], [ 533879.453693735296838, 7261737.958365123718977 ], [ 533869.900785414502025, 7261742.587941141799092 ], [ 533859.987933612894267, 7261747.511273445561528 ], [ 533849.999107789248228, 7261752.501685153692961 ], [ 533840.0, 7261757.511273443698883 ], [ 533830.000892210751772, 7261762.58704893104732 ], [ 533820.012066387105733, 7261767.946298737078905 ], [ 533810.099214585614391, 7261774.029229984618723 ], [ 533800.546306264819577, 7261781.082237573340535 ], [ 533792.08680969348643, 7261788.371456163004041 ], [ 533785.756988407694735, 7261794.331052001565695 ] ] } },
{ "type": "Feature", "properties": { "id": 8, "reference_id": 5, "dune_id": 5, "dune_name": "The Star Dune", "acquisition_date": "2024-10-05", "length_m": 71.206054813449057 }, "geometry": { "type": "LineString", "coordinates": [ [ 534024.243011592421681, 7261690.087148198857903 ], [ 534017.91319030651357, 7261690.447983890771866 ], [ 534009.453693735296838, 7261691.551677605137229 ], [ 533999.901677625137381, 7261693.757326913066208 ], [ 533990.0, 7261696.776912965811789 ], [ 533980.098322374979034, 7261700.0 ], [ 533970.546306264819577, 7261703.223087035119534 ], [ 533962.08680969348643, 7261706.242673087865114 ], [ 533955.756988407694735, 7261708.448322394862771 ] ] } },
{ "type": "Feature", "properties": { "id": 9, "reference_id": 5, "dune_id": 5, "dune_name": "The Star Dune", "acquisition_date": "2024-10-05", "length_m": 101.2866205201869 }, "geometry": { "type": "LineString", "coordinates": [ [ 533715.78440723172389, 7261955.756988408043981 ], [ 533711.594543197192252, 7261962.086809694766998 ], [ 533705.871555430232547, 7261970.546306265518069 ], [ 533698.81854784139432, 7261980.099214585497975 ], [ 533691.169385771499947, 7261990.011620282195508 ], [ 533684.041296371375211, 7261999.99441291205585 ], [ 533677.958365123718977, 7262009.944359513930976 ], [ 533672.675089339492843, 7262019.677239574491978 ], [ 533667.969539300072938, 7262028.683442020788789 ], [ 533664.12933678063564, 7262036.078100949525833 ], [ 533661.628543837927282, 7262041.078100949525833 ] ] } },
{ "type": "Feature", "properties": { "id": 10, "reference_id": 3, "dune_id": 3, "dune_name": "Big Mommy Dune", "acquisition_date": "2024-10-05", "length_m": 454.46127992497946 }, "geometry": { "type": "LineString", "coordinates": [ [ 529555.756988407694735, 7260639.552908320911229 ], [ 529562.08680969348643, 7260638.458604360930622 ], [ 529570.546306264819577, 7260636.318647108972073 ], [ 529580.099214585614391, 7260633.583030516281724 ], [ 529590.012066387222148, 7260631.093411749228835 ], [ 529600.000892210635357, 7260628.905696040019393 ], [ 529610.0, 7260626.405795307829976 ], [ 529620.0, 7260623.594204692170024 ], [ 529630.0, 7260621.094303959980607 ], [ 529640.0, 7260618.906588250771165 ], [ 529650.0, 7260616.416969484649599 ], [ 529660.0, 7260613.681352891027927 ], [ 529670.0, 7260611.540503429248929 ], [ 529680.0, 7260610.435917503200471 ], [ 529690.0, 7260610.0 ], [ 529700.0, 7260609.564082497730851 ], [ 529710.0, 7260608.460388782434165 ], [ 529720.0, 7260606.329821286723018 ], [ 529730.0, 7260603.670178715139627 ], [ 529740.0, 7260601.540503429248929 ], [ 529750.0, 7260600.447091680020094 ], [ 529760.0, 7260600.087148198857903 ], [ 529770.0, 7260600.011174176819623 ], [ 529780.0, 7260600.000892210751772 ], [ 529790.0, 7260600.0 ], [ 529800.0, 7260600.0 ], [ 529810.0, 7260600.0 ], [ 529820.0, 7260600.0 ], [ 529830.0, 7260600.0 ], [ 529840.0, 7260600.0 ], [ 529850.0, 7260600.0 ], [ 529860.0, 7260600.0 ], [ 529870.0, 7260600.000892210751772 ], [ 529880.0, 7260600.011174176819623 ], [ 529890.0, 7260600.087148198857903 ], [ 529900.0, 7260600.447091680020094 ], [ 529910.0, 7260601.540503429248929 ], [ 529920.0, 7260603.669286504387856 ], [ 529930.0, 7260606.318647110834718 ], [ 529940.0, 7260608.373240584507585 ], [ 529950.0, 7260609.116990817710757 ], [ 529959.999107789248228, 7260608.459496571682394 ], [ 529969.987933612894267, 7260606.765738788992167 ], [ 529979.900785414385609, 7260605.209789931774139 ], [ 529989.453693735296838, 7260605.210682142525911 ], [ 529997.91319030651357, 7260606.776912964880466 ], [ 530004.243011592421681, 7260608.546644770540297 ] ] } },
{ "type": "Feature", "properties": { "id": 11, "reference_id": 3, "dune_id": 3, "dune_name": "Big Mommy Dune", "acquisition_date": "2024-10-05", "length_m": 73.950448671255884 }, "geometry": { "type": "LineString", "coordinates": [ [ 530135.756988407694735, 7260594.778143680654466 ], [ 530142.08680969348643, 7260589.912851801142097 ], [ 530150.546306264819577, 7260584.76359046343714 ], [ 530160.098322374979034, 7260580.447091679088771 ], [ 530170.000000000116415, 7260576.86406116373837 ], [ 530179.901677625137381, 7260573.768501088954508 ], [ 530189.453693735180423, 7260571.552569815889001 ], [ 530197.91319030651357, 7260570.447983890771866 ], [ 530204.243011592305265, 7260570.087148198857903 ] ] } },
{ "type": "Feature", "properties": { "id": 12, "reference_id": 8, "dune_id": 8, "dune_name": "Inverted Y Dune", "acquisition_date": "2024-10-05", "length_m": 80.191085613412241 }, "geometry": { "type": "LineString", "coordinates": [ [ 530255.756988407694735, 7261206.330713496543467 ], [ 530262.08680969348643, 7261203.681352891027927 ], [ 530270.546306264819577, 7261201.62765162717551 ], [ 530280.099214585614391, 7261200.894183358177543 ], [ 530290.011174176470377, 7261201.62765162717551 ], [ 530299.988825823529623, 7261203.681352891027927 ], [ 530309.900785414502025, 7261206.330713496543467 ], [ 530319.453693735180423, 7261208.459496571682394 ], [ 530327.913190306629986, 7261209.552908320911229 ], [ 530334.243011592305265, 7261209.912851802073419 ] ] } },
{ "type": "Feature", "properties": { "id": 13, "reference_id": 2, "dune_id": 2, "dune_name": "Big Mommy Dune", "acquisition_date": "2024-10-05", "length_m": 269.13568673410686 }, "geometry": { "type": "LineString", "coordinates": [ [ 528654.243011592421681, 7260795.871555430814624 ], [ 528647.91319030651357, 7260792.041634876281023 ], [ 528639.453693735180423, 7260787.412058858200908 ], [ 528629.900785414502025, 7260782.488726556301117 ], [ 528619.987933612894267, 7260777.498314848169684 ], [ 528609.999107789364643, 7260772.489618767052889 ], [ 528600.0, 7260767.423233035951853 ], [ 528590.0, 7260762.128783075138927 ], [ 528580.0, 7260756.319539319723845 ], [ 528570.0, 7260749.923133767209947 ], [ 528560.0, 7260743.299061057157815 ], [ 528550.0, 7260736.689764766953886 ], [ 528540.0, 7260730.0 ], [ 528530.0, 7260723.309343023225665 ], [ 528520.0, 7260716.690656976774335 ], [ 528510.0, 7260710.0 ], [ 528500.0, 7260703.309343023225665 ], [ 528490.0, 7260696.690656976774335 ], [ 528480.0, 7260690.0 ], [ 528470.000892210751772, 7260683.310235233977437 ], [ 528460.012066387105733, 7260676.701831153593957 ], [ 528450.099214585614391, 7260670.088040409609675 ], [ 528440.546306264819577, 7260663.768501088954508 ], [ 528432.08680969348643, 7260658.329482780769467 ], [ 528425.756988407694735, 7260654.205310802906752 ] ] } },
{ "type": "Feature", "properties": { "id": 14, "reference_id": 2, "dune_id": 2, "dune_name": "Big Mommy Dune", "acquisition_date": "2024-10-05", "length_m": 191.60641601296663 }, "geometry": { "type": "LineString", "coordinates": [ [ 528864.243011592305265, 7260879.552908321842551 ], [ 528857.91319030651357, 7260878.458604360930622 ], [ 528849.453693735296838, 7260876.317754899151623 ], [ 528839.900785414502025, 7260873.571856339462101 ], [ 528829.987933612894267, 7260871.006263552233577 ], [ 528819.999107789364643, 7260868.458604361861944 ], [ 528810.0, 7260864.865291880443692 ], [ 528800.0, 7260859.924025978893042 ], [ 528790.0, 7260854.76359046343714 ], [ 528780.0, 7260850.435917502269149 ], [ 528770.0, 7260846.776020754128695 ], [ 528760.0, 7260843.310235233977437 ], [ 528750.0, 7260839.924025978893042 ], [ 528740.0, 7260836.319539319723845 ], [ 528730.000892210751772, 7260832.129675285890698 ], [ 528720.012066387105733, 7260827.434407211840153 ], [ 528710.099214585497975, 7260822.577659175731242 ], [ 528700.546306264819577, 7260817.957472912967205 ], [ 528692.086809693602845, 7260814.128444569185376 ], [ 528685.756988407694735, 7260811.628543837927282 ] ] } },
{ "type": "Feature", "properties": { "id": 15, "reference_id": 2, "dune_id": 2, "dune_name": "Big Mommy Dune", "acquisition_date": "2024-10-05", "length_m": 252.76007372462064 }, "geometry": { "type": "LineString", "coordinates": [ [ 528895.756988407578319, 7260890.447091679088771 ], [ 528902.08680969348643, 7260891.541395640000701 ], [ 528910.546306264819577, 7260893.681352891027927 ], [ 528920.099214585614391, 7260896.416969484649599 ], [ 528930.012066387222148, 7260898.906588250771165 ], [ 528940.000892210751772, 7260901.094303959980607 ], [ 528950.0, 7260903.594204693101346 ], [ 528960.0, 7260906.405795308761299 ], [ 528970.0, 7260908.906588250771165 ], [ 528980.0, 7260911.10458592697978 ], [ 528990.0, 7260913.670178714208305 ], [ 529000.0, 7260916.766630999743938 ], [ 529010.0, 7260920.010281965136528 ], [ 529020.0, 7260923.310235233977437 ], [ 529030.0, 7260926.689764766953886 ], [ 529040.0, 7260929.989718034863472 ], [ 529050.0, 7260933.234261211939156 ], [ 529060.0, 7260936.34188767336309 ], [ 529070.0, 7260938.993736449629068 ], [ 529080.0, 7260941.626759415492415 ], [ 529089.999107789248228, 7260945.570625623688102 ], [ 529099.987933612894267, 7260951.529329253360629 ], [ 529109.900785414385609, 7260958.458604360930622 ], [ 529119.453693735296838, 7260964.342226178385317 ], [ 529127.91319030651357, 7260967.925256693735719 ], [ 529134.243011592421681, 7260969.454585946165025 ] ] } },
{ "type": "Feature", "properties": { "id": 16, "reference_id": 6, "dune_id": 6, "dune_name": "The Star Dune", "acquisition_date": "2024-10-05", "length_m": 95.321638149176408 }, "geometry": { "type": "LineString", "coordinates": [ [ 533553.681352890795097, 7262864.243011592887342 ], [ 533556.417861694935709, 7262857.913190307095647 ], [ 533558.917762426892295, 7262849.453693734481931 ], [ 533561.18145215860568, 7262839.900785414502025 ], [ 533564.041296371491626, 7262829.987933613359928 ], [ 533567.946298736496828, 7262820.0 ], [ 533572.575874753994867, 7262810.012066386640072 ], [ 533577.423233035369776, 7262800.099214585497975 ], [ 533582.04252708714921, 7262790.546306264586747 ], [ 533585.871555430232547, 7262782.086809693835676 ], [ 533588.371456162189133, 7262775.756988408043981 ] ] } },
{ "type": "Feature", "properties": { "id": 17, "reference_id": 9, "dune_id": 9, "dune_name": "Inverted Y Dune", "acquisition_date": "2024-10-05", "length_m": 63.481510070432499 }, "geometry": { "type": "LineString", "coordinates": [ [ 529746.241780876764096, 7262005.756988408043981 ], [ 529743.211912858532742, 7262012.086809693835676 ], [ 529739.912851801607758, 7262020.545414054766297 ], [ 529736.329821285791695, 7262030.087148198857903 ], [ 529732.216823483933695, 7262039.912851801142097 ], [ 529727.881498891045339, 7262049.454585947096348 ], [ 529724.118162604048848, 7262057.913190307095647 ], [ 529721.62765162717551, 7262064.243011592887342 ] ] } }
]
}
