{
"type": "FeatureCollection",
"name": "crests_2020_11_2020-11-25",
"crs": { "type": "name", "properties": { "name": "urn:ogc:def:crs:EPSG::32733" } },
"features": [
{ "type": "Feature", "properties": { "id": 0, "reference_id": 3, "dune_id": 3, "dune_name": "Big Mommy Dune", "acquisition_date": "2020-11-25", "length_m": 355.23557189608579 }, "geometry": { "type": "LineString", "coordinates": [ [ 529374.243011592305265, 7260694.216484978795052 ], [ 529367.914082517265342, 7260698.416630979627371 ], [ 529359.464867911650799, 7260704.216484978795052 ], [ 529349.987933612894267, 7260711.639718014746904 ], [ 529340.435025291983038, 7260720.459158066660166 ], [ 529331.540503428783268, 7260730.088040409609675 ], [ 529323.681352890678681, 7260740.011174176819623 ], [ 529316.416969484300353, 7260750.000892210751772 ], [ 529308.907480461173691, 7260760.0 ], [ 529301.104585926048458, 7260770.0 ], [ 529293.671070924960077, 7260780.000000000931323 ], [ 529286.776912964996882, 7260790.0 ], [ 529280.086255987756886, 7260800.0 ], [ 529273.671070924960077, 7260810.0 ], [ 529267.794350692536682, 7260820.0 ], [ 529262.205649307463318, 7260830.0 ], [ 529256.32982128590811, 7260840.0 ], [ 529249.924025978078134, 7260850.0 ], [ 529243.299061057041399, 7260860.0 ], [ 529236.689764766488224, 7260870.0 ], [ 529230.0, 7260880.0 ], [ 529223.310235233511776, 7260890.0 ], [ 529216.700938943075016, 7260900.0 ], [ 529210.076866232557222, 7260910.0 ], [ 529203.68046067992691, 7260920.0 ], [ 529197.872109135845676, 7260930.0 ], [ 529192.588833351852372, 7260939.999107789248228 ], [ 529187.608703608741052, 7260949.987933613359928 ], [ 529183.035925031057559, 7260959.900785414502025 ], [ 529179.498868552385829, 7260969.453693735413253 ], [ 529177.798623284092173, 7260977.913190307095647 ], [ 529177.958365123602562, 7260984.243011591956019 ] ] } },
{ "type": "Feature", "properties": { "id": 1, "reference_id": 3, "dune_id": 3, "dune_name": "Big Mommy Dune", "acquisition_date": "2020-11-25", "length_m": 214.90326616839644 }, "geometry": { "type": "LineString", "coordinates": [ [ 529405.756988407694735, 7260678.448322394862771 ], [ 529412.08680969348643, 7260676.242673087865114 ], [ 529420.546306264819577, 7260673.223087035119534 ], [ 529430.099214585614391, 7260669.999107789248228 ], [ 529440.012066387222148, 7260666.765738788992167 ], [ 529450.000892210751772, 7260663.670178714208305 ], [ 529460.0, 7260661.10458592697978 ], [ 529470.0, 7260658.906588250771165 ], [ 529480.0, 7260656.405795307829976 ], [ 529490.0, 7260653.594204692170024 ], [ 529500.000000000116415, 7260651.094303959980607 ], [ 529510.0, 7260648.905696040019393 ], [ 529520.0, 7260646.405795307829976 ], [ 529530.0, 7260643.594204693101346 ], [ 529540.0, 7260641.094303959980607 ], [ 529550.0, 7260638.906588250771165 ], [ 529560.0, 7260636.416969483718276 ], [ 529569.999107789248228, 7260633.681352891027927 ], [ 529579.987933612894267, 7260631.541395640000701 ], [ 529589.900785414502025, 7260630.447091680020094 ], [ 529599.453693735180423, 7260630.087148198857903 ], [ 529607.91319030651357, 7260630.011174176819623 ], [ 529614.243011592421681, 7260630.000892210751772 ] ] } },
{ "type": "Feature", "properties": { "id": 2, "reference_id": 3, "dune_id": 3, "dune_name": "Big Mommy Dune", "acquisition_date": "2020-11-25", "length_m": 58.486023184610531 }, "geometry": { "type": "LineString", "coordinates": [ [ 529704.243011592305265, 7260620.0 ], [ 529697.91319030651357, 7260620.0 ], [ 529689.454585945932195, 7260620.0 ], [ 529679.912851801607758, 7260620.0 ], [ 529670.087148198508658, 7260620.0 ], [ 529660.545414054067805, 7260620.0 ], [ 529652.08680969348643, 7260620.0 ], [ 529645.756988407694735, 7260620.0 ] ] } },
{ "type": "Feature", "properties": { "id": 3, "reference_id": 3, "dune_id": 3, "dune_name": "Big Mommy Dune", "acquisition_date": "2020-11-25", "length_m": 451.81952916888133 }, "geometry": { "type": "LineString", "coordinates": [ [ 529735.756988407694735, 7260610.0 ], [ 529742.08680969348643, 7260610.0 ], [ 529750.546306264819577, 7260610.0 ], [ 529760.099214585614391, 7260610.0 ], [ 529770.012066387222148, 7260610.0 ], [ 529780.000892210751772, 7260610.0 ], [ 529790.0, 7260610.0 ], [ 529800.0, 7260610.0 ], [ 529810.0, 7260610.0 ], [ 529820.0, 7260610.0 ], [ 529830.0, 7260610.0 ], [ 529840.0, 7260610.0 ], [ 529850.0, 7260610.0 ], [ 529860.0, 7260610.0 ], [ 529870.0, 7260610.0 ], [ 529880.0, 7260610.0 ], [ 529890.0, 7260610.0 ], [ 529900.0, 7260610.0 ], [ 529910.0, 7260610.0 ], [ 529920.0, 7260610.0 ], [ 529930.0, 7260610.0 ], [ 529940.0, 7260609.999107789248228 ], [ 529950.0, 7260609.989718034863472 ], [ 529960.0, 7260609.924025978893042 ], [ 529970.0, 7260609.640056519769132 ], [ 529980.0, 7260608.906588250771165 ], [ 529990.0, 7260607.870324715040624 ], [ 530000.0, 7260607.339465217664838 ], [ 530010.0, 7260607.859150538221002 ], [ 530020.0, 7260608.819440052844584 ], [ 530030.0, 7260609.192964840680361 ], [ 530040.0, 7260608.382630338892341 ], [ 530050.0, 7260606.308365143835545 ], [ 530060.0, 7260603.582138305529952 ], [ 530070.0, 7260601.093411750160158 ], [ 530080.0, 7260598.906588250771165 ], [ 530090.0, 7260596.416077272966504 ], [ 530100.0, 7260593.670178714208305 ], [ 530110.0, 7260591.454247441142797 ], [ 530120.0, 7260590.0 ], [ 530130.0, 7260588.546644769608974 ], [ 530139.999107789364643, 7260586.340995462611318 ], [ 530149.987933612894267, 7260583.671070924960077 ], [ 530159.900785414502025, 7260581.540503429248929 ], [ 530169.453693735296838, 7260580.447091679088771 ], [ 530177.91319030651357, 7260580.087148198857903 ], [ 530184.243011592421681, 7260580.0111741758883 ] ] } },
{ "type": "Feature", "properties": { "id": 4, "reference_id": 5, "dune_id": 5, "dune_name": "The Star Dune", "acquisition_date": "2020-11-25", "length_m": 1146.6688901509685 }, "geometry": { "type": "LineString", "coordinates": [ [ 534334.342226177919656, 7261305.756988408043981 ], [ 534328.459496571333148, 7261312.086809693835676 ], [ 534321.540503428666852, 7261320.546306264586747 ], [ 534315.658666032715701, 7261330.099214585497975 ], [ 534312.085917482734658, 7261340.012066386640072 ], [ 534310.632562252460048, 7261350.000892210751772 ], [ 534310.546306264703162, 7261360.0 ], [ 534311.552569815889001, 7261370.0 ], [ 534313.671070924960077, 7261380.0 ], [ 534316.330713496543467, 7261390.0 ], [ 534318.470670747687109, 7261400.0 ], [ 534319.640056519303471, 7261410.0 ], [ 534320.359943480696529, 7261420.0 ], [ 534321.529329252196476, 7261430.0 ], [ 534323.669286503572948, 7261440.0 ], [ 534326.329821285791695, 7261450.0 ], [ 534328.459496571333148, 7261460.0 ], [ 534329.552908320794813, 7261470.000000000931323 ], [ 534329.911959590855986, 7261480.0 ], [ 534329.977651647059247, 7261490.0 ], [ 534329.911067380220629, 7261500.0 ], [ 534329.541734144324437, 7261510.0 ], [ 534328.371456162189133, 7261520.0 ], [ 534325.870663219480775, 7261530.0 ], [ 534322.030460699927062, 7261540.0 ], [ 534317.324018449755386, 7261550.0 ], [ 534312.030460699927062, 7261559.999107790179551 ], [ 534305.870663219480775, 7261569.9888258241117 ], [ 534298.371456162189133, 7261579.912851802073419 ], [ 534289.541734144324437, 7261589.552016110159457 ], [ 534279.911959590855986, 7261598.448322394862771 ], [ 534269.988825823529623, 7261606.242673087865114 ], [ 534259.999107789248228, 7261613.222194824367762 ], [ 534250.0, 7261619.9888258241117 ], [ 534240.0, 7261626.688872555270791 ], [ 534230.0, 7261633.299061057157815 ], [ 534220.0, 7261639.92313376814127 ], [ 534210.0, 7261646.318647109903395 ], [ 534200.0, 7261652.117608899250627 ], [ 534190.0, 7261657.335192626342177 ], [ 534180.0, 7261662.031352911144495 ], [ 534170.0, 7261665.871555430814624 ], [ 534160.0, 7261668.382630338892341 ], [ 534150.0, 7261669.62888234294951 ], [ 534140.0, 7261670.359051270410419 ], [ 534130.0, 7261671.529329252429307 ], [ 534120.0, 7261673.669286503456533 ], [ 534110.0, 7261676.329821285791695 ], [ 534100.0, 7261678.459496570751071 ], [ 534090.0, 7261679.552908320911229 ], [ 534080.0, 7261679.913744011893868 ], [ 534070.0, 7261680.0 ], [ 534060.0, 7261680.086255988106132 ], [ 534050.0, 7261680.447091679088771 ], [ 534040.0, 7261681.540503429248929 ], [ 534030.0, 7261683.671070925891399 ], [ 534020.0, 7261686.340995462611318 ], [ 534010.0, 7261688.546644769608974 ], [ 534000.0, 7261690.0 ], [ 533990.0, 7261691.454247441142797 ], [ 533980.0, 7261693.670178714208305 ], [ 533970.0, 7261696.416969484649599 ], [ 533960.0, 7261698.917762426659465 ], [ 533950.0, 7261701.181452158838511 ], [ 533940.0, 7261704.041296372190118 ], [ 533930.0, 7261707.947190947830677 ], [ 533920.0, 7261712.587048930115998 ], [ 533910.0, 7261717.511273444630206 ], [ 533900.0, 7261722.500792942941189 ], [ 533890.0, 7261727.500099267810583 ], [ 533880.0, 7261732.499900732189417 ], [ 533870.0, 7261737.500099267810583 ], [ 533860.0, 7261742.499900732189417 ], [ 533850.0, 7261747.500099267810583 ], [ 533840.0, 7261752.500792942941189 ], [ 533830.0, 7261757.511273443698883 ], [ 533820.0, 7261762.587941141799092 ], [ 533810.000892210635357, 7261767.958365123718977 ], [ 533800.011174176470377, 7261774.128444570116699 ], [ 533790.088040409144014, 7261781.628543838858604 ], [ 533780.45915806631092, 7261790.458265855908394 ], [ 533771.639718014281243, 7261800.088040409609675 ], [ 533764.21559276827611, 7261810.011174177750945 ], [ 533758.405456802807748, 7261820.000892210751772 ], [ 533754.129336780519225, 7261830.0 ], [ 533751.1917341244407, 7261840.000000000931323 ], [ 533748.907480461173691, 7261850.0 ], [ 533746.329821285791695, 7261860.0 ], [ 533743.223087035003118, 7261870.0 ], [ 533739.912851801607758, 7261880.0 ], [ 533736.318647109437734, 7261890.0 ], [ 533732.128783074906096, 7261900.0 ], [ 533727.423233035253361, 7261910.0 ], [ 533722.489618766237982, 7261920.0 ], [ 533717.49831484653987, 7261930.0 ], [ 533712.489618766237982, 7261940.0 ], [ 533707.423233035369776, 7261950.0 ], [ 533702.128783074789681, 7261960.0 ], [ 533696.31953932007309, 7261970.0 ], [ 533689.923133767326362, 7261980.0 ], [ 533683.299953267676756, 7261989.999553894624114 ], [ 533676.700938943075016, 7261999.993520701304078 ], [ 533670.088040409144014, 7262009.944359513930976 ], [ 533663.768501089187339, 7262019.677239574491978 ], [ 533658.329482780769467, 7262028.683442020788789 ], [ 533654.20531080244109, 7262036.078100949525833 ], [ 533651.638825803645886, 7262041.078100949525833 ] ] } },
{ "type": "Feature", "properties": { "id": 5, "reference_id": 6, "dune_id": 6, "dune_name": "The Star Dune", "acquisition_date": "2020-11-25", "length_m": 748.06540993703038 }, "geometry": { "type": "LineString", "coordinates": [ [ 533650.0, 7262048.921899050474167 ], [ 533650.0, 7262053.921899050474167 ], [ 533650.0, 7262061.316557979211211 ], [ 533650.0, 7262070.322760425508022 ], [ 533650.0, 7262080.055640487000346 ], [ 533650.0, 7262090.006479298695922 ], [ 533650.0, 7262100.000446105375886 ], [ 533650.0, 7262110.0 ], [ 533650.000892210751772, 7262120.0 ], [ 533650.011174176470377, 7262130.0 ], [ 533650.087148198508658, 7262140.0 ], [ 533650.447091679205187, 7262150.0 ], [ 533651.540503428783268, 7262160.0 ], [ 533653.670178714208305, 7262170.0 ], [ 533656.329821285791695, 7262180.0 ], [ 533658.460388781968504, 7262190.0 ], [ 533659.56408249726519, 7262200.0 ], [ 533660.0, 7262210.0 ], [ 533660.43591750273481, 7262220.0 ], [ 533661.539611218031496, 7262230.0 ], [ 533663.670178714208305, 7262240.0 ], [ 533666.329821285791695, 7262250.0 ], [ 533668.459496571333148, 7262260.0 ], [ 533669.552908320911229, 7262270.0 ], [ 533669.912851801607758, 7262280.0 ], [ 533669.988825823646039, 7262290.0 ], [ 533669.999107789364643, 7262300.0 ], [ 533670.0, 7262310.0 ], [ 533670.0, 7262320.0 ], [ 533670.0, 7262330.0 ], [ 533669.999107789364643, 7262340.000000000931323 ], [ 533669.988825823646039, 7262350.0 ], [ 533669.912851801607758, 7262360.0 ], [ 533669.552908320911229, 7262370.0 ], [ 533668.458604360697791, 7262380.0 ], [ 533666.318647109437734, 7262390.0 ], [ 533663.583030515816063, 7262400.0 ], [ 533661.092519538942724, 7262410.0 ], [ 533658.895414073951542, 7262420.0 ], [ 533656.329821285791695, 7262430.0 ], [ 533653.233369000838138, 7262440.0 ], [ 533649.989718034281395, 7262450.0 ], [ 533646.689764766488224, 7262460.0 ], [ 533643.310235233511776, 7262470.0 ], [ 533640.01028196583502, 7262480.0 ], [ 533636.766630999278277, 7262490.0 ], [ 533633.670178714208305, 7262500.0 ], [ 533631.104585926048458, 7262510.0 ], [ 533628.906588250421919, 7262520.0 ], [ 533626.405795307713561, 7262530.0 ], [ 533623.594204692170024, 7262540.0 ], [ 533621.094303960213438, 7262550.0 ], [ 533618.906588250421919, 7262560.0 ], [ 533616.416077273664996, 7262570.0 ], [ 533613.670178714208305, 7262580.0 ], [ 533611.454247441026382, 7262590.0 ], [ 533610.0, 7262600.000000000931323 ], [ 533608.54664476972539, 7262610.0 ], [ 533606.340995462378487, 7262620.0 ], [ 533603.671070924960077, 7262630.0 ], [ 533601.539611218031496, 7262640.0 ], [ 533600.43591750273481, 7262650.0 ], [ 533600.0, 7262660.0 ], [ 533599.56408249726519, 7262670.0 ], [ 533598.460388781968504, 7262680.0 ], [ 533596.329821285791695, 7262690.0 ], [ 533593.670178714208305, 7262700.0 ], [ 533591.539611218031496, 7262710.0 ], [ 533590.43591750273481, 7262720.0 ], [ 533590.0, 7262730.0 ], [ 533589.56408249726519, 7262739.999107789248228 ], [ 533588.460388781968504, 7262749.987933613359928 ], [ 533586.329821285791695, 7262759.900785414502025 ], [ 533583.670178714208305, 7262769.453693735413253 ], [ 533581.540503428783268, 7262777.913190307095647 ], [ 533580.447091679205187, 7262784.243011591956019 ] ] } },
{ "type": "Feature", "properties": { "id": 6, "reference_id": 7, "dune_id": 7, "dune_name": "Inverted Y Dune", "acquisition_date": "2020-11-25", "length_m": 588.48003962621806 }, "geometry": { "type": "LineString", "coordinates": [ [ 530195.756988407694735, 7261649.999107790179551 ], [ 530202.086809693370014, 7261649.9888258241117 ], [ 530210.546306264819577, 7261649.912851802073419 ], [ 530220.099214585614391, 7261649.552908321842551 ], [ 530230.012066387105733, 7261648.459496572613716 ], [ 530240.000892210751772, 7261646.328929075971246 ], [ 530250.0, 7261643.659004538320005 ], [ 530260.0, 7261641.453355230391026 ], [ 530270.0, 7261639.999107789248228 ], [ 530280.0, 7261638.535470593720675 ], [ 530290.0, 7261636.253847263753414 ], [ 530300.0, 7261633.223087035119534 ], [ 530310.0, 7261629.9888258241117 ], [ 530320.0, 7261626.689764766022563 ], [ 530330.0, 7261623.309343023225665 ], [ 530340.0, 7261620.0 ], [ 530350.0, 7261616.689764766953886 ], [ 530360.0, 7261613.299061058089137 ], [ 530370.0, 7261609.92313376814127 ], [ 530380.0, 7261606.318647109903395 ], [ 530390.0, 7261602.118501110002398 ], [ 530400.0, 7261597.346366802230477 ], [ 530410.0, 7261592.118501108139753 ], [ 530420.0, 7261586.317754898220301 ], [ 530430.000000000116415, 7261579.911959591321647 ], [ 530440.0, 7261573.211912859231234 ], [ 530450.0, 7261566.241780877113342 ], [ 530459.999107789364643, 7261558.448322394862771 ], [ 530469.988825823529623, 7261549.552016110159457 ], [ 530479.911959590855986, 7261539.912851801142097 ], [ 530489.541734144324437, 7261529.9888258241117 ], [ 530498.37234837282449, 7261519.999107789248228 ], [ 530505.881837395951152, 7261510.0 ], [ 530512.118501109071076, 7261500.0 ], [ 530517.783176516182721, 7261490.0 ], [ 530523.670178714208305, 7261480.0 ], [ 530530.086255987756886, 7261470.000000000931323 ], [ 530536.776912964996882, 7261460.0 ], [ 530543.671070924843661, 7261450.0 ], [ 530551.104585926048458, 7261440.0 ], [ 530558.907480461057276, 7261430.0 ], [ 530566.416969484183937, 7261420.0 ], [ 530573.681352890678681, 7261410.0 ], [ 530581.54139563953504, 7261400.0 ], [ 530590.447091679205187, 7261390.0 ], [ 530600.087148198392242, 7261380.0 ], [ 530610.01028196583502, 7261370.000892210751772 ], [ 530619.988825823646039, 7261360.012066386640072 ], [ 530629.900785414502025, 7261350.099214585497975 ], [ 530639.453693735296838, 7261340.546306265518069 ], [ 530647.913190306629986, 7261332.086809693835676 ], [ 530654.243011592305265, 7261325.756988408043981 ] ] } },
{ "type": "Feature", "properties": { "id": 7, "reference_id": 1, "dune_id": 1, "dune_name": "Big Mommy Dune", "acquisition_date": "2020-11-25", "length_m": 1233.3721604695234 }, "geometry": { "type": "LineString", "coordinates": [ [ 529180.0, 7261035.756988408043981 ], [ 529180.0, 7261042.086809693835676 ], [ 529180.0, 7261050.546306265518069 ], [ 529180.0, 7261060.099214585497975 ], [ 529179.999107789364643, 7261070.012066387571394 ], [ 529179.988825823529623, 7261080.000892210751772 ], [ 529179.912851801607758, 7261090.0 ], [ 529179.552016110159457, 7261100.0 ], [ 529178.448322394862771, 7261110.0 ], [ 529176.242673087399453, 7261120.000000000931323 ], [ 529173.222194824367762, 7261130.0 ], [ 529169.988825823529623, 7261140.0 ], [ 529166.689764766488224, 7261150.0 ], [ 529163.309343022760004, 7261160.0 ], [ 529159.999107789364643, 7261170.0 ], [ 529156.679482800886035, 7261180.0 ], [ 529153.223087035119534, 7261190.0 ], [ 529149.563190286629833, 7261200.0 ], [ 529145.226127570495009, 7261210.000000000931323 ], [ 529139.999107789364643, 7261220.0 ], [ 529134.763590463669971, 7261230.0 ], [ 529130.360835691448301, 7261240.0 ], [ 529126.416077273548581, 7261250.0 ], [ 529122.216823483933695, 7261260.0 ], [ 529117.794350692653097, 7261270.0 ], [ 529113.659896748373285, 7261280.0 ], [ 529109.999107789364643, 7261290.0 ], [ 529106.329821285791695, 7261300.0 ], [ 529102.130567496176809, 7261310.000000000931323 ], [ 529097.433515001204796, 7261320.0 ], [ 529092.566484998911619, 7261330.0 ], [ 529087.870324714574963, 7261340.0 ], [ 529083.680460680043325, 7261350.0 ], [ 529080.076866232557222, 7261360.0 ], [ 529076.700046732323244, 7261370.0 ], [ 529073.299953267676756, 7261380.0 ], [ 529069.924025978078134, 7261390.0 ], [ 529066.329821285791695, 7261400.0 ], [ 529062.205649307463318, 7261410.0 ], [ 529057.794350692536682, 7261420.0 ], [ 529053.670178714208305, 7261430.0 ], [ 529050.075974021921866, 7261440.0 ], [ 529046.700938942958601, 7261450.0 ], [ 529043.311127444147132, 7261460.0 ], [ 529040.01028196583502, 7261470.000000000931323 ], [ 529036.766630999278277, 7261480.0 ], [ 529033.670178714208305, 7261490.0 ], [ 529031.104585926048458, 7261500.0 ], [ 529028.907480461173691, 7261510.0 ], [ 529026.416969484183937, 7261520.0 ], [ 529023.681352890678681, 7261530.0 ], [ 529021.541395639418624, 7261540.0 ], [ 529020.447091679205187, 7261550.0 ], [ 529020.087148198508658, 7261560.000000000931323 ], [ 529020.011174176470377, 7261570.0 ], [ 529020.000892210751772, 7261580.0 ], [ 529020.0, 7261590.0 ], [ 529020.0, 7261600.0 ], [ 529020.0, 7261610.0 ], [ 529020.0, 7261620.0 ], [ 529020.000892210751772, 7261630.0 ], [ 529020.011174176470377, 7261640.0 ], [ 529020.088040409144014, 7261650.0 ], [ 529020.458265855675563, 7261660.0 ], [ 529021.628543837927282, 7261670.0 ], [ 529024.128444569883868, 7261680.0 ], [ 529027.958365123718977, 7261690.0 ], [ 529032.588833351852372, 7261700.0 ], [ 529037.521555410232395, 7261710.0 ], [ 529042.577659175381996, 7261720.0 ], [ 529047.870324714458548, 7261730.000000000931323 ], [ 529053.669286503572948, 7261740.0 ], [ 529059.989718034281395, 7261750.0 ], [ 529066.252955053118058, 7261760.0 ], [ 529071.759449838893488, 7261770.0 ], [ 529076.252955053118058, 7261780.0 ], [ 529079.988825823529623, 7261790.0 ], [ 529083.658112327102572, 7261800.0 ], [ 529087.782284305430949, 7261810.0 ], [ 529092.118501109071076, 7261820.0 ], [ 529095.880945185315795, 7261830.0 ], [ 529098.361174196470529, 7261840.000000000931323 ], [ 529099.453693735413253, 7261850.0 ], [ 529099.452801524661481, 7261860.0 ], [ 529098.350000019883737, 7261870.0 ], [ 529095.793796986807138, 7261880.0 ], [ 529091.670517219230533, 7261890.0 ], [ 529086.231498910929076, 7261900.0 ], [ 529079.911959590855986, 7261910.0 ], [ 529073.298168846289627, 7261920.0 ], [ 529066.68976476660464, 7261930.0 ], [ 529060.0, 7261940.0 ], [ 529053.310235233511776, 7261950.0 ], [ 529046.700938942958601, 7261960.0 ], [ 529040.076866232673638, 7261970.0 ], [ 529033.680460680043325, 7261980.0 ], [ 529027.871216925326735, 7261990.0 ], [ 529022.577659175381996, 7262000.0 ], [ 529017.521555410232395, 7262010.0 ], [ 529012.5879411411006, 7262020.0 ], [ 529007.9471909472486, 7262030.0 ], [ 529004.040404160739854, 7262040.0 ], [ 529001.169385771499947, 7262050.0 ], [ 528998.819440052029677, 7262060.0 ], [ 528995.882729606702924, 7262070.0 ], [ 528991.682583606336266, 7262080.0 ], [ 528986.242673087399453, 7262090.0 ], [ 528979.987933612894267, 7262100.0 ], [ 528973.658112327102572, 7262110.0 ], [ 528967.782284305430949, 7262120.0 ], [ 528962.119393319706433, 7262129.999107789248228 ], [ 528955.893903783056885, 7262139.987933613359928 ], [ 528948.471562958438881, 7262149.900785414502025 ], [ 528940.088040409144014, 7262159.453693735413253 ], [ 528931.998769284342416, 7262167.913190307095647 ], [ 528925.745814231224358, 7262174.243011591956019 ] ] } },
{ "type": "Feature", "properties": { "id": 8, "reference_id": 2, "dune_id": 2, "dune_name": "Big Mommy Dune", "acquisition_date": "2020-11-25", "length_m": 82.969449203786851 }, "geometry": { "type": "LineString", "coordinates": [ [ 528805.756988407694735, 7260871.551677605137229 ], [ 528812.08680969348643, 7260873.757326913066208 ], [ 528820.546306264819577, 7260876.777805175632238 ], [ 528830.099214585614391, 7260880.011174176819623 ], [ 528840.011174176470377, 7260883.310235233977437 ], [ 528849.988825823646039, 7260886.689764766022563 ], [ 528859.900785414385609, 7260889.9888258241117 ], [ 528869.453693735296838, 7260893.222194824367762 ], [ 528877.91319030651357, 7260896.242673087865114 ], [ 528884.243011592305265, 7260898.448322394862771 ] ] } },
{ "type": "Feature", "properties": { "id": 9, "reference_id": 2, "dune_id": 2, "dune_name": "Big Mommy Dune", "acquisition_date": "2020-11-25", "length_m": 145.25512100808072 }, "geometry": { "type": "LineString", "coordinates": [ [ 528544.243011592421681, 7260738.00033850595355 ], [ 528537.913190306629986, 7260734.690103271976113 ], [ 528529.453693735296838, 7260729.454585947096348 ], [ 528519.900785414385609, 7260723.135046625509858 ], [ 528509.987933612894267, 7260716.317754898220301 ], [ 528499.999107789364643, 7260708.894521864131093 ], [ 528490.0, 7260701.093411750160158 ], [ 528480.0, 7260693.594204692170024 ], [ 528470.000892210751772, 7260686.406687518581748 ], [ 528460.012066387105733, 7260678.917762426659465 ], [ 528450.099214585614391, 7260671.19262633472681 ], [ 528440.546306264819577, 7260664.129336780868471 ], [ 528432.08680969348643, 7260658.405456803739071 ], [ 528425.756988407694735, 7260654.215592768974602 ] ] } },
{ "type": "Feature", "properties": { "id": 10, "reference_id": 2, "dune_id": 2, "dune_name": "Big Mommy Dune", "acquisition_date": "2020-11-25", "length_m": 172.76127287230509 }, "geometry": { "type": "LineString", "coordinates": [ [ 528704.243011592305265, 7260828.360281985253096 ], [ 528697.913190306629986, 7260825.783515021204948 ], [ 528689.453693735296838, 7260821.584261232055724 ], [ 528679.900785414385609, 7260815.79558140784502 ], [ 528669.987933612894267, 7260808.459496570751071 ], [ 528659.999107789364643, 7260800.087148198857903 ], [ 528650.0, 7260791.997877074405551 ], [ 528640.0, 7260785.733747845515609 ], [ 528630.0, 7260781.986702897585928 ], [ 528620.0, 7260780.000892211683095 ], [ 528610.0, 7260778.023579069413245 ], [ 528600.000892210751772, 7260774.343118389137089 ], [ 528590.012066387105733, 7260768.373240582644939 ], [ 528580.099214585497975, 7260761.093411749228835 ], [ 528570.546306264819577, 7260754.117270393297076 ], [ 528562.08680969348643, 7260748.404564592055976 ], [ 528555.756988407694735, 7260744.21559276804328 ] ] } },
{ "type": "Feature", "properties": { "id": 11, "reference_id": 4, "dune_id": 4, "dune_name": "The Star Dune", "acquisition_date": "2020-11-25", "length_m": 153.18812292930056 }, "geometry": { "type": "LineString", "coordinates": [ [ 533164.243011592305265, 7261906.242673087865114 ], [ 533157.91319030651357, 7261903.223087035119534 ], [ 533149.453693735296838, 7261900.0 ], [ 533139.900785414385609, 7261896.776912964880466 ], [ 533129.987933612894267, 7261893.756434702314436 ], [ 533119.999107789248228, 7261891.540503429248929 ], [ 533110.0, 7261890.360835691913962 ], [ 533100.0, 7261889.64005651883781 ], [ 533090.0, 7261888.470670748502016 ], [ 533080.0, 7261886.329821285791695 ], [ 533070.0, 7261883.659004538320005 ], [ 533060.000892210751772, 7261881.453355230391026 ], [ 533050.012066387105733, 7261880.0 ], [ 533040.099214585614391, 7261878.546644769608974 ], [ 533030.546306264819577, 7261876.340995462611318 ], [ 533022.08680969348643, 7261873.671070925891399 ], [ 533015.756988407694735, 7261871.540503429248929 ] ] } },
{ "type": "Feature", "properties": { "id": 12, "reference_id": 8, "dune_id": 8, "dune_name": "Inverted Y Dune", "acquisition_date": "2020-11-25", "length_m": 512.80609624813565 }, "geometry": { "type": "LineString", "coordinates": [ [ 530096.846263533574529, 7261591.078100949525833 ], [ 530098.25205884128809, 7261586.078100949525833 ], [ 530099.676839964813553, 7261578.683442020788789 ], [ 530101.316957589122467, 7261569.6772395754233 ], [ 530103.626604615012184, 7261559.944359513930976 ], [ 530106.324234197614715, 7261549.993520701304078 ], [ 530108.459050465957262, 7261539.999553894624114 ], [ 530109.552908320911229, 7261530.0 ], [ 530109.912851801607758, 7261520.0 ], [ 530109.989718034281395, 7261510.0 ], [ 530110.01028196583502, 7261500.0 ], [ 530110.087148198392242, 7261490.0 ], [ 530110.447091679205187, 7261480.0 ], [ 530111.541395639418624, 7261470.000000000931323 ], [ 530113.681352890678681, 7261460.0 ], [ 530116.416969484300353, 7261450.0 ], [ 530118.906588250421919, 7261440.0 ], [ 530121.093411749578081, 7261430.0 ], [ 530123.583922726567835, 7261420.0 ], [ 530126.329821285791695, 7261410.0 ], [ 530128.545752559090033, 7261400.0 ], [ 530130.000892210751772, 7261390.0 ], [ 530131.464529406744987, 7261380.0 ], [ 530133.747044946881942, 7261370.0 ], [ 530136.787194930715486, 7261360.0 ], [ 530140.088040409144014, 7261350.0 ], [ 530143.682245101314038, 7261340.0 ], [ 530147.882391101680696, 7261330.0 ], [ 530152.664807373890653, 7261320.0 ], [ 530157.968647089553997, 7261310.000000000931323 ], [ 530164.129336780519225, 7261300.0 ], [ 530171.628543837927282, 7261290.000892210751772 ], [ 530180.458265855675563, 7261280.0111741758883 ], [ 530190.088040409144014, 7261270.088040409609675 ], [ 530200.011174176586792, 7261260.458265855908394 ], [ 530210.000892210751772, 7261251.628543837927282 ], [ 530220.0, 7261244.128444569185376 ], [ 530230.0, 7261237.958365123718977 ], [ 530240.0, 7261232.588833352550864 ], [ 530250.0, 7261227.522447621449828 ], [ 530260.0, 7261222.588833352550864 ], [ 530270.0, 7261217.958365123718977 ], [ 530280.0, 7261214.128444571048021 ], [ 530290.0, 7261211.628543838858604 ], [ 530299.999107789364643, 7261210.458265855908394 ], [ 530309.987933612894267, 7261210.088040409609675 ], [ 530319.900785414502025, 7261210.011174176819623 ], [ 530329.453693735180423, 7261210.000892211683095 ], [ 530337.91319030651357, 7261210.000000000931323 ], [ 530344.243011592305265, 7261210.000000000931323 ] ] } },
{ "type": "Feature", "properties": { "id": 13, "reference_id": 8, "dune_id": 8, "dune_name": "Inverted Y Dune", "acquisition_date": "2020-11-25", "length_m": 108.48602318472695 }, "geometry": { "type": "LineString", "coordinates": [ [ 530395.756988407694735, 7261210.000000000931323 ], [ 530402.08680969348643, 7261210.000000000931323 ], [ 530410.546306264819577, 7261210.000000000931323 ], [ 530420.099214585614391, 7261210.000000000931323 ], [ 530430.012066387222148, 7261210.000000000931323 ], [ 530440.000892210751772, 7261210.000000000931323 ], [ 530450.0, 7261210.000000000931323 ], [ 530459.999107789364643, 7261210.000000000931323 ], [ 530469.987933612894267, 7261210.000000000931323 ], [ 530479.900785414385609, 7261210.000000000931323 ], [ 530489.453693735296838, 7261210.000000000931323 ], [ 530497.91319030651357, 7261210.000000000931323 ], [ 530504.243011592421681, 7261210.000000000931323 ] ] } },
{ "type": "Feature", "properties": { "id": 14, "reference_id": 9, "dune_id": 9, "dune_name": "Inverted Y Dune", "acquisition_date": "2020-11-25", "length_m": 802.68720762912199 }, "geometry": { "type": "LineString", "coordinates": [ [ 529650.087148198392242, 7262234.243011592887342 ], [ 529650.447983889840543, 7262227.913190307095647 ], [ 529651.551677605253644, 7262219.453693735413253 ], [ 529653.758219123352319, 7262209.900785414502025 ], [ 529656.788087141467258, 7262199.987933613359928 ], [ 529660.087148198508658, 7262189.999107789248228 ], [ 529663.671070924843661, 7262180.0 ], [ 529667.794350692536682, 7262170.0 ], [ 529672.205649307463318, 7262160.0 ], [ 529676.329821285791695, 7262150.0 ], [ 529679.924025978078134, 7262140.0 ], [ 529683.299953267676756, 7262130.0 ], [ 529686.700046732323244, 7262120.0 ], [ 529690.076866232673638, 7262110.0 ], [ 529693.680460680043325, 7262100.0 ], [ 529697.870324714574963, 7262090.0 ], [ 529702.566484998911619, 7262080.0 ], [ 529707.433515001088381, 7262070.0 ], [ 529712.130567496176809, 7262060.0 ], [ 529716.329821285791695, 7262050.0 ], [ 529720.0, 7262040.0 ], [ 529723.670178714208305, 7262030.0 ], [ 529727.870324714574963, 7262020.0 ], [ 529732.576766964630224, 7262010.0 ], [ 529737.509489023126662, 7262000.0 ], [ 529742.490510976989754, 7261990.0 ], [ 529747.423233035369776, 7261980.0 ], [ 529752.128783074789681, 7261970.0 ], [ 529756.319539319956675, 7261960.0 ], [ 529759.923133767326362, 7261950.0 ], [ 529763.299061056924984, 7261940.0 ], [ 529766.689764766488224, 7261930.0 ], [ 529770.0, 7261920.0 ], [ 529773.310235233511776, 7261910.0 ], [ 529776.700938943075016, 7261900.0 ], [ 529780.076866232673638, 7261890.0 ], [ 529783.681352890678681, 7261880.0 ], [ 529787.882391101680696, 7261870.0 ], [ 529792.663915163138881, 7261860.0 ], [ 529797.957472912967205, 7261850.0 ], [ 529804.042188582126983, 7261840.000000000931323 ], [ 529811.181452158722095, 7261830.0 ], [ 529818.917762426892295, 7261820.0 ], [ 529826.417861694935709, 7261810.0 ], [ 529833.681352890678681, 7261800.0 ], [ 529841.541395639418624, 7261790.000892210751772 ], [ 529850.447091679088771, 7261780.011174176819623 ], [ 529860.087148198392242, 7261770.087148198857903 ], [ 529870.011174176470377, 7261760.447091679088771 ], [ 529880.000892210751772, 7261751.540503429248929 ], [ 529890.0, 7261743.671070925891399 ], [ 529900.0, 7261736.340995462611318 ], [ 529910.0, 7261728.546644770540297 ], [ 529920.0, 7261720.000892210751772 ], [ 529930.0, 7261711.464529406279325 ], [ 529940.0, 7261703.746152736246586 ], [ 529950.0, 7261696.776912965811789 ], [ 529960.0, 7261690.011174176819623 ], [ 529970.0, 7261683.311127444729209 ], [ 529980.0, 7261676.700938943773508 ], [ 529990.0, 7261670.075974022038281 ], [ 530000.0, 7261663.670178715139627 ], [ 530010.0, 7261657.794350693002343 ], [ 530020.0, 7261652.205649306997657 ], [ 530030.0, 7261646.328929075971246 ], [ 530039.999553894624114, 7261639.913297906517982 ], [ 530049.993520701071247, 7261633.218392157927155 ], [ 530059.944359513698146, 7261626.297421364113688 ], [ 530069.677239574841224, 7261618.771082820370793 ], [ 530078.683442020905204, 7261610.868574090301991 ], [ 530086.078100949409418, 7261603.834750852547586 ], [ 530091.078100949525833, 7261598.910724874585867 ] ] } }
]
}
