{
"type": "FeatureCollection",
"name": "crests_2024_04_2024-04-05",
"crs": { "type": "name", "properties": { "name": "urn:ogc:def:crs:EPSG::32733" } },
"features": [
{ "type": "Feature", "properties": { "id": 0, "reference_id": 2, "dune_id": 2, "dune_name": "Big Mommy Dune", "acquisition_date": "2024-04-05", "length_m": 55.275782776883545 }, "geometry": { "type": "LineString", "coordinates": [ [ 528515.756988407694735, 7260721.998769285157323 ], [ 528522.085917482851073, 7260725.297830341383815 ], [ 528530.534239877597429, 7260730.447091680020094 ], [ 528540.0, 7260736.329821286723018 ], [ 528549.465760122402571, 7260741.682583606801927 ], [ 528557.914082517148927, 7260745.795581408776343 ], [ 528564.243011592305265, 7260748.361174196004868 ] ] } },
{ "type": "Feature", "properties": { "id": 1, "reference_id": 2, "dune_id": 2, "dune_name": "Big Mommy Dune", "acquisition_date": "2024-04-05", "length_m": 614.31410977165478 }, "geometry": { "type": "LineString", "coordinates": [ [ 528575.756988407694735, 7260755.669840209186077 ], [ 528582.086809693370014, 7260761.638825803995132 ], [ 528590.546306264819577, 7260768.99462866038084 ], [ 528600.099214585730806, 7260776.340995462611318 ], [ 528610.012066387105733, 7260783.223087035119534 ], [ 528620.000892210635357, 7260789.902569836005569 ], [ 528630.0, 7260796.241780877113342 ], [ 528640.0, 7260801.758557628840208 ], [ 528650.0, 7260806.252955053001642 ], [ 528660.0, 7260809.989718034863472 ], [ 528670.0, 7260813.669286504387856 ], [ 528680.0, 7260817.86943250335753 ], [ 528690.0, 7260822.566484998911619 ], [ 528700.0, 7260827.433515001088381 ], [ 528710.0, 7260832.129675285890698 ], [ 528720.0, 7260836.319539319723845 ], [ 528730.0, 7260839.92313376814127 ], [ 528740.0, 7260843.299061057157815 ], [ 528750.0, 7260846.689764766022563 ], [ 528760.0, 7260850.0 ], [ 528770.0, 7260853.310235233046114 ], [ 528780.0, 7260856.700938942842185 ], [ 528790.0, 7260860.075974022969604 ], [ 528800.0, 7260863.670178715139627 ], [ 528810.0, 7260867.794350693002343 ], [ 528820.0, 7260872.205649306997657 ], [ 528830.0, 7260876.329821286723018 ], [ 528840.0, 7260879.924025978893042 ], [ 528850.0, 7260883.299061058089137 ], [ 528860.0, 7260886.688872557133436 ], [ 528870.0, 7260889.9888258241117 ], [ 528880.0, 7260893.223087035119534 ], [ 528890.0, 7260896.253847263753414 ], [ 528900.0, 7260898.535470593720675 ], [ 528910.0, 7260900.0 ], [ 528920.0, 7260901.464529407210648 ], [ 528930.0, 7260903.746152737177908 ], [ 528940.0, 7260906.776020755060017 ], [ 528950.0, 7260910.000892210751772 ], [ 528960.0, 7260913.234261211939156 ], [ 528970.0, 7260916.329821285791695 ], [ 528980.0, 7260918.896306285634637 ], [ 528990.0, 7260921.103693715296686 ], [ 529000.0, 7260923.670178715139627 ], [ 529010.0, 7260926.765738788992167 ], [ 529020.0, 7260930.0 ], [ 529030.0, 7260933.234261211939156 ], [ 529040.0, 7260936.330713496543467 ], [ 529050.0, 7260938.906588250771165 ], [ 529060.0, 7260941.180559948086739 ], [ 529070.0, 7260944.041296371258795 ], [ 529080.0, 7260947.946298737078905 ], [ 529090.0, 7260952.576766965910792 ], [ 529099.999107789364643, 7260957.434407211840153 ], [ 529109.987933612894267, 7260962.129675285890698 ], [ 529119.900785414385609, 7260966.318647108972073 ], [ 529129.453693735296838, 7260969.911959590390325 ], [ 529137.913190306629986, 7260973.211912859231234 ], [ 529144.243011592421681, 7260976.241780877113342 ] ] } },
{ "type": "Feature", "properties": { "id": 2, "reference_id": 3, "dune_id": 3, "dune_name": "Big Mommy Dune", "acquisition_date": "2024-04-05", "length_m": 298.48602318461053 }, "geometry": { "type": "LineString", "coordinates": [ [ 530044.243011592305265, 7260610.0 ], [ 530037.91319030651357, 7260610.0 ], [ 530029.453693735180423, 7260610.0 ], [ 530019.900785414502025, 7260610.0 ], [ 530009.987933612894267, 7260610.0 ], [ 529999.999107789364643, 7260610.0 ], [ 529990.0, 7260610.0 ], [ 529980.0, 7260610.0 ], [ 529970.0, 7260610.0 ], [ 529960.0, 7260610.0 ], [ 529950.0, 7260610.0 ], [ 529940.0, 7260610.0 ], [ 529930.0, 7260610.0 ], [ 529920.0, 7260610.0 ], [ 529910.0, 7260610.0 ], [ 529900.0, 7260610.0 ], [ 529890.0, 7260610.0 ], [ 529880.0, 7260610.0 ], [ 529870.0, 7260610.0 ], [ 529860.0, 7260610.0 ], [ 529850.0, 7260610.0 ], [ 529840.0, 7260610.0 ], [ 529830.0, 7260610.0 ], [ 529820.0, 7260610.0 ], [ 529810.0, 7260610.0 ], [ 529800.0, 7260610.0 ], [ 529790.000892210751772, 7260610.0 ], [ 529780.012066387105733, 7260610.0 ], [ 529770.099214585614391, 7260610.0 ], [ 529760.546306264819577, 7260610.0 ], [ 529752.08680969348643, 7260610.0 ], [ 529745.756988407694735, 7260610.0 ] ] } },
{ "type": "Feature", "properties": { "id": 3, "reference_id": 3, "dune_id": 3, "dune_name": "Big Mommy Dune", "acquisition_date": "2024-04-05", "length_m": 120.49323943405004 }, "geometry": { "type": "LineString", "coordinates": [ [ 530204.243011592305265, 7260580.087148198857903 ], [ 530197.91319030651357, 7260580.447091679088771 ], [ 530189.453693735180423, 7260581.540503429248929 ], [ 530179.900785414385609, 7260583.671070924960077 ], [ 530169.987933612894267, 7260586.340995462611318 ], [ 530159.999107789364643, 7260588.546644769608974 ], [ 530150.0, 7260590.0 ], [ 530140.0, 7260591.453355230391026 ], [ 530130.000892210751772, 7260593.659004537388682 ], [ 530120.012066387222148, 7260596.328929075039923 ], [ 530110.099214585614391, 7260598.459496571682394 ], [ 530100.546306264819577, 7260599.552908321842551 ], [ 530092.08680969348643, 7260599.912851802073419 ], [ 530085.756988407694735, 7260599.9888258241117 ] ] } },
{ "type": "Feature", "properties": { "id": 4, "reference_id": 3, "dune_id": 3, "dune_name": "Big Mommy Dune", "acquisition_date": "2024-04-05", "length_m": 362.16040946589504 }, "geometry": { "type": "LineString", "coordinates": [ [ 529374.243011592305265, 7260695.756988408043981 ], [ 529367.91319030651357, 7260702.086809693835676 ], [ 529359.453693735180423, 7260710.546306265518069 ], [ 529349.900785414502025, 7260720.099214585497975 ], [ 529339.988825823529623, 7260730.012066388502717 ], [ 529330.01028196583502, 7260740.000892210751772 ], [ 529320.087148198508658, 7260750.0 ], [ 529310.447983889956959, 7260760.0 ], [ 529301.551677605253644, 7260770.0 ], [ 529293.757326912600547, 7260780.000000000931323 ], [ 529286.777805175632238, 7260790.0 ], [ 529280.011174176470377, 7260800.0 ], [ 529273.310235233511776, 7260810.0 ], [ 529266.690656977239996, 7260820.0 ], [ 529260.0, 7260830.0 ], [ 529253.310235233511776, 7260840.0 ], [ 529246.700938943075016, 7260850.0 ], [ 529240.075974021921866, 7260860.0 ], [ 529233.670178714208305, 7260870.0 ], [ 529227.794350692536682, 7260880.0 ], [ 529222.206541518098675, 7260890.0 ], [ 529216.340103251626715, 7260900.0 ], [ 529210.0, 7260910.0 ], [ 529203.659896748373285, 7260920.0 ], [ 529197.794350692536682, 7260930.0 ], [ 529192.218161799944937, 7260939.999553894624114 ], [ 529186.43373074894771, 7260949.993520701304078 ], [ 529180.502732165623456, 7260959.944359514862299 ], [ 529175.522268391679972, 7260969.6772395754233 ], [ 529172.769020998734049, 7260978.683442020788789 ], [ 529172.370221445453353, 7260986.078100949525833 ], [ 529173.263233017874882, 7260991.078100949525833 ] ] } },
{ "type": "Feature", "properties": { "id": 5, "reference_id": 3, "dune_id": 3, "dune_name": "Big Mommy Dune", "acquisition_date": "2024-04-05", "length_m": 141.81245207770343 }, "geometry": { "type": "LineString", "coordinates": [ [ 529614.243011592421681, 7260630.087148198857903 ], [ 529607.91319030651357, 7260630.447091680020094 ], [ 529599.453693735180423, 7260631.540503429248929 ], [ 529589.900785414502025, 7260633.671070925891399 ], [ 529579.987933612894267, 7260636.340995462611318 ], [ 529569.999107789248228, 7260638.546644769608974 ], [ 529560.0, 7260640.0 ], [ 529550.0, 7260641.454247441142797 ], [ 529540.0, 7260643.670178715139627 ], [ 529530.0, 7260646.416077273897827 ], [ 529520.000892210751772, 7260648.906588250771165 ], [ 529510.012066387105733, 7260651.093411749228835 ], [ 529500.099214585614391, 7260653.583030516281724 ], [ 529490.546306264819577, 7260656.318647109903395 ], [ 529482.08680969348643, 7260658.458604361861944 ], [ 529475.756988407694735, 7260659.552908320911229 ] ] } },
{ "type": "Feature", "properties": { "id": 6, "reference_id": 8, "dune_id": 8, "dune_name": "Inverted Y Dune", "acquisition_date": "2024-04-05", "length_m": 429.48704688732477 }, "geometry": { "type": "LineString", "coordinates": [ [ 530264.243011592421681, 7261221.638825803995132 ], [ 530257.913190306629986, 7261224.205310802906752 ], [ 530249.453693735180423, 7261228.329482780769467 ], [ 530239.900785414502025, 7261233.76939329970628 ], [ 530229.987933612777852, 7261240.099214585497975 ], [ 530220.0, 7261246.788979351520538 ], [ 530210.011174176470377, 7261253.75821912381798 ], [ 530200.087148198392242, 7261261.551677605137229 ], [ 530190.447983889840543, 7261270.447983890771866 ], [ 530181.552569815889001, 7261280.087148198857903 ], [ 530173.768501089187339, 7261290.0111741758883 ], [ 530166.864953374140896, 7261300.000892210751772 ], [ 530160.458265855675563, 7261310.000000000931323 ], [ 530154.851630872813985, 7261320.0 ], [ 530150.372009867918678, 7261330.0 ], [ 530146.417861694935709, 7261340.0 ], [ 530142.227105449652299, 7261350.0 ], [ 530137.871216925326735, 7261360.0 ], [ 530134.031014405656606, 7261370.0 ], [ 530131.180559947970323, 7261380.0 ], [ 530128.916870216256939, 7261390.0 ], [ 530126.406687518581748, 7261400.0 ], [ 530123.594204692170024, 7261410.0 ], [ 530121.094303960213438, 7261420.0 ], [ 530118.906588250421919, 7261430.0 ], [ 530116.416969484300353, 7261440.0 ], [ 530113.680460680043325, 7261450.0 ], [ 530111.530221462948248, 7261460.0 ], [ 530110.359943480812944, 7261470.000000000931323 ], [ 530109.640056519303471, 7261480.0 ], [ 530108.470670747803524, 7261490.0 ], [ 530106.330713496543467, 7261500.0 ], [ 530103.670178714208305, 7261510.0 ], [ 530101.540503428783268, 7261520.0 ], [ 530100.447091679205187, 7261530.0 ], [ 530100.086702093132772, 7261539.999553894624114 ], [ 530100.005587088293396, 7261549.993520701304078 ], [ 530099.957318111439236, 7261559.944359513930976 ], [ 530099.776454160455614, 7261569.6772395754233 ], [ 530099.229748285608366, 7261578.683442020788789 ], [ 530098.164910642895848, 7261586.078100949525833 ], [ 530096.835089357104152, 7261591.078100949525833 ] ] } },
{ "type": "Feature", "properties": { "id": 7, "reference_id": 8, "dune_id": 8, "dune_name": "Inverted Y Dune", "acquisition_date": "2024-04-05", "length_m": 65.046807686932311 }, "geometry": { "type": "LineString", "coordinates": [ [ 530495.756988407694735, 7261208.36117419693619 ], [ 530502.08680969348643, 7261205.79558140784502 ], [ 530510.545414054067805, 7261201.682583605870605 ], [ 530520.087148198392242, 7261196.329821285791695 ], [ 530529.912851801607758, 7261190.447091679088771 ], [ 530539.454585945932195, 7261185.297830341383815 ], [ 530547.91319030651357, 7261181.998769285157323 ], [ 530554.243011592305265, 7261180.535132087767124 ] ] } },
{ "type": "Feature", "properties": { "id": 8, "reference_id": 9, "dune_id": 9, "dune_name": "Inverted Y Dune", "acquisition_date": "2024-04-05", "length_m": 758.47031114017102 }, "geometry": { "type": "LineString", "coordinates": [ [ 530091.078100949525833, 7261598.921006839722395 ], [ 530086.078100949409418, 7261603.910724874585867 ], [ 530078.683442020905204, 7261611.228517569601536 ], [ 530069.677239574841224, 7261619.864494569599628 ], [ 530059.944359513698146, 7261628.427988858893514 ], [ 530049.993520701071247, 7261635.888316694647074 ], [ 530039.999553894624114, 7261642.118947215378284 ], [ 530030.0, 7261647.783176517114043 ], [ 530020.0, 7261653.669286503456533 ], [ 530010.0, 7261660.075974022969604 ], [ 530000.0, 7261666.700938943773508 ], [ 529990.0, 7261673.310235233977437 ], [ 529980.0, 7261680.0 ], [ 529970.0, 7261686.690656976774335 ], [ 529960.0, 7261693.310235233977437 ], [ 529950.0, 7261700.011174177750945 ], [ 529940.0, 7261706.777805175632238 ], [ 529930.0, 7261713.757326913066208 ], [ 529920.0, 7261721.551677605137229 ], [ 529910.0, 7261730.447983890771866 ], [ 529900.0, 7261740.087148198857903 ], [ 529890.0, 7261750.011174176819623 ], [ 529880.0, 7261760.000892210751772 ], [ 529870.000892210751772, 7261770.0 ], [ 529860.011174176470377, 7261780.0 ], [ 529850.087148198392242, 7261790.0 ], [ 529840.447091679205187, 7261800.0 ], [ 529831.541395639418624, 7261810.0 ], [ 529823.682245101314038, 7261820.0 ], [ 529816.429035871406086, 7261830.0 ], [ 529809.004910625400953, 7261840.000000000931323 ], [ 529801.628543837927282, 7261850.0 ], [ 529795.581799800158478, 7261860.0 ], [ 529791.617369661456905, 7261870.0 ], [ 529788.917762426892295, 7261880.0 ], [ 529785.981051981565543, 7261890.0 ], [ 529782.130567496176809, 7261900.0 ], [ 529777.784068726701662, 7261910.0 ], [ 529773.669286503456533, 7261920.0 ], [ 529770.075974022038281, 7261930.0 ], [ 529766.700046732323244, 7261940.0 ], [ 529763.299953267676756, 7261950.0 ], [ 529759.923133767326362, 7261960.0 ], [ 529756.319539319956675, 7261970.0 ], [ 529752.128783074789681, 7261980.0 ], [ 529747.423233035369776, 7261990.0 ], [ 529742.490510976989754, 7262000.0 ], [ 529737.509489023126662, 7262010.0 ], [ 529732.576766964630224, 7262020.0 ], [ 529727.870324714574963, 7262030.0 ], [ 529723.670178714208305, 7262040.0 ], [ 529720.0, 7262050.0 ], [ 529716.329821285791695, 7262060.0 ], [ 529712.130567496176809, 7262070.0 ], [ 529707.433515001088381, 7262080.0 ], [ 529702.566484998911619, 7262090.0 ], [ 529697.869432503823191, 7262100.0 ], [ 529693.670178714208305, 7262110.0 ], [ 529690.000892210751772, 7262120.0 ], [ 529686.340103251626715, 7262130.0 ], [ 529682.20654151821509, 7262140.0 ], [ 529677.794350692536682, 7262149.999107789248228 ], [ 529673.671070924960077, 7262159.987933613359928 ], [ 529670.087148198508658, 7262169.900785414502025 ], [ 529666.788087141467258, 7262179.453693735413253 ], [ 529663.758219123352319, 7262187.913190307095647 ], [ 529661.551677605137229, 7262194.243011591956019 ] ] } },
{ "type": "Feature", "properties": { "id": 9, "reference_id": 4, "dune_id": 4, "dune_name": "The Star Dune", "acquisition_date": "2024-04-05", "length_m": 647.85515163876107 }, "geometry": { "type": "LineString", "coordinates": [ [ 533005.756988407694735, 7261870.447091680020094 ], [ 533012.08680969348643, 7261871.540503429248929 ], [ 533020.546306264819577, 7261873.671070925891399 ], [ 533030.099214585614391, 7261876.340995462611318 ], [ 533040.012066387105733, 7261878.546644769608974 ], [ 533050.000892210751772, 7261880.000892210751772 ], [ 533060.0, 7261881.464529406279325 ], [ 533070.0, 7261883.746152736246586 ], [ 533080.0, 7261886.776020754128695 ], [ 533090.0, 7261890.000892210751772 ], [ 533100.0, 7261893.234261211939156 ], [ 533110.0, 7261896.329821286723018 ], [ 533120.0, 7261898.895414073951542 ], [ 533130.0, 7261901.093411749228835 ], [ 533140.0, 7261903.594204692170024 ], [ 533150.0, 7261906.405795307829976 ], [ 533160.0, 7261908.905696040019393 ], [ 533170.0, 7261911.09430396091193 ], [ 533180.0, 7261913.594204692170024 ], [ 533190.0, 7261916.405795307829976 ], [ 533200.0, 7261918.906588250771165 ], [ 533210.0, 7261921.10458592697978 ], [ 533220.0, 7261923.670178715139627 ], [ 533230.0, 7261926.766630999743938 ], [ 533240.0, 7261930.010281966067851 ], [ 533250.0, 7261933.310235233977437 ], [ 533260.0, 7261936.690656976774335 ], [ 533270.0, 7261940.0 ], [ 533280.0, 7261943.309343023225665 ], [ 533290.0, 7261946.689764766022563 ], [ 533300.0, 7261949.989718034863472 ], [ 533310.0, 7261953.233369001187384 ], [ 533320.0, 7261956.329821286723018 ], [ 533330.0, 7261958.895414074882865 ], [ 533340.0, 7261961.093411749228835 ], [ 533350.0, 7261963.594204693101346 ], [ 533360.0, 7261966.405795308761299 ], [ 533370.0, 7261968.906588250771165 ], [ 533380.000000000116415, 7261971.10458592697978 ], [ 533390.0, 7261973.670178714208305 ], [ 533400.000000000116415, 7261976.766630999743938 ], [ 533410.0, 7261980.010281965136528 ], [ 533420.0, 7261983.311127444729209 ], [ 533430.0, 7261986.700938943773508 ], [ 533440.0, 7261990.075974022038281 ], [ 533450.0, 7261993.670178715139627 ], [ 533460.0, 7261997.794350693002343 ], [ 533470.0, 7262002.206541518680751 ], [ 533480.0, 7262006.340103251859546 ], [ 533490.0, 7262010.0 ], [ 533500.0, 7262013.659896748140454 ], [ 533510.0, 7262017.794350693002343 ], [ 533520.0, 7262022.216823484748602 ], [ 533530.0, 7262026.416077272966504 ], [ 533540.0, 7262030.35994348116219 ], [ 533550.0, 7262034.753308498300612 ], [ 533560.0, 7262039.92313376814127 ], [ 533570.0, 7262044.864399668760598 ], [ 533579.999107789364643, 7262048.447430184110999 ], [ 533589.987933612894267, 7262050.919115353375673 ], [ 533599.900785414385609, 7262053.12476466037333 ], [ 533609.453693735180423, 7262054.777251470834017 ], [ 533617.91319030651357, 7262054.788425646722317 ], [ 533624.243011592305265, 7262053.223087035119534 ] ] } },
{ "type": "Feature", "properties": { "id": 10, "reference_id": 5, "dune_id": 5, "dune_name": "The Star Dune", "acquisition_date": "2024-04-05", "length_m": 1147.5142047835727 }, "geometry": { "type": "LineString", "coordinates": [ [ 534334.342226177919656, 7261305.756988408043981 ], [ 534328.459496571333148, 7261312.086809693835676 ], [ 534321.540503428666852, 7261320.546306264586747 ], [ 534315.657773822080344, 7261330.099214585497975 ], [ 534312.074743306264281, 7261340.012066386640072 ], [ 534310.546306264703162, 7261350.000892210751772 ], [ 534310.110388762084767, 7261360.0 ], [ 534310.099214585614391, 7261370.0 ], [ 534310.447983889840543, 7261380.0 ], [ 534311.540503428666852, 7261390.0 ], [ 534313.670178714208305, 7261400.0 ], [ 534316.329821285791695, 7261410.0 ], [ 534318.459496571216732, 7261420.0 ], [ 534319.553800531546585, 7261430.0 ], [ 534319.924025978078134, 7261440.0 ], [ 534320.075974021921866, 7261450.0 ], [ 534320.446199468453415, 7261460.0 ], [ 534321.539611218031496, 7261470.000000000931323 ], [ 534323.659004537737928, 7261480.0 ], [ 534326.242673087399453, 7261490.0 ], [ 534328.012404892127961, 7261500.0 ], [ 534328.012404892127961, 7261510.0 ], [ 534326.241780876764096, 7261520.0 ], [ 534323.646938150632195, 7261530.0 ], [ 534321.440396632417105, 7261540.0 ], [ 534319.900785414385609, 7261549.999107789248228 ], [ 534318.000338505022228, 7261559.9888258241117 ], [ 534314.254185768892057, 7261569.912851802073419 ], [ 534307.914082517265342, 7261579.552016110159457 ], [ 534299.453693735296838, 7261588.448322394862771 ], [ 534289.900785414502025, 7261596.242673087865114 ], [ 534279.987933612894267, 7261603.222194825299084 ], [ 534269.999107789248228, 7261609.9888258241117 ], [ 534260.0, 7261616.688872556202114 ], [ 534250.0, 7261623.299061057157815 ], [ 534240.0, 7261629.924025978893042 ], [ 534230.0, 7261636.329821285791695 ], [ 534220.0, 7261642.204757097177207 ], [ 534210.0, 7261647.782284306362271 ], [ 534200.0, 7261653.572748550213873 ], [ 534190.0, 7261659.552016110159457 ], [ 534180.0, 7261664.788425646722317 ], [ 534170.0, 7261668.448322394862771 ], [ 534160.0, 7261671.005371341481805 ], [ 534150.0, 7261673.571856340393424 ], [ 534140.0, 7261676.317754898220301 ], [ 534130.0, 7261678.459496570751071 ], [ 534120.0, 7261679.564082497730851 ], [ 534110.0, 7261680.0 ], [ 534100.0, 7261680.435917503200471 ], [ 534090.0, 7261681.539611218497157 ], [ 534080.0, 7261683.670178715139627 ], [ 534070.0, 7261686.33071349747479 ], [ 534060.0, 7261688.470670748502016 ], [ 534050.0, 7261689.64005651883781 ], [ 534040.0, 7261690.35994348116219 ], [ 534030.0, 7261691.529329253360629 ], [ 534020.0, 7261693.670178714208305 ], [ 534010.0, 7261696.340995462611318 ], [ 534000.0, 7261698.546644769608974 ], [ 533990.0, 7261700.0 ], [ 533980.0, 7261701.454247441142797 ], [ 533970.0, 7261703.670178714208305 ], [ 533960.0, 7261706.416077273897827 ], [ 533950.0, 7261708.907480461522937 ], [ 533940.0, 7261711.105478137731552 ], [ 533930.0, 7261713.681352891027927 ], [ 533920.0, 7261716.853779197670519 ], [ 533910.0, 7261720.457373645156622 ], [ 533900.0, 7261724.851630873046815 ], [ 533890.0, 7261730.371117657981813 ], [ 533880.0, 7261736.406687518581748 ], [ 533870.0, 7261742.139957251027226 ], [ 533860.0, 7261747.424125246703625 ], [ 533850.0, 7261752.489618767052889 ], [ 533840.0, 7261757.499207057058811 ], [ 533830.0, 7261762.500792942941189 ], [ 533820.0, 7261767.511273444630206 ], [ 533810.000892210635357, 7261772.587941141799092 ], [ 533800.011174176470377, 7261777.958365123718977 ], [ 533790.088040409144014, 7261784.128444570116699 ], [ 533780.45915806631092, 7261791.628543838858604 ], [ 533771.638825803645886, 7261800.458265855908394 ], [ 533764.205310802557506, 7261810.088040409609675 ], [ 533758.329482780885883, 7261820.011174176819623 ], [ 533753.768501089187339, 7261830.000892210751772 ], [ 533750.088040409144014, 7261840.000000000931323 ], [ 533746.700938942958601, 7261850.0 ], [ 533743.299953267676756, 7261860.0 ], [ 533739.923133767442778, 7261870.0 ], [ 533736.31953932007309, 7261880.0 ], [ 533732.128783074906096, 7261890.0 ], [ 533727.423233035253361, 7261900.0 ], [ 533722.489618766237982, 7261910.0 ], [ 533717.499207057291642, 7261920.0 ], [ 533712.499900731956586, 7261930.0 ], [ 533707.500099268043414, 7261940.0 ], [ 533702.499900732073002, 7261950.0 ], [ 533697.499207057408057, 7261960.0 ], [ 533692.489618766237982, 7261970.0 ], [ 533687.423233035369776, 7261980.0 ], [ 533682.129675285541452, 7261989.999553894624114 ], [ 533676.330713496543467, 7261999.993520701304078 ], [ 533670.011174176586792, 7262009.944359513930976 ], [ 533663.758219123352319, 7262019.677239574491978 ], [ 533658.328590570134111, 7262028.683442020788789 ], [ 533654.20531080244109, 7262036.078100949525833 ], [ 533651.638825803645886, 7262041.078100949525833 ] ] } },
{ "type": "Feature", "properties": { "id": 11, "reference_id": 6, "dune_id": 6, "dune_name": "The Star Dune", "acquisition_date": "2024-04-05", "length_m": 893.39668687437677 }, "geometry": { "type": "LineString", "coordinates": [ [ 533650.0, 7262048.921899050474167 ], [ 533650.0, 7262053.921899050474167 ], [ 533650.0, 7262061.316557979211211 ], [ 533650.0, 7262070.322760425508022 ], [ 533650.0, 7262080.055640487000346 ], [ 533650.0, 7262090.006479298695922 ], [ 533650.0, 7262100.000446105375886 ], [ 533650.0, 7262110.0 ], [ 533650.000892210751772, 7262120.0 ], [ 533650.011174176470377, 7262130.0 ], [ 533650.087148198508658, 7262140.0 ], [ 533650.447091679205187, 7262150.0 ], [ 533651.540503428783268, 7262160.0 ], [ 533653.670178714208305, 7262170.0 ], [ 533656.329821285791695, 7262180.0 ], [ 533658.459496571216732, 7262190.0 ], [ 533659.553800531546585, 7262200.0 ], [ 533659.924025977961719, 7262210.0 ], [ 533660.075974022038281, 7262220.0 ], [ 533660.44619946856983, 7262230.0 ], [ 533661.540503428783268, 7262240.0 ], [ 533663.670178714208305, 7262250.0 ], [ 533666.329821285791695, 7262260.0 ], [ 533668.459496571333148, 7262270.0 ], [ 533669.552908320911229, 7262280.0 ], [ 533669.912851801607758, 7262290.0 ], [ 533669.988825823646039, 7262300.0 ], [ 533669.999107789364643, 7262310.0 ], [ 533670.0, 7262320.0 ], [ 533670.0, 7262330.0 ], [ 533669.999107789364643, 7262340.000000000931323 ], [ 533669.988825823646039, 7262350.0 ], [ 533669.912851801607758, 7262360.0 ], [ 533669.552908320911229, 7262370.0 ], [ 533668.458604360697791, 7262380.0 ], [ 533666.318647109437734, 7262390.0 ], [ 533663.583030515816063, 7262400.0 ], [ 533661.092519538942724, 7262410.0 ], [ 533658.895414073951542, 7262420.0 ], [ 533656.329821285791695, 7262430.0 ], [ 533653.233369000838138, 7262440.0 ], [ 533649.989718034281395, 7262450.0 ], [ 533646.689764766488224, 7262460.0 ], [ 533643.309343022760004, 7262470.0 ], [ 533640.000000000116415, 7262480.0 ], [ 533636.690656977239996, 7262490.0 ], [ 533633.310235233511776, 7262500.0 ], [ 533630.01028196583502, 7262510.0 ], [ 533626.766630999161862, 7262520.0 ], [ 533623.670178714208305, 7262530.0 ], [ 533621.104585925932042, 7262540.0 ], [ 533618.907480461173691, 7262550.0 ], [ 533616.416077273664996, 7262560.0 ], [ 533613.670178714208305, 7262570.0 ], [ 533611.454247441026382, 7262580.0 ], [ 533610.0, 7262590.0 ], [ 533608.54664476972539, 7262600.000000000931323 ], [ 533606.340995462378487, 7262610.0 ], [ 533603.671070924960077, 7262620.0 ], [ 533601.540503428783268, 7262630.0 ], [ 533600.447091679205187, 7262640.0 ], [ 533600.086255987756886, 7262650.0 ], [ 533600.0, 7262660.0 ], [ 533599.913744012243114, 7262670.0 ], [ 533599.552908320794813, 7262680.0 ], [ 533598.459496571216732, 7262690.0 ], [ 533596.329821285791695, 7262700.0 ], [ 533593.670178714208305, 7262710.0 ], [ 533591.539611218031496, 7262720.0 ], [ 533590.43591750273481, 7262730.0 ], [ 533590.0, 7262740.0 ], [ 533589.563190286629833, 7262750.0 ], [ 533588.449214605498128, 7262760.0 ], [ 533586.242673087399453, 7262770.0 ], [ 533583.222194824367762, 7262780.0 ], [ 533579.988825823529623, 7262790.0 ], [ 533576.68976476660464, 7262800.0 ], [ 533573.309343022876419, 7262810.0 ], [ 533570.0, 7262820.0 ], [ 533566.690656977239996, 7262830.0 ], [ 533563.310235233511776, 7262840.0 ], [ 533560.011174176470377, 7262850.0 ], [ 533556.776912964996882, 7262860.0 ], [ 533553.747044946881942, 7262870.000000000931323 ], [ 533551.475703583331779, 7262879.999107789248228 ], [ 533550.088040409144014, 7262889.987933613359928 ], [ 533548.993736448930576, 7262899.900785414502025 ], [ 533547.881498890928924, 7262909.453693736344576 ], [ 533547.341249639168382, 7262917.913190307095647 ], [ 533547.870324714574963, 7262924.243011591956019 ] ] } },
{ "type": "Feature", "properties": { "id": 12, "reference_id": 1, "dune_id": 1, "dune_name": "Big Mommy Dune", "acquisition_date": "2024-04-05", "length_m": 1362.5101576762688 }, "geometry": { "type": "LineString", "coordinates": [ [ 529180.0, 7261025.756988408043981 ], [ 529180.0, 7261032.086809692904353 ], [ 529180.0, 7261040.546306265518069 ], [ 529180.0, 7261050.099214585497975 ], [ 529180.0, 7261060.012066387571394 ], [ 529179.999107789364643, 7261070.000892210751772 ], [ 529179.988825823529623, 7261080.0 ], [ 529179.912851801607758, 7261090.0 ], [ 529179.552016110159457, 7261100.0 ], [ 529178.448322394862771, 7261110.0 ], [ 529176.242673087399453, 7261120.000000000931323 ], [ 529173.222194824367762, 7261130.0 ], [ 529169.988825823529623, 7261140.0 ], [ 529166.689764766488224, 7261150.0 ], [ 529163.309343022760004, 7261160.0 ], [ 529160.0, 7261170.0 ], [ 529156.68976476660464, 7261180.0 ], [ 529153.299061057041399, 7261190.0 ], [ 529149.924025978078134, 7261200.0 ], [ 529146.329821285791695, 7261210.000000000931323 ], [ 529142.205649307463318, 7261220.0 ], [ 529137.79345848178491, 7261230.0 ], [ 529133.659896748373285, 7261240.0 ], [ 529130.0, 7261250.0 ], [ 529126.340103251626715, 7261260.0 ], [ 529122.20654151821509, 7261270.0 ], [ 529117.793458481901325, 7261280.0 ], [ 529113.659896748373285, 7261290.0 ], [ 529109.999107789364643, 7261300.0 ], [ 529106.329821285791695, 7261310.000000000931323 ], [ 529102.130567496176809, 7261320.0 ], [ 529097.433515001204796, 7261330.0 ], [ 529092.566484998911619, 7261340.0 ], [ 529087.870324714574963, 7261350.0 ], [ 529083.680460680043325, 7261360.0 ], [ 529080.076866232557222, 7261370.0 ], [ 529076.700046732323244, 7261380.0 ], [ 529073.299953267676756, 7261390.0 ], [ 529069.924025978078134, 7261400.0 ], [ 529066.329821285791695, 7261410.0 ], [ 529062.205649307463318, 7261420.0 ], [ 529057.794350692536682, 7261430.0 ], [ 529053.670178714208305, 7261440.0 ], [ 529050.075974021921866, 7261450.0 ], [ 529046.700938942958601, 7261460.0 ], [ 529043.311127444147132, 7261470.000000000931323 ], [ 529040.01028196583502, 7261480.0 ], [ 529036.766630999278277, 7261490.0 ], [ 529033.670178714208305, 7261500.0 ], [ 529031.104585926048458, 7261510.0 ], [ 529028.907480461173691, 7261520.0 ], [ 529026.416969484183937, 7261530.0 ], [ 529023.680460680043325, 7261540.0 ], [ 529021.530221462948248, 7261550.0 ], [ 529020.359943480812944, 7261560.000000000931323 ], [ 529019.640056519303471, 7261570.0 ], [ 529018.470670747803524, 7261580.0 ], [ 529016.330713496543467, 7261590.0 ], [ 529013.670178714208305, 7261600.0 ], [ 529011.541395639418624, 7261610.0 ], [ 529010.458265855675563, 7261620.0 ], [ 529010.1742963969009, 7261630.0 ], [ 529010.45915806631092, 7261640.0 ], [ 529011.552569815889001, 7261650.0 ], [ 529013.758219123352319, 7261660.0 ], [ 529016.788087141467258, 7261670.0 ], [ 529020.088040409144014, 7261680.0 ], [ 529023.682245101314038, 7261690.0 ], [ 529027.881498891045339, 7261700.0 ], [ 529032.653633197303861, 7261710.0 ], [ 529037.880606680293567, 7261720.0 ], [ 529043.671070924843661, 7261730.000000000931323 ], [ 529050.0, 7261740.0 ], [ 529056.329821285791695, 7261750.0 ], [ 529062.129675285541452, 7261760.0 ], [ 529067.423233035369776, 7261770.0 ], [ 529072.489618766121566, 7261780.0 ], [ 529077.49831484653987, 7261790.0 ], [ 529082.488726555602625, 7261800.0 ], [ 529087.412951069534756, 7261810.0 ], [ 529092.051916842116043, 7261820.0 ], [ 529095.947529452154413, 7261830.0 ], [ 529098.730507432250306, 7261840.000000000931323 ], [ 529100.623079506796785, 7261850.0 ], [ 529101.94331250153482, 7261860.0 ], [ 529102.113336306996644, 7261870.0 ], [ 529100.129121579811908, 7261880.0 ], [ 529095.78440723172389, 7261890.0 ], [ 529089.825703603215516, 7261900.0 ], [ 529083.298168846289627, 7261910.0 ], [ 529076.775128543609753, 7261920.0 ], [ 529070.43591750273481, 7261930.0 ], [ 529064.763590463786386, 7261940.0 ], [ 529059.924025978078134, 7261950.0 ], [ 529054.866184089682065, 7261960.0 ], [ 529048.470670747803524, 7261970.0 ], [ 529041.104585926048458, 7261980.0 ], [ 529034.106988427694887, 7261990.0 ], [ 529028.317416393663734, 7262000.0 ], [ 529023.767608878435567, 7262010.0 ], [ 529020.088040409144014, 7262020.0 ], [ 529016.700938943075016, 7262030.0 ], [ 529013.299953267676756, 7262040.0 ], [ 529009.923133767326362, 7262050.0 ], [ 529006.31953932007309, 7262060.0 ], [ 529002.128783074789681, 7262070.0 ], [ 528997.423233035369776, 7262080.0 ], [ 528992.489618766237982, 7262090.0 ], [ 528987.498314846656285, 7262100.0 ], [ 528982.488726555602625, 7262110.0 ], [ 528977.4120588588994, 7262120.0 ], [ 528972.041634876397438, 7262130.0 ], [ 528965.871555430116132, 7262139.999107789248228 ], [ 528958.371456162189133, 7262149.9888258241117 ], [ 528949.541734144324437, 7262159.912851801142097 ], [ 528939.911959590972401, 7262169.552908321842551 ], [ 528929.988825823529623, 7262178.458604360930622 ], [ 528919.999107789364643, 7262186.318647108972073 ], [ 528910.0, 7262193.582138305529952 ], [ 528900.0, 7262201.082237573340535 ], [ 528890.0, 7262208.818547842092812 ], [ 528880.000892210751772, 7262215.957811417989433 ], [ 528870.012066387105733, 7262222.041634876281023 ], [ 528860.099214585614391, 7262227.324910661205649 ], [ 528850.546306264819577, 7262232.030460700392723 ], [ 528842.086809693370014, 7262235.870663220062852 ], [ 528835.756988407694735, 7262238.371456163004041 ] ] } },
{ "type": "Feature", "properties": { "id": 13, "reference_id": 7, "dune_id": 7, "dune_name": "Inverted Y Dune", "acquisition_date": "2024-04-05", "length_m": 545.90492612483001 }, "geometry": { "type": "LineString", "coordinates": [ [ 530584.330159790813923, 7261405.756988408043981 ], [ 530578.361174196470529, 7261412.086809693835676 ], [ 530571.005371340434067, 7261420.546306264586747 ], [ 530563.658112327102572, 7261430.099214585497975 ], [ 530556.765738788526505, 7261440.012066387571394 ], [ 530550.01028196583502, 7261450.000892210751772 ], [ 530543.31023523339536, 7261460.0 ], [ 530536.689764766488224, 7261470.000000000931323 ], [ 530529.988825823529623, 7261480.0 ], [ 530523.222194824367762, 7261490.0 ], [ 530516.242673087399453, 7261500.0 ], [ 530508.448322394862771, 7261510.0 ], [ 530499.552016110159457, 7261520.0 ], [ 530489.912851801607758, 7261529.999107789248228 ], [ 530479.988825823529623, 7261539.9888258241117 ], [ 530469.999107789364643, 7261549.912851801142097 ], [ 530460.0, 7261559.552016111090779 ], [ 530450.0, 7261568.448322394862771 ], [ 530440.0, 7261576.241780877113342 ], [ 530430.000000000116415, 7261583.211912859231234 ], [ 530420.0, 7261589.911959591321647 ], [ 530410.0, 7261596.317754898220301 ], [ 530400.0, 7261602.118501110002398 ], [ 530390.0, 7261607.346366802230477 ], [ 530380.0, 7261612.119393319822848 ], [ 530370.0, 7261616.328929075971246 ], [ 530360.0, 7261619.999107789248228 ], [ 530350.0, 7261623.659004537388682 ], [ 530340.0, 7261627.783176516182721 ], [ 530330.0, 7261632.129675285890698 ], [ 530320.0, 7261635.968985594809055 ], [ 530310.0, 7261638.819440051913261 ], [ 530300.0, 7261641.082237573340535 ], [ 530290.0, 7261643.582138305529952 ], [ 530280.0, 7261646.318647109903395 ], [ 530270.0, 7261648.458604361861944 ], [ 530260.0, 7261649.552908321842551 ], [ 530250.0, 7261649.912851802073419 ], [ 530240.0, 7261649.9888258241117 ], [ 530230.0, 7261649.998215579427779 ], [ 530220.0, 7261649.9888258241117 ], [ 530210.0, 7261649.912851802073419 ], [ 530200.0, 7261649.552908321842551 ], [ 530190.0, 7261648.459496572613716 ], [ 530180.000892210751772, 7261646.329821286723018 ], [ 530170.012066387222148, 7261643.670178715139627 ], [ 530160.099214585614391, 7261641.540503429248929 ], [ 530150.546306264819577, 7261640.447091680020094 ], [ 530142.08680969348643, 7261640.087148198857903 ], [ 530135.756988407694735, 7261640.0111741758883 ] ] } }
]
}
