{
"type": "FeatureCollection",
"name": "crests_2024_08_2024-08-16",
"crs": { "type": "name", "properties": { "name": "urn:ogc:def:crs:EPSG::32733" } },
"features": [
{ "type": "Feature", "properties": { "id": 0, "reference_id": 5, "dune_id": 5, "dune_name": "The Star Dune", "acquisition_date": "2024-08-16", "length_m": 664.50768153699482 }, "geometry": { "type": "LineString", "coordinates": [ [ 533651.638825803645886, 7262041.078100949525833 ], [ 533654.20531080244109, 7262036.078100949525833 ], [ 533658.328590570134111, 7262028.683442020788789 ], [ 533663.758219123352319, 7262019.677239574491978 ], [ 533670.012066387222148, 7262009.944359513930976 ], [ 533676.340995462378487, 7261999.993520701304078 ], [ 533682.206541518098675, 7261989.999553894624114 ], [ 533687.793458481901325, 7261980.0 ], [ 533693.6598967484897, 7261970.0 ], [ 533699.999107789364643, 7261960.0 ], [ 533706.329821285791695, 7261950.0 ], [ 533712.129675285425037, 7261940.0 ], [ 533717.42234082473442, 7261930.0 ], [ 533722.479336800519377, 7261920.0 ], [ 533727.42234082473442, 7261910.0 ], [ 533732.128783074906096, 7261900.0 ], [ 533736.31953932007309, 7261890.0 ], [ 533739.923133767442778, 7261880.0 ], [ 533743.299061057041399, 7261870.0 ], [ 533746.689764766488224, 7261860.0 ], [ 533750.000892210751772, 7261850.0 ], [ 533753.321409409982152, 7261840.000000000931323 ], [ 533756.78897935221903, 7261830.0 ], [ 533760.535132088349201, 7261820.0 ], [ 533765.309004517854191, 7261810.000892210751772 ], [ 533771.999661495094188, 7261800.011174176819623 ], [ 533780.535132088232785, 7261790.088040409609675 ], [ 533790.098322374979034, 7261780.458265855908394 ], [ 533800.012066387105733, 7261771.628543837927282 ], [ 533810.000892210635357, 7261764.128444569185376 ], [ 533820.0, 7261757.958365123718977 ], [ 533830.0, 7261752.58794114086777 ], [ 533840.0, 7261747.511273445561528 ], [ 533850.0, 7261742.500792942941189 ], [ 533860.0, 7261737.500099267810583 ], [ 533870.0, 7261732.500792942941189 ], [ 533880.0, 7261727.510381233878434 ], [ 533890.0, 7261722.576766964048147 ], [ 533900.0, 7261717.871216924861073 ], [ 533910.0, 7261713.681352891027927 ], [ 533920.0, 7261710.087148198857903 ], [ 533930.0, 7261706.776912964880466 ], [ 533940.0, 7261703.671070924960077 ], [ 533950.0, 7261701.10458592697978 ], [ 533960.0, 7261698.907480461522937 ], [ 533970.0, 7261696.416077273897827 ], [ 533980.0, 7261693.670178714208305 ], [ 533990.0, 7261691.454247441142797 ], [ 534000.0, 7261690.0 ], [ 534010.0, 7261688.546644769608974 ], [ 534020.0, 7261686.340995462611318 ], [ 534030.0, 7261683.670178715139627 ], [ 534040.0, 7261681.529329252429307 ], [ 534050.0, 7261680.35994348116219 ], [ 534060.0, 7261679.640056519769132 ], [ 534070.0, 7261678.470670748502016 ], [ 534080.0, 7261676.330713496543467 ], [ 534089.999107789364643, 7261673.670178714208305 ], [ 534099.987933612894267, 7261671.540503429248929 ], [ 534109.900785414502025, 7261670.447091679088771 ], [ 534119.453693735296838, 7261670.087148198857903 ], [ 534127.91319030651357, 7261670.011174176819623 ], [ 534134.243011592305265, 7261670.000892210751772 ] ] } },
{ "type": "Feature", "properties": { "id": 1, "reference_id": 5, "dune_id": 5, "dune_name": "The Star Dune", "acquisition_date": "2024-08-16", "length_m": 437.73616290369944 }, "geometry": { "type": "LineString", "coordinates": [ [ 534175.756988407694735, 7261659.464867912232876 ], [ 534182.08680969348643, 7261658.00033850595355 ], [ 534190.546306264819577, 7261654.690995482727885 ], [ 534200.099214585614391, 7261649.464867912232876 ], [ 534210.012066387105733, 7261643.211020648479462 ], [ 534220.000892210751772, 7261636.678590590134263 ], [ 534230.0, 7261629.999107789248228 ], [ 534240.0, 7261623.309343023225665 ], [ 534250.0, 7261616.689764766953886 ], [ 534260.0, 7261609.9888258241117 ], [ 534269.999107789248228, 7261603.222194825299084 ], [ 534279.987933612894267, 7261596.242673087865114 ], [ 534289.900785414502025, 7261588.448322394862771 ], [ 534299.454585945932195, 7261579.552016110159457 ], [ 534307.924364482983947, 7261569.912851802073419 ], [ 534314.330159790813923, 7261559.9888258241117 ], [ 534318.360281985718757, 7261549.999107789248228 ], [ 534320.99419716396369, 7261540.0 ], [ 534323.570964128593914, 7261530.0 ], [ 534326.317754898685962, 7261520.0 ], [ 534328.458604360581376, 7261510.0 ], [ 534329.552908320794813, 7261500.0 ], [ 534329.911959590855986, 7261490.0 ], [ 534329.977651647059247, 7261480.0 ], [ 534329.911959590855986, 7261470.000000000931323 ], [ 534329.552908320794813, 7261460.0 ], [ 534328.459496571333148, 7261450.0 ], [ 534326.329821285791695, 7261440.0 ], [ 534323.670178714208305, 7261430.0 ], [ 534321.539611218031496, 7261420.0 ], [ 534320.43591750273481, 7261410.0 ], [ 534320.0, 7261400.0 ], [ 534319.56408249726519, 7261390.0 ], [ 534318.461280992603861, 7261380.0 ], [ 534316.341887673013844, 7261370.0 ], [ 534313.769393299822696, 7261360.0 ], [ 534312.085917482734658, 7261350.000892210751772 ], [ 534312.521834985469468, 7261340.012066386640072 ], [ 534315.744922020589001, 7261330.099214585497975 ], [ 534321.551677605137229, 7261320.546306264586747 ], [ 534328.460388781968504, 7261312.086809693835676 ], [ 534334.342226177919656, 7261305.756988408043981 ] ] } },
{ "type": "Feature", "properties": { "id": 2, "reference_id": 7, "dune_id": 7, "dune_name": "Inverted Y Dune", "acquisition_date": "2024-08-16", "length_m": 568.73178515972563 }, "geometry": { "type": "LineString", "coordinates": [ [ 530215.756988407694735, 7261646.329821286723018 ], [ 530222.08680969348643, 7261643.670178715139627 ], [ 530230.546306264703162, 7261641.540503429248929 ], [ 530240.099214585614391, 7261640.447091680020094 ], [ 530250.012066387105733, 7261640.086255988106132 ], [ 530260.000892210751772, 7261640.0 ], [ 530270.0, 7261639.913744011893868 ], [ 530280.0, 7261639.552016111090779 ], [ 530290.0, 7261638.448322394862771 ], [ 530300.0, 7261636.242673087865114 ], [ 530310.0, 7261633.222194824367762 ], [ 530320.0, 7261629.9888258241117 ], [ 530330.0, 7261626.688872555270791 ], [ 530340.0, 7261623.299061057157815 ], [ 530350.0, 7261619.92313376814127 ], [ 530360.0, 7261616.319539319723845 ], [ 530370.0, 7261612.128783075138927 ], [ 530380.0, 7261607.422340825200081 ], [ 530390.0, 7261602.479336800985038 ], [ 530400.0, 7261597.422340825200081 ], [ 530410.0, 7261592.128783075138927 ], [ 530420.0, 7261586.318647108972073 ], [ 530430.000000000116415, 7261579.911959591321647 ], [ 530440.0, 7261573.211912859231234 ], [ 530449.999107789248228, 7261566.241780877113342 ], [ 530459.988825823646039, 7261558.448322394862771 ], [ 530469.912851801607758, 7261549.552016110159457 ], [ 530479.552908320794813, 7261539.912851801142097 ], [ 530488.458604360581376, 7261529.9888258241117 ], [ 530496.318647109437734, 7261519.999107789248228 ], [ 530503.583030515816063, 7261510.0 ], [ 530511.092519538826309, 7261500.0 ], [ 530518.895414073951542, 7261490.0 ], [ 530526.329821285791695, 7261480.0 ], [ 530533.233369000838138, 7261470.000000000931323 ], [ 530539.989718034281395, 7261460.0 ], [ 530546.68976476660464, 7261450.0 ], [ 530553.310235233511776, 7261440.0 ], [ 530560.011174176470377, 7261430.0 ], [ 530566.777805175632238, 7261420.0 ], [ 530573.757326912600547, 7261410.0 ], [ 530581.551677605253644, 7261400.0 ], [ 530590.447983889840543, 7261390.0 ], [ 530600.087148198392242, 7261380.0 ], [ 530610.01028196583502, 7261370.000892210751772 ], [ 530619.988825823646039, 7261360.012066386640072 ], [ 530629.900785414502025, 7261350.099214585497975 ], [ 530639.453693735296838, 7261340.546306265518069 ], [ 530647.913190306629986, 7261332.086809693835676 ], [ 530654.243011592305265, 7261325.756988408043981 ] ] } },
{ "type": "Feature", "properties": { "id": 3, "reference_id": 3, "dune_id": 3, "dune_name": "Big Mommy Dune", "acquisition_date": "2024-08-16", "length_m": 222.25393762204425 }, "geometry": { "type": "LineString", "coordinates": [ [ 530025.756988407694735, 7260600.0 ], [ 530032.08680969348643, 7260600.0 ], [ 530040.546306264703162, 7260600.0 ], [ 530050.099214585614391, 7260600.0 ], [ 530060.012066387222148, 7260600.0 ], [ 530070.000892210751772, 7260599.999107789248228 ], [ 530080.0, 7260599.9888258241117 ], [ 530090.0, 7260599.912851802073419 ], [ 530100.0, 7260599.552016111090779 ], [ 530110.0, 7260598.448322394862771 ], [ 530120.0, 7260596.242673087865114 ], [ 530130.0, 7260593.223087035119534 ], [ 530140.0, 7260589.999107789248228 ], [ 530150.0, 7260586.765738788992167 ], [ 530160.0, 7260583.670178714208305 ], [ 530170.000000000116415, 7260581.104585926048458 ], [ 530180.0, 7260578.907480461522937 ], [ 530190.0, 7260576.416969484649599 ], [ 530199.999107789248228, 7260573.681352891027927 ], [ 530209.987933612894267, 7260571.541395640000701 ], [ 530219.900785414385609, 7260570.447091680020094 ], [ 530229.453693735180423, 7260570.087148198857903 ], [ 530237.91319030651357, 7260570.011174176819623 ], [ 530244.243011592421681, 7260570.000892210751772 ] ] } },
{ "type": "Feature", "properties": { "id": 4, "reference_id": 3, "dune_id": 3, "dune_name": "Big Mommy Dune", "acquisition_date": "2024-08-16", "length_m": 908.29809014432465 }, "geometry": { "type": "LineString", "coordinates": [ [ 529904.243011592421681, 7260600.0 ], [ 529897.91319030651357, 7260600.0 ], [ 529889.453693735180423, 7260600.0 ], [ 529879.900785414385609, 7260600.0 ], [ 529869.987933612894267, 7260600.0 ], [ 529859.999107789364643, 7260600.0 ], [ 529850.0, 7260600.0 ], [ 529840.0, 7260600.0 ], [ 529830.0, 7260600.0 ], [ 529820.0, 7260600.0 ], [ 529810.0, 7260600.000892210751772 ], [ 529800.0, 7260600.011174176819623 ], [ 529790.0, 7260600.087148198857903 ], [ 529780.0, 7260600.447091680020094 ], [ 529770.0, 7260601.540503429248929 ], [ 529760.0, 7260603.670178715139627 ], [ 529750.0, 7260606.329821286723018 ], [ 529740.0, 7260608.459496571682394 ], [ 529730.0, 7260609.553800531663001 ], [ 529720.0, 7260609.924025978893042 ], [ 529710.0, 7260610.075974022969604 ], [ 529700.0, 7260610.446199469268322 ], [ 529690.0, 7260611.540503429248929 ], [ 529680.0, 7260613.670178715139627 ], [ 529670.0, 7260616.329821286723018 ], [ 529660.0, 7260618.460388782434165 ], [ 529650.0, 7260619.564082497730851 ], [ 529640.0, 7260620.0 ], [ 529630.0, 7260620.435917503200471 ], [ 529620.0, 7260621.539611218497157 ], [ 529610.0, 7260623.671070924960077 ], [ 529600.0, 7260626.340995462611318 ], [ 529590.0, 7260628.546644769608974 ], [ 529580.0, 7260630.0 ], [ 529570.0, 7260631.454247441142797 ], [ 529560.0, 7260633.670178715139627 ], [ 529550.0, 7260636.416077274829149 ], [ 529540.0, 7260638.906588250771165 ], [ 529530.0, 7260641.094303959980607 ], [ 529520.0, 7260643.594204693101346 ], [ 529510.0, 7260646.405795307829976 ], [ 529500.000000000116415, 7260648.906588250771165 ], [ 529490.0, 7260651.10458592697978 ], [ 529480.0, 7260653.670178714208305 ], [ 529470.0, 7260656.766630999743938 ], [ 529460.0, 7260660.010281966067851 ], [ 529450.0, 7260663.310235233977437 ], [ 529440.000000000116415, 7260666.690656977705657 ], [ 529430.0, 7260670.000892210751772 ], [ 529420.0, 7260673.320517199113965 ], [ 529410.0, 7260676.777805175632238 ], [ 529400.0, 7260680.447983888909221 ], [ 529390.0, 7260684.861912839114666 ], [ 529380.0, 7260690.459158066660166 ], [ 529370.0, 7260696.864953374490142 ], [ 529360.000892210635357, 7260703.768501089885831 ], [ 529350.011174176586792, 7260711.552569815889001 ], [ 529340.087148198392242, 7260720.447983889840543 ], [ 529330.447983889840543, 7260730.087148198857903 ], [ 529321.551677605253644, 7260740.011174176819623 ], [ 529313.757326912716962, 7260750.000892210751772 ], [ 529306.777805175748654, 7260760.0 ], [ 529300.011174176470377, 7260770.0 ], [ 529293.310235233511776, 7260780.000000000931323 ], [ 529286.690656977239996, 7260790.0 ], [ 529280.0, 7260800.0 ], [ 529273.309343022760004, 7260810.0 ], [ 529266.690656977239996, 7260820.0 ], [ 529260.0, 7260830.0 ], [ 529253.310235233511776, 7260840.0 ], [ 529246.700938943075016, 7260850.0 ], [ 529240.075974021921866, 7260860.0 ], [ 529233.670178714208305, 7260870.0 ], [ 529227.794350692536682, 7260880.0 ], [ 529222.206541518098675, 7260890.0 ], [ 529216.340103251626715, 7260900.0 ], [ 529210.0, 7260910.0 ], [ 529203.659896748373285, 7260920.0 ], [ 529197.794350692536682, 7260930.0 ], [ 529192.217715694685467, 7260939.999553894624114 ], [ 529186.428143660770729, 7260949.993520701304078 ], [ 529180.45915806631092, 7260959.944359514862299 ], [ 529175.298722552019171, 7260969.6772395754233 ], [ 529171.998769284342416, 7260978.683442020788789 ], [ 529170.535132088349201, 7260986.078100949525833 ], [ 529170.098322374979034, 7260991.078100949525833 ] ] } },
{ "type": "Feature", "properties": { "id": 5, "reference_id": 9, "dune_id": 9, "dune_name": "Inverted Y Dune", "acquisition_date": "2024-08-16", "length_m": 801.97870072435865 }, "geometry": { "type": "LineString", "coordinates": [ [ 529650.088040409144014, 7262234.243011592887342 ], [ 529650.458265855675563, 7262227.913190307095647 ], [ 529651.62765162717551, 7262219.453693735413253 ], [ 529654.118162604048848, 7262209.900785414502025 ], [ 529657.881498891045339, 7262199.987933613359928 ], [ 529662.216823483933695, 7262189.999107789248228 ], [ 529666.330713496543467, 7262180.0 ], [ 529669.924025978078134, 7262170.0 ], [ 529673.299953267676756, 7262160.0 ], [ 529676.700046732323244, 7262150.0 ], [ 529680.076866232673638, 7262140.0 ], [ 529683.680460680043325, 7262130.0 ], [ 529687.870324714458548, 7262120.0 ], [ 529692.566484998911619, 7262110.0 ], [ 529697.433515001088381, 7262100.0 ], [ 529702.130567496176809, 7262090.0 ], [ 529706.329821285791695, 7262080.0 ], [ 529710.0, 7262070.0 ], [ 529713.670178714208305, 7262060.0 ], [ 529717.869432503823191, 7262050.0 ], [ 529722.566484998911619, 7262040.0 ], [ 529727.433515001204796, 7262030.0 ], [ 529732.130567496176809, 7262020.0 ], [ 529736.329821285791695, 7262010.0 ], [ 529739.999107789364643, 7262000.0 ], [ 529743.6598967484897, 7261990.0 ], [ 529747.793458481901325, 7261980.0 ], [ 529752.206541518098675, 7261970.0 ], [ 529756.340103251626715, 7261960.0 ], [ 529760.0, 7261950.0 ], [ 529763.659896748373285, 7261940.0 ], [ 529767.793458481901325, 7261930.0 ], [ 529772.205649307463318, 7261920.0 ], [ 529776.329821285791695, 7261910.0 ], [ 529779.924918188713491, 7261900.0 ], [ 529783.310235233511776, 7261890.0 ], [ 529786.776912964996882, 7261880.0 ], [ 529790.447983889840543, 7261870.0 ], [ 529794.861020628013648, 7261860.0 ], [ 529800.447983889840543, 7261850.0 ], [ 529806.777805175632238, 7261840.000000000931323 ], [ 529813.321409409982152, 7261830.0 ], [ 529820.012066387105733, 7261820.0 ], [ 529826.777805175632238, 7261810.0 ], [ 529833.757326912600547, 7261800.0 ], [ 529841.551677605137229, 7261790.0 ], [ 529850.447983889840543, 7261780.000892210751772 ], [ 529860.087148198392242, 7261770.0111741758883 ], [ 529870.011174176470377, 7261760.087148198857903 ], [ 529880.000892210751772, 7261750.447091680020094 ], [ 529890.0, 7261741.541395640000701 ], [ 529900.0, 7261733.681352891027927 ], [ 529910.0, 7261726.416969484649599 ], [ 529920.0, 7261718.907480461522937 ], [ 529930.0, 7261711.10458592697978 ], [ 529940.0, 7261703.670178714208305 ], [ 529950.0, 7261696.766630999743938 ], [ 529960.0, 7261690.010281966067851 ], [ 529970.0, 7261683.310235233977437 ], [ 529980.0, 7261676.690656976774335 ], [ 529990.0, 7261670.0 ], [ 530000.0, 7261663.310235233977437 ], [ 530010.0, 7261656.700938943773508 ], [ 530020.0, 7261650.075974022038281 ], [ 530030.0, 7261643.669286504387856 ], [ 530039.999553894624114, 7261637.783622621558607 ], [ 530049.993520701071247, 7261632.12498040869832 ], [ 530059.944359513698146, 7261625.937477882951498 ], [ 530069.677239574841224, 7261618.695108798332512 ], [ 530078.683442020905204, 7261610.858292123302817 ], [ 530086.078100949409418, 7261603.833858641795814 ], [ 530091.078100949525833, 7261598.910724874585867 ] ] } },
{ "type": "Feature", "properties": { "id": 6, "reference_id": 8, "dune_id": 8, "dune_name": "Inverted Y Dune", "acquisition_date": "2024-08-16", "length_m": 725.46578997622078 }, "geometry": { "type": "LineString", "coordinates": [ [ 530096.835089357104152, 7261591.078100949525833 ], [ 530098.165802853647619, 7261586.078100949525833 ], [ 530099.240922462078743, 7261578.683442020788789 ], [ 530099.863602358847857, 7261569.6772395754233 ], [ 530100.403517580009066, 7261559.944359513930976 ], [ 530101.534916340489872, 7261549.993520701304078 ], [ 530103.669732608832419, 7261539.999553894624114 ], [ 530106.329821285791695, 7261530.0 ], [ 530108.460388781968504, 7261520.0 ], [ 530109.564082497381605, 7261510.0 ], [ 530110.0, 7261500.0 ], [ 530110.43591750273481, 7261490.0 ], [ 530111.539611218031496, 7261480.0 ], [ 530113.670178714208305, 7261470.000000000931323 ], [ 530116.330713496543467, 7261460.0 ], [ 530118.470670747803524, 7261450.0 ], [ 530119.640056519303471, 7261440.0 ], [ 530120.359943480812944, 7261430.0 ], [ 530121.530221462948248, 7261420.0 ], [ 530123.680460680043325, 7261410.0 ], [ 530126.416969484183937, 7261400.0 ], [ 530128.907480461173691, 7261390.0 ], [ 530131.104585926048458, 7261380.0 ], [ 530133.671070924960077, 7261370.0 ], [ 530136.776912964996882, 7261360.0 ], [ 530140.087148198392242, 7261350.0 ], [ 530143.682245101314038, 7261340.0 ], [ 530147.882391101680696, 7261330.0 ], [ 530152.664807373890653, 7261320.0 ], [ 530157.968647089553997, 7261310.000000000931323 ], [ 530164.129336780519225, 7261300.0 ], [ 530171.628543837927282, 7261290.000892210751772 ], [ 530180.458265855675563, 7261280.0111741758883 ], [ 530190.088040409144014, 7261270.087148198857903 ], [ 530200.011174176586792, 7261260.447983890771866 ], [ 530210.000892210751772, 7261251.552569815889001 ], [ 530220.0, 7261243.768501089885831 ], [ 530230.0, 7261236.864953374490142 ], [ 530240.0, 7261230.459158066660166 ], [ 530250.0, 7261224.862805049866438 ], [ 530260.0, 7261220.458265855908394 ], [ 530270.0, 7261216.853779198601842 ], [ 530280.0, 7261213.681352891027927 ], [ 530290.0, 7261211.10547813680023 ], [ 530300.0, 7261208.907480461522937 ], [ 530310.0, 7261206.416969483718276 ], [ 530320.0, 7261203.681352891027927 ], [ 530330.0, 7261201.541395639069378 ], [ 530340.0, 7261200.447091678157449 ], [ 530350.0, 7261200.088040409609675 ], [ 530360.0, 7261200.022348353639245 ], [ 530370.0, 7261200.088040409609675 ], [ 530380.0, 7261200.447091678157449 ], [ 530390.0, 7261201.540503428317606 ], [ 530400.0, 7261203.670178713276982 ], [ 530410.0, 7261206.329821285791695 ], [ 530420.0, 7261208.459496571682394 ], [ 530430.000000000116415, 7261209.552908320911229 ], [ 530440.0, 7261209.911959591321647 ], [ 530450.0, 7261209.977651647292078 ], [ 530460.0, 7261209.911067380569875 ], [ 530470.0, 7261209.540841934271157 ], [ 530480.0, 7261208.360281986184418 ], [ 530490.0, 7261205.78440723195672 ], [ 530499.999107789248228, 7261201.595435407944024 ], [ 530509.987933612894267, 7261195.882729606702924 ], [ 530519.900785414385609, 7261188.906588250771165 ], [ 530529.453693735296838, 7261181.627651628106833 ], [ 530537.91319030651357, 7261175.668947998434305 ], [ 530544.243011592305265, 7261172.075635517016053 ] ] } },
{ "type": "Feature", "properties": { "id": 7, "reference_id": 4, "dune_id": 4, "dune_name": "The Star Dune", "acquisition_date": "2024-08-16", "length_m": 597.18953506527328 }, "geometry": { "type": "LineString", "coordinates": [ [ 533574.243011592421681, 7262039.552016111090779 ], [ 533567.91319030651357, 7262038.448322394862771 ], [ 533559.453693735296838, 7262036.241780877113342 ], [ 533549.900785414502025, 7262033.211020648479462 ], [ 533539.987933612894267, 7262029.901677625253797 ], [ 533529.999107789248228, 7262026.242673087865114 ], [ 533520.0, 7262021.768839593976736 ], [ 533510.0, 7262016.329821285791695 ], [ 533500.0, 7262010.360835691913962 ], [ 533490.0, 7262004.849846452474594 ], [ 533480.0, 7262000.447091680020094 ], [ 533470.0, 7261996.777805175632238 ], [ 533460.0, 7261993.320517199113965 ], [ 533450.0, 7261990.000892210751772 ], [ 533440.0, 7261986.690656976774335 ], [ 533430.0, 7261983.310235233977437 ], [ 533420.0, 7261980.0111741758883 ], [ 533410.0, 7261976.776912964880466 ], [ 533400.000000000116415, 7261973.746152736246586 ], [ 533390.0, 7261971.464529406279325 ], [ 533380.000000000116415, 7261970.0 ], [ 533370.0, 7261968.535470593720675 ], [ 533360.0, 7261966.252955053932965 ], [ 533350.0, 7261963.212805069983006 ], [ 533340.0, 7261959.912851801142097 ], [ 533330.0, 7261956.328929075971246 ], [ 533320.0, 7261952.205649307928979 ], [ 533310.0, 7261947.794350693002343 ], [ 533300.0, 7261943.671070924028754 ], [ 533290.0, 7261940.086255988106132 ], [ 533280.0, 7261936.776912964880466 ], [ 533270.0, 7261933.671070925891399 ], [ 533260.0, 7261931.103693715296686 ], [ 533250.0, 7261928.896306285634637 ], [ 533240.0, 7261926.329821286723018 ], [ 533230.0, 7261923.233369001187384 ], [ 533220.0, 7261919.989718034863472 ], [ 533210.0, 7261916.689764766022563 ], [ 533200.0, 7261913.310235233977437 ], [ 533190.0, 7261910.010281966999173 ], [ 533180.0, 7261906.766630999743938 ], [ 533170.0, 7261903.670178715139627 ], [ 533160.0, 7261901.104585926048458 ], [ 533150.0, 7261898.906588250771165 ], [ 533140.0, 7261896.405795307829976 ], [ 533130.0, 7261893.594204692170024 ], [ 533120.0, 7261891.094303959980607 ], [ 533110.0, 7261888.905696040019393 ], [ 533100.0, 7261886.405795307829976 ], [ 533090.0, 7261883.594204692170024 ], [ 533080.0, 7261881.094303959980607 ], [ 533070.0, 7261878.906588250771165 ], [ 533060.0, 7261876.416077273897827 ], [ 533050.000892210751772, 7261873.670178715139627 ], [ 533040.012066387105733, 7261871.454247441142797 ], [ 533030.099214585614391, 7261870.0 ], [ 533020.546306264819577, 7261868.546644769608974 ], [ 533012.08680969348643, 7261866.340995462611318 ], [ 533005.756988407694735, 7261863.671070925891399 ] ] } },
{ "type": "Feature", "properties": { "id": 8, "reference_id": 6, "dune_id": 6, "dune_name": "The Star Dune", "acquisition_date": "2024-08-16", "length_m": 749.65055008958973 }, "geometry": { "type": "LineString", "coordinates": [ [ 533580.447091679205187, 7262784.243011591956019 ], [ 533581.540503428783268, 7262777.913190307095647 ], [ 533583.670178714208305, 7262769.453693735413253 ], [ 533586.330713496543467, 7262759.900785414502025 ], [ 533588.470670747803524, 7262749.987933613359928 ], [ 533589.640056519303471, 7262739.999107789248228 ], [ 533590.359943480696529, 7262730.0 ], [ 533591.529329252196476, 7262720.0 ], [ 533593.669286503456533, 7262710.0 ], [ 533596.329821285791695, 7262700.0 ], [ 533598.460388781968504, 7262690.0 ], [ 533599.56408249726519, 7262680.0 ], [ 533600.0, 7262670.0 ], [ 533600.43591750273481, 7262660.0 ], [ 533601.539611218031496, 7262650.0 ], [ 533603.671070924960077, 7262640.0 ], [ 533606.340995462378487, 7262630.0 ], [ 533608.54664476972539, 7262620.0 ], [ 533610.0, 7262610.0 ], [ 533611.454247441026382, 7262600.000000000931323 ], [ 533613.670178714208305, 7262590.0 ], [ 533616.416077273664996, 7262580.0 ], [ 533618.906588250421919, 7262570.0 ], [ 533621.094303960213438, 7262560.0 ], [ 533623.594204692170024, 7262550.0 ], [ 533626.405795307713561, 7262540.0 ], [ 533628.906588250421919, 7262530.0 ], [ 533631.104585926048458, 7262520.0 ], [ 533633.670178714208305, 7262510.0 ], [ 533636.765738788526505, 7262500.0 ], [ 533640.000000000116415, 7262490.0 ], [ 533643.234261211473495, 7262480.0 ], [ 533646.329821285791695, 7262470.0 ], [ 533648.896306284703314, 7262460.0 ], [ 533651.103693715413101, 7262450.0 ], [ 533653.670178714208305, 7262440.0 ], [ 533656.765738788526505, 7262430.0 ], [ 533659.999107789248228, 7262420.0 ], [ 533663.223087035119534, 7262410.0 ], [ 533666.243565298151225, 7262400.0 ], [ 533668.459496571333148, 7262390.0 ], [ 533669.639164308551699, 7262380.0 ], [ 533670.359943480696529, 7262370.0 ], [ 533671.528437041561119, 7262360.0 ], [ 533673.658112327102572, 7262350.0 ], [ 533676.242673087399453, 7262340.000000000931323 ], [ 533678.012404892127961, 7262330.0 ], [ 533678.012404892127961, 7262320.0 ], [ 533676.242673087399453, 7262310.0 ], [ 533673.659004537737928, 7262300.0 ], [ 533671.538719007279724, 7262290.0 ], [ 533670.43591750273481, 7262280.0 ], [ 533670.0, 7262270.0 ], [ 533669.56408249726519, 7262260.0 ], [ 533668.460388781968504, 7262250.0 ], [ 533666.329821285791695, 7262240.0 ], [ 533663.670178714208305, 7262230.0 ], [ 533661.540503428783268, 7262220.0 ], [ 533660.447091679088771, 7262210.0 ], [ 533660.087148198392242, 7262200.0 ], [ 533660.011174176470377, 7262190.0 ], [ 533660.000892210751772, 7262180.0 ], [ 533660.0, 7262170.0 ], [ 533660.0, 7262160.0 ], [ 533659.999107789248228, 7262150.0 ], [ 533659.988825823529623, 7262140.0 ], [ 533659.912851801607758, 7262130.0 ], [ 533659.552908320911229, 7262120.0 ], [ 533658.459496571216732, 7262110.0 ], [ 533656.329821285791695, 7262100.000446105375886 ], [ 533653.670178714208305, 7262090.006479298695922 ], [ 533651.540503428783268, 7262080.055640487000346 ], [ 533650.447091679205187, 7262070.322760425508022 ], [ 533650.087148198508658, 7262061.316557979211211 ], [ 533650.011174176470377, 7262053.921899050474167 ], [ 533650.000892210751772, 7262048.921899050474167 ] ] } },
{ "type": "Feature", "properties": { "id": 9, "reference_id": 2, "dune_id": 2, "dune_name": "Big Mommy Dune", "acquisition_date": "2024-08-16", "length_m": 541.61905371030298 }, "geometry": { "type": "LineString", "coordinates": [ [ 529034.243011592305265, 7260936.242673087865114 ], [ 529027.913190306629986, 7260933.222194824367762 ], [ 529019.453693735296838, 7260929.9888258241117 ], [ 529009.900785414502025, 7260926.689764766953886 ], [ 528999.987933612894267, 7260923.310235233977437 ], [ 528989.999107789364643, 7260920.010281965136528 ], [ 528980.0, 7260916.766630999743938 ], [ 528970.0, 7260913.670178714208305 ], [ 528960.0, 7260911.10458592697978 ], [ 528950.0, 7260908.906588250771165 ], [ 528940.0, 7260906.405795308761299 ], [ 528930.0, 7260903.594204693101346 ], [ 528920.0, 7260901.093411750160158 ], [ 528910.0, 7260898.895414073951542 ], [ 528900.0, 7260896.329821285791695 ], [ 528890.0, 7260893.234261211939156 ], [ 528880.0, 7260890.0 ], [ 528870.0, 7260886.765738788992167 ], [ 528860.0, 7260883.669286504387856 ], [ 528850.0, 7260881.093411750160158 ], [ 528840.0, 7260878.820332262665033 ], [ 528830.0, 7260875.968985594809055 ], [ 528820.0, 7260872.129675285890698 ], [ 528810.0, 7260867.783176517114043 ], [ 528800.0, 7260863.659004538320005 ], [ 528790.0, 7260860.0 ], [ 528780.0, 7260856.340103251859546 ], [ 528770.0, 7260852.206541517749429 ], [ 528760.0, 7260847.793458482250571 ], [ 528750.0, 7260843.659896748140454 ], [ 528740.0, 7260839.999107789248228 ], [ 528730.0, 7260836.329821286723018 ], [ 528720.0, 7260832.129675285890698 ], [ 528710.0, 7260827.423233035951853 ], [ 528700.0, 7260822.489618766121566 ], [ 528690.0, 7260817.499207057058811 ], [ 528680.0, 7260812.499900732189417 ], [ 528670.0, 7260807.500099267810583 ], [ 528660.0, 7260802.499900732189417 ], [ 528650.0, 7260797.500099267810583 ], [ 528640.0, 7260792.499900732189417 ], [ 528630.0, 7260787.499207057058811 ], [ 528620.0, 7260782.489618767052889 ], [ 528610.0, 7260777.423233035951853 ], [ 528600.0, 7260772.128783075138927 ], [ 528590.0, 7260766.319539319723845 ], [ 528580.000892210751772, 7260759.924025977030396 ], [ 528570.012066387222148, 7260753.311127444729209 ], [ 528560.099214585614391, 7260746.788087141700089 ], [ 528550.546306264703162, 7260740.535132088698447 ], [ 528542.08680969348643, 7260735.309004518203437 ], [ 528535.756988407694735, 7260731.999661495909095 ] ] } },
{ "type": "Feature", "properties": { "id": 10, "reference_id": 1, "dune_id": 1, "dune_name": "Big Mommy Dune", "acquisition_date": "2024-08-16", "length_m": 1387.4567722517345 }, "geometry": { "type": "LineString", "coordinates": [ [ 529171.540503428783268, 7260998.921899050474167 ], [ 529173.670178714208305, 7261003.921899050474167 ], [ 529176.329821285791695, 7261011.316557979211211 ], [ 529178.459496571333148, 7261020.322760425508022 ], [ 529179.552908320794813, 7261030.055640487000346 ], [ 529179.912851801607758, 7261040.006479299627244 ], [ 529179.988825823529623, 7261050.000446105375886 ], [ 529179.999107789364643, 7261060.0 ], [ 529179.999107789364643, 7261070.0 ], [ 529179.988825823529623, 7261080.0 ], [ 529179.912851801607758, 7261090.0 ], [ 529179.552016110159457, 7261100.0 ], [ 529178.448322394862771, 7261110.0 ], [ 529176.242673087399453, 7261120.000000000931323 ], [ 529173.222194824367762, 7261130.0 ], [ 529169.988825823529623, 7261140.0 ], [ 529166.688872555969283, 7261150.0 ], [ 529163.299061057041399, 7261160.0 ], [ 529159.924025978078134, 7261170.0 ], [ 529156.329821285791695, 7261180.0 ], [ 529152.205649307463318, 7261190.0 ], [ 529147.793458481901325, 7261200.0 ], [ 529143.659896748373285, 7261210.000000000931323 ], [ 529139.999107789364643, 7261220.0 ], [ 529136.329821285791695, 7261230.0 ], [ 529132.130567496176809, 7261240.0 ], [ 529127.433515001204796, 7261250.0 ], [ 529122.566484998911619, 7261260.0 ], [ 529117.870324714574963, 7261270.0 ], [ 529113.680460680043325, 7261280.0 ], [ 529110.075974021921866, 7261290.0 ], [ 529106.689764766488224, 7261300.0 ], [ 529103.22397924575489, 7261310.000000000931323 ], [ 529099.563190286746249, 7261320.0 ], [ 529095.226127570495009, 7261330.0 ], [ 529090.0, 7261340.0 ], [ 529084.773872429504991, 7261350.0 ], [ 529080.436809713370167, 7261360.0 ], [ 529076.776020754361525, 7261370.0 ], [ 529073.310235233511776, 7261380.0 ], [ 529069.924918188713491, 7261390.0 ], [ 529066.329821285791695, 7261400.0 ], [ 529062.205649307463318, 7261410.0 ], [ 529057.794350692536682, 7261420.0 ], [ 529053.670178714208305, 7261430.0 ], [ 529050.075974021921866, 7261440.0 ], [ 529046.700938942958601, 7261450.0 ], [ 529043.311127444147132, 7261460.0 ], [ 529040.011174176470377, 7261470.000000000931323 ], [ 529036.776912964996882, 7261480.0 ], [ 529033.746152736246586, 7261490.0 ], [ 529031.464529406744987, 7261500.0 ], [ 529030.000892210751772, 7261510.0 ], [ 529028.54664476972539, 7261520.0 ], [ 529026.340995462378487, 7261530.0 ], [ 529023.670178714208305, 7261540.0 ], [ 529021.529329252312891, 7261550.0 ], [ 529020.359943480812944, 7261560.000000000931323 ], [ 529019.640056519303471, 7261570.0 ], [ 529018.470670747803524, 7261580.0 ], [ 529016.331605707178824, 7261590.0 ], [ 529013.681352890795097, 7261600.0 ], [ 529011.62765162717551, 7261610.0 ], [ 529010.894183358410373, 7261620.0 ], [ 529011.62765162717551, 7261630.0 ], [ 529013.682245101314038, 7261640.0 ], [ 529016.341887672897428, 7261650.0 ], [ 529018.547536980360746, 7261660.0 ], [ 529020.011174176470377, 7261670.0 ], [ 529021.541395639418624, 7261680.0 ], [ 529024.118162604048848, 7261690.0 ], [ 529027.968647089553997, 7261700.0 ], [ 529032.675089339492843, 7261710.0 ], [ 529037.958365123718977, 7261720.0 ], [ 529044.041296371375211, 7261730.000000000931323 ], [ 529051.169385771499947, 7261740.0 ], [ 529058.819440052029677, 7261750.0 ], [ 529065.882729606702924, 7261760.0 ], [ 529071.682583606336266, 7261770.0 ], [ 529076.242673087399453, 7261780.0 ], [ 529079.988825823529623, 7261790.0 ], [ 529083.669286503572948, 7261800.0 ], [ 529087.868540293187834, 7261810.0 ], [ 529092.554418611805886, 7261820.0 ], [ 529097.334300415590405, 7261830.0 ], [ 529101.584261231473647, 7261840.000000000931323 ], [ 529104.243011592421681, 7261850.0 ], [ 529104.243011592421681, 7261860.0 ], [ 529101.58336902083829, 7261870.0 ], [ 529097.323126239120029, 7261880.0 ], [ 529092.467270413297229, 7261890.0 ], [ 529087.421448613982648, 7261900.0 ], [ 529082.128783074789681, 7261910.0 ], [ 529076.319539319956675, 7261920.0 ], [ 529069.923133767326362, 7261930.0 ], [ 529063.299061057041399, 7261940.0 ], [ 529056.68976476660464, 7261950.0 ], [ 529050.000892210635357, 7261960.0 ], [ 529043.32051719923038, 7261970.0 ], [ 529036.777805175632238, 7261980.0 ], [ 529030.447983889840543, 7261990.0 ], [ 529024.861020627897233, 7262000.0 ], [ 529020.447983889840543, 7262010.0 ], [ 529016.776912965113297, 7262020.0 ], [ 529013.310235233511776, 7262030.0 ], [ 529009.924025978078134, 7262040.0 ], [ 529006.31953932007309, 7262050.0 ], [ 529002.128783074789681, 7262060.0 ], [ 528997.423233035369776, 7262070.0 ], [ 528992.489618766237982, 7262080.0 ], [ 528987.498314846656285, 7262090.0 ], [ 528982.488726555602625, 7262100.0 ], [ 528977.4120588588994, 7262110.0 ], [ 528972.041634876397438, 7262120.0 ], [ 528965.871555430116132, 7262130.0 ], [ 528958.371456162189133, 7262140.0 ], [ 528949.541734144324437, 7262150.0 ], [ 528939.911959590972401, 7262159.999107789248228 ], [ 528929.988825823529623, 7262169.9888258241117 ], [ 528919.999107789364643, 7262179.911959591321647 ], [ 528910.0, 7262189.541734144091606 ], [ 528900.0, 7262198.371456162072718 ], [ 528890.0, 7262205.871555430814624 ], [ 528880.000892210751772, 7262212.041634877212346 ], [ 528870.012066387105733, 7262217.411166648380458 ], [ 528860.099214585614391, 7262222.477552378550172 ], [ 528850.546306264819577, 7262227.411166648380458 ], [ 528842.086809693370014, 7262232.041634876281023 ], [ 528835.756988407694735, 7262235.871555430814624 ] ] } }
]
}
