{
"type": "FeatureCollection",
"name": "crests_2022_12_2022-12-07",
"crs": { "type": "name", "properties": { "name": "urn:ogc:def:crs:EPSG::32733" } },
"features": [
{ "type": "Feature", "properties": { "id": 0, "reference_id": 1, "dune_id": 1, "dune_name": "Big Mommy Dune", "acquisition_date": "2022-12-07", "length_m": 1252.7969675244581 }, "geometry": { "type": "LineString", "coordinates": [ [ 529179.999107789364643, 7261055.756988408043981 ], [ 529179.988825823529623, 7261062.086809693835676 ], [ 529179.912851801607758, 7261070.546306264586747 ], [ 529179.552908320794813, 7261080.099214585497975 ], [ 529178.458604360581376, 7261090.012066388502717 ], [ 529176.318647109321319, 7261100.000892210751772 ], [ 529173.583030515816063, 7261110.0 ], [ 529171.092519538942724, 7261120.000000000931323 ], [ 529168.895414074067958, 7261130.0 ], [ 529166.329821285791695, 7261140.0 ], [ 529163.233369000954553, 7261150.0 ], [ 529159.989718034281395, 7261160.0 ], [ 529156.688872555969283, 7261170.0 ], [ 529153.299061057041399, 7261180.0 ], [ 529149.924025978078134, 7261190.0 ], [ 529146.329821285791695, 7261200.0 ], [ 529142.205649307463318, 7261210.000000000931323 ], [ 529137.79345848178491, 7261220.0 ], [ 529133.659896748373285, 7261230.0 ], [ 529130.0, 7261240.0 ], [ 529126.340103251626715, 7261250.0 ], [ 529122.20654151821509, 7261260.0 ], [ 529117.793458481901325, 7261270.0 ], [ 529113.659896748373285, 7261280.0 ], [ 529109.999107789364643, 7261290.0 ], [ 529106.329821285791695, 7261300.0 ], [ 529102.129675285541452, 7261310.000000000931323 ], [ 529097.423233035369776, 7261320.0 ], [ 529092.490510976989754, 7261330.0 ], [ 529087.509489023126662, 7261340.0 ], [ 529082.576766964746639, 7261350.0 ], [ 529077.871216925210319, 7261360.0 ], [ 529073.680460680043325, 7261370.0 ], [ 529070.076866232673638, 7261380.0 ], [ 529066.700046732323244, 7261390.0 ], [ 529063.299953267676756, 7261400.0 ], [ 529059.924025978078134, 7261410.0 ], [ 529056.330713496543467, 7261420.0 ], [ 529052.215931273181923, 7261430.0 ], [ 529047.870324714458548, 7261440.0 ], [ 529044.031014405540191, 7261450.0 ], [ 529041.179667737334967, 7261460.0 ], [ 529038.906588250538334, 7261470.000000000931323 ], [ 529036.330713496543467, 7261480.0 ], [ 529033.234261211473495, 7261490.0 ], [ 529030.000892210751772, 7261500.0 ], [ 529026.776020754361525, 7261510.0 ], [ 529023.746152736246586, 7261520.0 ], [ 529021.464529406744987, 7261530.0 ], [ 529020.000892210751772, 7261540.0 ], [ 529018.54664476972539, 7261550.0 ], [ 529016.340995462378487, 7261560.000000000931323 ], [ 529013.671070924960077, 7261570.0 ], [ 529011.540503428783268, 7261580.0 ], [ 529010.447091679205187, 7261590.0 ], [ 529010.087148198508658, 7261600.0 ], [ 529010.012066387222148, 7261610.0 ], [ 529010.012066387222148, 7261620.0 ], [ 529010.087148198508658, 7261630.0 ], [ 529010.447091679205187, 7261640.0 ], [ 529011.541395639418624, 7261650.0 ], [ 529013.681352890795097, 7261660.0 ], [ 529016.417861694935709, 7261670.0 ], [ 529018.917762426892295, 7261680.0 ], [ 529021.181452158722095, 7261690.0 ], [ 529024.042188582126983, 7261700.0 ], [ 529027.958365123718977, 7261710.0 ], [ 529032.674197128973901, 7261720.0 ], [ 529037.958365123718977, 7261730.000000000931323 ], [ 529044.041296371375211, 7261740.0 ], [ 529051.170277982251719, 7261750.0 ], [ 529058.829722017864697, 7261760.0 ], [ 529065.959595839260146, 7261770.0 ], [ 529072.052809052867815, 7261780.0 ], [ 529077.412951069651172, 7261790.0 ], [ 529082.488726555602625, 7261800.0 ], [ 529087.497422636020929, 7261810.0 ], [ 529092.477552379132248, 7261820.0 ], [ 529097.324018449871801, 7261830.0 ], [ 529101.58336902083829, 7261840.000000000931323 ], [ 529104.243011592421681, 7261850.0 ], [ 529104.242119381669909, 7261860.0 ], [ 529101.573087055003271, 7261870.0 ], [ 529097.247152217198163, 7261880.0 ], [ 529092.106434721848927, 7261890.0 ], [ 529086.317754898685962, 7261900.0 ], [ 529079.923133767326362, 7261910.0 ], [ 529073.299953267676756, 7261920.0 ], [ 529066.700046732323244, 7261930.0 ], [ 529060.075974022038281, 7261940.0 ], [ 529053.670178714208305, 7261950.0 ], [ 529047.794350692536682, 7261960.0 ], [ 529042.206541518098675, 7261970.0 ], [ 529036.340995462378487, 7261980.0 ], [ 529030.011174176586792, 7261990.0 ], [ 529023.747044946881942, 7262000.0 ], [ 529018.241442371741869, 7262010.0 ], [ 529013.757326912600547, 7262020.0 ], [ 529010.087148198508658, 7262030.0 ], [ 529006.700938943075016, 7262040.0 ], [ 529003.299953267676756, 7262050.0 ], [ 528999.923133767442778, 7262060.0 ], [ 528996.31953932007309, 7262070.0 ], [ 528992.128783074789681, 7262080.0 ], [ 528987.42234082473442, 7262090.0 ], [ 528982.479336800519377, 7262100.0 ], [ 528977.42234082473442, 7262110.0 ], [ 528972.128783074789681, 7262120.0 ], [ 528966.318647109437734, 7262130.0 ], [ 528959.911959590855986, 7262140.0 ], [ 528953.212805069284514, 7262150.0 ], [ 528946.253847263869829, 7262159.999107789248228 ], [ 528938.547536980477162, 7262169.987933613359928 ], [ 528930.098322374979034, 7262179.900785414502025 ], [ 528921.999661495094188, 7262189.453693735413253 ], [ 528915.745814231224358, 7262197.913190307095647 ], [ 528912.085917482851073, 7262204.243011591956019 ] ] } },
{ "type": "Feature", "properties": { "id": 1, "reference_id": 3, "dune_id": 3, "dune_name": "Big Mommy Dune", "acquisition_date": "2022-12-07", "length_m": 347.9245463438458 }, "geometry": { "type": "LineString", "coordinates": [ [ 529374.243011592305265, 7260694.216484978795052 ], [ 529367.91319030651357, 7260698.416630979627371 ], [ 529359.453693735180423, 7260704.216484978795052 ], [ 529349.901677625253797, 7260711.639718014746904 ], [ 529339.999107789364643, 7260720.459158066660166 ], [ 529330.086255987756886, 7260730.088040409609675 ], [ 529320.447983889956959, 7260740.011174176819623 ], [ 529311.551677605253644, 7260750.000892210751772 ], [ 529303.757326912600547, 7260760.0 ], [ 529296.777805175632238, 7260770.0 ], [ 529290.011174176470377, 7260780.000000000931323 ], [ 529283.310235233511776, 7260790.0 ], [ 529276.690656977239996, 7260800.0 ], [ 529270.0, 7260810.0 ], [ 529263.309343022760004, 7260820.0 ], [ 529256.690656977356412, 7260830.0 ], [ 529250.0, 7260840.0 ], [ 529243.310235233511776, 7260850.0 ], [ 529236.700938942958601, 7260860.0 ], [ 529230.076866232673638, 7260870.0 ], [ 529223.680460680043325, 7260880.0 ], [ 529217.870324714574963, 7260890.0 ], [ 529212.566484998911619, 7260900.0 ], [ 529207.434407211840153, 7260910.0 ], [ 529202.140849461895414, 7260920.0 ], [ 529196.406687518465333, 7260929.999107789248228 ], [ 529190.371117657283321, 7260939.987933613359928 ], [ 529184.8516308729304, 7260949.900785415433347 ], [ 529180.458265855675563, 7260959.453693736344576 ], [ 529176.864953374140896, 7260967.913190307095647 ], [ 529173.768501089070924, 7260974.243011591956019 ] ] } },
{ "type": "Feature", "properties": { "id": 2, "reference_id": 3, "dune_id": 3, "dune_name": "Big Mommy Dune", "acquisition_date": "2022-12-07", "length_m": 215.49357548520973 }, "geometry": { "type": "LineString", "coordinates": [ [ 529405.756988407694735, 7260679.541734144091606 ], [ 529412.08680969348643, 7260678.37234837282449 ], [ 529420.546306264819577, 7260675.882729606702924 ], [ 529430.099214585614391, 7260672.129675285890698 ], [ 529440.012066387222148, 7260667.869432504288852 ], [ 529450.000892210751772, 7260664.106096217408776 ], [ 529460.0, 7260661.540503429248929 ], [ 529470.0, 7260660.010281966067851 ], [ 529480.0, 7260658.536362804472446 ], [ 529490.0, 7260656.253847263753414 ], [ 529500.000000000116415, 7260653.223979245871305 ], [ 529510.0, 7260649.999107789248228 ], [ 529520.0, 7260646.765738788992167 ], [ 529530.0, 7260643.670178715139627 ], [ 529540.0, 7260641.10458592697978 ], [ 529550.0, 7260638.907480461522937 ], [ 529560.0, 7260636.416969483718276 ], [ 529569.999107789248228, 7260633.681352891027927 ], [ 529579.987933612894267, 7260631.541395640000701 ], [ 529589.900785414502025, 7260630.447091680020094 ], [ 529599.453693735180423, 7260630.087148198857903 ], [ 529607.91319030651357, 7260630.011174176819623 ], [ 529614.243011592421681, 7260630.000892210751772 ] ] } },
{ "type": "Feature", "properties": { "id": 3, "reference_id": 3, "dune_id": 3, "dune_name": "Big Mommy Dune", "acquisition_date": "2022-12-07", "length_m": 58.486023184610531 }, "geometry": { "type": "LineString", "coordinates": [ [ 529704.243011592305265, 7260620.0 ], [ 529697.91319030651357, 7260620.0 ], [ 529689.454585945932195, 7260620.0 ], [ 529679.912851801607758, 7260620.0 ], [ 529670.087148198508658, 7260620.0 ], [ 529660.545414054067805, 7260620.0 ], [ 529652.08680969348643, 7260620.0 ], [ 529645.756988407694735, 7260620.0 ] ] } },
{ "type": "Feature", "properties": { "id": 4, "reference_id": 3, "dune_id": 3, "dune_name": "Big Mommy Dune", "acquisition_date": "2022-12-07", "length_m": 138.48602318472695 }, "geometry": { "type": "LineString", "coordinates": [ [ 529745.756988407694735, 7260610.0 ], [ 529752.08680969348643, 7260610.0 ], [ 529760.546306264819577, 7260610.0 ], [ 529770.099214585614391, 7260610.0 ], [ 529780.012066387105733, 7260610.0 ], [ 529790.000892210751772, 7260610.0 ], [ 529800.0, 7260610.0 ], [ 529810.0, 7260610.0 ], [ 529820.0, 7260610.0 ], [ 529830.0, 7260610.0 ], [ 529839.999107789248228, 7260610.0 ], [ 529849.987933612777852, 7260610.0 ], [ 529859.900785414385609, 7260610.0 ], [ 529869.453693735296838, 7260610.0 ], [ 529877.91319030651357, 7260610.0 ], [ 529884.243011592421681, 7260610.0 ] ] } },
{ "type": "Feature", "properties": { "id": 5, "reference_id": 3, "dune_id": 3, "dune_name": "Big Mommy Dune", "acquisition_date": "2022-12-07", "length_m": 161.70782376450268 }, "geometry": { "type": "LineString", "coordinates": [ [ 530075.756988407694735, 7260599.9888258241117 ], [ 530082.08680969348643, 7260599.912851802073419 ], [ 530090.546306264819577, 7260599.552908321842551 ], [ 530100.099214585614391, 7260598.458604360930622 ], [ 530110.012066387222148, 7260596.318647108972073 ], [ 530120.000892210751772, 7260593.583030516281724 ], [ 530130.0, 7260591.093411749228835 ], [ 530140.0, 7260588.906588250771165 ], [ 530150.0, 7260586.416969484649599 ], [ 530160.0, 7260583.680460680276155 ], [ 530170.000000000116415, 7260581.530221463181078 ], [ 530180.0, 7260580.35994348116219 ], [ 530189.999107789248228, 7260579.64005651883781 ], [ 530199.987933612894267, 7260578.470670748502016 ], [ 530209.900785414502025, 7260576.33071349747479 ], [ 530219.453693735296838, 7260573.670178715139627 ], [ 530227.91319030651357, 7260571.540503429248929 ], [ 530234.243011592421681, 7260570.447091680020094 ] ] } },
{ "type": "Feature", "properties": { "id": 6, "reference_id": 5, "dune_id": 5, "dune_name": "The Star Dune", "acquisition_date": "2022-12-07", "length_m": 95.687187792080934 }, "geometry": { "type": "LineString", "coordinates": [ [ 534334.342226177919656, 7261305.756988408043981 ], [ 534328.459496571333148, 7261312.086809693835676 ], [ 534321.540503428666852, 7261320.546306264586747 ], [ 534315.657773822080344, 7261330.099214585497975 ], [ 534312.074743306264281, 7261340.012066386640072 ], [ 534310.545414054067805, 7261350.0 ], [ 534310.099214585614391, 7261359.987933613359928 ], [ 534310.012066387222148, 7261369.900785414502025 ], [ 534310.000892210751772, 7261379.453693735413253 ], [ 534310.0, 7261387.913190307095647 ], [ 534310.0, 7261394.243011592887342 ] ] } },
{ "type": "Feature", "properties": { "id": 7, "reference_id": 5, "dune_id": 5, "dune_name": "The Star Dune", "acquisition_date": "2022-12-07", "length_m": 913.85825596233406 }, "geometry": { "type": "LineString", "coordinates": [ [ 533650.535132088349201, 7262041.078100949525833 ], [ 533651.998769284458831, 7262036.078100949525833 ], [ 533655.298722552019171, 7262028.683442020788789 ], [ 533660.45915806631092, 7262019.677239574491978 ], [ 533666.428143660770729, 7262009.944359513930976 ], [ 533672.217715694569051, 7261999.993520701304078 ], [ 533677.794350692536682, 7261989.999553894624114 ], [ 533683.659896748373285, 7261980.0 ], [ 533689.999107789364643, 7261970.0 ], [ 533696.32982128590811, 7261960.0 ], [ 533702.129675285541452, 7261950.0 ], [ 533707.42234082473442, 7261940.0 ], [ 533712.479336800519377, 7261930.0 ], [ 533717.42234082473442, 7261920.0 ], [ 533722.128783074906096, 7261910.0 ], [ 533726.319539319956675, 7261900.0 ], [ 533729.923133767326362, 7261890.0 ], [ 533733.299061057041399, 7261880.0 ], [ 533736.689764766488224, 7261870.0 ], [ 533740.000892210751772, 7261860.0 ], [ 533743.321409409865737, 7261850.0 ], [ 533746.788979352102615, 7261840.000000000931323 ], [ 533750.535132088349201, 7261830.0 ], [ 533755.309004517854191, 7261820.000892210751772 ], [ 533761.999661495094188, 7261810.011174177750945 ], [ 533770.535132088349201, 7261800.088040409609675 ], [ 533780.098322374979034, 7261790.458265855908394 ], [ 533790.012066387105733, 7261781.628543838858604 ], [ 533800.000892210751772, 7261774.128444570116699 ], [ 533810.0, 7261767.958365123718977 ], [ 533820.0, 7261762.587941141799092 ], [ 533830.0, 7261757.511273443698883 ], [ 533840.0, 7261752.500792942941189 ], [ 533850.0, 7261747.500099267810583 ], [ 533860.0, 7261742.499900732189417 ], [ 533870.0, 7261737.500099267810583 ], [ 533880.0, 7261732.500792942941189 ], [ 533890.0, 7261727.510381233878434 ], [ 533900.0, 7261722.576766964048147 ], [ 533910.0, 7261717.871216924861073 ], [ 533920.0, 7261713.681352891027927 ], [ 533930.0, 7261710.088040409609675 ], [ 533940.0, 7261706.787194930948317 ], [ 533950.0, 7261703.747044946998358 ], [ 533960.0, 7261701.464529407210648 ], [ 533970.0, 7261700.000892210751772 ], [ 533980.0, 7261698.546644769608974 ], [ 533990.0, 7261696.340995462611318 ], [ 534000.0, 7261693.670178714208305 ], [ 534010.0, 7261691.529329253360629 ], [ 534020.0, 7261690.35994348116219 ], [ 534030.0, 7261689.64005651883781 ], [ 534040.0, 7261688.470670748502016 ], [ 534050.0, 7261686.33071349747479 ], [ 534060.0, 7261683.670178715139627 ], [ 534070.0, 7261681.539611218497157 ], [ 534080.0, 7261680.435917503200471 ], [ 534090.0, 7261680.0 ], [ 534100.0, 7261679.564082497730851 ], [ 534110.0, 7261678.460388781502843 ], [ 534120.0, 7261676.328929075039923 ], [ 534130.0, 7261673.65811232663691 ], [ 534140.0, 7261671.442181054502726 ], [ 534150.0, 7261669.911959591321647 ], [ 534160.0, 7261668.088378914631903 ], [ 534170.0, 7261664.712451624684036 ], [ 534180.0, 7261659.541734144091606 ], [ 534190.0, 7261653.571856340393424 ], [ 534200.0, 7261647.782284306362271 ], [ 534210.0, 7261642.204757097177207 ], [ 534220.0, 7261636.329821285791695 ], [ 534230.0, 7261629.924025978893042 ], [ 534240.0, 7261623.299061057157815 ], [ 534250.0, 7261616.688872556202114 ], [ 534259.999107789248228, 7261609.9888258241117 ], [ 534269.988825823529623, 7261603.222194825299084 ], [ 534279.911959590855986, 7261596.242673087865114 ], [ 534289.54084193368908, 7261588.448322394862771 ], [ 534298.360281985718757, 7261579.552016110159457 ], [ 534305.783515021088533, 7261569.913744012825191 ], [ 534311.583369020721875, 7261560.000892210751772 ], [ 534315.783515021088533, 7261550.098322374746203 ], [ 534318.360281985718757, 7261540.546306265518069 ], [ 534319.54084193368908, 7261532.086809693835676 ], [ 534319.911959590855986, 7261525.756988408043981 ] ] } },
{ "type": "Feature", "properties": { "id": 8, "reference_id": 6, "dune_id": 6, "dune_name": "The Star Dune", "acquisition_date": "2022-12-07", "length_m": 306.77245912998131 }, "geometry": { "type": "LineString", "coordinates": [ [ 533670.0, 7262285.756988408043981 ], [ 533670.0, 7262292.086809692904353 ], [ 533670.0, 7262300.546306265518069 ], [ 533670.0, 7262310.099214585497975 ], [ 533670.0, 7262320.012066386640072 ], [ 533669.999107789364643, 7262330.000892210751772 ], [ 533669.988825823646039, 7262340.000000000931323 ], [ 533669.912851801607758, 7262350.0 ], [ 533669.552908320911229, 7262360.0 ], [ 533668.458604360697791, 7262370.0 ], [ 533666.318647109437734, 7262380.0 ], [ 533663.583030515816063, 7262390.0 ], [ 533661.092519538942724, 7262400.0 ], [ 533658.895414073951542, 7262410.0 ], [ 533656.329821285791695, 7262420.0 ], [ 533653.233369000838138, 7262430.0 ], [ 533649.989718034281395, 7262440.0 ], [ 533646.689764766488224, 7262450.0 ], [ 533643.309343022760004, 7262460.0 ], [ 533640.000000000116415, 7262470.0 ], [ 533636.690656977239996, 7262480.0 ], [ 533633.310235233511776, 7262490.0 ], [ 533630.01028196583502, 7262500.0 ], [ 533626.766630999161862, 7262510.0 ], [ 533623.670178714208305, 7262520.0 ], [ 533621.104585925932042, 7262530.0 ], [ 533618.907480461173691, 7262539.999107789248228 ], [ 533616.416969484183937, 7262549.987933613359928 ], [ 533613.681352890795097, 7262559.900785414502025 ], [ 533611.541395639418624, 7262569.453693736344576 ], [ 533610.447091679205187, 7262577.913190307095647 ], [ 533610.087148198392242, 7262584.243011591956019 ] ] } },
{ "type": "Feature", "properties": { "id": 9, "reference_id": 6, "dune_id": 6, "dune_name": "The Star Dune", "acquisition_date": "2022-12-07", "length_m": 206.25117100134878 }, "geometry": { "type": "LineString", "coordinates": [ [ 533659.999107789248228, 7262254.243011592887342 ], [ 533659.988825823529623, 7262247.913190307095647 ], [ 533659.912851801607758, 7262239.453693734481931 ], [ 533659.552908320911229, 7262229.900785414502025 ], [ 533658.459496571216732, 7262219.987933613359928 ], [ 533656.329821285791695, 7262209.999107789248228 ], [ 533653.670178714208305, 7262200.0 ], [ 533651.540503428783268, 7262190.0 ], [ 533650.447091679205187, 7262180.0 ], [ 533650.087148198508658, 7262170.0 ], [ 533650.011174176470377, 7262160.0 ], [ 533650.000892210751772, 7262150.0 ], [ 533650.0, 7262140.0 ], [ 533650.0, 7262130.0 ], [ 533650.0, 7262120.0 ], [ 533650.0, 7262110.0 ], [ 533650.0, 7262100.000446105375886 ], [ 533650.0, 7262090.006479298695922 ], [ 533650.0, 7262080.055640487000346 ], [ 533650.0, 7262070.322760425508022 ], [ 533650.0, 7262061.316557979211211 ], [ 533650.0, 7262053.921899050474167 ], [ 533650.0, 7262048.921899050474167 ] ] } },
{ "type": "Feature", "properties": { "id": 10, "reference_id": 2, "dune_id": 2, "dune_name": "Big Mommy Dune", "acquisition_date": "2022-12-07", "length_m": 351.64099414545581 }, "geometry": { "type": "LineString", "coordinates": [ [ 528724.243011592421681, 7260838.372348373755813 ], [ 528717.91319030651357, 7260835.881837395951152 ], [ 528709.453693735180423, 7260832.118501109071076 ], [ 528699.900785414502025, 7260827.782284305430949 ], [ 528689.987933612894267, 7260823.659004538320005 ], [ 528679.999107789364643, 7260819.999107789248228 ], [ 528670.0, 7260816.328929075971246 ], [ 528660.0, 7260812.11939332075417 ], [ 528650.0, 7260807.346366802230477 ], [ 528640.0, 7260802.118501110002398 ], [ 528630.0, 7260796.318647108972073 ], [ 528620.0, 7260789.923133767209947 ], [ 528610.0, 7260783.299061057157815 ], [ 528600.0, 7260776.689764767885208 ], [ 528590.0, 7260770.0 ], [ 528580.0, 7260763.309343023225665 ], [ 528570.0, 7260756.690656976774335 ], [ 528560.0, 7260750.0 ], [ 528550.0, 7260743.309343023225665 ], [ 528540.0, 7260736.689764766953886 ], [ 528530.0, 7260729.989718034863472 ], [ 528520.0, 7260723.233369001187384 ], [ 528510.0, 7260716.329821286723018 ], [ 528500.0, 7260708.896306284703314 ], [ 528490.0, 7260701.103693716228008 ], [ 528480.0, 7260693.670178715139627 ], [ 528470.000892210751772, 7260686.766630999743938 ], [ 528460.012066387105733, 7260680.0111741758883 ], [ 528450.099214585614391, 7260673.322301620617509 ], [ 528440.546306264819577, 7260666.788979352451861 ], [ 528432.08680969348643, 7260660.535132088698447 ], [ 528425.756988407694735, 7260655.309004518203437 ] ] } },
{ "type": "Feature", "properties": { "id": 11, "reference_id": 9, "dune_id": 9, "dune_name": "Inverted Y Dune", "acquisition_date": "2022-12-07", "length_m": 770.74855919807328 }, "geometry": { "type": "LineString", "coordinates": [ [ 529640.087148198392242, 7262264.243011591956019 ], [ 529640.447091679205187, 7262257.913190307095647 ], [ 529641.541395639418624, 7262249.453693735413253 ], [ 529643.681352890678681, 7262239.900785414502025 ], [ 529646.417861694935709, 7262229.987933613359928 ], [ 529648.917762426892295, 7262219.999107789248228 ], [ 529651.180559947970323, 7262210.0 ], [ 529654.031014405656606, 7262200.0 ], [ 529657.870324714574963, 7262190.0 ], [ 529662.216823483933695, 7262180.0 ], [ 529666.340995462262072, 7262170.0 ], [ 529670.0, 7262160.0 ], [ 529673.6598967484897, 7262150.0 ], [ 529677.793458481901325, 7262140.0 ], [ 529682.20654151821509, 7262130.0 ], [ 529686.340103251626715, 7262120.0 ], [ 529690.0, 7262110.0 ], [ 529693.659896748373285, 7262100.0 ], [ 529697.794350692536682, 7262090.0 ], [ 529702.216823483933695, 7262080.0 ], [ 529706.416077273548581, 7262070.0 ], [ 529710.360835691448301, 7262060.0 ], [ 529714.763590463669971, 7262050.0 ], [ 529720.0, 7262040.0 ], [ 529725.236409536330029, 7262030.0 ], [ 529729.639164308551699, 7262020.0 ], [ 529733.583922726451419, 7262010.0 ], [ 529737.783176516066305, 7262000.0 ], [ 529742.205649307463318, 7261990.0 ], [ 529746.340103251626715, 7261980.0 ], [ 529750.0, 7261970.0 ], [ 529753.659896748373285, 7261960.0 ], [ 529757.79345848178491, 7261950.0 ], [ 529762.205649307463318, 7261940.0 ], [ 529766.329821285791695, 7261930.0 ], [ 529769.924025978078134, 7261920.0 ], [ 529773.299953267676756, 7261910.0 ], [ 529776.700046732323244, 7261900.0 ], [ 529780.076866232673638, 7261890.0 ], [ 529783.681352890678681, 7261880.0 ], [ 529787.882391101680696, 7261870.0 ], [ 529792.664807373774238, 7261860.0 ], [ 529797.968647089437582, 7261850.0 ], [ 529804.129336780519225, 7261840.000000000931323 ], [ 529811.628543837927282, 7261830.0 ], [ 529820.458265855675563, 7261820.0 ], [ 529830.088040409144014, 7261810.0 ], [ 529840.011174176586792, 7261800.0 ], [ 529850.000892210635357, 7261790.0 ], [ 529860.0, 7261780.0 ], [ 529870.0, 7261770.0 ], [ 529880.0, 7261760.0 ], [ 529890.0, 7261750.000892210751772 ], [ 529900.0, 7261740.011174176819623 ], [ 529910.0, 7261730.087148198857903 ], [ 529920.0, 7261720.447983889840543 ], [ 529930.0, 7261711.551677605137229 ], [ 529940.0, 7261703.757326913066208 ], [ 529950.0, 7261696.777805175632238 ], [ 529960.0, 7261690.011174176819623 ], [ 529970.0, 7261683.311127444729209 ], [ 529980.0, 7261676.700938943773508 ], [ 529990.0, 7261670.076866232790053 ], [ 529999.999107789364643, 7261663.681352891027927 ], [ 530009.987933612894267, 7261657.882391102612019 ], [ 530019.900785414502025, 7261652.664807373657823 ], [ 530029.453693735180423, 7261647.96864709071815 ], [ 530037.91319030651357, 7261644.129336781799793 ], [ 530044.243011592305265, 7261641.628543837927282 ] ] } },
{ "type": "Feature", "properties": { "id": 12, "reference_id": 8, "dune_id": 8, "dune_name": "Inverted Y Dune", "acquisition_date": "2022-12-07", "length_m": 726.0116973976526 }, "geometry": { "type": "LineString", "coordinates": [ [ 530554.243011592305265, 7261171.999661495909095 ], [ 530547.91319030651357, 7261175.309004518203437 ], [ 530539.453693735296838, 7261180.534239877015352 ], [ 530529.900785414385609, 7261186.776912964880466 ], [ 530519.987933612894267, 7261193.223087035119534 ], [ 530509.999107789248228, 7261199.465760122984648 ], [ 530500.0, 7261204.690995481796563 ], [ 530490.0, 7261208.00033850595355 ], [ 530480.0, 7261209.464867912232876 ], [ 530470.0, 7261209.901677625253797 ], [ 530460.0, 7261209.987933613359928 ], [ 530450.0, 7261209.998215579427779 ], [ 530440.0, 7261209.9888258241117 ], [ 530430.000000000116415, 7261209.912851802073419 ], [ 530420.0, 7261209.552908320911229 ], [ 530410.0, 7261208.459496571682394 ], [ 530400.0, 7261206.329821285791695 ], [ 530390.0, 7261203.671070924028754 ], [ 530380.0, 7261201.551677605137229 ], [ 530370.0, 7261200.534239877015352 ], [ 530360.0, 7261200.534239877015352 ], [ 530350.0, 7261201.551677605137229 ], [ 530340.0, 7261203.671070924028754 ], [ 530330.0, 7261206.330713496543467 ], [ 530320.0, 7261208.470670748502016 ], [ 530310.0, 7261209.640948730520904 ], [ 530300.0, 7261210.371117657981813 ], [ 530290.0, 7261211.617369662038982 ], [ 530280.0, 7261214.127552360296249 ], [ 530270.0, 7261217.958365123718977 ], [ 530260.0, 7261222.588833352550864 ], [ 530250.0, 7261227.522447621449828 ], [ 530240.0, 7261232.588833352550864 ], [ 530230.0, 7261237.958365123718977 ], [ 530220.0, 7261244.128444569185376 ], [ 530210.000892210751772, 7261251.628543837927282 ], [ 530200.011174176586792, 7261260.458265855908394 ], [ 530190.087148198392242, 7261270.088040409609675 ], [ 530180.447983889840543, 7261280.0111741758883 ], [ 530171.552569815889001, 7261290.000892210751772 ], [ 530163.768501089070924, 7261300.0 ], [ 530156.864953374140896, 7261310.000000000931323 ], [ 530150.459158066427335, 7261320.0 ], [ 530144.861912838649005, 7261330.0 ], [ 530140.447983889840543, 7261340.0 ], [ 530136.777805175632238, 7261350.0 ], [ 530133.321409409865737, 7261360.0 ], [ 530130.011174176470377, 7261370.0 ], [ 530126.766630999278277, 7261380.0 ], [ 530123.670178714208305, 7261390.0 ], [ 530121.104585926048458, 7261400.0 ], [ 530118.907480461173691, 7261410.0 ], [ 530116.416969484300353, 7261420.0 ], [ 530113.680460680043325, 7261430.0 ], [ 530111.530221462948248, 7261440.0 ], [ 530110.359943480812944, 7261450.0 ], [ 530109.640056519303471, 7261460.0 ], [ 530108.470670747803524, 7261470.000000000931323 ], [ 530106.330713496543467, 7261480.0 ], [ 530103.670178714208305, 7261490.0 ], [ 530101.540503428783268, 7261500.0 ], [ 530100.447091679205187, 7261510.0 ], [ 530100.087148198508658, 7261520.0 ], [ 530100.010728071210906, 7261529.999553894624114 ], [ 530099.995305122458376, 7261539.993520701304078 ], [ 530099.956425900803879, 7261549.944359513930976 ], [ 530099.776454160455614, 7261559.6772395754233 ], [ 530099.229748285608366, 7261568.683442020788789 ], [ 530098.164910642895848, 7261576.078100949525833 ], [ 530096.835089357104152, 7261581.078100949525833 ] ] } },
{ "type": "Feature", "properties": { "id": 13, "reference_id": 4, "dune_id": 4, "dune_name": "The Star Dune", "acquisition_date": "2022-12-07", "length_m": 174.28435309885799 }, "geometry": { "type": "LineString", "coordinates": [ [ 533174.243011592421681, 7261903.223087035119534 ], [ 533167.913190306629986, 7261904.788425646722317 ], [ 533159.453693735180423, 7261904.778143681585789 ], [ 533149.900785414502025, 7261903.135938837192953 ], [ 533139.987933612894267, 7261901.005371340550482 ], [ 533129.999107789364643, 7261898.88423989713192 ], [ 533120.0, 7261896.328929075971246 ], [ 533110.0, 7261893.234261211939156 ], [ 533100.0, 7261890.0 ], [ 533090.0, 7261886.765738788992167 ], [ 533080.0, 7261883.670178714208305 ], [ 533070.0, 7261881.104585925117135 ], [ 533060.0, 7261878.906588250771165 ], [ 533050.000892210751772, 7261876.405795307829976 ], [ 533040.012066387105733, 7261873.594204692170024 ], [ 533030.099214585614391, 7261871.094303959980607 ], [ 533020.546306264819577, 7261868.906588250771165 ], [ 533012.08680969348643, 7261866.416969484649599 ], [ 533005.756988407694735, 7261863.681352891027927 ] ] } },
{ "type": "Feature", "properties": { "id": 14, "reference_id": 4, "dune_id": 4, "dune_name": "The Star Dune", "acquisition_date": "2022-12-07", "length_m": 204.4025645824849 }, "geometry": { "type": "LineString", "coordinates": [ [ 533215.756988407694735, 7261921.541395640000701 ], [ 533222.08680969348643, 7261923.681352891027927 ], [ 533230.546306264819577, 7261926.416969484649599 ], [ 533240.099214585730806, 7261928.906588250771165 ], [ 533250.012066387222148, 7261931.094303959980607 ], [ 533260.000892210751772, 7261933.594204692170024 ], [ 533270.0, 7261936.405795307829976 ], [ 533280.0, 7261938.905696040019393 ], [ 533290.0, 7261941.093411749228835 ], [ 533300.0, 7261943.583922727033496 ], [ 533310.0, 7261946.329821284860373 ], [ 533320.0, 7261948.545752558857203 ], [ 533330.0, 7261950.0 ], [ 533340.0, 7261951.454247441142797 ], [ 533350.0, 7261953.670178715139627 ], [ 533360.0, 7261956.416077272966504 ], [ 533369.999107789364643, 7261958.906588250771165 ], [ 533379.987933612894267, 7261961.093411749228835 ], [ 533389.900785414502025, 7261963.583030516281724 ], [ 533399.453693735296838, 7261966.318647109903395 ], [ 533407.91319030651357, 7261968.458604361861944 ], [ 533414.243011592421681, 7261969.552908321842551 ] ] } },
{ "type": "Feature", "properties": { "id": 15, "reference_id": 7, "dune_id": 7, "dune_name": "Inverted Y Dune", "acquisition_date": "2022-12-07", "length_m": 569.10945581944111 }, "geometry": { "type": "LineString", "coordinates": [ [ 530215.756988407694735, 7261649.999107790179551 ], [ 530222.08680969348643, 7261649.9888258241117 ], [ 530230.546306264703162, 7261649.912851802073419 ], [ 530240.099214585614391, 7261649.552908321842551 ], [ 530250.012066387105733, 7261648.458604361861944 ], [ 530260.000892210751772, 7261646.318647109903395 ], [ 530270.0, 7261643.583030516281724 ], [ 530280.0, 7261641.092519538477063 ], [ 530290.0, 7261638.895414074882865 ], [ 530300.0, 7261636.329821285791695 ], [ 530310.0, 7261633.233369001187384 ], [ 530320.0, 7261629.989718034863472 ], [ 530330.0, 7261626.688872555270791 ], [ 530340.0, 7261623.299061057157815 ], [ 530350.0, 7261619.92313376814127 ], [ 530360.0, 7261616.319539319723845 ], [ 530370.0, 7261612.128783075138927 ], [ 530380.0, 7261607.422340825200081 ], [ 530390.0, 7261602.479336800985038 ], [ 530400.0, 7261597.422340825200081 ], [ 530410.0, 7261592.128783075138927 ], [ 530420.0, 7261586.318647108972073 ], [ 530430.000000000116415, 7261579.911959591321647 ], [ 530440.0, 7261573.211912859231234 ], [ 530449.999107789248228, 7261566.241780877113342 ], [ 530459.988825823646039, 7261558.448322394862771 ], [ 530469.912851801607758, 7261549.552016110159457 ], [ 530479.552908320794813, 7261539.912851801142097 ], [ 530488.458604360581376, 7261529.9888258241117 ], [ 530496.318647109437734, 7261519.999107789248228 ], [ 530503.583030515816063, 7261510.0 ], [ 530511.092519538826309, 7261500.0 ], [ 530518.895414073951542, 7261490.0 ], [ 530526.329821285791695, 7261480.0 ], [ 530533.233369000838138, 7261470.000000000931323 ], [ 530539.989718034281395, 7261460.0 ], [ 530546.68976476660464, 7261450.0 ], [ 530553.310235233511776, 7261440.0 ], [ 530560.011174176470377, 7261430.0 ], [ 530566.777805175632238, 7261420.0 ], [ 530573.757326912600547, 7261410.0 ], [ 530581.551677605253644, 7261400.0 ], [ 530590.447983889840543, 7261390.0 ], [ 530600.087148198392242, 7261380.0 ], [ 530610.01028196583502, 7261370.000892210751772 ], [ 530619.988825823646039, 7261360.012066386640072 ], [ 530629.900785414502025, 7261350.099214585497975 ], [ 530639.453693735296838, 7261340.546306265518069 ], [ 530647.913190306629986, 7261332.086809693835676 ], [ 530654.243011592305265, 7261325.756988408043981 ] ] } }
]
}
