{
"type": "FeatureCollection",
"name": "crests_2018_11_2018-11-26",
"crs": { "type": "name", "properties": { "name": "urn:ogc:def:crs:EPSG::32733" } },
"features": [
{ "type": "Feature", "properties": { "id": 0, "reference_id": 7, "dune_id": 7, "dune_name": "Inverted Y Dune", "acquisition_date": "2018-11-26", "length_m": 429.08301700971748 }, "geometry": { "type": "LineString", "coordinates": [ [ 530295.756988407694735, 7261629.552908320911229 ], [ 530302.08680969348643, 7261628.458604359999299 ], [ 530310.546306264819577, 7261626.318647108972073 ], [ 530320.099214585614391, 7261623.582138305529952 ], [ 530330.012066387105733, 7261621.082237573340535 ], [ 530340.000892210751772, 7261618.819440051913261 ], [ 530350.0, 7261615.968985594809055 ], [ 530360.0, 7261612.129675285890698 ], [ 530370.0, 7261607.783176516182721 ], [ 530380.0, 7261603.659004538320005 ], [ 530390.0, 7261599.999107790179551 ], [ 530400.0, 7261596.328929075039923 ], [ 530410.0, 7261592.118501108139753 ], [ 530420.0, 7261587.335192626342177 ], [ 530430.000000000116415, 7261582.031352911144495 ], [ 530440.0, 7261575.870663220062852 ], [ 530450.0, 7261568.371456163004041 ], [ 530460.0, 7261559.541734145022929 ], [ 530469.999107789364643, 7261549.911959590390325 ], [ 530479.988825823529623, 7261539.9888258241117 ], [ 530489.912851801607758, 7261529.999107789248228 ], [ 530499.552016110159457, 7261520.0 ], [ 530508.448322394862771, 7261510.0 ], [ 530516.242673087399453, 7261500.0 ], [ 530523.222194824367762, 7261490.0 ], [ 530529.988825823529623, 7261480.0 ], [ 530536.689764766488224, 7261470.000000000931323 ], [ 530543.309343022760004, 7261460.0 ], [ 530550.0, 7261450.0 ], [ 530556.690656977239996, 7261440.0 ], [ 530563.310235233511776, 7261430.0 ], [ 530570.011174176470377, 7261420.0 ], [ 530576.776912964996882, 7261410.000892210751772 ], [ 530583.745260525494814, 7261400.012066387571394 ], [ 530591.452463019639254, 7261390.099214585497975 ], [ 530599.901677625137381, 7261380.546306265518069 ], [ 530608.000338505022228, 7261372.086809692904353 ], [ 530614.254185768775642, 7261365.756988408043981 ] ] } },
{ "type": "Feature", "properties": { "id": 1, "reference_id": 7, "dune_id": 7, "dune_name": "Inverted Y Dune", "acquisition_date": "2018-11-26", "length_m": 50.072140677094573 }, "geometry": { "type": "LineString", "coordinates": [ [ 530145.75698840781115, 7261641.539611218497157 ], [ 530152.085917482851073, 7261643.659004538320005 ], [ 530160.534239877713844, 7261646.242673087865114 ], [ 530170.000000000116415, 7261648.012404892593622 ], [ 530179.465760122402571, 7261648.012404892593622 ], [ 530187.914082517148927, 7261646.242673087865114 ], [ 530194.243011592421681, 7261643.659004538320005 ] ] } },
{ "type": "Feature", "properties": { "id": 2, "reference_id": 8, "dune_id": 8, "dune_name": "Inverted Y Dune", "acquisition_date": "2018-11-26", "length_m": 439.71319882815806 }, "geometry": { "type": "LineString", "coordinates": [ [ 530274.243011592421681, 7261211.999661495909095 ], [ 530267.913190306629986, 7261215.309896728955209 ], [ 530259.453693735180423, 7261220.546306265518069 ], [ 530249.900785414385609, 7261226.876127550378442 ], [ 530239.987933612894267, 7261233.76939329970628 ], [ 530229.999107789364643, 7261241.552569815889001 ], [ 530220.0, 7261250.447983888909221 ], [ 530210.000892210751772, 7261260.087148198857903 ], [ 530200.011174176586792, 7261270.011174176819623 ], [ 530190.088040409144014, 7261280.000892210751772 ], [ 530180.458265855675563, 7261290.0 ], [ 530171.628543837927282, 7261300.0 ], [ 530164.129336780519225, 7261310.000000000931323 ], [ 530157.968647089553997, 7261320.0 ], [ 530152.664807373890653, 7261330.0 ], [ 530147.882391101680696, 7261340.0 ], [ 530143.682245101314038, 7261350.0 ], [ 530140.087148198392242, 7261360.0 ], [ 530136.776912964996882, 7261370.0 ], [ 530133.671070924960077, 7261380.0 ], [ 530131.104585926048458, 7261390.0 ], [ 530128.907480461173691, 7261400.0 ], [ 530126.416077273664996, 7261410.0 ], [ 530123.670178714208305, 7261420.0 ], [ 530121.454247441026382, 7261430.0 ], [ 530120.0, 7261440.0 ], [ 530118.54664476972539, 7261450.0 ], [ 530116.340995462262072, 7261460.0 ], [ 530113.671070924960077, 7261470.000000000931323 ], [ 530111.540503428666852, 7261480.0 ], [ 530110.447091679205187, 7261490.0 ], [ 530110.087148198392242, 7261500.0 ], [ 530110.01028196583502, 7261510.0 ], [ 530109.989718034281395, 7261520.0 ], [ 530109.912851801607758, 7261530.0 ], [ 530109.552908320911229, 7261539.999553894624114 ], [ 530108.459496571333148, 7261549.993520701304078 ], [ 530106.329821285791695, 7261559.944359513930976 ], [ 530103.670178714208305, 7261569.6772395754233 ], [ 530101.540503428783268, 7261578.683442020788789 ], [ 530100.447091679205187, 7261586.078100949525833 ], [ 530100.087148198508658, 7261591.078100949525833 ] ] } },
{ "type": "Feature", "properties": { "id": 3, "reference_id": 8, "dune_id": 8, "dune_name": "Inverted Y Dune", "acquisition_date": "2018-11-26", "length_m": 88.486023184726946 }, "geometry": { "type": "LineString", "coordinates": [ [ 530394.243011592421681, 7261200.0 ], [ 530387.913190306629986, 7261200.0 ], [ 530379.453693735180423, 7261200.0 ], [ 530369.900785414385609, 7261200.0 ], [ 530359.987933612777852, 7261200.0 ], [ 530350.0, 7261200.0 ], [ 530340.012066387105733, 7261200.0 ], [ 530330.099214585614391, 7261200.0 ], [ 530320.546306264819577, 7261200.0 ], [ 530312.08680969348643, 7261200.0 ], [ 530305.756988407694735, 7261200.0 ] ] } },
{ "type": "Feature", "properties": { "id": 4, "reference_id": 8, "dune_id": 8, "dune_name": "Inverted Y Dune", "acquisition_date": "2018-11-26", "length_m": 139.49132627738692 }, "geometry": { "type": "LineString", "coordinates": [ [ 530554.243011592305265, 7261171.639718014746904 ], [ 530547.91319030651357, 7261174.21559276804328 ], [ 530539.453693735296838, 7261178.404564592055976 ], [ 530529.900785414385609, 7261184.117270393297076 ], [ 530519.987933612894267, 7261191.093411749228835 ], [ 530509.999107789248228, 7261198.372348371893167 ], [ 530500.0, 7261204.330159790813923 ], [ 530490.0, 7261207.913190307095647 ], [ 530480.0, 7261209.367437748238444 ], [ 530470.000892210635357, 7261209.453693735413253 ], [ 530460.012066387222148, 7261208.447430184110999 ], [ 530450.099214585614391, 7261206.328929075971246 ], [ 530440.546306264819577, 7261203.670178713276982 ], [ 530432.08680969348643, 7261201.540503428317606 ], [ 530425.756988407694735, 7261200.447091678157449 ] ] } },
{ "type": "Feature", "properties": { "id": 5, "reference_id": 1, "dune_id": 1, "dune_name": "Big Mommy Dune", "acquisition_date": "2018-11-26", "length_m": 387.43498249852445 }, "geometry": { "type": "LineString", "coordinates": [ [ 529084.204418591805734, 7261795.756988408043981 ], [ 529088.317416393663734, 7261802.086809692904353 ], [ 529093.669286503572948, 7261810.546306265518069 ], [ 529099.541734144324437, 7261820.099214586429298 ], [ 529104.614129249588586, 7261830.012066387571394 ], [ 529107.542964859982021, 7261840.000892211683095 ], [ 529107.836324073956348, 7261850.0 ], [ 529105.772340844618157, 7261860.0 ], [ 529102.019286523456685, 7261870.0 ], [ 529097.334300415590405, 7261880.0 ], [ 529092.117608898319304, 7261890.0 ], [ 529086.318647109321319, 7261900.0 ], [ 529079.923133767326362, 7261910.0 ], [ 529073.299953267676756, 7261920.0 ], [ 529066.700046732323244, 7261930.0 ], [ 529060.075974022038281, 7261940.0 ], [ 529053.670178714208305, 7261950.0 ], [ 529047.794350692536682, 7261960.0 ], [ 529042.206541518098675, 7261970.0 ], [ 529036.340995462378487, 7261980.0 ], [ 529030.012066387222148, 7261990.0 ], [ 529023.757326912600547, 7262000.0 ], [ 529018.317416393663734, 7262010.0 ], [ 529014.118162604048848, 7262020.0 ], [ 529011.190841913805343, 7262030.0 ], [ 529008.907480461173691, 7262040.0 ], [ 529006.32982128590811, 7262050.0 ], [ 529003.223087035119534, 7262060.0 ], [ 528999.912851801607758, 7262070.0 ], [ 528996.318647109437734, 7262080.0 ], [ 528992.129675285541452, 7262090.0 ], [ 528987.434407211840153, 7262099.999107789248228 ], [ 528982.577659175381996, 7262109.987933613359928 ], [ 528977.957472912967205, 7262119.900785414502025 ], [ 528974.128444569883868, 7262129.453693736344576 ], [ 528971.628543837927282, 7262137.913190307095647 ], [ 528970.458265855675563, 7262144.243011591956019 ] ] } },
{ "type": "Feature", "properties": { "id": 6, "reference_id": 1, "dune_id": 1, "dune_name": "Big Mommy Dune", "acquisition_date": "2018-11-26", "length_m": 208.91823209031176 }, "geometry": { "type": "LineString", "coordinates": [ [ 529020.0, 7261555.756988408043981 ], [ 529020.0, 7261562.086809693835676 ], [ 529020.0, 7261570.546306264586747 ], [ 529020.0, 7261580.099214585497975 ], [ 529020.0, 7261590.012066387571394 ], [ 529020.0, 7261600.000892210751772 ], [ 529020.0, 7261610.0 ], [ 529020.000892210751772, 7261620.0 ], [ 529020.011174176470377, 7261630.0 ], [ 529020.087148198508658, 7261640.0 ], [ 529020.447983889840543, 7261650.0 ], [ 529021.551677605137229, 7261660.0 ], [ 529023.758219123352319, 7261670.0 ], [ 529026.788087141467258, 7261680.0 ], [ 529030.088040409144014, 7261690.0 ], [ 529033.682245101314038, 7261700.0 ], [ 529037.881498890928924, 7261709.999107789248228 ], [ 529042.652740986552089, 7261719.987933613359928 ], [ 529047.869432503823191, 7261729.900785415433347 ], [ 529053.583030515699647, 7261739.453693736344576 ], [ 529059.541734144440852, 7261747.913190307095647 ], [ 529064.701277447980829, 7261754.243011591956019 ] ] } },
{ "type": "Feature", "properties": { "id": 7, "reference_id": 1, "dune_id": 1, "dune_name": "Big Mommy Dune", "acquisition_date": "2018-11-26", "length_m": 554.18938473239768 }, "geometry": { "type": "LineString", "coordinates": [ [ 529180.0, 7260998.921899050474167 ], [ 529180.000892210751772, 7261003.921899050474167 ], [ 529180.011174176470377, 7261011.316557979211211 ], [ 529180.087148198392242, 7261020.322760425508022 ], [ 529180.44619946856983, 7261030.055640487000346 ], [ 529181.529329252312891, 7261040.006479299627244 ], [ 529183.583030515816063, 7261050.000446105375886 ], [ 529185.882729606702924, 7261060.0 ], [ 529186.918993142666295, 7261070.0 ], [ 529185.881837395951152, 7261080.0 ], [ 529183.571856339345686, 7261090.0 ], [ 529181.442181053804234, 7261100.0 ], [ 529179.998215578612871, 7261110.0 ], [ 529178.535470593255013, 7261120.000000000931323 ], [ 529176.252955053118058, 7261130.0 ], [ 529173.212805069284514, 7261140.0 ], [ 529169.911959590855986, 7261150.0 ], [ 529166.318647109437734, 7261160.0 ], [ 529162.129675285541452, 7261170.0 ], [ 529157.433515001088381, 7261180.0 ], [ 529152.566484998911619, 7261190.0 ], [ 529147.869432503823191, 7261200.0 ], [ 529143.670178714208305, 7261210.000000000931323 ], [ 529140.000892210751772, 7261220.0 ], [ 529136.340103251626715, 7261230.0 ], [ 529132.20654151821509, 7261240.0 ], [ 529127.793458481901325, 7261250.0 ], [ 529123.6598967484897, 7261260.0 ], [ 529120.000000000116415, 7261270.0 ], [ 529116.340103251626715, 7261280.0 ], [ 529112.206541518098675, 7261290.0 ], [ 529107.794350692536682, 7261300.0 ], [ 529103.670178714208305, 7261310.000000000931323 ], [ 529100.075974022038281, 7261320.0 ], [ 529096.700046732323244, 7261330.0 ], [ 529093.299953267676756, 7261340.0 ], [ 529089.923133767442778, 7261350.0 ], [ 529086.319539319956675, 7261360.0 ], [ 529082.129675285425037, 7261370.0 ], [ 529077.433515001088381, 7261380.0 ], [ 529072.566484998911619, 7261390.0 ], [ 529067.870324714574963, 7261400.0 ], [ 529063.68046067992691, 7261410.0 ], [ 529060.076866232673638, 7261420.0 ], [ 529056.700938943075016, 7261430.0 ], [ 529053.310235233511776, 7261440.0 ], [ 529050.0, 7261450.0 ], [ 529046.690656977239996, 7261460.0 ], [ 529043.31023523339536, 7261470.000000000931323 ], [ 529040.011174176470377, 7261479.999107789248228 ], [ 529036.777805175632238, 7261489.987933613359928 ], [ 529033.757326912600547, 7261499.900785414502025 ], [ 529031.551677605253644, 7261509.453693735413253 ], [ 529030.447983889840543, 7261517.913190307095647 ], [ 529030.087148198508658, 7261524.243011592887342 ] ] } },
{ "type": "Feature", "properties": { "id": 8, "reference_id": 3, "dune_id": 3, "dune_name": "Big Mommy Dune", "acquisition_date": "2018-11-26", "length_m": 571.62688214996206 }, "geometry": { "type": "LineString", "coordinates": [ [ 529574.243011592305265, 7260631.540503429248929 ], [ 529567.91319030651357, 7260633.671070925891399 ], [ 529559.453693735296838, 7260636.340995462611318 ], [ 529549.900785414385609, 7260638.546644769608974 ], [ 529539.987933612894267, 7260640.000892210751772 ], [ 529529.999107789364643, 7260641.464529407210648 ], [ 529520.0, 7260643.746152736246586 ], [ 529510.0, 7260646.776020754128695 ], [ 529500.000000000116415, 7260650.000892210751772 ], [ 529490.0, 7260653.234261211939156 ], [ 529480.0, 7260656.329821285791695 ], [ 529470.0, 7260658.896306285634637 ], [ 529460.0, 7260661.103693716228008 ], [ 529450.0, 7260663.670178714208305 ], [ 529440.000000000116415, 7260666.766630999743938 ], [ 529430.0, 7260670.0111741758883 ], [ 529420.0, 7260673.321409409865737 ], [ 529410.0, 7260676.777805175632238 ], [ 529400.0, 7260680.447983888909221 ], [ 529390.0, 7260684.861912839114666 ], [ 529380.0, 7260690.459158066660166 ], [ 529370.000892210635357, 7260696.864953374490142 ], [ 529360.011174176353961, 7260703.768501089885831 ], [ 529350.087148198508658, 7260711.552569815889001 ], [ 529340.447091679205187, 7260720.447983889840543 ], [ 529331.54139563953504, 7260730.087148198857903 ], [ 529323.681352890678681, 7260740.011174176819623 ], [ 529316.416969484300353, 7260750.000892210751772 ], [ 529308.907480461173691, 7260760.0 ], [ 529301.104585926048458, 7260770.0 ], [ 529293.671070924960077, 7260780.000000000931323 ], [ 529286.776912964996882, 7260790.0 ], [ 529280.086255987756886, 7260800.0 ], [ 529273.671070924960077, 7260810.0 ], [ 529267.794350692536682, 7260820.0 ], [ 529262.205649307463318, 7260830.0 ], [ 529256.32982128590811, 7260840.0 ], [ 529249.924025978078134, 7260850.0 ], [ 529243.299953267676756, 7260860.0 ], [ 529236.700046732323244, 7260870.0 ], [ 529230.075974021921866, 7260880.0 ], [ 529223.670178714208305, 7260890.0 ], [ 529217.794350692536682, 7260900.0 ], [ 529212.206541518098675, 7260910.0 ], [ 529206.340995462262072, 7260920.0 ], [ 529200.012066387105733, 7260930.0 ], [ 529193.758219123352319, 7260939.999553894624114 ], [ 529188.328590570250526, 7260949.993520701304078 ], [ 529184.205310802557506, 7260959.944359514862299 ], [ 529181.638825803645886, 7260969.6772395754233 ], [ 529180.45915806631092, 7260978.683442020788789 ], [ 529180.088040409144014, 7260986.078100949525833 ], [ 529180.011174176470377, 7260991.078100949525833 ] ] } },
{ "type": "Feature", "properties": { "id": 9, "reference_id": 3, "dune_id": 3, "dune_name": "Big Mommy Dune", "acquisition_date": "2018-11-26", "length_m": 130.29079680224757 }, "geometry": { "type": "LineString", "coordinates": [ [ 529744.243011592421681, 7260610.011174176819623 ], [ 529737.91319030651357, 7260610.087148198857903 ], [ 529729.453693735180423, 7260610.447091680020094 ], [ 529719.900785414502025, 7260611.540503429248929 ], [ 529709.987933612894267, 7260613.670178715139627 ], [ 529699.999107789248228, 7260616.329821286723018 ], [ 529690.0, 7260618.459496571682394 ], [ 529680.0, 7260619.552908320911229 ], [ 529670.0, 7260619.913744012825191 ], [ 529660.000892210751772, 7260620.0 ], [ 529650.012066387105733, 7260620.086255988106132 ], [ 529640.099214585614391, 7260620.447091679088771 ], [ 529630.546306264819577, 7260621.540503429248929 ], [ 529622.08680969348643, 7260623.670178714208305 ], [ 529615.756988407694735, 7260626.329821285791695 ] ] } },
{ "type": "Feature", "properties": { "id": 10, "reference_id": 3, "dune_id": 3, "dune_name": "Big Mommy Dune", "acquisition_date": "2018-11-26", "length_m": 89.788036795100666 }, "geometry": { "type": "LineString", "coordinates": [ [ 529874.243011592305265, 7260608.905696040019393 ], [ 529867.91319030651357, 7260607.859150538221002 ], [ 529859.453693735180423, 7260607.253209229558706 ], [ 529849.900785414385609, 7260607.423233035951853 ], [ 529839.987933612894267, 7260607.366977032274008 ], [ 529830.0, 7260605.981051981449127 ], [ 529820.012066387105733, 7260603.681352891027927 ], [ 529810.099214585614391, 7260601.97731314226985 ], [ 529800.546306264819577, 7260601.986702897585928 ], [ 529792.08680969348643, 7260603.757326912134886 ], [ 529785.756988407694735, 7260606.340995462611318 ] ] } },
{ "type": "Feature", "properties": { "id": 11, "reference_id": 9, "dune_id": 9, "dune_name": "Inverted Y Dune", "acquisition_date": "2018-11-26", "length_m": 717.86481346061282 }, "geometry": { "type": "LineString", "coordinates": [ [ 530064.243011592305265, 7261631.638825803995132 ], [ 530057.91319030651357, 7261634.205310802906752 ], [ 530049.453693735180423, 7261638.328590570017695 ], [ 530039.900785414385609, 7261643.75821912381798 ], [ 530029.987933612894267, 7261650.011174176819623 ], [ 530019.999107789248228, 7261656.330713496543467 ], [ 530010.0, 7261662.13056749664247 ], [ 530000.0, 7261667.434407211840153 ], [ 529990.0, 7261672.576766964048147 ], [ 529980.0, 7261677.946298737078905 ], [ 529970.0, 7261684.041296372190118 ], [ 529960.0, 7261691.181452158838511 ], [ 529950.0, 7261698.917762426659465 ], [ 529940.0, 7261706.417861695401371 ], [ 529930.0, 7261713.681352891027927 ], [ 529920.0, 7261721.541395640000701 ], [ 529910.0, 7261730.447091680020094 ], [ 529900.0, 7261740.087148198857903 ], [ 529890.0, 7261750.011174176819623 ], [ 529880.0, 7261760.000892210751772 ], [ 529870.000892210751772, 7261770.0 ], [ 529860.011174176470377, 7261780.0 ], [ 529850.087148198392242, 7261790.0 ], [ 529840.447091679205187, 7261800.0 ], [ 529831.541395639418624, 7261810.0 ], [ 529823.682245101314038, 7261820.0 ], [ 529816.428143660770729, 7261830.0 ], [ 529808.994628659682348, 7261840.000000000931323 ], [ 529801.552569815889001, 7261850.0 ], [ 529795.221856319345534, 7261860.0 ], [ 529790.523957911878824, 7261870.0 ], [ 529786.788087141467258, 7261880.0 ], [ 529783.321409409982152, 7261890.0 ], [ 529780.000892210751772, 7261900.0 ], [ 529776.690656977239996, 7261910.0 ], [ 529773.309343022760004, 7261920.0 ], [ 529770.0, 7261930.0 ], [ 529766.689764766488224, 7261940.0 ], [ 529763.299061056924984, 7261950.0 ], [ 529759.923133767326362, 7261960.0 ], [ 529756.319539319956675, 7261970.0 ], [ 529752.128783074789681, 7261980.0 ], [ 529747.423233035369776, 7261990.0 ], [ 529742.490510976989754, 7262000.0 ], [ 529737.509489023126662, 7262010.0 ], [ 529732.576766964630224, 7262020.0 ], [ 529727.870324714574963, 7262030.0 ], [ 529723.670178714208305, 7262040.0 ], [ 529720.0, 7262050.0 ], [ 529716.329821285791695, 7262060.0 ], [ 529712.130567496176809, 7262070.0 ], [ 529707.433515001088381, 7262080.0 ], [ 529702.566484998911619, 7262090.0 ], [ 529697.869432503823191, 7262100.0 ], [ 529693.670178714208305, 7262110.0 ], [ 529690.000892210751772, 7262120.0 ], [ 529686.340103251626715, 7262130.0 ], [ 529682.20654151821509, 7262140.0 ], [ 529677.794350692536682, 7262149.999107789248228 ], [ 529673.671070924960077, 7262159.987933613359928 ], [ 529670.087148198508658, 7262169.900785414502025 ], [ 529666.788087141467258, 7262179.453693735413253 ], [ 529663.758219123352319, 7262187.913190307095647 ], [ 529661.551677605137229, 7262194.243011591956019 ] ] } },
{ "type": "Feature", "properties": { "id": 12, "reference_id": 5, "dune_id": 5, "dune_name": "The Star Dune", "acquisition_date": "2018-11-26", "length_m": 1140.8134442279927 }, "geometry": { "type": "LineString", "coordinates": [ [ 534334.702169658616185, 7261305.756988408043981 ], [ 534329.553800531546585, 7261312.086809693835676 ], [ 534323.681352890678681, 7261320.546306264586747 ], [ 534318.404564592172392, 7261330.099214585497975 ], [ 534314.65151027101092, 7261340.012066386640072 ], [ 534313.179329232312739, 7261350.000892210751772 ], [ 534314.129336780519225, 7261360.0 ], [ 534316.417861694935709, 7261370.0 ], [ 534318.471562958438881, 7261380.0 ], [ 534319.564974708016962, 7261390.0 ], [ 534320.0, 7261400.0 ], [ 534320.43591750273481, 7261410.0 ], [ 534321.539611218031496, 7261420.0 ], [ 534323.670178714208305, 7261430.0 ], [ 534326.329821285791695, 7261440.0 ], [ 534328.459496571333148, 7261450.0 ], [ 534329.552908320794813, 7261460.0 ], [ 534329.912851801607758, 7261470.000000000931323 ], [ 534329.988825823529623, 7261480.0 ], [ 534329.998215578729287, 7261490.0 ], [ 534329.988825823529623, 7261500.0 ], [ 534329.911959590855986, 7261510.0 ], [ 534329.54084193368908, 7261520.0 ], [ 534328.360281985718757, 7261530.0 ], [ 534325.783515021088533, 7261540.0 ], [ 534321.583369020721875, 7261550.0 ], [ 534315.783515021088533, 7261559.999107790179551 ], [ 534308.360281985718757, 7261569.9888258241117 ], [ 534299.54084193368908, 7261579.912851802073419 ], [ 534289.911959590855986, 7261589.552016110159457 ], [ 534279.988825823529623, 7261598.448322394862771 ], [ 534269.999107789248228, 7261606.242673087865114 ], [ 534260.0, 7261613.223087035119534 ], [ 534250.0, 7261619.999107789248228 ], [ 534240.0, 7261626.764846578240395 ], [ 534230.0, 7261633.659004538320005 ], [ 534220.0, 7261641.016545517370105 ], [ 534210.0, 7261648.448322394862771 ], [ 534200.0, 7261654.777251470834017 ], [ 534190.0, 7261659.464867912232876 ], [ 534180.0, 7261663.125656871125102 ], [ 534170.0, 7261666.241780877113342 ], [ 534160.0, 7261668.534578382968903 ], [ 534150.0, 7261669.999107789248228 ], [ 534140.0, 7261671.453355230391026 ], [ 534130.0, 7261673.659004537388682 ], [ 534120.0, 7261676.328929075039923 ], [ 534110.0, 7261678.459496570751071 ], [ 534100.0, 7261679.553800531663001 ], [ 534090.0, 7261679.924025977961719 ], [ 534080.0, 7261680.075974022038281 ], [ 534070.0, 7261680.446199468336999 ], [ 534060.0, 7261681.540503429248929 ], [ 534050.0, 7261683.670178715139627 ], [ 534040.0, 7261686.329821286723018 ], [ 534030.0, 7261688.460388783365488 ], [ 534020.0, 7261689.564082497730851 ], [ 534010.0, 7261690.0 ], [ 534000.0, 7261690.435917503200471 ], [ 533990.0, 7261691.540503429248929 ], [ 533980.0, 7261693.681352891027927 ], [ 533970.0, 7261696.417861695401371 ], [ 533960.0, 7261698.917762426659465 ], [ 533950.0, 7261701.181452158838511 ], [ 533940.0, 7261704.041296372190118 ], [ 533930.0, 7261707.947190947830677 ], [ 533920.0, 7261712.587048930115998 ], [ 533910.0, 7261717.511273444630206 ], [ 533900.0, 7261722.500792942941189 ], [ 533890.0, 7261727.500099267810583 ], [ 533880.0, 7261732.499900732189417 ], [ 533870.0, 7261737.500099267810583 ], [ 533860.0, 7261742.500792942941189 ], [ 533850.0, 7261747.511273445561528 ], [ 533840.0, 7261752.58794114086777 ], [ 533830.0, 7261757.958365123718977 ], [ 533820.0, 7261764.128444569185376 ], [ 533810.000892210635357, 7261771.628543837927282 ], [ 533800.011174176470377, 7261780.458265855908394 ], [ 533790.088040409144014, 7261790.088040409609675 ], [ 533780.45915806631092, 7261800.011174176819623 ], [ 533771.638825803645886, 7261810.000892210751772 ], [ 533764.205310802557506, 7261820.0 ], [ 533758.329482780885883, 7261830.0 ], [ 533753.768501089187339, 7261840.000000000931323 ], [ 533750.088040409144014, 7261850.0 ], [ 533746.700938942958601, 7261860.0 ], [ 533743.299953267676756, 7261870.0 ], [ 533739.923133767442778, 7261880.0 ], [ 533736.31953932007309, 7261890.0 ], [ 533732.128783074906096, 7261900.0 ], [ 533727.423233035253361, 7261910.0 ], [ 533722.489618766237982, 7261920.0 ], [ 533717.49831484653987, 7261930.0 ], [ 533712.489618766237982, 7261940.0 ], [ 533707.423233035369776, 7261950.0 ], [ 533702.129675285541452, 7261960.0 ], [ 533696.32982128590811, 7261970.0 ], [ 533690.0, 7261980.0 ], [ 533683.670624819584191, 7261989.999553894624114 ], [ 533677.875911802751943, 7261999.993520701304078 ], [ 533672.621233274578117, 7262009.944359513930976 ], [ 533667.745101249776781, 7262019.677239574491978 ], [ 533663.359085066244006, 7262028.683442020788789 ], [ 533659.793454480706714, 7262036.078100949525833 ], [ 533657.293355212779716, 7262041.078100949525833 ] ] } },
{ "type": "Feature", "properties": { "id": 13, "reference_id": 6, "dune_id": 6, "dune_name": "The Star Dune", "acquisition_date": "2018-11-26", "length_m": 749.80007580267159 }, "geometry": { "type": "LineString", "coordinates": [ [ 533653.164910642895848, 7262048.921899050474167 ], [ 533651.835089357104152, 7262053.921899050474167 ], [ 533650.770251714391634, 7262061.316557979211211 ], [ 533650.224438050296158, 7262070.322760425508022 ], [ 533650.054748275666498, 7262080.055640487000346 ], [ 533650.092735286685638, 7262090.006479298695922 ], [ 533650.447537784581073, 7262100.000446105375886 ], [ 533651.540503428783268, 7262110.0 ], [ 533653.670178714208305, 7262120.0 ], [ 533656.329821285791695, 7262130.0 ], [ 533658.459496571216732, 7262140.0 ], [ 533659.552908320911229, 7262150.0 ], [ 533659.912851801607758, 7262160.0 ], [ 533659.988825823529623, 7262170.0 ], [ 533660.0, 7262180.0 ], [ 533660.011174176470377, 7262190.0 ], [ 533660.087148198392242, 7262200.0 ], [ 533660.447091679088771, 7262210.0 ], [ 533661.540503428783268, 7262220.0 ], [ 533663.670178714208305, 7262230.0 ], [ 533666.329821285791695, 7262240.0 ], [ 533668.460388781968504, 7262250.0 ], [ 533669.56408249726519, 7262260.0 ], [ 533670.0, 7262270.0 ], [ 533670.43591750273481, 7262280.0 ], [ 533671.538719007279724, 7262290.0 ], [ 533673.659004537737928, 7262300.0 ], [ 533676.242673087399453, 7262310.0 ], [ 533678.012404892127961, 7262320.0 ], [ 533678.012404892127961, 7262330.0 ], [ 533676.242673087399453, 7262340.000000000931323 ], [ 533673.658112327102572, 7262350.0 ], [ 533671.528437041561119, 7262360.0 ], [ 533670.359943480696529, 7262370.0 ], [ 533669.639164308551699, 7262380.0 ], [ 533668.459496571333148, 7262390.0 ], [ 533666.243565298151225, 7262400.0 ], [ 533663.223087035119534, 7262410.0 ], [ 533659.999107789248228, 7262420.0 ], [ 533656.765738788526505, 7262430.0 ], [ 533653.670178714208305, 7262440.0 ], [ 533651.103693715413101, 7262450.0 ], [ 533648.896306284703314, 7262460.0 ], [ 533646.329821285791695, 7262470.0 ], [ 533643.234261211473495, 7262480.0 ], [ 533640.000000000116415, 7262490.0 ], [ 533636.765738788526505, 7262500.0 ], [ 533633.670178714208305, 7262510.0 ], [ 533631.104585926048458, 7262520.0 ], [ 533628.907480461173691, 7262530.0 ], [ 533626.416077273548581, 7262540.0 ], [ 533623.670178714208305, 7262550.0 ], [ 533621.454247440909967, 7262560.0 ], [ 533620.0, 7262570.0 ], [ 533618.54664476972539, 7262580.0 ], [ 533616.340103251626715, 7262590.0 ], [ 533613.659896748373285, 7262600.000000000931323 ], [ 533611.45335523027461, 7262610.0 ], [ 533610.0, 7262620.0 ], [ 533608.54664476972539, 7262630.0 ], [ 533606.340995462378487, 7262640.0 ], [ 533603.671070924960077, 7262650.0 ], [ 533601.539611218031496, 7262660.0 ], [ 533600.43591750273481, 7262670.0 ], [ 533600.0, 7262680.0 ], [ 533599.56408249726519, 7262690.0 ], [ 533598.460388781968504, 7262700.0 ], [ 533596.328929075039923, 7262710.0 ], [ 533593.659004537737928, 7262720.0 ], [ 533591.45335523027461, 7262730.0 ], [ 533590.0, 7262739.999107789248228 ], [ 533588.54664476972539, 7262749.987933613359928 ], [ 533586.340995462262072, 7262759.900785414502025 ], [ 533583.671070924960077, 7262769.453693735413253 ], [ 533581.540503428783268, 7262777.913190307095647 ], [ 533580.447091679205187, 7262784.243011591956019 ] ] } },
{ "type": "Feature", "properties": { "id": 14, "reference_id": 4, "dune_id": 4, "dune_name": "The Star Dune", "acquisition_date": "2018-11-26", "length_m": 168.67625980175686 }, "geometry": { "type": "LineString", "coordinates": [ [ 533015.756988407694735, 7261865.210682143457234 ], [ 533022.08680969348643, 7261870.0 ], [ 533030.546306264819577, 7261874.789317857474089 ], [ 533040.099214585614391, 7261878.013297103345394 ], [ 533050.012066387105733, 7261879.476934298872948 ], [ 533060.000892210751772, 7261879.989718034863472 ], [ 533070.0, 7261880.446199469268322 ], [ 533080.0, 7261881.626759417355061 ], [ 533090.0, 7261884.117270393297076 ], [ 533100.0, 7261887.870324714109302 ], [ 533110.0, 7261892.13056749664247 ], [ 533120.0, 7261895.894795993342996 ], [ 533129.999107789364643, 7261898.470670748502016 ], [ 533139.987933612894267, 7261900.075974022969604 ], [ 533149.900785414502025, 7261901.899554698728025 ], [ 533159.453693735180423, 7261905.199507966637611 ], [ 533167.913190306629986, 7261909.999107789248228 ], [ 533174.243011592421681, 7261914.789317857474089 ] ] } },
{ "type": "Feature", "properties": { "id": 15, "reference_id": 4, "dune_id": 4, "dune_name": "The Star Dune", "acquisition_date": "2018-11-26", "length_m": 50.538496708393424 }, "geometry": { "type": "LineString", "coordinates": [ [ 533225.756988407694735, 7261926.777805175632238 ], [ 533232.085917482851073, 7261925.221856320276856 ], [ 533240.534239877713844, 7261925.297830341383815 ], [ 533250.0, 7261927.22400464490056 ], [ 533259.465760122402571, 7261930.087148198857903 ], [ 533267.914082517265342, 7261933.234261211007833 ], [ 533274.243011592305265, 7261936.243565298616886 ] ] } },
{ "type": "Feature", "properties": { "id": 16, "reference_id": 4, "dune_id": 4, "dune_name": "The Star Dune", "acquisition_date": "2018-11-26", "length_m": 51.658280285205315 }, "geometry": { "type": "LineString", "coordinates": [ [ 533514.243011592305265, 7262009.911959591321647 ], [ 533507.914082517265342, 7262009.541734145022929 ], [ 533499.465760122402571, 7262008.372348373755813 ], [ 533490.0, 7262005.882729606702924 ], [ 533480.534239877597429, 7262002.129675285890698 ], [ 533472.085917482851073, 7261997.870324715040624 ], [ 533465.756988407694735, 7261994.117270393297076 ] ] } },
{ "type": "Feature", "properties": { "id": 17, "reference_id": 2, "dune_id": 2, "dune_name": "Big Mommy Dune", "acquisition_date": "2018-11-26", "length_m": 246.82399008987707 }, "geometry": { "type": "LineString", "coordinates": [ [ 528634.243011592421681, 7260785.871555430814624 ], [ 528627.91319030651357, 7260782.042527087032795 ], [ 528619.453693735180423, 7260777.422340825200081 ], [ 528609.900785414385609, 7260772.564700577408075 ], [ 528599.987933612894267, 7260767.85825832746923 ], [ 528589.999107789248228, 7260763.583030515350401 ], [ 528580.0, 7260759.552908321842551 ], [ 528570.0, 7260754.789317857474089 ], [ 528560.0, 7260748.459496570751071 ], [ 528550.0, 7260741.092519538477063 ], [ 528540.0, 7260734.018948018550873 ], [ 528530.0, 7260727.859150538221002 ], [ 528520.0, 7260722.139957251027226 ], [ 528510.0, 7260715.969877805560827 ], [ 528500.0, 7260708.820332262665033 ], [ 528490.0, 7260701.093411750160158 ], [ 528480.0, 7260693.669286504387856 ], [ 528470.000892210751772, 7260686.766630999743938 ], [ 528460.012066387105733, 7260680.0111741758883 ], [ 528450.099214585614391, 7260673.322301620617509 ], [ 528440.546306264819577, 7260666.788979352451861 ], [ 528432.08680969348643, 7260660.535132088698447 ], [ 528425.756988407694735, 7260655.309004518203437 ] ] } }
]
}
