{
"type": "FeatureCollection",
"name": "crests_2020_08_2020-08-27",
"crs": { "type": "name", "properties": { "name": "urn:ogc:def:crs:EPSG::32733" } },
"features": [
{ "type": "Feature", "properties": { "id": 0, "reference_id": 3, "dune_id": 3, "dune_name": "Big Mommy Dune", "acquisition_date": "2020-08-27", "length_m": 894.56894502808234 }, "geometry": { "type": "LineString", "coordinates": [ [ 529894.243011592421681, 7260600.0 ], [ 529887.91319030651357, 7260600.0 ], [ 529879.453693735180423, 7260600.0 ], [ 529869.900785414385609, 7260600.0 ], [ 529859.987933612894267, 7260600.0 ], [ 529849.999107789364643, 7260600.0 ], [ 529840.0, 7260600.0 ], [ 529830.0, 7260600.0 ], [ 529820.0, 7260600.000892210751772 ], [ 529810.0, 7260600.011174176819623 ], [ 529800.0, 7260600.087148198857903 ], [ 529790.0, 7260600.447091680020094 ], [ 529780.0, 7260601.540503429248929 ], [ 529770.0, 7260603.670178715139627 ], [ 529760.0, 7260606.329821286723018 ], [ 529750.0, 7260608.459496571682394 ], [ 529740.0, 7260609.552908320911229 ], [ 529730.0, 7260609.913744012825191 ], [ 529720.0, 7260610.0 ], [ 529710.0, 7260610.086255988106132 ], [ 529700.0, 7260610.447091680020094 ], [ 529690.0, 7260611.540503429248929 ], [ 529680.0, 7260613.670178715139627 ], [ 529670.0, 7260616.33071349747479 ], [ 529660.0, 7260618.470670748502016 ], [ 529650.0, 7260619.640056519769132 ], [ 529640.0, 7260620.35994348116219 ], [ 529630.0, 7260621.529329252429307 ], [ 529620.0, 7260623.669286503456533 ], [ 529610.0, 7260626.330713496543467 ], [ 529600.0, 7260628.470670747570693 ], [ 529590.0, 7260629.64005651883781 ], [ 529580.0, 7260630.35994348116219 ], [ 529570.0, 7260631.530221463181078 ], [ 529560.0, 7260633.680460680276155 ], [ 529550.0, 7260636.416969483718276 ], [ 529540.0, 7260638.906588250771165 ], [ 529530.0, 7260641.094303959980607 ], [ 529520.0, 7260643.594204693101346 ], [ 529510.0, 7260646.405795307829976 ], [ 529500.000000000116415, 7260648.906588250771165 ], [ 529490.0, 7260651.10458592697978 ], [ 529480.0, 7260653.670178714208305 ], [ 529470.0, 7260656.766630999743938 ], [ 529460.0, 7260660.010281966067851 ], [ 529450.0, 7260663.310235233977437 ], [ 529440.000000000116415, 7260666.690656977705657 ], [ 529430.0, 7260670.000892210751772 ], [ 529420.0, 7260673.320517199113965 ], [ 529410.0, 7260676.777805175632238 ], [ 529400.0, 7260680.447983888909221 ], [ 529390.0, 7260684.861912839114666 ], [ 529380.0, 7260690.459158066660166 ], [ 529370.000892210635357, 7260696.864953374490142 ], [ 529360.011174176353961, 7260703.768501089885831 ], [ 529350.087148198508658, 7260711.552569815889001 ], [ 529340.447091679205187, 7260720.447983889840543 ], [ 529331.54139563953504, 7260730.087148198857903 ], [ 529323.681352890678681, 7260740.011174176819623 ], [ 529316.416969484300353, 7260750.000892210751772 ], [ 529308.907480461173691, 7260760.0 ], [ 529301.104585926048458, 7260770.0 ], [ 529293.671070924960077, 7260780.000000000931323 ], [ 529286.776912964996882, 7260790.0 ], [ 529280.086255987756886, 7260800.0 ], [ 529273.671070924960077, 7260810.0 ], [ 529267.794350692536682, 7260820.0 ], [ 529262.205649307463318, 7260830.0 ], [ 529256.32982128590811, 7260840.0 ], [ 529249.924025978078134, 7260850.0 ], [ 529243.299953267676756, 7260860.0 ], [ 529236.700046732323244, 7260870.0 ], [ 529230.075974021921866, 7260880.0 ], [ 529223.670178714208305, 7260890.0 ], [ 529217.794350692536682, 7260900.0 ], [ 529212.206541518098675, 7260910.0 ], [ 529206.340995462262072, 7260920.0 ], [ 529200.012066387105733, 7260930.0 ], [ 529193.758219123352319, 7260939.999553894624114 ], [ 529188.328590570250526, 7260949.993520701304078 ], [ 529184.205310802557506, 7260959.944359514862299 ], [ 529181.638825803645886, 7260969.6772395754233 ], [ 529180.45915806631092, 7260978.683442020788789 ], [ 529180.088040409144014, 7260986.078100949525833 ], [ 529180.011174176470377, 7260991.078100949525833 ] ] } },
{ "type": "Feature", "properties": { "id": 1, "reference_id": 3, "dune_id": 3, "dune_name": "Big Mommy Dune", "acquisition_date": "2020-08-27", "length_m": 232.60396523574155 }, "geometry": { "type": "LineString", "coordinates": [ [ 530244.243011592421681, 7260570.011174176819623 ], [ 530237.91319030651357, 7260570.087148198857903 ], [ 530229.453693735180423, 7260570.447091680020094 ], [ 530219.900785414385609, 7260571.540503429248929 ], [ 530209.987933612894267, 7260573.670178715139627 ], [ 530199.999107789248228, 7260576.33071349747479 ], [ 530190.0, 7260578.470670748502016 ], [ 530180.0, 7260579.64005651883781 ], [ 530170.000000000116415, 7260580.35994348116219 ], [ 530160.0, 7260581.529329253360629 ], [ 530150.0, 7260583.670178714208305 ], [ 530140.0, 7260586.340995462611318 ], [ 530130.0, 7260588.546644769608974 ], [ 530120.0, 7260590.0 ], [ 530110.0, 7260591.453355230391026 ], [ 530100.0, 7260593.659896748140454 ], [ 530090.0, 7260596.340103251859546 ], [ 530080.0, 7260598.546644769608974 ], [ 530070.0, 7260599.999107789248228 ], [ 530060.000892210751772, 7260601.442181054502726 ], [ 530050.012066387222148, 7260603.571856340393424 ], [ 530040.099214585614391, 7260605.881837395951152 ], [ 530030.546306264819577, 7260606.918993143364787 ], [ 530022.08680969348643, 7260605.882729606702924 ], [ 530015.756988407694735, 7260603.583030516281724 ] ] } },
{ "type": "Feature", "properties": { "id": 2, "reference_id": 1, "dune_id": 1, "dune_name": "Big Mommy Dune", "acquisition_date": "2020-08-27", "length_m": 537.05192706185596 }, "geometry": { "type": "LineString", "coordinates": [ [ 529084.117270393413492, 7261795.756988408043981 ], [ 529087.870324714574963, 7261802.086809692904353 ], [ 529092.129675285541452, 7261810.546306265518069 ], [ 529095.882729606702924, 7261820.099214586429298 ], [ 529098.371456162305549, 7261830.012066387571394 ], [ 529099.530559967970476, 7261840.000892211683095 ], [ 529099.823919181828387, 7261850.0 ], [ 529099.529667757218704, 7261860.0 ], [ 529098.360281985718757, 7261870.0 ], [ 529095.79468919755891, 7261880.0 ], [ 529091.670517219230533, 7261890.0 ], [ 529086.231498910929076, 7261900.0 ], [ 529079.911959590855986, 7261910.0 ], [ 529073.298168846289627, 7261920.0 ], [ 529066.68976476660464, 7261930.0 ], [ 529060.0, 7261940.0 ], [ 529053.310235233511776, 7261950.0 ], [ 529046.700938942958601, 7261960.0 ], [ 529040.076866232673638, 7261970.0 ], [ 529033.681352890795097, 7261980.0 ], [ 529027.881498891045339, 7261990.0 ], [ 529022.653633197303861, 7262000.0 ], [ 529017.881498890928924, 7262010.0 ], [ 529013.681352890795097, 7262020.0 ], [ 529010.076866232673638, 7262030.0 ], [ 529006.700046732323244, 7262040.0 ], [ 529003.299953267676756, 7262050.0 ], [ 528999.923133767442778, 7262060.0 ], [ 528996.31953932007309, 7262070.0 ], [ 528992.128783074789681, 7262080.0 ], [ 528987.42234082473442, 7262090.0 ], [ 528982.478444589767605, 7262100.0 ], [ 528977.411166648264043, 7262110.0 ], [ 528972.041634876397438, 7262120.0 ], [ 528965.871555430116132, 7262130.0 ], [ 528958.371456162189133, 7262140.0 ], [ 528949.541734144324437, 7262149.999107789248228 ], [ 528939.911959590972401, 7262159.9888258241117 ], [ 528929.988825823529623, 7262169.911959591321647 ], [ 528919.999107789364643, 7262179.541734144091606 ], [ 528910.0, 7262188.37234837282449 ], [ 528900.0, 7262195.881837395951152 ], [ 528890.0, 7262202.117608899250627 ], [ 528880.000892210751772, 7262207.771110128611326 ], [ 528870.012066387105733, 7262213.57096412871033 ], [ 528860.099214585614391, 7262219.540841933339834 ], [ 528850.546306264819577, 7262224.701277447864413 ], [ 528842.086809693370014, 7262228.001230716705322 ], [ 528835.756988407694735, 7262229.464867912232876 ] ] } },
{ "type": "Feature", "properties": { "id": 3, "reference_id": 1, "dune_id": 1, "dune_name": "Big Mommy Dune", "acquisition_date": "2020-08-27", "length_m": 795.18504472399411 }, "geometry": { "type": "LineString", "coordinates": [ [ 529180.0, 7260998.921899050474167 ], [ 529180.0, 7261003.921899050474167 ], [ 529180.0, 7261011.316557979211211 ], [ 529180.0, 7261020.322760425508022 ], [ 529180.0, 7261030.055640487000346 ], [ 529180.0, 7261040.006479299627244 ], [ 529180.0, 7261050.000446105375886 ], [ 529180.0, 7261060.0 ], [ 529179.999107789364643, 7261070.0 ], [ 529179.988825823529623, 7261080.0 ], [ 529179.912851801607758, 7261090.0 ], [ 529179.552016110159457, 7261100.0 ], [ 529178.448322394862771, 7261110.0 ], [ 529176.242673087399453, 7261120.000000000931323 ], [ 529173.222194824367762, 7261130.0 ], [ 529169.988825823529623, 7261140.0 ], [ 529166.689764766488224, 7261150.0 ], [ 529163.309343022760004, 7261160.0 ], [ 529160.0, 7261170.0 ], [ 529156.68976476660464, 7261180.0 ], [ 529153.299061057041399, 7261190.0 ], [ 529149.923133767442778, 7261200.0 ], [ 529146.319539319956675, 7261210.000000000931323 ], [ 529142.128783074906096, 7261220.0 ], [ 529137.423233035369776, 7261230.0 ], [ 529132.490510976873338, 7261240.0 ], [ 529127.509489023126662, 7261250.0 ], [ 529122.576766964630224, 7261260.0 ], [ 529117.871216925210319, 7261270.0 ], [ 529113.680460680043325, 7261280.0 ], [ 529110.075974021921866, 7261290.0 ], [ 529106.689764766488224, 7261300.0 ], [ 529103.22397924575489, 7261310.000000000931323 ], [ 529099.563190286746249, 7261320.0 ], [ 529095.226127570495009, 7261330.0 ], [ 529090.0, 7261340.0 ], [ 529084.773872429504991, 7261350.0 ], [ 529080.436809713370167, 7261360.0 ], [ 529076.776020754361525, 7261370.0 ], [ 529073.310235233511776, 7261380.0 ], [ 529069.924918188713491, 7261390.0 ], [ 529066.329821285791695, 7261400.0 ], [ 529062.205649307463318, 7261410.0 ], [ 529057.794350692536682, 7261420.0 ], [ 529053.670178714208305, 7261430.0 ], [ 529050.075974021921866, 7261440.0 ], [ 529046.700938942958601, 7261450.0 ], [ 529043.311127444147132, 7261460.0 ], [ 529040.011174176470377, 7261470.000000000931323 ], [ 529036.776912964996882, 7261480.0 ], [ 529033.746152736246586, 7261490.0 ], [ 529031.464529406744987, 7261500.0 ], [ 529030.000892210751772, 7261510.0 ], [ 529028.54664476972539, 7261520.0 ], [ 529026.340995462378487, 7261530.0 ], [ 529023.671070924960077, 7261540.0 ], [ 529021.540503428783268, 7261550.0 ], [ 529020.447091679205187, 7261560.000000000931323 ], [ 529020.087148198508658, 7261570.0 ], [ 529020.011174176470377, 7261580.0 ], [ 529020.000892210751772, 7261590.0 ], [ 529020.0, 7261600.0 ], [ 529020.0, 7261610.0 ], [ 529020.0, 7261620.0 ], [ 529020.000892210751772, 7261630.0 ], [ 529020.011174176470377, 7261640.0 ], [ 529020.088040409144014, 7261650.0 ], [ 529020.458265855675563, 7261660.0 ], [ 529021.628543837927282, 7261670.0 ], [ 529024.128444569883868, 7261680.0 ], [ 529027.958365123718977, 7261690.0 ], [ 529032.588833351852372, 7261700.0 ], [ 529037.521555410232395, 7261709.999107789248228 ], [ 529042.576766964630224, 7261719.987933613359928 ], [ 529047.859150537988171, 7261729.900785415433347 ], [ 529053.582138305064291, 7261739.453693736344576 ], [ 529059.541734144440852, 7261747.913190307095647 ], [ 529064.701277447980829, 7261754.243011591956019 ] ] } },
{ "type": "Feature", "properties": { "id": 4, "reference_id": 4, "dune_id": 4, "dune_name": "The Star Dune", "acquisition_date": "2020-08-27", "length_m": 594.66212580794763 }, "geometry": { "type": "LineString", "coordinates": [ [ 533005.756988407694735, 7261870.087148198857903 ], [ 533012.08680969348643, 7261870.447091680020094 ], [ 533020.546306264819577, 7261871.540503429248929 ], [ 533030.099214585614391, 7261873.671070925891399 ], [ 533040.012066387105733, 7261876.340995462611318 ], [ 533050.000892210751772, 7261878.546644769608974 ], [ 533060.0, 7261880.0 ], [ 533070.0, 7261881.454247441142797 ], [ 533080.0, 7261883.670178714208305 ], [ 533090.0, 7261886.416077273897827 ], [ 533100.0, 7261888.906588250771165 ], [ 533110.0, 7261891.094303959980607 ], [ 533120.0, 7261893.594204692170024 ], [ 533130.0, 7261896.406687518581748 ], [ 533140.0, 7261898.916870215907693 ], [ 533150.0, 7261901.180559948086739 ], [ 533160.0, 7261904.030122195370495 ], [ 533170.0, 7261907.860042748972774 ], [ 533180.0, 7261912.139957251958549 ], [ 533190.0, 7261915.969877805560827 ], [ 533200.0, 7261918.819440051913261 ], [ 533210.0, 7261921.083129784092307 ], [ 533220.0, 7261923.593312481418252 ], [ 533230.0, 7261926.405795307829976 ], [ 533240.0, 7261928.906588250771165 ], [ 533250.0, 7261931.104585926048458 ], [ 533260.0, 7261933.670178715139627 ], [ 533270.0, 7261936.766630999743938 ], [ 533280.0, 7261940.010281966067851 ], [ 533290.0, 7261943.310235233977437 ], [ 533300.0, 7261946.689764766022563 ], [ 533310.0, 7261949.989718034863472 ], [ 533320.0, 7261953.233369001187384 ], [ 533330.0, 7261956.329821286723018 ], [ 533340.0, 7261958.896306285634637 ], [ 533350.0, 7261961.103693716228008 ], [ 533360.0, 7261963.670178714208305 ], [ 533370.0, 7261966.766630999743938 ], [ 533380.000000000116415, 7261970.010281966067851 ], [ 533390.0, 7261973.310235233977437 ], [ 533400.000000000116415, 7261976.690656977705657 ], [ 533410.0, 7261980.0 ], [ 533420.0, 7261983.310235233977437 ], [ 533430.0, 7261986.700938943773508 ], [ 533440.0, 7261990.075974022038281 ], [ 533450.0, 7261993.670178715139627 ], [ 533460.0, 7261997.794350693002343 ], [ 533470.0, 7262002.205649307928979 ], [ 533480.0, 7262006.329821286723018 ], [ 533490.0, 7262009.924025977961719 ], [ 533500.0, 7262013.299953267909586 ], [ 533510.0, 7262016.700046733021736 ], [ 533520.0, 7262020.075974022969604 ], [ 533529.999107789248228, 7262023.669286504387856 ], [ 533539.987933612894267, 7262027.783176516182721 ], [ 533549.900785414502025, 7262032.118501109071076 ], [ 533559.453693735296838, 7262035.881837395951152 ], [ 533567.91319030651357, 7262038.372348373755813 ], [ 533574.243011592421681, 7262039.541734144091606 ] ] } },
{ "type": "Feature", "properties": { "id": 5, "reference_id": 5, "dune_id": 5, "dune_name": "The Star Dune", "acquisition_date": "2020-08-27", "length_m": 1146.2684081983784 }, "geometry": { "type": "LineString", "coordinates": [ [ 534334.342226177919656, 7261305.756988408043981 ], [ 534328.460388781968504, 7261312.086809693835676 ], [ 534321.551677605137229, 7261320.546306264586747 ], [ 534315.744922020589001, 7261330.099214585497975 ], [ 534312.521834985469468, 7261340.012066386640072 ], [ 534312.085917482734658, 7261350.000892210751772 ], [ 534313.769393299822696, 7261360.0 ], [ 534316.3427798836492, 7261370.0 ], [ 534318.471562958438881, 7261380.0 ], [ 534319.640056519303471, 7261390.0 ], [ 534320.359943480696529, 7261400.0 ], [ 534321.529329252196476, 7261410.0 ], [ 534323.669286503572948, 7261420.0 ], [ 534326.329821285791695, 7261430.0 ], [ 534328.459496571333148, 7261440.0 ], [ 534329.552908320794813, 7261450.0 ], [ 534329.912851801607758, 7261460.0 ], [ 534329.988825823529623, 7261470.000000000931323 ], [ 534329.998215578729287, 7261480.0 ], [ 534329.988825823529623, 7261490.0 ], [ 534329.912851801607758, 7261500.0 ], [ 534329.552016110159457, 7261510.0 ], [ 534328.447430184110999, 7261520.0 ], [ 534326.23060670029372, 7261530.0 ], [ 534323.123872449505143, 7261540.0 ], [ 534319.453693735296838, 7261549.999107789248228 ], [ 534314.690103271510452, 7261559.9888258241117 ], [ 534308.000338505022228, 7261569.912851802073419 ], [ 534299.464867911767215, 7261579.552016110159457 ], [ 534289.901677625020966, 7261588.448322394862771 ], [ 534279.987933612894267, 7261596.242673087865114 ], [ 534269.999107789248228, 7261603.222194825299084 ], [ 534260.0, 7261609.9888258241117 ], [ 534250.0, 7261616.689764766953886 ], [ 534240.0, 7261623.309343023225665 ], [ 534230.0, 7261630.0 ], [ 534220.0, 7261636.689764766953886 ], [ 534210.0, 7261643.298168847337365 ], [ 534200.0, 7261649.911959591321647 ], [ 534190.0, 7261656.231498911976814 ], [ 534180.0, 7261661.670517219230533 ], [ 534170.0, 7261665.79558140784502 ], [ 534160.0, 7261668.37234837282449 ], [ 534150.0, 7261669.627990132197738 ], [ 534140.0, 7261670.359051270410419 ], [ 534130.0, 7261671.529329252429307 ], [ 534120.0, 7261673.669286503456533 ], [ 534110.0, 7261676.329821285791695 ], [ 534100.0, 7261678.459496570751071 ], [ 534090.0, 7261679.552908320911229 ], [ 534080.0, 7261679.913744011893868 ], [ 534070.0, 7261680.0 ], [ 534060.0, 7261680.086255988106132 ], [ 534050.0, 7261680.447091679088771 ], [ 534040.0, 7261681.540503429248929 ], [ 534030.0, 7261683.671070925891399 ], [ 534020.0, 7261686.340995462611318 ], [ 534010.0, 7261688.546644769608974 ], [ 534000.0, 7261690.0 ], [ 533990.0, 7261691.454247441142797 ], [ 533980.0, 7261693.670178714208305 ], [ 533970.0, 7261696.416077273897827 ], [ 533960.0, 7261698.907480461522937 ], [ 533950.0, 7261701.105478137731552 ], [ 533940.0, 7261703.681352891027927 ], [ 533930.0, 7261706.85288698785007 ], [ 533920.0, 7261710.447091680020094 ], [ 533910.0, 7261714.774764640256763 ], [ 533900.0, 7261720.000892210751772 ], [ 533890.0, 7261725.236409535631537 ], [ 533880.0, 7261729.640056519769132 ], [ 533870.0, 7261733.594204692170024 ], [ 533860.0, 7261737.860042748972774 ], [ 533850.0, 7261742.57676696497947 ], [ 533840.0, 7261747.521555410698056 ], [ 533830.0, 7261752.588833351619542 ], [ 533820.000892210635357, 7261757.958365123718977 ], [ 533810.011174176470377, 7261764.128444569185376 ], [ 533800.088040409144014, 7261771.628543837927282 ], [ 533790.458265855675563, 7261780.458265855908394 ], [ 533781.628543837927282, 7261790.088040409609675 ], [ 533774.129336780519225, 7261800.011174176819623 ], [ 533767.968647089437582, 7261810.000892210751772 ], [ 533762.664807373774238, 7261820.0 ], [ 533757.882391101680696, 7261830.0 ], [ 533753.681352890678681, 7261840.000000000931323 ], [ 533750.076866232673638, 7261850.0 ], [ 533746.700046732323244, 7261860.0 ], [ 533743.299953267676756, 7261870.0 ], [ 533739.923133767442778, 7261880.0 ], [ 533736.31953932007309, 7261890.0 ], [ 533732.128783074906096, 7261900.0 ], [ 533727.423233035253361, 7261910.0 ], [ 533722.489618766237982, 7261920.0 ], [ 533717.49831484653987, 7261930.0 ], [ 533712.489618766237982, 7261940.0 ], [ 533707.423233035369776, 7261950.0 ], [ 533702.128783074789681, 7261960.0 ], [ 533696.31953932007309, 7261970.0 ], [ 533689.923133767326362, 7261980.0 ], [ 533683.299953267676756, 7261989.999553894624114 ], [ 533676.700938943075016, 7261999.993520701304078 ], [ 533670.088040409144014, 7262009.944359513930976 ], [ 533663.768501089187339, 7262019.677239574491978 ], [ 533658.329482780769467, 7262028.683442020788789 ], [ 533654.20531080244109, 7262036.078100949525833 ], [ 533651.638825803645886, 7262041.078100949525833 ] ] } },
{ "type": "Feature", "properties": { "id": 6, "reference_id": 6, "dune_id": 6, "dune_name": "The Star Dune", "acquisition_date": "2020-08-27", "length_m": 709.01899079225643 }, "geometry": { "type": "LineString", "coordinates": [ [ 533650.000892210751772, 7262048.921899050474167 ], [ 533650.011174176470377, 7262053.921899050474167 ], [ 533650.087148198508658, 7262061.316557979211211 ], [ 533650.447091679205187, 7262070.322760425508022 ], [ 533651.540503428783268, 7262080.055640487000346 ], [ 533653.670178714208305, 7262090.006479298695922 ], [ 533656.329821285791695, 7262100.000446105375886 ], [ 533658.459496571216732, 7262110.0 ], [ 533659.552908320911229, 7262120.0 ], [ 533659.912851801607758, 7262130.0 ], [ 533659.988825823529623, 7262140.0 ], [ 533659.999107789248228, 7262150.0 ], [ 533660.0, 7262160.0 ], [ 533660.0, 7262170.0 ], [ 533660.000892210751772, 7262180.0 ], [ 533660.011174176470377, 7262190.0 ], [ 533660.087148198392242, 7262200.0 ], [ 533660.447091679088771, 7262210.0 ], [ 533661.540503428783268, 7262220.0 ], [ 533663.670178714208305, 7262230.0 ], [ 533666.330713496543467, 7262240.0 ], [ 533668.470670747803524, 7262250.0 ], [ 533669.640056519303471, 7262260.0 ], [ 533670.359943480696529, 7262270.0 ], [ 533671.529329252196476, 7262280.0 ], [ 533673.669286503456533, 7262290.0 ], [ 533676.328929075156339, 7262300.0 ], [ 533678.448322394862771, 7262310.0 ], [ 533679.465760122518986, 7262320.0 ], [ 533679.465760122518986, 7262330.0 ], [ 533678.448322394862771, 7262340.000000000931323 ], [ 533676.328036864520982, 7262350.0 ], [ 533673.659004537737928, 7262360.0 ], [ 533671.453355230391026, 7262370.0 ], [ 533670.0, 7262380.0 ], [ 533668.545752559090033, 7262390.0 ], [ 533666.329821285791695, 7262400.0 ], [ 533663.583922726451419, 7262410.0 ], [ 533661.092519538942724, 7262420.0 ], [ 533658.895414073951542, 7262430.0 ], [ 533656.329821285791695, 7262440.0 ], [ 533653.233369000838138, 7262450.0 ], [ 533649.989718034281395, 7262460.0 ], [ 533646.689764766488224, 7262470.0 ], [ 533643.310235233511776, 7262480.0 ], [ 533640.01028196583502, 7262490.0 ], [ 533636.766630999278277, 7262500.0 ], [ 533633.670178714208305, 7262510.0 ], [ 533631.104585926048458, 7262520.0 ], [ 533628.906588250421919, 7262530.0 ], [ 533626.405795307713561, 7262540.0 ], [ 533623.594204692170024, 7262550.0 ], [ 533621.094303960213438, 7262560.0 ], [ 533618.906588250421919, 7262570.0 ], [ 533616.416077273664996, 7262580.0 ], [ 533613.670178714208305, 7262590.0 ], [ 533611.454247441026382, 7262600.000000000931323 ], [ 533610.0, 7262610.0 ], [ 533608.54664476972539, 7262620.0 ], [ 533606.340995462378487, 7262630.0 ], [ 533603.671070924960077, 7262640.0 ], [ 533601.539611218031496, 7262650.0 ], [ 533600.43591750273481, 7262660.0 ], [ 533600.0, 7262670.0 ], [ 533599.56408249726519, 7262680.0 ], [ 533598.460388781968504, 7262690.0 ], [ 533596.329821285791695, 7262699.999107790179551 ], [ 533593.670178714208305, 7262709.987933613359928 ], [ 533591.540503428783268, 7262719.900785414502025 ], [ 533590.447091679205187, 7262729.453693736344576 ], [ 533590.087148198392242, 7262737.913190307095647 ], [ 533590.011174176470377, 7262744.243011592887342 ] ] } },
{ "type": "Feature", "properties": { "id": 7, "reference_id": 8, "dune_id": 8, "dune_name": "Inverted Y Dune", "acquisition_date": "2020-08-27", "length_m": 523.70989506491287 }, "geometry": { "type": "LineString", "coordinates": [ [ 530354.243011592305265, 7261200.087148198857903 ], [ 530347.91319030651357, 7261200.447091678157449 ], [ 530339.453693735180423, 7261201.540503428317606 ], [ 530329.900785414502025, 7261203.671070924028754 ], [ 530319.987933612894267, 7261206.340995462611318 ], [ 530309.999107789364643, 7261208.546644769608974 ], [ 530300.0, 7261210.000892211683095 ], [ 530290.0, 7261211.46542161796242 ], [ 530280.0, 7261213.757326913997531 ], [ 530270.0, 7261216.86406116373837 ], [ 530260.0, 7261220.459158066660166 ], [ 530250.0, 7261224.862805049866438 ], [ 530240.0, 7261230.459158066660166 ], [ 530230.0, 7261236.864953374490142 ], [ 530220.0, 7261243.768501089885831 ], [ 530210.000892210751772, 7261251.552569815889001 ], [ 530200.011174176586792, 7261260.447983890771866 ], [ 530190.088040409144014, 7261270.087148198857903 ], [ 530180.458265855675563, 7261280.0111741758883 ], [ 530171.628543837927282, 7261290.000892210751772 ], [ 530164.129336780519225, 7261300.0 ], [ 530157.969539300072938, 7261310.000000000931323 ], [ 530152.675089339609258, 7261320.0 ], [ 530147.958365123718977, 7261330.0 ], [ 530144.042188582126983, 7261340.0 ], [ 530141.181452158722095, 7261350.0 ], [ 530138.916870216256939, 7261360.0 ], [ 530136.406687518465333, 7261370.0 ], [ 530133.594204692170024, 7261380.0 ], [ 530131.094303960213438, 7261390.0 ], [ 530128.906588250538334, 7261400.0 ], [ 530126.416969484183937, 7261410.0 ], [ 530123.680460680043325, 7261420.0 ], [ 530121.530221462948248, 7261430.0 ], [ 530120.359943480812944, 7261440.0 ], [ 530119.640056519303471, 7261450.0 ], [ 530118.470670747803524, 7261460.0 ], [ 530116.330713496543467, 7261470.000000000931323 ], [ 530113.670178714208305, 7261480.0 ], [ 530111.539611218031496, 7261490.0 ], [ 530110.43591750273481, 7261500.0 ], [ 530110.0, 7261510.0 ], [ 530109.564082497381605, 7261520.0 ], [ 530108.460388781968504, 7261530.0 ], [ 530106.329375180532224, 7261539.999553894624114 ], [ 530103.664591626031324, 7261549.993520701304078 ], [ 530101.496929329470731, 7261559.944359513930976 ], [ 530100.223545839544386, 7261569.6772395754233 ], [ 530099.316896484117024, 7261578.683442020788789 ], [ 530098.176084819366224, 7261586.078100949525833 ], [ 530096.835981567739509, 7261591.078100949525833 ] ] } },
{ "type": "Feature", "properties": { "id": 8, "reference_id": 8, "dune_id": 8, "dune_name": "Inverted Y Dune", "acquisition_date": "2020-08-27", "length_m": 158.12563819908357 }, "geometry": { "type": "LineString", "coordinates": [ [ 530395.756988407694735, 7261210.000000000931323 ], [ 530402.08680969348643, 7261210.000000000931323 ], [ 530410.546306264819577, 7261210.000000000931323 ], [ 530420.099214585614391, 7261210.000000000931323 ], [ 530430.012066387222148, 7261210.000000000931323 ], [ 530440.000892210751772, 7261210.000000000931323 ], [ 530450.0, 7261209.999107790179551 ], [ 530460.0, 7261209.987933613359928 ], [ 530470.0, 7261209.901677625253797 ], [ 530480.0, 7261209.464867912232876 ], [ 530490.0, 7261208.00033850595355 ], [ 530499.999107789248228, 7261204.690995481796563 ], [ 530509.987933612894267, 7261199.465760122984648 ], [ 530519.900785414385609, 7261193.223087035119534 ], [ 530529.453693735296838, 7261186.776912964880466 ], [ 530537.91319030651357, 7261180.534239877015352 ], [ 530544.243011592305265, 7261175.309004518203437 ] ] } },
{ "type": "Feature", "properties": { "id": 9, "reference_id": 9, "dune_id": 9, "dune_name": "Inverted Y Dune", "acquisition_date": "2020-08-27", "length_m": 759.81351504118459 }, "geometry": { "type": "LineString", "coordinates": [ [ 530091.078100949525833, 7261598.910724874585867 ], [ 530086.078100949409418, 7261603.834750852547586 ], [ 530078.683442020905204, 7261610.868574090301991 ], [ 530069.677239574841224, 7261618.771082820370793 ], [ 530059.944359513698146, 7261626.297421364113688 ], [ 530049.993520701071247, 7261633.218392157927155 ], [ 530039.999553894624114, 7261639.913297906517982 ], [ 530030.0, 7261646.329821286723018 ], [ 530020.0, 7261652.21593127399683 ], [ 530010.0, 7261657.870324715040624 ], [ 530000.0, 7261664.031014405190945 ], [ 529990.0, 7261671.179667737334967 ], [ 529980.0, 7261678.906588250771165 ], [ 529970.0, 7261686.33071349747479 ], [ 529960.0, 7261693.234261211939156 ], [ 529950.0, 7261700.000892210751772 ], [ 529940.0, 7261706.776912964880466 ], [ 529930.0, 7261713.757326913066208 ], [ 529920.0, 7261721.551677605137229 ], [ 529910.0, 7261730.447983890771866 ], [ 529900.0, 7261740.087148198857903 ], [ 529890.0, 7261750.011174176819623 ], [ 529880.0, 7261760.000892210751772 ], [ 529870.0, 7261770.0 ], [ 529860.000892210751772, 7261780.0 ], [ 529850.011174176470377, 7261790.0 ], [ 529840.087148198392242, 7261800.0 ], [ 529830.447983889840543, 7261810.0 ], [ 529821.551677605137229, 7261820.0 ], [ 529813.758219123352319, 7261830.0 ], [ 529806.78897935221903, 7261840.000000000931323 ], [ 529800.099214585614391, 7261850.0 ], [ 529793.768501089070924, 7261860.0 ], [ 529788.318308604415506, 7261870.0 ], [ 529784.118162604048848, 7261880.0 ], [ 529781.190841913805343, 7261890.0 ], [ 529778.907480461173691, 7261900.0 ], [ 529776.330713496543467, 7261910.0 ], [ 529773.233369000838138, 7261920.0 ], [ 529769.988825823646039, 7261930.0 ], [ 529766.678590590134263, 7261940.0 ], [ 529763.223087035119534, 7261950.0 ], [ 529759.563190286629833, 7261960.0 ], [ 529755.226127570495009, 7261970.0 ], [ 529749.999107789364643, 7261980.0 ], [ 529744.763590463786386, 7261990.0 ], [ 529740.360835691448301, 7262000.0 ], [ 529736.416077273548581, 7262010.0 ], [ 529732.216823483933695, 7262020.0 ], [ 529727.794350692536682, 7262030.0 ], [ 529723.6598967484897, 7262040.0 ], [ 529719.999107789248228, 7262050.0 ], [ 529716.329821285791695, 7262060.0 ], [ 529712.130567496176809, 7262070.0 ], [ 529707.433515001088381, 7262080.0 ], [ 529702.565592788159847, 7262090.0 ], [ 529697.859150537988171, 7262100.0 ], [ 529693.594204692170024, 7262110.0 ], [ 529689.640056519303471, 7262120.0 ], [ 529685.236409536213614, 7262130.0 ], [ 529680.000892210751772, 7262140.0 ], [ 529674.774764640256763, 7262149.999107789248228 ], [ 529670.447983889840543, 7262159.987933613359928 ], [ 529666.864061163389124, 7262169.900785414502025 ], [ 529663.768501089070924, 7262179.453693735413253 ], [ 529661.552569815889001, 7262187.913190307095647 ], [ 529660.447983889840543, 7262194.243011591956019 ] ] } },
{ "type": "Feature", "properties": { "id": 10, "reference_id": 2, "dune_id": 2, "dune_name": "Big Mommy Dune", "acquisition_date": "2020-08-27", "length_m": 767.93559506543818 }, "geometry": { "type": "LineString", "coordinates": [ [ 529134.243011592421681, 7260968.448322394862771 ], [ 529127.91319030651357, 7260966.242673087865114 ], [ 529119.453693735296838, 7260963.222194824367762 ], [ 529109.900785414385609, 7260959.987933613359928 ], [ 529099.987933612894267, 7260956.678590590134263 ], [ 529089.999107789248228, 7260953.223087035119534 ], [ 529080.0, 7260949.564082497730851 ], [ 529070.0, 7260945.23640953656286 ], [ 529060.0, 7260940.075974022038281 ], [ 529050.0, 7260935.134708121418953 ], [ 529040.0, 7260931.541395640000701 ], [ 529030.0, 7260928.992844238877296 ], [ 529020.0, 7260926.416969484649599 ], [ 529010.0, 7260923.595096902921796 ], [ 529000.0, 7260921.094303959980607 ], [ 528990.0, 7260918.905696040019393 ], [ 528980.0, 7260916.405795307829976 ], [ 528970.0, 7260913.594204692170024 ], [ 528960.0, 7260911.093411749228835 ], [ 528950.0, 7260908.895414074882865 ], [ 528940.0, 7260906.329821286723018 ], [ 528930.0, 7260903.234261211939156 ], [ 528920.0, 7260900.0 ], [ 528910.0, 7260896.765738788992167 ], [ 528900.0, 7260893.670178714208305 ], [ 528890.0, 7260891.103693716228008 ], [ 528880.0, 7260888.896306284703314 ], [ 528870.0, 7260886.329821286723018 ], [ 528860.0, 7260883.233369002118707 ], [ 528850.0, 7260879.989718034863472 ], [ 528840.0, 7260876.689764766953886 ], [ 528830.0, 7260873.309343023225665 ], [ 528820.0, 7260870.0 ], [ 528810.0, 7260866.690656977705657 ], [ 528800.0, 7260863.309343023225665 ], [ 528790.0, 7260860.0 ], [ 528780.0, 7260856.689764766953886 ], [ 528770.0, 7260853.299061057157815 ], [ 528760.0, 7260849.92313376814127 ], [ 528750.0, 7260846.319539319723845 ], [ 528740.0, 7260842.128783075138927 ], [ 528730.0, 7260837.423233035951853 ], [ 528720.0, 7260832.489618767052889 ], [ 528710.0, 7260827.499207057058811 ], [ 528700.0, 7260822.499900732189417 ], [ 528690.0, 7260817.500099267810583 ], [ 528680.0, 7260812.499900732189417 ], [ 528670.0, 7260807.500099267810583 ], [ 528660.0, 7260802.499900732189417 ], [ 528650.0, 7260797.500099267810583 ], [ 528640.0, 7260792.499900732189417 ], [ 528630.0, 7260787.499207057058811 ], [ 528620.0, 7260782.489618767052889 ], [ 528610.0, 7260777.423233035951853 ], [ 528600.0, 7260772.129675285890698 ], [ 528590.0, 7260766.329821285791695 ], [ 528580.0, 7260759.999107789248228 ], [ 528570.0, 7260753.659896748140454 ], [ 528560.0, 7260747.793458482250571 ], [ 528550.0, 7260742.205649307928979 ], [ 528540.0, 7260736.328929075971246 ], [ 528530.0, 7260729.913744011893868 ], [ 528520.0, 7260723.223087035119534 ], [ 528510.0, 7260716.328929075971246 ], [ 528500.0, 7260708.896306284703314 ], [ 528490.0, 7260701.103693716228008 ], [ 528480.000892210751772, 7260693.671070925891399 ], [ 528470.012066387105733, 7260686.777805175632238 ], [ 528460.099214585614391, 7260680.098322374746203 ], [ 528450.546306264819577, 7260673.76939329970628 ], [ 528442.08680969348643, 7260668.329482780769467 ], [ 528435.756988407694735, 7260664.205310802906752 ] ] } },
{ "type": "Feature", "properties": { "id": 11, "reference_id": 7, "dune_id": 7, "dune_name": "Inverted Y Dune", "acquisition_date": "2020-08-27", "length_m": 608.99882309673171 }, "geometry": { "type": "LineString", "coordinates": [ [ 530654.243011592305265, 7261325.756988408043981 ], [ 530647.913190306629986, 7261332.086809693835676 ], [ 530639.453693735296838, 7261340.546306265518069 ], [ 530629.900785414502025, 7261350.099214585497975 ], [ 530619.988825823646039, 7261360.012066386640072 ], [ 530610.01028196583502, 7261370.000892210751772 ], [ 530600.087148198392242, 7261380.0 ], [ 530590.447983889840543, 7261390.0 ], [ 530581.551677605253644, 7261400.0 ], [ 530573.757326912600547, 7261410.0 ], [ 530566.777805175632238, 7261420.0 ], [ 530560.011174176470377, 7261430.0 ], [ 530553.310235233511776, 7261440.0 ], [ 530546.690656977239996, 7261450.0 ], [ 530540.0, 7261460.0 ], [ 530533.309343022760004, 7261470.000000000931323 ], [ 530526.689764766488224, 7261480.0 ], [ 530519.988825823529623, 7261490.0 ], [ 530513.222194824367762, 7261500.0 ], [ 530506.242673087399453, 7261510.0 ], [ 530498.448322394862771, 7261519.999107789248228 ], [ 530489.552016110159457, 7261529.9888258241117 ], [ 530479.912851801607758, 7261539.912851801142097 ], [ 530469.988825823529623, 7261549.552016110159457 ], [ 530459.999107789364643, 7261558.448322394862771 ], [ 530450.0, 7261566.241780877113342 ], [ 530440.0, 7261573.211912859231234 ], [ 530430.000000000116415, 7261579.911959591321647 ], [ 530420.0, 7261586.317754898220301 ], [ 530410.0, 7261592.118501108139753 ], [ 530400.0, 7261597.346366802230477 ], [ 530390.0, 7261602.11939332075417 ], [ 530380.0, 7261606.328929075039923 ], [ 530370.0, 7261609.999107789248228 ], [ 530360.0, 7261613.659896748140454 ], [ 530350.0, 7261617.793458482250571 ], [ 530340.0, 7261622.205649307928979 ], [ 530330.0, 7261626.328929075039923 ], [ 530320.0, 7261629.912851801142097 ], [ 530310.0, 7261633.211912858299911 ], [ 530300.0, 7261636.241780877113342 ], [ 530290.0, 7261638.449214605614543 ], [ 530280.0, 7261639.562298076227307 ], [ 530270.0, 7261639.9888258241117 ], [ 530260.0, 7261640.348769304342568 ], [ 530250.0, 7261641.092519538477063 ], [ 530240.0, 7261642.13056749664247 ], [ 530230.0, 7261642.67081674747169 ], [ 530220.000892210635357, 7261642.216823484748602 ], [ 530210.012066387105733, 7261641.540503429248929 ], [ 530200.099214585497975, 7261641.900446910411119 ], [ 530190.546306264819577, 7261643.746152737177908 ], [ 530182.08680969348643, 7261646.340103251859546 ], [ 530175.756988407694735, 7261648.460388782434165 ] ] } }
]
}
