{
"type": "FeatureCollection",
"name": "crests_2017_11_2017-11-16",
"crs": { "type": "name", "properties": { "name": "urn:ogc:def:crs:EPSG::32733" } },
"features": [
{ "type": "Feature", "properties": { "id": 0, "reference_id": 1, "dune_id": 1, "dune_name": "Big Mommy Dune", "acquisition_date": "2017-11-16", "length_m": 109.35523700341014 }, "geometry": { "type": "LineString", "coordinates": [ [ 529020.0, 7261555.756988408043981 ], [ 529020.0, 7261562.086809693835676 ], [ 529020.0, 7261570.546306264586747 ], [ 529020.0, 7261580.099214585497975 ], [ 529020.0, 7261590.012066387571394 ], [ 529020.0, 7261600.000892210751772 ], [ 529020.000892210751772, 7261610.0 ], [ 529020.011174176470377, 7261619.999107789248228 ], [ 529020.087148198508658, 7261629.987933613359928 ], [ 529020.447091679205187, 7261639.900785414502025 ], [ 529021.540503428783268, 7261649.453693735413253 ], [ 529023.670178714208305, 7261657.913190307095647 ], [ 529026.329821285791695, 7261664.243011592887342 ] ] } },
{ "type": "Feature", "properties": { "id": 1, "reference_id": 1, "dune_id": 1, "dune_name": "Big Mommy Dune", "acquisition_date": "2017-11-16", "length_m": 417.19856660890355 }, "geometry": { "type": "LineString", "coordinates": [ [ 529179.541734144324437, 7261135.756988408043981 ], [ 529178.372348372940905, 7261142.086809694766998 ], [ 529175.881837395951152, 7261150.546306264586747 ], [ 529172.118501109071076, 7261160.099214585497975 ], [ 529167.782284305430949, 7261170.012066388502717 ], [ 529163.659004537854344, 7261180.000892210751772 ], [ 529159.999107789364643, 7261190.0 ], [ 529156.329821285791695, 7261200.0 ], [ 529152.130567496176809, 7261210.000000000931323 ], [ 529147.433515001088381, 7261220.0 ], [ 529142.566484998911619, 7261230.0 ], [ 529137.869432503823191, 7261240.0 ], [ 529133.670178714208305, 7261250.0 ], [ 529130.0, 7261260.0 ], [ 529126.329821285791695, 7261270.0 ], [ 529122.130567496176809, 7261280.0 ], [ 529117.433515001204796, 7261290.0 ], [ 529112.566484998911619, 7261300.0 ], [ 529107.869432503823191, 7261310.000000000931323 ], [ 529103.670178714208305, 7261320.0 ], [ 529100.000892210751772, 7261330.0 ], [ 529096.340103251626715, 7261340.0 ], [ 529092.20654151821509, 7261350.0 ], [ 529087.794350692536682, 7261360.0 ], [ 529083.670178714208305, 7261370.0 ], [ 529080.075081811286509, 7261380.0 ], [ 529076.689764766488224, 7261390.0 ], [ 529073.223979245638475, 7261400.0 ], [ 529069.563190286629833, 7261410.0 ], [ 529065.226127570495009, 7261420.0 ], [ 529060.0, 7261430.0 ], [ 529054.774764640256763, 7261440.0 ], [ 529050.447091679205187, 7261450.0 ], [ 529046.852886986918747, 7261460.0 ], [ 529043.681352890678681, 7261470.000000000931323 ], [ 529041.105478136683814, 7261479.999107789248228 ], [ 529038.907480461057276, 7261489.987933613359928 ], [ 529036.416969484183937, 7261499.900785414502025 ], [ 529033.681352890795097, 7261509.453693735413253 ], [ 529031.54139563953504, 7261517.913190307095647 ], [ 529030.447091679205187, 7261524.243011592887342 ] ] } },
{ "type": "Feature", "properties": { "id": 2, "reference_id": 1, "dune_id": 1, "dune_name": "Big Mommy Dune", "acquisition_date": "2017-11-16", "length_m": 100.25495451948119 }, "geometry": { "type": "LineString", "coordinates": [ [ 529088.371456162189133, 7261814.243011592887342 ], [ 529085.870663219480775, 7261807.913190307095647 ], [ 529082.031352910562418, 7261799.453693735413253 ], [ 529077.335192626225762, 7261789.900785414502025 ], [ 529072.118501109071076, 7261779.987933613359928 ], [ 529066.329821285791695, 7261770.0 ], [ 529060.011174176470377, 7261760.012066387571394 ], [ 529053.758219123352319, 7261750.099214585497975 ], [ 529048.328590570134111, 7261740.546306265518069 ], [ 529044.20531080244109, 7261732.086809694766998 ], [ 529041.638825803645886, 7261725.756988408043981 ] ] } },
{ "type": "Feature", "properties": { "id": 3, "reference_id": 1, "dune_id": 1, "dune_name": "Big Mommy Dune", "acquisition_date": "2017-11-16", "length_m": 71.622177695218497 }, "geometry": { "type": "LineString", "coordinates": [ [ 529189.999107789364643, 7261025.756988408043981 ], [ 529189.988825823529623, 7261032.086809692904353 ], [ 529189.911959590972401, 7261040.546306265518069 ], [ 529189.541734144440852, 7261050.098322374746203 ], [ 529188.372348372940905, 7261060.0 ], [ 529185.882729606702924, 7261069.901677625253797 ], [ 529182.129675285541452, 7261079.453693736344576 ], [ 529177.870324714574963, 7261087.913190307095647 ], [ 529174.117270393413492, 7261094.243011592887342 ] ] } },
{ "type": "Feature", "properties": { "id": 4, "reference_id": 1, "dune_id": 1, "dune_name": "Big Mommy Dune", "acquisition_date": "2017-11-16", "length_m": 248.4213835014684 }, "geometry": { "type": "LineString", "coordinates": [ [ 528954.20531080244109, 7262154.243011591956019 ], [ 528958.328590570250526, 7262147.913190307095647 ], [ 528963.758219123352319, 7262139.453693735413253 ], [ 528970.011174176586792, 7262129.900785414502025 ], [ 528976.329821285791695, 7262119.987933613359928 ], [ 528982.119393319706433, 7262109.999107789248228 ], [ 528987.346366802696139, 7262100.0 ], [ 528992.118501108954661, 7262090.0 ], [ 528996.317754898685962, 7262080.0 ], [ 528999.912851801607758, 7262070.0 ], [ 529003.223087035119534, 7262060.0 ], [ 529006.32982128590811, 7262050.0 ], [ 529008.907480461173691, 7262040.0 ], [ 529011.190841913805343, 7262030.0 ], [ 529014.118162604048848, 7262020.0 ], [ 529018.318308604415506, 7262010.0 ], [ 529023.768501089187339, 7262000.0 ], [ 529030.098322374979034, 7261990.0 ], [ 529036.776912964996882, 7261980.000892210751772 ], [ 529043.659004537737928, 7261970.012066387571394 ], [ 529051.005371340434067, 7261960.099214585497975 ], [ 529058.361174196354114, 7261950.546306265518069 ], [ 529064.330159790697508, 7261942.086809693835676 ], [ 529067.924364482983947, 7261935.756988408043981 ] ] } },
{ "type": "Feature", "properties": { "id": 5, "reference_id": 8, "dune_id": 8, "dune_name": "Inverted Y Dune", "acquisition_date": "2017-11-16", "length_m": 213.82326857876996 }, "geometry": { "type": "LineString", "coordinates": [ [ 530110.0, 7261544.243011592887342 ], [ 530110.0, 7261537.913190307095647 ], [ 530110.0, 7261529.453693735413253 ], [ 530110.000892210751772, 7261519.900785414502025 ], [ 530110.011174176470377, 7261509.987933613359928 ], [ 530110.087148198392242, 7261499.999107789248228 ], [ 530110.447091679205187, 7261490.0 ], [ 530111.540503428666852, 7261480.0 ], [ 530113.671070924960077, 7261470.000000000931323 ], [ 530116.340995462262072, 7261460.0 ], [ 530118.54664476972539, 7261450.0 ], [ 530120.0, 7261440.0 ], [ 530121.45335523027461, 7261430.0 ], [ 530123.659896748373285, 7261420.0 ], [ 530126.340103251626715, 7261410.0 ], [ 530128.547536980360746, 7261400.0 ], [ 530130.011174176470377, 7261390.0 ], [ 530131.540503428783268, 7261380.000892210751772 ], [ 530134.106096216943115, 7261370.012066386640072 ], [ 530137.869432503823191, 7261360.099214585497975 ], [ 530142.129675285541452, 7261350.546306265518069 ], [ 530145.882729606702924, 7261342.086809693835676 ], [ 530148.37234837282449, 7261335.756988408043981 ] ] } },
{ "type": "Feature", "properties": { "id": 6, "reference_id": 8, "dune_id": 8, "dune_name": "Inverted Y Dune", "acquisition_date": "2017-11-16", "length_m": 189.26985597062139 }, "geometry": { "type": "LineString", "coordinates": [ [ 530334.243011592305265, 7261200.087148198857903 ], [ 530327.913190306629986, 7261200.447983888909221 ], [ 530319.453693735180423, 7261201.551677605137229 ], [ 530309.900785414502025, 7261203.758219122886658 ], [ 530299.987933612894267, 7261206.788087140768766 ], [ 530289.999107789364643, 7261210.088040409609675 ], [ 530280.0, 7261213.682245101779699 ], [ 530270.0, 7261217.882391102612019 ], [ 530260.0, 7261222.664807373657823 ], [ 530250.0, 7261227.96864709071815 ], [ 530240.0, 7261234.129336780868471 ], [ 530230.0, 7261241.628543837927282 ], [ 530220.000892210635357, 7261250.457373645156622 ], [ 530210.012066387105733, 7261260.075974022969604 ], [ 530200.099214585497975, 7261269.911959591321647 ], [ 530190.546306264819577, 7261279.454585945233703 ], [ 530182.08680969348643, 7261287.913190307095647 ], [ 530175.756988407694735, 7261294.243011593818665 ] ] } },
{ "type": "Feature", "properties": { "id": 7, "reference_id": 5, "dune_id": 5, "dune_name": "The Star Dune", "acquisition_date": "2017-11-16", "length_m": 54.469370145906154 }, "geometry": { "type": "LineString", "coordinates": [ [ 533782.086809693370014, 7261794.331052001565695 ], [ 533785.756096197059378, 7261788.372348373755813 ], [ 533792.074743306264281, 7261781.093411749228835 ], [ 533800.447091679088771, 7261774.117270393297076 ], [ 533809.552908320794813, 7261768.404564592055976 ], [ 533817.925256693735719, 7261764.21559276804328 ], [ 533824.243903803057037, 7261761.639718014746904 ] ] } },
{ "type": "Feature", "properties": { "id": 8, "reference_id": 5, "dune_id": 5, "dune_name": "The Star Dune", "acquisition_date": "2017-11-16", "length_m": 234.43586622736851 }, "geometry": { "type": "LineString", "coordinates": [ [ 534134.243011592305265, 7261670.011174176819623 ], [ 534127.91319030651357, 7261670.087148198857903 ], [ 534119.453693735296838, 7261670.447091679088771 ], [ 534109.900785414502025, 7261671.540503429248929 ], [ 534099.987933612894267, 7261673.671070924960077 ], [ 534089.999107789364643, 7261676.340995462611318 ], [ 534080.0, 7261678.546644769608974 ], [ 534070.0, 7261680.0 ], [ 534060.0, 7261681.453355230391026 ], [ 534050.0, 7261683.659896748140454 ], [ 534040.0, 7261686.340103251859546 ], [ 534030.0, 7261688.546644769608974 ], [ 534020.0, 7261690.000892210751772 ], [ 534010.0, 7261691.464529406279325 ], [ 534000.0, 7261693.746152736246586 ], [ 533990.0, 7261696.776020755060017 ], [ 533980.0, 7261700.000892210751772 ], [ 533970.0, 7261703.234261211939156 ], [ 533960.0, 7261706.329821285791695 ], [ 533950.000892210751772, 7261708.895414073951542 ], [ 533940.012066387105733, 7261711.092519538477063 ], [ 533930.099214585614391, 7261713.583030516281724 ], [ 533920.546306264819577, 7261716.318647109903395 ], [ 533912.086809693602845, 7261718.458604359999299 ], [ 533905.756988407694735, 7261719.552908320911229 ] ] } },
{ "type": "Feature", "properties": { "id": 9, "reference_id": 5, "dune_id": 5, "dune_name": "The Star Dune", "acquisition_date": "2017-11-16", "length_m": 129.56543336805854 }, "geometry": { "type": "LineString", "coordinates": [ [ 534304.243011592305265, 7261585.309004517272115 ], [ 534297.913190306629986, 7261590.535132088698447 ], [ 534289.453693735180423, 7261596.788979351520538 ], [ 534279.900785414502025, 7261603.32140941079706 ], [ 534269.987933612894267, 7261610.000892210751772 ], [ 534259.999107789248228, 7261616.689764766953886 ], [ 534250.0, 7261623.299061057157815 ], [ 534240.000892210751772, 7261629.92313376814127 ], [ 534230.012066387222148, 7261636.318647109903395 ], [ 534220.099214585614391, 7261642.117608899250627 ], [ 534210.546306264819577, 7261647.335192626342177 ], [ 534202.08680969348643, 7261652.031352911144495 ], [ 534195.756988407694735, 7261655.870663220062852 ] ] } },
{ "type": "Feature", "properties": { "id": 10, "reference_id": 5, "dune_id": 5, "dune_name": "The Star Dune", "acquisition_date": "2017-11-16", "length_m": 165.6504586657822 }, "geometry": { "type": "LineString", "coordinates": [ [ 533738.371456162189133, 7261895.756988408043981 ], [ 533735.871555430116132, 7261902.086809692904353 ], [ 533732.041634876281023, 7261910.546306265518069 ], [ 533727.4120588588994, 7261920.099214585497975 ], [ 533722.488726555602625, 7261930.012066387571394 ], [ 533717.49831484653987, 7261940.000892210751772 ], [ 533712.488726555602625, 7261950.0 ], [ 533707.412951069651172, 7261960.0 ], [ 533702.052809052867815, 7261970.0 ], [ 533695.959595839376561, 7261980.0 ], [ 533688.830614228500053, 7261989.999553894624114 ], [ 533681.18145215860568, 7261999.993520701304078 ], [ 533674.128444569883868, 7262009.944359513930976 ], [ 533668.405456802807748, 7262019.677239574491978 ], [ 533664.21559276827611, 7262028.683442020788789 ], [ 533661.639718014281243, 7262036.078100949525833 ], [ 533660.45915806631092, 7262041.078100949525833 ] ] } },
{ "type": "Feature", "properties": { "id": 11, "reference_id": 9, "dune_id": 9, "dune_name": "Inverted Y Dune", "acquisition_date": "2017-11-16", "length_m": 194.53217811423409 }, "geometry": { "type": "LineString", "coordinates": [ [ 529748.372348372940905, 7261995.756988408043981 ], [ 529745.881837395951152, 7262002.086809693835676 ], [ 529742.118501109071076, 7262010.546306264586747 ], [ 529737.782284305430949, 7262020.099214585497975 ], [ 529733.659004537737928, 7262030.012066386640072 ], [ 529729.999107789364643, 7262040.000892210751772 ], [ 529726.329821285791695, 7262050.0 ], [ 529722.129675285541452, 7262060.0 ], [ 529717.423233035369776, 7262070.0 ], [ 529712.489618766121566, 7262080.0 ], [ 529707.499207057291642, 7262090.0 ], [ 529702.500792942708358, 7262100.0 ], [ 529697.510381233762018, 7262110.0 ], [ 529692.576766964630224, 7262120.0 ], [ 529687.871216925210319, 7262129.999107789248228 ], [ 529683.681352890678681, 7262139.987933613359928 ], [ 529680.088040409144014, 7262149.900785414502025 ], [ 529676.788087141467258, 7262159.453693735413253 ], [ 529673.758219123352319, 7262167.913190307095647 ], [ 529671.551677605253644, 7262174.243011591956019 ] ] } },
{ "type": "Feature", "properties": { "id": 12, "reference_id": 9, "dune_id": 9, "dune_name": "Inverted Y Dune", "acquisition_date": "2017-11-16", "length_m": 262.15765519311373 }, "geometry": { "type": "LineString", "coordinates": [ [ 529761.541395639418624, 7261964.243011592887342 ], [ 529763.681352890678681, 7261957.913190307095647 ], [ 529766.416969484183937, 7261949.453693736344576 ], [ 529768.906588250538334, 7261939.900785414502025 ], [ 529771.094303960213438, 7261929.987933613359928 ], [ 529773.594204692170024, 7261919.999107790179551 ], [ 529776.406687518465333, 7261910.0 ], [ 529778.917762427008711, 7261900.0 ], [ 529781.1917341244407, 7261890.0 ], [ 529784.118162604048848, 7261880.0 ], [ 529788.318308604415506, 7261870.0 ], [ 529793.768501089070924, 7261860.0 ], [ 529800.099214585614391, 7261850.0 ], [ 529806.78897935221903, 7261840.000000000931323 ], [ 529813.758219123352319, 7261830.0 ], [ 529821.551677605137229, 7261820.0 ], [ 529830.447983889840543, 7261810.0 ], [ 529840.087148198392242, 7261800.0 ], [ 529850.010281965718605, 7261790.000892210751772 ], [ 529859.988825823529623, 7261780.012066387571394 ], [ 529869.900785414385609, 7261770.099214585497975 ], [ 529879.453693735180423, 7261760.546306264586747 ], [ 529887.91319030651357, 7261752.086809693835676 ], [ 529894.243011592421681, 7261745.756988408043981 ] ] } },
{ "type": "Feature", "properties": { "id": 13, "reference_id": 9, "dune_id": 9, "dune_name": "Inverted Y Dune", "acquisition_date": "2017-11-16", "length_m": 81.175165224795734 }, "geometry": { "type": "LineString", "coordinates": [ [ 529955.756988407694735, 7261694.690995482727885 ], [ 529962.086809693602845, 7261689.464867912232876 ], [ 529970.546306264703162, 7261683.211912859231234 ], [ 529980.098322374862619, 7261676.689764766022563 ], [ 529990.0, 7261670.087148198857903 ], [ 529999.901677625137381, 7261663.768501089885831 ], [ 530009.453693735180423, 7261658.329482780769467 ], [ 530017.91319030651357, 7261654.205310802906752 ], [ 530024.243011592305265, 7261651.638825803995132 ] ] } },
{ "type": "Feature", "properties": { "id": 14, "reference_id": 3, "dune_id": 3, "dune_name": "Big Mommy Dune", "acquisition_date": "2017-11-16", "length_m": 205.47872527020996 }, "geometry": { "type": "LineString", "coordinates": [ [ 529614.243011592421681, 7260630.000892210751772 ], [ 529607.91319030651357, 7260630.011174176819623 ], [ 529599.453693735180423, 7260630.087148198857903 ], [ 529589.900785414502025, 7260630.447091680020094 ], [ 529579.987933612894267, 7260631.541395640000701 ], [ 529569.999107789248228, 7260633.681352891027927 ], [ 529560.0, 7260636.416969483718276 ], [ 529550.0, 7260638.906588250771165 ], [ 529540.0, 7260641.094303959980607 ], [ 529530.0, 7260643.594204693101346 ], [ 529520.0, 7260646.405795307829976 ], [ 529510.0, 7260648.905696040019393 ], [ 529500.000000000116415, 7260651.094303959980607 ], [ 529490.0, 7260653.594204692170024 ], [ 529480.0, 7260656.406687518581748 ], [ 529470.0, 7260658.916870215907693 ], [ 529460.000892210751772, 7260661.180559948086739 ], [ 529450.012066387105733, 7260664.030122195370495 ], [ 529440.099214585614391, 7260667.859150538221002 ], [ 529430.546306264819577, 7260672.128783075138927 ], [ 529422.08680969348643, 7260675.882729606702924 ], [ 529415.756988407694735, 7260678.37234837282449 ] ] } },
{ "type": "Feature", "properties": { "id": 15, "reference_id": 3, "dune_id": 3, "dune_name": "Big Mommy Dune", "acquisition_date": "2017-11-16", "length_m": 58.486023184610531 }, "geometry": { "type": "LineString", "coordinates": [ [ 529704.243011592305265, 7260620.0 ], [ 529697.91319030651357, 7260620.0 ], [ 529689.454585945932195, 7260620.0 ], [ 529679.912851801607758, 7260620.0 ], [ 529670.087148198508658, 7260620.0 ], [ 529660.545414054067805, 7260620.0 ], [ 529652.08680969348643, 7260620.0 ], [ 529645.756988407694735, 7260620.0 ] ] } },
{ "type": "Feature", "properties": { "id": 16, "reference_id": 3, "dune_id": 3, "dune_name": "Big Mommy Dune", "acquisition_date": "2017-11-16", "length_m": 138.48602318472695 }, "geometry": { "type": "LineString", "coordinates": [ [ 529745.756988407694735, 7260610.0 ], [ 529752.08680969348643, 7260610.0 ], [ 529760.546306264819577, 7260610.0 ], [ 529770.099214585614391, 7260610.0 ], [ 529780.012066387105733, 7260610.0 ], [ 529790.000892210751772, 7260610.0 ], [ 529800.0, 7260610.0 ], [ 529810.0, 7260610.0 ], [ 529820.0, 7260610.0 ], [ 529830.0, 7260610.0 ], [ 529839.999107789248228, 7260610.0 ], [ 529849.987933612777852, 7260610.0 ], [ 529859.900785414385609, 7260610.0 ], [ 529869.453693735296838, 7260610.0 ], [ 529877.91319030651357, 7260610.0 ], [ 529884.243011592421681, 7260610.0 ] ] } },
{ "type": "Feature", "properties": { "id": 17, "reference_id": 3, "dune_id": 3, "dune_name": "Big Mommy Dune", "acquisition_date": "2017-11-16", "length_m": 153.67772236870402 }, "geometry": { "type": "LineString", "coordinates": [ [ 530244.243011592421681, 7260566.788087141700089 ], [ 530237.91319030651357, 7260565.297830341383815 ], [ 530229.453693735180423, 7260565.657773822546005 ], [ 530219.900785414385609, 7260568.318308604881167 ], [ 530209.987933612894267, 7260572.227997660636902 ], [ 530199.999107789248228, 7260575.98105198238045 ], [ 530190.0, 7260578.821224473416805 ], [ 530180.0, 7260581.093411750160158 ], [ 530170.000000000116415, 7260583.669286504387856 ], [ 530160.0, 7260586.765738788992167 ], [ 530150.0, 7260589.999107789248228 ], [ 530140.000892210751772, 7260593.223087035119534 ], [ 530130.012066387222148, 7260596.242673087865114 ], [ 530120.099214585614391, 7260598.448322394862771 ], [ 530110.546306264819577, 7260599.552016111090779 ], [ 530102.08680969348643, 7260599.912851802073419 ], [ 530095.756988407694735, 7260599.9888258241117 ] ] } },
{ "type": "Feature", "properties": { "id": 18, "reference_id": 3, "dune_id": 3, "dune_name": "Big Mommy Dune", "acquisition_date": "2017-11-16", "length_m": 120.11137542672986 }, "geometry": { "type": "LineString", "coordinates": [ [ 529181.62765162717551, 7260974.243011591956019 ], [ 529184.118162604048848, 7260967.913190307095647 ], [ 529187.882391101680696, 7260959.453693736344576 ], [ 529192.227997660404071, 7260949.900785415433347 ], [ 529196.417861694935709, 7260939.987933613359928 ], [ 529200.372009867802262, 7260929.999107789248228 ], [ 529204.849846451426856, 7260920.0 ], [ 529210.435025291983038, 7260910.000892210751772 ], [ 529216.678590590134263, 7260900.012066387571394 ], [ 529222.775103145162575, 7260890.099214585497975 ], [ 529227.925256693735719, 7260880.546306265518069 ], [ 529231.020816768053919, 7260872.086809693835676 ], [ 529231.670517219114117, 7260865.756988408043981 ] ] } },
{ "type": "Feature", "properties": { "id": 19, "reference_id": 6, "dune_id": 6, "dune_name": "The Star Dune", "acquisition_date": "2017-11-16", "length_m": 644.96359589838221 }, "geometry": { "type": "LineString", "coordinates": [ [ 533560.458265855675563, 7262844.243011592887342 ], [ 533561.62765162717551, 7262837.913190307095647 ], [ 533564.117270393413492, 7262829.453693736344576 ], [ 533567.871216925210319, 7262819.900785414502025 ], [ 533572.140849462011829, 7262809.987933613359928 ], [ 533575.969877805095166, 7262799.999107789248228 ], [ 533578.819440052029677, 7262790.0 ], [ 533581.082237573107705, 7262780.0 ], [ 533583.582138305064291, 7262770.0 ], [ 533586.31953932007309, 7262760.0 ], [ 533588.469778537051752, 7262750.0 ], [ 533589.640056519303471, 7262740.0 ], [ 533590.359943480696529, 7262730.0 ], [ 533591.529329252196476, 7262720.0 ], [ 533593.669286503456533, 7262710.0 ], [ 533596.330713496543467, 7262700.0 ], [ 533598.470670747803524, 7262690.0 ], [ 533599.640056519303471, 7262680.0 ], [ 533600.359943480696529, 7262670.0 ], [ 533601.529329252312891, 7262660.0 ], [ 533603.670178714208305, 7262650.0 ], [ 533606.340995462378487, 7262640.0 ], [ 533608.54664476972539, 7262630.0 ], [ 533610.0, 7262620.0 ], [ 533611.454247441026382, 7262610.0 ], [ 533613.670178714208305, 7262600.000000000931323 ], [ 533616.416077273664996, 7262590.0 ], [ 533618.906588250421919, 7262580.0 ], [ 533621.094303960213438, 7262570.0 ], [ 533623.594204692170024, 7262560.0 ], [ 533626.405795307713561, 7262550.0 ], [ 533628.906588250421919, 7262540.0 ], [ 533631.104585926048458, 7262530.0 ], [ 533633.670178714208305, 7262520.0 ], [ 533636.766630999278277, 7262510.0 ], [ 533640.01028196583502, 7262500.0 ], [ 533643.310235233511776, 7262490.0 ], [ 533646.689764766488224, 7262480.0 ], [ 533649.989718034281395, 7262470.0 ], [ 533653.233369000838138, 7262460.0 ], [ 533656.329821285791695, 7262450.0 ], [ 533658.895414073951542, 7262440.0 ], [ 533661.093411749578081, 7262430.0 ], [ 533663.594204692286439, 7262420.0 ], [ 533666.405795307829976, 7262410.0 ], [ 533668.905696039786562, 7262400.0 ], [ 533671.093411749578081, 7262390.0 ], [ 533673.583030515816063, 7262380.0 ], [ 533676.318647109437734, 7262370.0 ], [ 533678.458604360697791, 7262360.0 ], [ 533679.552908320911229, 7262350.0 ], [ 533679.912851801607758, 7262340.000000000931323 ], [ 533679.988825823646039, 7262330.0 ], [ 533679.999107789364643, 7262320.0 ], [ 533679.999107789364643, 7262310.0 ], [ 533679.988825823646039, 7262300.0 ], [ 533679.912851801607758, 7262290.0 ], [ 533679.552908320911229, 7262280.0 ], [ 533678.459496571333148, 7262270.0 ], [ 533676.329821285791695, 7262260.000892210751772 ], [ 533673.670178714208305, 7262250.012066386640072 ], [ 533671.540503428783268, 7262240.099214585497975 ], [ 533670.447091679205187, 7262230.546306265518069 ], [ 533670.087148198392242, 7262222.086809692904353 ], [ 533670.011174176586792, 7262215.756988408043981 ] ] } },
{ "type": "Feature", "properties": { "id": 20, "reference_id": 2, "dune_id": 2, "dune_name": "Big Mommy Dune", "acquisition_date": "2017-11-16", "length_m": 360.04180135588308 }, "geometry": { "type": "LineString", "coordinates": [ [ 528894.243011592421681, 7260898.448322394862771 ], [ 528887.91319030651357, 7260896.242673087865114 ], [ 528879.453693735296838, 7260893.222194824367762 ], [ 528869.900785414385609, 7260889.9888258241117 ], [ 528859.987933612894267, 7260886.689764766022563 ], [ 528849.999107789248228, 7260883.309343023225665 ], [ 528840.0, 7260880.0 ], [ 528830.0, 7260876.689764766953886 ], [ 528820.0, 7260873.299061057157815 ], [ 528810.0, 7260869.924025978893042 ], [ 528800.0, 7260866.329821286723018 ], [ 528790.0, 7260862.205649307928979 ], [ 528780.0, 7260857.794350693002343 ], [ 528770.0, 7260853.670178714208305 ], [ 528760.0, 7260850.075974022038281 ], [ 528750.0, 7260846.700046733021736 ], [ 528740.0, 7260843.299953267909586 ], [ 528730.0, 7260839.92313376814127 ], [ 528720.0, 7260836.319539319723845 ], [ 528710.0, 7260832.128783075138927 ], [ 528700.0, 7260827.423233035951853 ], [ 528690.0, 7260822.489618766121566 ], [ 528680.0, 7260817.499207057058811 ], [ 528670.0, 7260812.499900732189417 ], [ 528660.0, 7260807.500099267810583 ], [ 528650.0, 7260802.499900732189417 ], [ 528640.0, 7260797.499207057990134 ], [ 528630.0, 7260792.489618767052889 ], [ 528620.0, 7260787.423233035951853 ], [ 528610.000892210751772, 7260782.129675285890698 ], [ 528600.012066387105733, 7260776.33071349747479 ], [ 528590.099214585614391, 7260770.0111741758883 ], [ 528580.546306264819577, 7260763.75821912381798 ], [ 528572.08680969348643, 7260758.328590570017695 ], [ 528565.756988407694735, 7260754.205310802906752 ] ] } },
{ "type": "Feature", "properties": { "id": 21, "reference_id": 2, "dune_id": 2, "dune_name": "Big Mommy Dune", "acquisition_date": "2017-11-16", "length_m": 79.427798758692632 }, "geometry": { "type": "LineString", "coordinates": [ [ 528925.756988407694735, 7260910.011174176819623 ], [ 528932.08680969348643, 7260910.087148198857903 ], [ 528940.546306264819577, 7260910.447091680020094 ], [ 528950.099214585614391, 7260911.540503429248929 ], [ 528960.011174176470377, 7260913.670178714208305 ], [ 528969.988825823646039, 7260916.329821285791695 ], [ 528979.900785414502025, 7260918.459496570751071 ], [ 528989.453693735296838, 7260919.552908321842551 ], [ 528997.913190306629986, 7260919.912851801142097 ], [ 529004.243011592421681, 7260919.9888258241117 ] ] } },
{ "type": "Feature", "properties": { "id": 22, "reference_id": 4, "dune_id": 4, "dune_name": "The Star Dune", "acquisition_date": "2017-11-16", "length_m": 260.7622409762775 }, "geometry": { "type": "LineString", "coordinates": [ [ 533015.756988407694735, 7261863.757326913066208 ], [ 533022.08680969348643, 7261866.776912964880466 ], [ 533030.546306264819577, 7261870.0 ], [ 533040.099214585614391, 7261873.223979245871305 ], [ 533050.012066387105733, 7261876.253847263753414 ], [ 533060.000892210751772, 7261878.536362804472446 ], [ 533070.0, 7261880.010281966067851 ], [ 533080.0, 7261881.540503429248929 ], [ 533090.0, 7261884.106988427229226 ], [ 533100.0, 7261887.880606681108475 ], [ 533110.0, 7261892.216823484748602 ], [ 533120.0, 7261896.33071349747479 ], [ 533130.0, 7261899.924025978893042 ], [ 533140.0, 7261903.299061058089137 ], [ 533150.0, 7261906.688872556202114 ], [ 533160.0, 7261909.9888258241117 ], [ 533170.0, 7261913.222194824367762 ], [ 533180.0, 7261916.243565298616886 ], [ 533190.0, 7261918.459496571682394 ], [ 533200.0, 7261919.640056519769132 ], [ 533210.0, 7261920.371117657981813 ], [ 533219.999107789364643, 7261921.616477450355887 ], [ 533229.987933612894267, 7261924.116378182545304 ], [ 533239.900785414502025, 7261927.870324714109302 ], [ 533249.453693735296838, 7261932.129675285890698 ], [ 533257.913190306629986, 7261935.882729606702924 ], [ 533264.243011592305265, 7261938.37234837282449 ] ] } },
{ "type": "Feature", "properties": { "id": 23, "reference_id": 4, "dune_id": 4, "dune_name": "The Star Dune", "acquisition_date": "2017-11-16", "length_m": 229.18709778035225 }, "geometry": { "type": "LineString", "coordinates": [ [ 533584.243011592305265, 7262038.448322394862771 ], [ 533577.91319030651357, 7262036.242673087865114 ], [ 533569.453693735180423, 7262033.222194824367762 ], [ 533559.900785414385609, 7262029.988825823180377 ], [ 533549.987933612894267, 7262026.689764766022563 ], [ 533539.999107789364643, 7262023.309343023225665 ], [ 533530.0, 7262020.0 ], [ 533520.0, 7262016.689764766022563 ], [ 533510.0, 7262013.299061057157815 ], [ 533500.0, 7262009.924025977961719 ], [ 533490.0, 7262006.33071349747479 ], [ 533480.0, 7262002.21593127399683 ], [ 533470.0, 7261997.870324715040624 ], [ 533460.0, 7261994.031014405190945 ], [ 533450.0, 7261991.180559948086739 ], [ 533440.0, 7261988.916870215907693 ], [ 533430.0, 7261986.406687518581748 ], [ 533420.0, 7261983.594204692170024 ], [ 533410.000892210751772, 7261981.094303959980607 ], [ 533400.012066387222148, 7261978.906588250771165 ], [ 533390.099214585614391, 7261976.416969484649599 ], [ 533380.546306264819577, 7261973.681352891027927 ], [ 533372.08680969348643, 7261971.541395640000701 ], [ 533365.756988407694735, 7261970.447091680020094 ] ] } },
{ "type": "Feature", "properties": { "id": 24, "reference_id": 7, "dune_id": 7, "dune_name": "Inverted Y Dune", "acquisition_date": "2017-11-16", "length_m": 69.355252956359124 }, "geometry": { "type": "LineString", "coordinates": [ [ 530254.243011592421681, 7261643.670178715139627 ], [ 530247.913190306629986, 7261646.329821286723018 ], [ 530239.453693735180423, 7261648.459496572613716 ], [ 530229.901677625137381, 7261649.552908321842551 ], [ 530220.0, 7261649.912851802073419 ], [ 530210.098322374979034, 7261649.9888258241117 ], [ 530200.546306264819577, 7261649.999107790179551 ], [ 530192.086809693370014, 7261650.0 ], [ 530185.756988407694735, 7261650.0 ] ] } },
{ "type": "Feature", "properties": { "id": 25, "reference_id": 7, "dune_id": 7, "dune_name": "Inverted Y Dune", "acquisition_date": "2017-11-16", "length_m": 92.704820904392903 }, "geometry": { "type": "LineString", "coordinates": [ [ 530325.756988407694735, 7261619.912851801142097 ], [ 530332.08680969348643, 7261619.552016111090779 ], [ 530340.546306264819577, 7261618.448322394862771 ], [ 530350.099214585614391, 7261616.242673087865114 ], [ 530360.012066387105733, 7261613.222194824367762 ], [ 530370.0, 7261609.9888258241117 ], [ 530379.987933612894267, 7261606.689764766953886 ], [ 530389.900785414385609, 7261603.310235233977437 ], [ 530399.453693735296838, 7261600.011174176819623 ], [ 530407.91319030651357, 7261596.777805175632238 ], [ 530414.243011592421681, 7261593.757326912134886 ] ] } },
{ "type": "Feature", "properties": { "id": 26, "reference_id": 7, "dune_id": 7, "dune_name": "Inverted Y Dune", "acquisition_date": "2017-11-16", "length_m": 176.41086480323725 }, "geometry": { "type": "LineString", "coordinates": [ [ 530475.745814231224358, 7261544.243011592887342 ], [ 530481.999661495094188, 7261537.913190307095647 ], [ 530490.098322374862619, 7261529.453693735413253 ], [ 530498.547536980360746, 7261519.900785414502025 ], [ 530506.254739474505186, 7261509.987933613359928 ], [ 530513.223087035119534, 7261499.999107789248228 ], [ 530519.988825823529623, 7261490.0 ], [ 530526.689764766488224, 7261480.0 ], [ 530533.31023523339536, 7261470.000000000931323 ], [ 530540.011174176470377, 7261460.0 ], [ 530546.776912964996882, 7261450.000892210751772 ], [ 530553.745260525494814, 7261440.012066387571394 ], [ 530561.452463019639254, 7261430.099214585497975 ], [ 530569.901677625137381, 7261420.546306264586747 ], [ 530578.000338505022228, 7261412.086809693835676 ], [ 530584.254185768775642, 7261405.756988408043981 ] ] } }
]
}
