{
"type": "FeatureCollection",
"name": "crests_2026_03_2026-03-21",
"crs": { "type": "name", "properties": { "name": "urn:ogc:def:crs:EPSG::32733" } },
"features": [
{ "type": "Feature", "properties": { "id": 0, "reference_id": 4, "dune_id": 4, "dune_name": "The Star Dune", "acquisition_date": "2026-03-21", "length_m": 648.84360898113823 }, "geometry": { "type": "LineString", "coordinates": [ [ 533624.243011592305265, 7262059.552908321842551 ], [ 533617.91319030651357, 7262058.458604361861944 ], [ 533609.453693735180423, 7262056.318647109903395 ], [ 533599.900785414385609, 7262053.582138305529952 ], [ 533589.987933612894267, 7262051.082237573340535 ], [ 533579.999107789364643, 7262048.819440051913261 ], [ 533570.0, 7262045.968985594809055 ], [ 533560.0, 7262042.128783075138927 ], [ 533550.0, 7262037.772894551046193 ], [ 533540.0, 7262033.583030516281724 ], [ 533530.0, 7262029.639164308086038 ], [ 533520.0, 7262025.23640953656286 ], [ 533510.0, 7262020.0 ], [ 533500.0, 7262014.763590464368463 ], [ 533490.0, 7262010.35994348116219 ], [ 533480.0, 7262006.405795307829976 ], [ 533470.0, 7262002.140849461778998 ], [ 533460.0, 7261997.434407211840153 ], [ 533450.0, 7261992.566484998911619 ], [ 533440.0, 7261987.870324715040624 ], [ 533430.0, 7261983.681352891027927 ], [ 533420.0, 7261980.087148198857903 ], [ 533410.0, 7261976.776912964880466 ], [ 533400.000000000116415, 7261973.671070924960077 ], [ 533390.0, 7261971.10458592697978 ], [ 533380.000000000116415, 7261968.906588250771165 ], [ 533370.0, 7261966.405795308761299 ], [ 533360.0, 7261963.594204693101346 ], [ 533350.0, 7261961.093411749228835 ], [ 533340.0, 7261958.895414074882865 ], [ 533330.0, 7261956.329821286723018 ], [ 533320.0, 7261953.233369001187384 ], [ 533310.0, 7261949.989718034863472 ], [ 533300.0, 7261946.689764766022563 ], [ 533290.0, 7261943.310235233977437 ], [ 533280.0, 7261940.010281966067851 ], [ 533270.0, 7261936.766630999743938 ], [ 533260.0, 7261933.670178715139627 ], [ 533250.0, 7261931.104585926048458 ], [ 533240.0, 7261928.906588250771165 ], [ 533230.0, 7261926.405795307829976 ], [ 533220.0, 7261923.594204692170024 ], [ 533210.0, 7261921.093411749228835 ], [ 533200.0, 7261918.895414073951542 ], [ 533190.0, 7261916.329821286723018 ], [ 533180.0, 7261913.234261212870479 ], [ 533170.0, 7261910.0 ], [ 533160.0, 7261906.765738788992167 ], [ 533150.0, 7261903.670178715139627 ], [ 533140.0, 7261901.104585926048458 ], [ 533130.0, 7261898.906588250771165 ], [ 533120.0, 7261896.405795307829976 ], [ 533110.0, 7261893.594204692170024 ], [ 533100.0, 7261891.094303959980607 ], [ 533090.0, 7261888.906588250771165 ], [ 533080.0, 7261886.416077273897827 ], [ 533070.0, 7261883.670178714208305 ], [ 533060.0, 7261881.454247441142797 ], [ 533050.000892210751772, 7261880.0 ], [ 533040.012066387105733, 7261878.546644769608974 ], [ 533030.099214585614391, 7261876.340995462611318 ], [ 533020.546306264819577, 7261873.671070925891399 ], [ 533012.08680969348643, 7261871.540503429248929 ], [ 533005.756988407694735, 7261870.447091680020094 ] ] } },
{ "type": "Feature", "properties": { "id": 1, "reference_id": 3, "dune_id": 3, "dune_name": "Big Mommy Dune", "acquisition_date": "2026-03-21", "length_m": 308.48602318461053 }, "geometry": { "type": "LineString", "coordinates": [ [ 529735.756988407694735, 7260610.0 ], [ 529742.08680969348643, 7260610.0 ], [ 529750.546306264819577, 7260610.0 ], [ 529760.099214585614391, 7260610.0 ], [ 529770.012066387222148, 7260610.0 ], [ 529780.000892210751772, 7260610.0 ], [ 529790.0, 7260610.0 ], [ 529800.0, 7260610.0 ], [ 529810.0, 7260610.0 ], [ 529820.0, 7260610.0 ], [ 529830.0, 7260610.0 ], [ 529840.0, 7260610.0 ], [ 529850.0, 7260610.0 ], [ 529860.0, 7260610.0 ], [ 529870.0, 7260610.0 ], [ 529880.0, 7260610.0 ], [ 529890.0, 7260610.0 ], [ 529900.0, 7260610.0 ], [ 529910.0, 7260610.0 ], [ 529920.0, 7260610.0 ], [ 529930.0, 7260610.0 ], [ 529940.0, 7260610.0 ], [ 529950.0, 7260610.0 ], [ 529960.0, 7260610.0 ], [ 529970.0, 7260610.0 ], [ 529980.0, 7260610.0 ], [ 529990.0, 7260610.0 ], [ 529999.999107789364643, 7260610.0 ], [ 530009.987933612894267, 7260610.0 ], [ 530019.900785414502025, 7260610.0 ], [ 530029.453693735180423, 7260610.0 ], [ 530037.91319030651357, 7260610.0 ], [ 530044.243011592305265, 7260610.0 ] ] } },
{ "type": "Feature", "properties": { "id": 2, "reference_id": 3, "dune_id": 3, "dune_name": "Big Mommy Dune", "acquisition_date": "2026-03-21", "length_m": 120.66642169319459 }, "geometry": { "type": "LineString", "coordinates": [ [ 530204.243011592305265, 7260580.0111741758883 ], [ 530197.91319030651357, 7260580.087148198857903 ], [ 530189.453693735180423, 7260580.447091679088771 ], [ 530179.900785414385609, 7260581.541395640000701 ], [ 530169.987933612894267, 7260583.681352891027927 ], [ 530159.999107789364643, 7260586.416969484649599 ], [ 530150.0, 7260588.906588250771165 ], [ 530140.0, 7260591.093411749228835 ], [ 530130.000892210751772, 7260593.583030516281724 ], [ 530120.012066387222148, 7260596.318647108972073 ], [ 530110.099214585614391, 7260598.458604360930622 ], [ 530100.546306264819577, 7260599.552908321842551 ], [ 530092.08680969348643, 7260599.912851802073419 ], [ 530085.756988407694735, 7260599.9888258241117 ] ] } },
{ "type": "Feature", "properties": { "id": 3, "reference_id": 3, "dune_id": 3, "dune_name": "Big Mommy Dune", "acquisition_date": "2026-03-21", "length_m": 362.68130141248963 }, "geometry": { "type": "LineString", "coordinates": [ [ 529374.243011592305265, 7260695.756988408043981 ], [ 529367.91319030651357, 7260702.086809693835676 ], [ 529359.453693735180423, 7260710.546306265518069 ], [ 529349.900785414502025, 7260720.099214585497975 ], [ 529339.988825823529623, 7260730.012066388502717 ], [ 529330.01028196583502, 7260740.000892210751772 ], [ 529320.087148198508658, 7260750.0 ], [ 529310.447983889956959, 7260760.0 ], [ 529301.551677605253644, 7260770.0 ], [ 529293.757326912600547, 7260780.000000000931323 ], [ 529286.777805175632238, 7260790.0 ], [ 529280.011174176470377, 7260800.0 ], [ 529273.310235233511776, 7260810.0 ], [ 529266.690656977239996, 7260820.0 ], [ 529260.0, 7260830.0 ], [ 529253.309343022876419, 7260840.0 ], [ 529246.690656977239996, 7260850.0 ], [ 529240.0, 7260860.0 ], [ 529233.31023523339536, 7260870.0 ], [ 529226.700938943075016, 7260880.0 ], [ 529220.075974022038281, 7260890.0 ], [ 529213.670178714208305, 7260900.0 ], [ 529207.794350692536682, 7260910.0 ], [ 529202.206541518098675, 7260920.0 ], [ 529196.340995462262072, 7260930.0 ], [ 529190.012512492481619, 7260939.999553894624114 ], [ 529183.763806211645715, 7260949.993520701304078 ], [ 529178.372164669446647, 7260959.944359514862299 ], [ 529174.428856642101891, 7260969.6772395754233 ], [ 529172.40907751803752, 7260978.683442020788789 ], [ 529172.294247423531488, 7260986.078100949525833 ], [ 529173.252951052039862, 7260991.078100949525833 ] ] } },
{ "type": "Feature", "properties": { "id": 4, "reference_id": 3, "dune_id": 3, "dune_name": "Big Mommy Dune", "acquisition_date": "2026-03-21", "length_m": 214.93827380781448 }, "geometry": { "type": "LineString", "coordinates": [ [ 529405.756988407694735, 7260679.552016109228134 ], [ 529412.08680969348643, 7260678.448322394862771 ], [ 529420.546306264819577, 7260676.242673087865114 ], [ 529430.099214585614391, 7260673.223087035119534 ], [ 529440.012066387222148, 7260669.999107789248228 ], [ 529450.000892210751772, 7260666.765738788992167 ], [ 529460.0, 7260663.670178714208305 ], [ 529470.0, 7260661.103693716228008 ], [ 529480.0, 7260658.896306285634637 ], [ 529490.0, 7260656.329821285791695 ], [ 529500.000000000116415, 7260653.234261211939156 ], [ 529510.0, 7260650.000892210751772 ], [ 529520.0, 7260646.776912964880466 ], [ 529530.0, 7260643.756434702314436 ], [ 529540.0, 7260641.540503429248929 ], [ 529550.0, 7260640.360835691913962 ], [ 529560.0, 7260639.64005651883781 ], [ 529569.999107789248228, 7260638.470670747570693 ], [ 529579.987933612894267, 7260636.33071349747479 ], [ 529589.900785414502025, 7260633.670178715139627 ], [ 529599.453693735180423, 7260631.540503429248929 ], [ 529607.91319030651357, 7260630.447091680020094 ], [ 529614.243011592421681, 7260630.087148198857903 ] ] } },
{ "type": "Feature", "properties": { "id": 5, "reference_id": 8, "dune_id": 8, "dune_name": "Inverted Y Dune", "acquisition_date": "2026-03-21", "length_m": 430.21920771865928 }, "geometry": { "type": "LineString", "coordinates": [ [ 530264.243011592421681, 7261221.638825803995132 ], [ 530257.913190306629986, 7261224.205310802906752 ], [ 530249.453693735180423, 7261228.329482780769467 ], [ 530239.900785414502025, 7261233.76939329970628 ], [ 530229.987933612777852, 7261240.099214585497975 ], [ 530220.0, 7261246.788979351520538 ], [ 530210.011174176470377, 7261253.75821912381798 ], [ 530200.087148198392242, 7261261.551677605137229 ], [ 530190.447983889840543, 7261270.447983890771866 ], [ 530181.551677605253644, 7261280.087148198857903 ], [ 530173.758219123352319, 7261290.0111741758883 ], [ 530166.788979352102615, 7261300.000892210751772 ], [ 530160.098322374979034, 7261310.000000000931323 ], [ 530153.758219123352319, 7261320.0 ], [ 530148.242334582377225, 7261330.0 ], [ 530143.757326912600547, 7261340.0 ], [ 530140.087148198392242, 7261350.0 ], [ 530136.701831153710373, 7261360.0 ], [ 530133.311127444147132, 7261370.0 ], [ 530130.01028196583502, 7261380.0 ], [ 530126.766630999278277, 7261390.0 ], [ 530123.670178714208305, 7261400.0 ], [ 530121.104585926048458, 7261410.0 ], [ 530118.907480461173691, 7261420.0 ], [ 530116.416969484300353, 7261430.0 ], [ 530113.680460680043325, 7261440.0 ], [ 530111.530221462948248, 7261450.0 ], [ 530110.359943480812944, 7261460.0 ], [ 530109.640056519303471, 7261470.000000000931323 ], [ 530108.470670747803524, 7261480.0 ], [ 530106.330713496543467, 7261490.0 ], [ 530103.670178714208305, 7261500.0 ], [ 530101.540503428783268, 7261510.0 ], [ 530100.447091679205187, 7261520.0 ], [ 530100.087148198508658, 7261530.0 ], [ 530100.010728071210906, 7261539.999553894624114 ], [ 530099.995305122458376, 7261549.993520701304078 ], [ 530099.956425900803879, 7261559.944359513930976 ], [ 530099.776454160455614, 7261569.6772395754233 ], [ 530099.229748285608366, 7261578.683442020788789 ], [ 530098.164910642895848, 7261586.078100949525833 ], [ 530096.835089357104152, 7261591.078100949525833 ] ] } },
{ "type": "Feature", "properties": { "id": 6, "reference_id": 8, "dune_id": 8, "dune_name": "Inverted Y Dune", "acquisition_date": "2026-03-21", "length_m": 55.275782777098605 }, "geometry": { "type": "LineString", "coordinates": [ [ 530495.756988407694735, 7261208.36117419693619 ], [ 530502.085917482851073, 7261205.79558140784502 ], [ 530510.534239877597429, 7261201.682583605870605 ], [ 530520.0, 7261196.329821285791695 ], [ 530529.465760122402571, 7261190.447091679088771 ], [ 530537.914082517148927, 7261185.297830341383815 ], [ 530544.243011592305265, 7261181.998769285157323 ] ] } },
{ "type": "Feature", "properties": { "id": 7, "reference_id": 9, "dune_id": 9, "dune_name": "Inverted Y Dune", "acquisition_date": "2026-03-21", "length_m": 832.23749454611811 }, "geometry": { "type": "LineString", "coordinates": [ [ 530091.078100949525833, 7261598.910724874585867 ], [ 530086.078100949409418, 7261603.834750852547586 ], [ 530078.683442020905204, 7261610.868574090301991 ], [ 530069.677239574841224, 7261618.771082820370793 ], [ 530059.944359513698146, 7261626.297421364113688 ], [ 530049.993520701071247, 7261633.218392157927155 ], [ 530039.999553894624114, 7261639.913297906517982 ], [ 530030.0, 7261646.328929075971246 ], [ 530020.0, 7261652.205649306997657 ], [ 530010.0, 7261657.794350693002343 ], [ 530000.0, 7261663.670178715139627 ], [ 529990.0, 7261670.075974022038281 ], [ 529980.0, 7261676.700938943773508 ], [ 529970.0, 7261683.311127444729209 ], [ 529960.0, 7261690.011174176819623 ], [ 529950.0, 7261696.777805175632238 ], [ 529940.0, 7261703.757326913066208 ], [ 529930.0, 7261711.551677605137229 ], [ 529920.0, 7261720.447983889840543 ], [ 529910.0, 7261730.087148198857903 ], [ 529900.0, 7261740.011174176819623 ], [ 529890.0, 7261750.000892210751772 ], [ 529880.0, 7261760.0 ], [ 529870.0, 7261770.0 ], [ 529860.000892210751772, 7261780.0 ], [ 529850.011174176470377, 7261790.0 ], [ 529840.087148198392242, 7261800.0 ], [ 529830.447983889840543, 7261810.0 ], [ 529821.552569815889001, 7261820.0 ], [ 529813.768501089187339, 7261830.0 ], [ 529806.864953374140896, 7261840.000000000931323 ], [ 529800.45915806631092, 7261850.0 ], [ 529794.861912838649005, 7261860.0 ], [ 529790.447983889840543, 7261870.0 ], [ 529786.776912964996882, 7261880.0 ], [ 529783.310235233511776, 7261890.0 ], [ 529779.924918188713491, 7261900.0 ], [ 529776.329821285791695, 7261910.0 ], [ 529772.205649307463318, 7261920.0 ], [ 529767.794350692536682, 7261930.0 ], [ 529763.670178714208305, 7261940.0 ], [ 529760.075974022038281, 7261950.0 ], [ 529756.700046732323244, 7261960.0 ], [ 529753.299953267676756, 7261970.0 ], [ 529749.923133767326362, 7261980.0 ], [ 529746.31953932007309, 7261990.0 ], [ 529742.129675285541452, 7262000.0 ], [ 529737.433515001088381, 7262010.0 ], [ 529732.566484998911619, 7262020.0 ], [ 529727.869432503939606, 7262030.0 ], [ 529723.670178714208305, 7262040.0 ], [ 529720.0, 7262050.0 ], [ 529716.329821285791695, 7262060.0 ], [ 529712.129675285425037, 7262070.0 ], [ 529707.423233035369776, 7262080.0 ], [ 529702.490510976873338, 7262090.0 ], [ 529697.509489023126662, 7262100.0 ], [ 529692.576766964630224, 7262110.0 ], [ 529687.871216925210319, 7262120.0 ], [ 529683.680460680043325, 7262130.0 ], [ 529680.076866232673638, 7262140.0 ], [ 529676.700046732323244, 7262150.0 ], [ 529673.299953267676756, 7262160.0 ], [ 529669.924025978078134, 7262170.0 ], [ 529666.330713496543467, 7262180.0 ], [ 529662.215931273298338, 7262190.0 ], [ 529657.870324714574963, 7262200.0 ], [ 529654.031014405656606, 7262210.0 ], [ 529651.180559947970323, 7262219.999107789248228 ], [ 529648.917762426892295, 7262229.987933613359928 ], [ 529646.417861694935709, 7262239.900785414502025 ], [ 529643.681352890678681, 7262249.453693735413253 ], [ 529641.541395639418624, 7262257.913190307095647 ], [ 529640.447091679205187, 7262264.243011591956019 ] ] } },
{ "type": "Feature", "properties": { "id": 8, "reference_id": 1, "dune_id": 1, "dune_name": "Big Mommy Dune", "acquisition_date": "2026-03-21", "length_m": 333.28006983127096 }, "geometry": { "type": "LineString", "coordinates": [ [ 528905.756988407694735, 7262195.783515021204948 ], [ 528912.085917482851073, 7262191.583369020372629 ], [ 528920.535132088349201, 7262185.783515021204948 ], [ 528930.011174176470377, 7262178.360281986184418 ], [ 528939.553800531546585, 7262169.540841934271157 ], [ 528948.373240583576262, 7262159.911959590390325 ], [ 528955.881837395951152, 7262149.9888258241117 ], [ 528962.118501109071076, 7262139.999107789248228 ], [ 528967.782284305430949, 7262130.0 ], [ 528973.659004537737928, 7262120.0 ], [ 528979.999107789248228, 7262110.0 ], [ 528986.328929075156339, 7262100.0 ], [ 528992.119393319706433, 7262090.0 ], [ 528997.346366802696139, 7262080.0 ], [ 529002.119393319706433, 7262070.0 ], [ 529006.328929075156339, 7262060.0 ], [ 529009.999107789364643, 7262050.0 ], [ 529013.659896748373285, 7262040.0 ], [ 529017.794350692536682, 7262030.0 ], [ 529022.217715694569051, 7262020.0 ], [ 529026.427251450018957, 7262010.0 ], [ 529030.447091679205187, 7262000.0 ], [ 529035.200400177156553, 7261990.0 ], [ 529041.464529406744987, 7261980.0 ], [ 529048.54664476972539, 7261970.0 ], [ 529054.875573844881728, 7261960.000892210751772 ], [ 529059.912851801607758, 7261950.012066386640072 ], [ 529064.665268088807352, 7261940.099214585497975 ], [ 529069.900785414502025, 7261930.546306265518069 ], [ 529074.777251469902694, 7261922.086809693835676 ], [ 529078.011512681376189, 7261915.756988408043981 ] ] } },
{ "type": "Feature", "properties": { "id": 9, "reference_id": 1, "dune_id": 1, "dune_name": "Big Mommy Dune", "acquisition_date": "2026-03-21", "length_m": 916.40866942408456 }, "geometry": { "type": "LineString", "coordinates": [ [ 529176.835089357104152, 7260998.921899050474167 ], [ 529178.164910642895848, 7261003.921899050474167 ], [ 529179.229748285724781, 7261011.316557979211211 ], [ 529179.776454160455614, 7261020.322760425508022 ], [ 529179.956425900803879, 7261030.055640487000346 ], [ 529179.994412911823019, 7261040.006479299627244 ], [ 529179.999553894740529, 7261050.000446105375886 ], [ 529179.999107789364643, 7261060.0 ], [ 529179.988825823529623, 7261070.0 ], [ 529179.912851801607758, 7261080.0 ], [ 529179.552908320794813, 7261090.0 ], [ 529178.458604360581376, 7261100.0 ], [ 529176.318647109321319, 7261110.0 ], [ 529173.582138305064291, 7261120.000000000931323 ], [ 529171.082237573107705, 7261130.0 ], [ 529168.819440052029677, 7261140.0 ], [ 529165.968985594343394, 7261150.0 ], [ 529162.129675285541452, 7261160.0 ], [ 529157.784068726818077, 7261170.0 ], [ 529153.669286503572948, 7261180.0 ], [ 529150.075974022038281, 7261190.0 ], [ 529146.700046732323244, 7261200.0 ], [ 529143.299953267676756, 7261210.000000000931323 ], [ 529139.923133767326362, 7261220.0 ], [ 529136.319539319956675, 7261230.0 ], [ 529132.129675285425037, 7261240.0 ], [ 529127.433515001204796, 7261250.0 ], [ 529122.566484998911619, 7261260.0 ], [ 529117.870324714574963, 7261270.0 ], [ 529113.680460680043325, 7261280.0 ], [ 529110.076866232673638, 7261290.0 ], [ 529106.700046732323244, 7261300.0 ], [ 529103.299953267676756, 7261310.000000000931323 ], [ 529099.923133767442778, 7261320.0 ], [ 529096.31953932007309, 7261330.0 ], [ 529092.129675285541452, 7261340.0 ], [ 529087.433515001088381, 7261350.0 ], [ 529082.566484998911619, 7261360.0 ], [ 529077.869432503823191, 7261370.0 ], [ 529073.670178714208305, 7261380.0 ], [ 529070.000892210751772, 7261390.0 ], [ 529066.340103251626715, 7261400.0 ], [ 529062.206541518098675, 7261410.0 ], [ 529057.794350692536682, 7261420.0 ], [ 529053.670178714208305, 7261430.0 ], [ 529050.075974021921866, 7261440.0 ], [ 529046.700938942958601, 7261450.0 ], [ 529043.311127444147132, 7261460.0 ], [ 529040.01028196583502, 7261470.000000000931323 ], [ 529036.766630999278277, 7261480.0 ], [ 529033.670178714208305, 7261490.0 ], [ 529031.104585926048458, 7261500.0 ], [ 529028.907480461173691, 7261510.0 ], [ 529026.416969484183937, 7261520.0 ], [ 529023.680460680043325, 7261530.0 ], [ 529021.530221462948248, 7261540.0 ], [ 529020.359943480812944, 7261550.0 ], [ 529019.640056519303471, 7261560.000000000931323 ], [ 529018.470670747803524, 7261570.0 ], [ 529016.330713496543467, 7261580.0 ], [ 529013.671070924960077, 7261590.0 ], [ 529011.551677605253644, 7261600.0 ], [ 529010.534239877597429, 7261610.0 ], [ 529010.534239877597429, 7261620.0 ], [ 529011.551677605253644, 7261630.0 ], [ 529013.671963135479018, 7261640.0 ], [ 529016.340995462378487, 7261650.0 ], [ 529018.547536980360746, 7261660.0 ], [ 529020.011174176470377, 7261670.0 ], [ 529021.540503428783268, 7261680.0 ], [ 529024.106988427578472, 7261690.0 ], [ 529027.881498891045339, 7261700.0 ], [ 529032.227997660404071, 7261710.0 ], [ 529036.417861694935709, 7261720.0 ], [ 529040.372009867918678, 7261730.000000000931323 ], [ 529044.850738662178628, 7261740.0 ], [ 529050.447091679205187, 7261750.0 ], [ 529056.776912964996882, 7261760.0 ], [ 529063.310235233511776, 7261770.0 ], [ 529069.924025978078134, 7261780.0 ], [ 529076.318647109321319, 7261790.0 ], [ 529082.118501109071076, 7261800.0 ], [ 529087.346366802696139, 7261810.0 ], [ 529092.118501109071076, 7261819.999107789248228 ], [ 529096.317754898685962, 7261829.987933613359928 ], [ 529099.911959590855986, 7261839.900785414502025 ], [ 529103.211912858532742, 7261849.453693735413253 ], [ 529106.241780876647681, 7261857.913190307095647 ], [ 529108.448322394862771, 7261864.243011591956019 ] ] } },
{ "type": "Feature", "properties": { "id": 10, "reference_id": 5, "dune_id": 5, "dune_name": "The Star Dune", "acquisition_date": "2026-03-21", "length_m": 1144.0285170089655 }, "geometry": { "type": "LineString", "coordinates": [ [ 534334.342226177919656, 7261305.756988408043981 ], [ 534328.459496571333148, 7261312.086809693835676 ], [ 534321.540503428666852, 7261320.546306264586747 ], [ 534315.657773822080344, 7261330.099214585497975 ], [ 534312.074743306264281, 7261340.012066386640072 ], [ 534310.546306264703162, 7261350.000892210751772 ], [ 534310.110388762084767, 7261360.0 ], [ 534310.099214585614391, 7261370.0 ], [ 534310.447983889840543, 7261380.0 ], [ 534311.540503428666852, 7261390.0 ], [ 534313.670178714208305, 7261400.0 ], [ 534316.329821285791695, 7261410.0 ], [ 534318.459496571216732, 7261420.0 ], [ 534319.552908320794813, 7261430.0 ], [ 534319.913744012243114, 7261440.0 ], [ 534320.0, 7261450.0 ], [ 534320.085363777005114, 7261460.0 ], [ 534320.43591750273481, 7261470.000000000931323 ], [ 534321.45335523027461, 7261480.0 ], [ 534323.223087035119534, 7261490.0 ], [ 534324.789317857124843, 7261500.0 ], [ 534324.788425646489486, 7261510.0 ], [ 534323.211020647897385, 7261520.0 ], [ 534321.35414064466022, 7261530.0 ], [ 534319.889611237915233, 7261540.0 ], [ 534317.999446294270456, 7261550.0 ], [ 534314.254185768892057, 7261559.999107790179551 ], [ 534307.914082517265342, 7261569.9888258241117 ], [ 534299.453693735296838, 7261579.912851802073419 ], [ 534289.900785414502025, 7261589.552016110159457 ], [ 534279.987933612894267, 7261598.448322394862771 ], [ 534269.999107789248228, 7261606.242673087865114 ], [ 534260.0, 7261613.222194824367762 ], [ 534250.0, 7261619.9888258241117 ], [ 534240.0, 7261626.689764766022563 ], [ 534230.0, 7261633.309343023225665 ], [ 534220.0, 7261639.999107789248228 ], [ 534210.0, 7261646.678590590134263 ], [ 534200.0, 7261653.211912859231234 ], [ 534190.0, 7261659.476042088121176 ], [ 534180.0, 7261664.778143680654466 ], [ 534170.0, 7261668.447430184110999 ], [ 534160.0, 7261671.005371341481805 ], [ 534150.0, 7261673.571856340393424 ], [ 534140.0, 7261676.317754898220301 ], [ 534130.0, 7261678.459496570751071 ], [ 534120.0, 7261679.564082497730851 ], [ 534110.0, 7261680.0 ], [ 534100.0, 7261680.435917503200471 ], [ 534090.0, 7261681.539611218497157 ], [ 534080.0, 7261683.670178715139627 ], [ 534070.0, 7261686.329821286723018 ], [ 534060.0, 7261688.460388783365488 ], [ 534050.0, 7261689.564082497730851 ], [ 534040.0, 7261690.0 ], [ 534030.0, 7261690.435917503200471 ], [ 534020.0, 7261691.539611218497157 ], [ 534010.0, 7261693.671070924960077 ], [ 534000.0, 7261696.340995462611318 ], [ 533990.0, 7261698.546644769608974 ], [ 533980.0, 7261700.000892210751772 ], [ 533970.0, 7261701.464529407210648 ], [ 533960.0, 7261703.746152736246586 ], [ 533950.0, 7261706.776912964880466 ], [ 533940.0, 7261710.0111741758883 ], [ 533930.0, 7261713.311127444729209 ], [ 533920.0, 7261716.700938943773508 ], [ 533910.0, 7261720.076866232790053 ], [ 533900.0, 7261723.680460680276155 ], [ 533890.0, 7261727.871216925792396 ], [ 533880.0, 7261732.576766965910792 ], [ 533870.0, 7261737.510381234809756 ], [ 533860.0, 7261742.500792942941189 ], [ 533850.0, 7261747.500099267810583 ], [ 533840.0, 7261752.500792942941189 ], [ 533830.0, 7261757.511273443698883 ], [ 533820.0, 7261762.587941141799092 ], [ 533810.000892210635357, 7261767.958365123718977 ], [ 533800.011174176470377, 7261774.128444570116699 ], [ 533790.088040409144014, 7261781.628543838858604 ], [ 533780.45915806631092, 7261790.458265855908394 ], [ 533771.638825803645886, 7261800.088040409609675 ], [ 533764.205310802557506, 7261810.011174177750945 ], [ 533758.329482780885883, 7261820.000892210751772 ], [ 533753.768501089187339, 7261830.0 ], [ 533750.088040409144014, 7261840.000000000931323 ], [ 533746.700938942958601, 7261850.0 ], [ 533743.299953267676756, 7261860.0 ], [ 533739.923133767442778, 7261870.0 ], [ 533736.31953932007309, 7261880.0 ], [ 533732.128783074906096, 7261890.0 ], [ 533727.423233035253361, 7261900.0 ], [ 533722.489618766237982, 7261910.0 ], [ 533717.499207057291642, 7261920.0 ], [ 533712.499900731956586, 7261930.0 ], [ 533707.499207057408057, 7261940.0 ], [ 533702.489618766237982, 7261950.0 ], [ 533697.423233035369776, 7261960.0 ], [ 533692.129675285541452, 7261970.0 ], [ 533686.329821285791695, 7261980.0 ], [ 533680.0, 7261989.999553894624114 ], [ 533673.671070924960077, 7261999.993520701304078 ], [ 533667.881498891045339, 7262009.944359513930976 ], [ 533662.664807373774238, 7262019.677239574491978 ], [ 533657.968647089437582, 7262028.683442020788789 ], [ 533654.129336780519225, 7262036.078100949525833 ], [ 533651.628543837927282, 7262041.078100949525833 ] ] } },
{ "type": "Feature", "properties": { "id": 11, "reference_id": 6, "dune_id": 6, "dune_name": "The Star Dune", "acquisition_date": "2026-03-21", "length_m": 893.16342917577072 }, "geometry": { "type": "LineString", "coordinates": [ [ 533650.0, 7262048.921899050474167 ], [ 533650.0, 7262053.921899050474167 ], [ 533650.0, 7262061.316557979211211 ], [ 533650.0, 7262070.322760425508022 ], [ 533650.0, 7262080.055640487000346 ], [ 533650.0, 7262090.006479298695922 ], [ 533650.0, 7262100.000446105375886 ], [ 533650.0, 7262110.0 ], [ 533650.0, 7262120.0 ], [ 533650.000892210751772, 7262130.0 ], [ 533650.011174176470377, 7262140.0 ], [ 533650.087148198508658, 7262150.0 ], [ 533650.447091679205187, 7262160.0 ], [ 533651.540503428783268, 7262170.0 ], [ 533653.670178714208305, 7262180.0 ], [ 533656.329821285791695, 7262190.0 ], [ 533658.459496571216732, 7262200.0 ], [ 533659.553800531546585, 7262210.0 ], [ 533659.924025977961719, 7262220.0 ], [ 533660.075974022038281, 7262230.0 ], [ 533660.44619946856983, 7262240.0 ], [ 533661.540503428783268, 7262250.0 ], [ 533663.670178714208305, 7262260.0 ], [ 533666.329821285791695, 7262270.0 ], [ 533668.459496571333148, 7262280.0 ], [ 533669.552908320911229, 7262290.0 ], [ 533669.912851801607758, 7262300.0 ], [ 533669.988825823646039, 7262310.0 ], [ 533669.999107789364643, 7262320.0 ], [ 533670.0, 7262330.0 ], [ 533669.999107789364643, 7262340.000000000931323 ], [ 533669.988825823646039, 7262350.0 ], [ 533669.912851801607758, 7262360.0 ], [ 533669.552016110159457, 7262370.0 ], [ 533668.448322394862771, 7262380.0 ], [ 533666.242673087399453, 7262390.0 ], [ 533663.222194824367762, 7262400.0 ], [ 533659.988825823529623, 7262410.0 ], [ 533656.689764766488224, 7262420.0 ], [ 533653.310235233511776, 7262430.0 ], [ 533650.01028196583502, 7262440.0 ], [ 533646.766630999161862, 7262450.0 ], [ 533643.670178714208305, 7262460.0 ], [ 533641.103693715413101, 7262470.0 ], [ 533638.896306284703314, 7262480.0 ], [ 533636.329821285791695, 7262490.0 ], [ 533633.234261211473495, 7262500.0 ], [ 533630.0, 7262510.0 ], [ 533626.765738788526505, 7262520.0 ], [ 533623.670178714208305, 7262530.0 ], [ 533621.104585925932042, 7262540.0 ], [ 533618.907480461173691, 7262550.0 ], [ 533616.416077273664996, 7262560.0 ], [ 533613.670178714208305, 7262570.0 ], [ 533611.454247441026382, 7262580.0 ], [ 533610.0, 7262590.0 ], [ 533608.54664476972539, 7262600.000000000931323 ], [ 533606.340995462378487, 7262610.0 ], [ 533603.671070924960077, 7262620.0 ], [ 533601.540503428783268, 7262630.0 ], [ 533600.447091679205187, 7262640.0 ], [ 533600.086255987756886, 7262650.0 ], [ 533600.0, 7262660.0 ], [ 533599.913744012243114, 7262670.0 ], [ 533599.552908320794813, 7262680.0 ], [ 533598.459496571216732, 7262690.0 ], [ 533596.329821285791695, 7262700.0 ], [ 533593.670178714208305, 7262710.0 ], [ 533591.539611218031496, 7262720.0 ], [ 533590.43591750273481, 7262730.0 ], [ 533590.0, 7262740.0 ], [ 533589.563190286629833, 7262750.0 ], [ 533588.449214605498128, 7262760.0 ], [ 533586.242673087399453, 7262770.0 ], [ 533583.222194824367762, 7262780.0 ], [ 533579.988825823529623, 7262790.0 ], [ 533576.68976476660464, 7262800.0 ], [ 533573.309343022876419, 7262810.0 ], [ 533570.0, 7262820.0 ], [ 533566.690656977239996, 7262830.0 ], [ 533563.310235233511776, 7262840.0 ], [ 533560.011174176470377, 7262850.0 ], [ 533556.777805175632238, 7262860.0 ], [ 533553.757326912600547, 7262870.000000000931323 ], [ 533551.551677605253644, 7262879.999107789248228 ], [ 533550.447983889840543, 7262889.987933613359928 ], [ 533550.087148198392242, 7262899.900785414502025 ], [ 533550.011174176470377, 7262909.453693736344576 ], [ 533550.000892210751772, 7262917.913190307095647 ], [ 533550.0, 7262924.243011591956019 ] ] } },
{ "type": "Feature", "properties": { "id": 12, "reference_id": 7, "dune_id": 7, "dune_name": "Inverted Y Dune", "acquisition_date": "2026-03-21", "length_m": 481.06469230379912 }, "geometry": { "type": "LineString", "coordinates": [ [ 530195.756988407694735, 7261650.0 ], [ 530202.086809693370014, 7261650.0 ], [ 530210.546306264819577, 7261650.0 ], [ 530220.099214585614391, 7261650.0 ], [ 530230.012066387105733, 7261649.999107790179551 ], [ 530240.000892210751772, 7261649.9888258241117 ], [ 530250.0, 7261649.912851802073419 ], [ 530260.0, 7261649.552016111090779 ], [ 530270.0, 7261648.448322394862771 ], [ 530280.0, 7261646.242673087865114 ], [ 530290.0, 7261643.222194824367762 ], [ 530300.0, 7261639.9888258241117 ], [ 530310.0, 7261636.689764766953886 ], [ 530320.0, 7261633.309343023225665 ], [ 530330.0, 7261630.0 ], [ 530340.0, 7261626.689764766022563 ], [ 530350.0, 7261623.299061057157815 ], [ 530360.0, 7261619.92313376814127 ], [ 530370.0, 7261616.318647109903395 ], [ 530380.0, 7261612.118501109071076 ], [ 530390.0, 7261607.346366802230477 ], [ 530400.0, 7261602.118501110002398 ], [ 530410.0, 7261596.317754898220301 ], [ 530420.0, 7261589.911959591321647 ], [ 530430.000000000116415, 7261583.211912859231234 ], [ 530440.0, 7261576.241780877113342 ], [ 530450.0, 7261568.448322394862771 ], [ 530460.0, 7261559.552016111090779 ], [ 530469.999107789364643, 7261549.912851801142097 ], [ 530479.988825823529623, 7261539.9888258241117 ], [ 530489.912851801607758, 7261529.999107789248228 ], [ 530499.552016110159457, 7261520.0 ], [ 530508.448322394862771, 7261510.0 ], [ 530516.242673087399453, 7261500.0 ], [ 530523.222194824367762, 7261490.0 ], [ 530529.988825823529623, 7261480.0 ], [ 530536.689764766488224, 7261470.000000000931323 ], [ 530543.309343022760004, 7261460.0 ], [ 530549.999107789364643, 7261450.000892210751772 ], [ 530556.678590590134263, 7261440.012066387571394 ], [ 530563.211020647897385, 7261430.099214585497975 ], [ 530569.464867911767215, 7261420.546306264586747 ], [ 530574.690995482262224, 7261412.086809693835676 ], [ 530578.000338505022228, 7261405.756988408043981 ] ] } },
{ "type": "Feature", "properties": { "id": 13, "reference_id": 2, "dune_id": 2, "dune_name": "Big Mommy Dune", "acquisition_date": "2026-03-21", "length_m": 68.797339758133504 }, "geometry": { "type": "LineString", "coordinates": [ [ 528435.756988407694735, 7260654.215592768974602 ], [ 528442.08680969348643, 7260658.404564592987299 ], [ 528450.545414054067805, 7260664.117270393297076 ], [ 528460.087148198392242, 7260671.093411749228835 ], [ 528469.912851801607758, 7260678.37234837282449 ], [ 528479.454585945932195, 7260684.331052001565695 ], [ 528487.91319030651357, 7260687.924364482983947 ], [ 528494.243011592421681, 7260689.454585946165025 ] ] } },
{ "type": "Feature", "properties": { "id": 14, "reference_id": 2, "dune_id": 2, "dune_name": "Big Mommy Dune", "acquisition_date": "2026-03-21", "length_m": 453.34024528654197 }, "geometry": { "type": "LineString", "coordinates": [ [ 528695.756988407694735, 7260821.628543838858604 ], [ 528702.08680969348643, 7260824.128444570116699 ], [ 528710.546306264819577, 7260827.957472912967205 ], [ 528720.099214585614391, 7260832.577659175731242 ], [ 528730.012066387105733, 7260837.434407211840153 ], [ 528740.000892210635357, 7260842.13056749664247 ], [ 528750.0, 7260846.329821285791695 ], [ 528760.0, 7260849.999107789248228 ], [ 528770.0, 7260853.659896748140454 ], [ 528780.0, 7260857.793458482250571 ], [ 528790.0, 7260862.205649307928979 ], [ 528800.0, 7260866.328929075971246 ], [ 528810.0, 7260869.913744012825191 ], [ 528820.0, 7260873.223087035119534 ], [ 528830.0, 7260876.328929075971246 ], [ 528840.0, 7260878.896306285634637 ], [ 528850.0, 7260881.103693716228008 ], [ 528860.0, 7260883.670178715139627 ], [ 528870.0, 7260886.765738788992167 ], [ 528880.0, 7260890.0 ], [ 528890.0, 7260893.234261211939156 ], [ 528900.0, 7260896.329821285791695 ], [ 528910.0, 7260898.895414073951542 ], [ 528920.0, 7260901.093411750160158 ], [ 528930.0, 7260903.594204693101346 ], [ 528940.0, 7260906.405795308761299 ], [ 528950.0, 7260908.906588250771165 ], [ 528960.0, 7260911.10458592697978 ], [ 528970.0, 7260913.670178714208305 ], [ 528980.0, 7260916.765738788992167 ], [ 528990.0, 7260920.0 ], [ 529000.0, 7260923.234261211007833 ], [ 529010.0, 7260926.329821286723018 ], [ 529020.0, 7260928.896306285634637 ], [ 529030.0, 7260931.103693716228008 ], [ 529040.0, 7260933.671070924960077 ], [ 529050.0, 7260936.776912964880466 ], [ 529060.0, 7260940.086255988106132 ], [ 529070.0, 7260943.671070924960077 ], [ 529079.999107789248228, 7260947.794350693002343 ], [ 529089.987933612894267, 7260952.205649308860302 ], [ 529099.900785414502025, 7260956.328929075971246 ], [ 529109.453693735296838, 7260959.912851802073419 ], [ 529117.91319030651357, 7260963.211912859231234 ], [ 529124.243011592421681, 7260966.241780877113342 ] ] } }
]
}
