{
"type": "FeatureCollection",
"name": "crests_2023_09_2023-09-01",
"crs": { "type": "name", "properties": { "name": "urn:ogc:def:crs:EPSG::32733" } },
"features": [
{ "type": "Feature", "properties": { "id": 0, "reference_id": 5, "dune_id": 5, "dune_name": "The Star Dune", "acquisition_date": "2023-09-01", "length_m": 674.49637345347344 }, "geometry": { "type": "LineString", "coordinates": [ [ 533651.638825803645886, 7262041.078100949525833 ], [ 533654.20531080244109, 7262036.078100949525833 ], [ 533658.329482780769467, 7262028.683442020788789 ], [ 533663.768501089187339, 7262019.677239574491978 ], [ 533670.088040409144014, 7262009.944359513930976 ], [ 533676.700938943075016, 7261999.993520701304078 ], [ 533683.299953267676756, 7261989.999553894624114 ], [ 533689.923133767326362, 7261980.0 ], [ 533696.31953932007309, 7261970.0 ], [ 533702.128783074789681, 7261960.0 ], [ 533707.423233035369776, 7261950.0 ], [ 533712.489618766237982, 7261940.0 ], [ 533717.49831484653987, 7261930.0 ], [ 533722.489618766237982, 7261920.0 ], [ 533727.423233035253361, 7261910.0 ], [ 533732.128783074906096, 7261900.0 ], [ 533736.31953932007309, 7261890.0 ], [ 533739.923133767442778, 7261880.0 ], [ 533743.299061057041399, 7261870.0 ], [ 533746.689764766488224, 7261860.0 ], [ 533750.000892210751772, 7261850.0 ], [ 533753.321409409982152, 7261840.000000000931323 ], [ 533756.78897935221903, 7261830.0 ], [ 533760.535132088349201, 7261820.0 ], [ 533765.309004517854191, 7261810.000892210751772 ], [ 533771.999661495094188, 7261800.011174176819623 ], [ 533780.535132088232785, 7261790.088040409609675 ], [ 533790.098322374979034, 7261780.458265855908394 ], [ 533800.012066387105733, 7261771.628543837927282 ], [ 533810.000892210635357, 7261764.128444569185376 ], [ 533820.0, 7261757.958365123718977 ], [ 533830.0, 7261752.58794114086777 ], [ 533840.0, 7261747.511273445561528 ], [ 533850.0, 7261742.500792942941189 ], [ 533860.0, 7261737.500099267810583 ], [ 533870.0, 7261732.500792942941189 ], [ 533880.0, 7261727.510381233878434 ], [ 533890.0, 7261722.576766964048147 ], [ 533900.0, 7261717.871216924861073 ], [ 533910.0, 7261713.681352891027927 ], [ 533920.0, 7261710.087148198857903 ], [ 533930.0, 7261706.776912964880466 ], [ 533940.0, 7261703.671070924960077 ], [ 533950.0, 7261701.10458592697978 ], [ 533960.0, 7261698.907480461522937 ], [ 533970.0, 7261696.416969484649599 ], [ 533980.0, 7261693.680460680276155 ], [ 533990.0, 7261691.530221464112401 ], [ 534000.0, 7261690.35994348116219 ], [ 534010.0, 7261689.64005651883781 ], [ 534020.0, 7261688.470670748502016 ], [ 534030.0, 7261686.33071349747479 ], [ 534040.0, 7261683.670178715139627 ], [ 534050.0, 7261681.539611218497157 ], [ 534060.0, 7261680.435917503200471 ], [ 534070.0, 7261680.0 ], [ 534080.0, 7261679.564082497730851 ], [ 534090.0, 7261678.460388781502843 ], [ 534099.999107789248228, 7261676.329821285791695 ], [ 534109.987933612894267, 7261673.670178714208305 ], [ 534119.900785414502025, 7261671.540503429248929 ], [ 534129.453693735296838, 7261670.447091679088771 ], [ 534137.91319030651357, 7261670.087148198857903 ], [ 534144.243011592305265, 7261670.011174176819623 ] ] } },
{ "type": "Feature", "properties": { "id": 1, "reference_id": 5, "dune_id": 5, "dune_name": "The Star Dune", "acquisition_date": "2023-09-01", "length_m": 437.10685691006807 }, "geometry": { "type": "LineString", "coordinates": [ [ 534175.756988407694735, 7261658.371456163004041 ], [ 534182.08680969348643, 7261655.871555430814624 ], [ 534190.546306264819577, 7261652.041634876281023 ], [ 534200.099214585614391, 7261647.411166649311781 ], [ 534210.012066387105733, 7261642.477552379481494 ], [ 534220.000892210751772, 7261637.41205885913223 ], [ 534230.0, 7261632.052809053100646 ], [ 534240.0, 7261625.958703628741205 ], [ 534250.0, 7261618.818547841161489 ], [ 534260.0, 7261611.082237573340535 ], [ 534269.999107789248228, 7261603.582138305529952 ], [ 534279.987933612894267, 7261596.318647108972073 ], [ 534289.901677625020966, 7261588.458604360930622 ], [ 534299.464867911767215, 7261579.552908320911229 ], [ 534308.000338505022228, 7261569.912851802073419 ], [ 534314.690103271510452, 7261559.9888258241117 ], [ 534319.453693735296838, 7261549.999107789248228 ], [ 534323.123872449505143, 7261540.0 ], [ 534326.23060670029372, 7261530.0 ], [ 534328.447430184110999, 7261520.0 ], [ 534329.552016110159457, 7261510.0 ], [ 534329.912851801607758, 7261500.0 ], [ 534329.988825823529623, 7261490.0 ], [ 534329.998215578729287, 7261480.0 ], [ 534329.988825823529623, 7261470.000000000931323 ], [ 534329.912851801607758, 7261460.0 ], [ 534329.552908320794813, 7261450.0 ], [ 534328.459496571333148, 7261440.0 ], [ 534326.329821285791695, 7261430.0 ], [ 534323.670178714208305, 7261420.0 ], [ 534321.539611218031496, 7261410.0 ], [ 534320.43591750273481, 7261400.0 ], [ 534320.0, 7261390.0 ], [ 534319.564974708016962, 7261380.0 ], [ 534318.472455169074237, 7261370.0 ], [ 534316.429035871406086, 7261360.0 ], [ 534314.21559276827611, 7261350.000892210751772 ], [ 534313.615246735047549, 7261340.012066386640072 ], [ 534316.104865501285531, 7261330.099214585497975 ], [ 534321.62765162717551, 7261320.546306264586747 ], [ 534328.470670747803524, 7261312.086809693835676 ], [ 534334.343118388671428, 7261305.756988408043981 ] ] } },
{ "type": "Feature", "properties": { "id": 2, "reference_id": 1, "dune_id": 1, "dune_name": "Big Mommy Dune", "acquisition_date": "2023-09-01", "length_m": 582.43199687716606 }, "geometry": { "type": "LineString", "coordinates": [ [ 529064.128444569883868, 7261755.756988408043981 ], [ 529067.957472912967205, 7261762.086809692904353 ], [ 529072.57765917526558, 7261770.546306265518069 ], [ 529077.434407211840153, 7261780.099214585497975 ], [ 529082.129675285425037, 7261790.012066386640072 ], [ 529086.319539319956675, 7261800.000892210751772 ], [ 529089.922241556691006, 7261810.0 ], [ 529093.287886880571023, 7261820.0 ], [ 529096.600832146825269, 7261830.0 ], [ 529099.530559967970476, 7261840.000000000931323 ], [ 529101.593650986556895, 7261850.0 ], [ 529102.113336306996644, 7261860.0 ], [ 529100.479675305425189, 7261870.0 ], [ 529096.887208736385219, 7261880.0 ], [ 529092.030460699927062, 7261890.0 ], [ 529086.307472932850942, 7261900.0 ], [ 529079.922241556691006, 7261910.0 ], [ 529073.299061056924984, 7261920.0 ], [ 529066.68976476660464, 7261930.0 ], [ 529060.0, 7261940.0 ], [ 529053.310235233511776, 7261950.0 ], [ 529046.700938942958601, 7261960.0 ], [ 529040.076866232673638, 7261970.0 ], [ 529033.681352890795097, 7261980.0 ], [ 529027.881498891045339, 7261990.0 ], [ 529022.653633197303861, 7262000.0 ], [ 529017.881498890928924, 7262010.0 ], [ 529013.681352890795097, 7262020.0 ], [ 529010.076866232673638, 7262030.0 ], [ 529006.700046732323244, 7262040.0 ], [ 529003.299953267676756, 7262050.0 ], [ 528999.923133767442778, 7262060.0 ], [ 528996.31953932007309, 7262070.0 ], [ 528992.128783074789681, 7262080.0 ], [ 528987.42234082473442, 7262090.0 ], [ 528982.478444589767605, 7262100.0 ], [ 528977.411166648264043, 7262110.0 ], [ 528972.041634876397438, 7262120.0 ], [ 528965.871555430116132, 7262130.0 ], [ 528958.371456162189133, 7262140.0 ], [ 528949.541734144324437, 7262149.999107789248228 ], [ 528939.911959590972401, 7262159.9888258241117 ], [ 528929.988825823529623, 7262169.911959591321647 ], [ 528919.999107789364643, 7262179.541734144091606 ], [ 528910.0, 7262188.37234837282449 ], [ 528900.0, 7262195.881837395951152 ], [ 528890.0, 7262202.117608899250627 ], [ 528880.000892210751772, 7262207.771110128611326 ], [ 528870.012066387105733, 7262213.57096412871033 ], [ 528860.099214585614391, 7262219.540841933339834 ], [ 528850.546306264819577, 7262224.701277447864413 ], [ 528842.086809693370014, 7262228.001230716705322 ], [ 528835.756988407694735, 7262229.464867912232876 ] ] } },
{ "type": "Feature", "properties": { "id": 3, "reference_id": 1, "dune_id": 1, "dune_name": "Big Mommy Dune", "acquisition_date": "2023-09-01", "length_m": 762.19134720263139 }, "geometry": { "type": "LineString", "coordinates": [ [ 529045.871555430116132, 7261724.243011591956019 ], [ 529042.042527087032795, 7261717.913190307095647 ], [ 529037.423233035369776, 7261709.453693734481931 ], [ 529032.576766964746639, 7261699.900785414502025 ], [ 529027.957472912967205, 7261689.987933613359928 ], [ 529024.128444569883868, 7261679.999107789248228 ], [ 529021.628543837927282, 7261670.0 ], [ 529020.458265855675563, 7261660.0 ], [ 529020.088040409144014, 7261650.0 ], [ 529020.011174176470377, 7261640.0 ], [ 529020.000892210751772, 7261630.0 ], [ 529020.0, 7261620.0 ], [ 529020.0, 7261610.0 ], [ 529020.0, 7261600.0 ], [ 529020.0, 7261590.0 ], [ 529020.000892210751772, 7261580.0 ], [ 529020.011174176470377, 7261570.0 ], [ 529020.087148198508658, 7261560.000000000931323 ], [ 529020.447983889840543, 7261550.0 ], [ 529021.551677605137229, 7261540.0 ], [ 529023.757326912600547, 7261530.0 ], [ 529026.776912964996882, 7261520.0 ], [ 529030.000892210751772, 7261510.0 ], [ 529033.234261211473495, 7261500.0 ], [ 529036.329821285791695, 7261490.0 ], [ 529038.896306284703314, 7261480.0 ], [ 529041.103693715296686, 7261470.000000000931323 ], [ 529043.671070924843661, 7261460.0 ], [ 529046.776912964880466, 7261450.0 ], [ 529050.087148198508658, 7261440.0 ], [ 529053.681352890678681, 7261430.0 ], [ 529057.870324714574963, 7261420.0 ], [ 529062.566484998911619, 7261410.0 ], [ 529067.433515001088381, 7261400.0 ], [ 529072.130567496176809, 7261390.0 ], [ 529076.329821285791695, 7261380.0 ], [ 529079.999107789248228, 7261370.0 ], [ 529083.659896748373285, 7261360.0 ], [ 529087.793458481901325, 7261350.0 ], [ 529092.20654151821509, 7261340.0 ], [ 529096.340103251626715, 7261330.0 ], [ 529100.0, 7261320.0 ], [ 529103.659896748373285, 7261310.000000000931323 ], [ 529107.794350692536682, 7261300.0 ], [ 529112.216823483933695, 7261290.0 ], [ 529116.416077273548581, 7261280.0 ], [ 529120.360835691448301, 7261270.0 ], [ 529124.763590463786386, 7261260.0 ], [ 529129.999107789364643, 7261250.0 ], [ 529135.226127570495009, 7261240.0 ], [ 529139.563190286629833, 7261230.0 ], [ 529143.223979245638475, 7261220.0 ], [ 529146.689764766488224, 7261210.000000000931323 ], [ 529150.075081811286509, 7261200.0 ], [ 529153.670178714208305, 7261190.0 ], [ 529157.794350692536682, 7261180.0 ], [ 529162.205649307463318, 7261170.0 ], [ 529166.328929075156339, 7261160.0 ], [ 529169.912851801607758, 7261150.0 ], [ 529173.212805069284514, 7261140.0 ], [ 529176.252955053118058, 7261130.0 ], [ 529178.535470593255013, 7261120.000000000931323 ], [ 529179.999107789364643, 7261110.0 ], [ 529181.453355230391026, 7261100.0 ], [ 529183.658112327102572, 7261090.0 ], [ 529186.317754898685962, 7261080.0 ], [ 529188.372348372940905, 7261070.0 ], [ 529189.105816641706042, 7261060.0 ], [ 529188.372348372940905, 7261050.000446105375886 ], [ 529186.318647109437734, 7261040.006479299627244 ], [ 529183.669286503572948, 7261030.055640487000346 ], [ 529181.540503428783268, 7261020.322760425508022 ], [ 529180.447091679205187, 7261011.316557979211211 ], [ 529180.087148198392242, 7261003.921899050474167 ], [ 529180.011174176470377, 7260998.921899050474167 ] ] } },
{ "type": "Feature", "properties": { "id": 4, "reference_id": 7, "dune_id": 7, "dune_name": "Inverted Y Dune", "acquisition_date": "2023-09-01", "length_m": 597.74245503145289 }, "geometry": { "type": "LineString", "coordinates": [ [ 530185.756988407694735, 7261640.010281965136528 ], [ 530192.086809693370014, 7261640.075974022038281 ], [ 530200.546306264819577, 7261640.35994348116219 ], [ 530210.099214585614391, 7261641.093411749228835 ], [ 530220.012066387105733, 7261642.129675285890698 ], [ 530230.000892210635357, 7261642.65964257158339 ], [ 530240.0, 7261642.128783075138927 ], [ 530250.0, 7261641.082237573340535 ], [ 530260.0, 7261640.272795282304287 ], [ 530270.0, 7261639.62888234294951 ], [ 530280.0, 7261638.468886326998472 ], [ 530290.0, 7261636.319539320655167 ], [ 530300.0, 7261633.582138305529952 ], [ 530310.0, 7261631.082237573340535 ], [ 530320.0, 7261628.819440051913261 ], [ 530330.0, 7261625.968985594809055 ], [ 530340.0, 7261622.129675285890698 ], [ 530350.0, 7261617.783176516182721 ], [ 530360.0, 7261613.659004538320005 ], [ 530370.0, 7261609.999107789248228 ], [ 530380.0, 7261606.328929075039923 ], [ 530390.0, 7261602.11939332075417 ], [ 530400.0, 7261597.346366802230477 ], [ 530410.0, 7261592.118501108139753 ], [ 530420.0, 7261586.317754898220301 ], [ 530430.000000000116415, 7261579.911959591321647 ], [ 530440.0, 7261573.211912859231234 ], [ 530450.0, 7261566.241780877113342 ], [ 530459.999107789364643, 7261558.448322394862771 ], [ 530469.988825823529623, 7261549.552016110159457 ], [ 530479.912851801607758, 7261539.912851801142097 ], [ 530489.552016110159457, 7261529.9888258241117 ], [ 530498.448322394862771, 7261519.999107789248228 ], [ 530506.242673087399453, 7261510.0 ], [ 530513.222194824367762, 7261500.0 ], [ 530519.988825823529623, 7261490.0 ], [ 530526.689764766488224, 7261480.0 ], [ 530533.309343022760004, 7261470.000000000931323 ], [ 530540.0, 7261460.0 ], [ 530546.690656977239996, 7261450.0 ], [ 530553.310235233511776, 7261440.0 ], [ 530560.011174176470377, 7261430.0 ], [ 530566.777805175632238, 7261420.0 ], [ 530573.757326912600547, 7261410.0 ], [ 530581.551677605253644, 7261400.0 ], [ 530590.447983889840543, 7261390.0 ], [ 530600.087148198392242, 7261380.0 ], [ 530610.01028196583502, 7261370.000892210751772 ], [ 530619.988825823646039, 7261360.012066386640072 ], [ 530629.900785414502025, 7261350.099214585497975 ], [ 530639.453693735296838, 7261340.546306265518069 ], [ 530647.913190306629986, 7261332.086809693835676 ], [ 530654.243011592305265, 7261325.756988408043981 ] ] } },
{ "type": "Feature", "properties": { "id": 5, "reference_id": 9, "dune_id": 9, "dune_name": "Inverted Y Dune", "acquisition_date": "2023-09-01", "length_m": 778.93223843244516 }, "geometry": { "type": "LineString", "coordinates": [ [ 530074.243011592421681, 7261615.658666033297777 ], [ 530067.913190306629986, 7261621.552569815889001 ], [ 530059.453693735296838, 7261628.557818946428597 ], [ 530049.900785414502025, 7261634.877358267083764 ], [ 530039.987933612777852, 7261639.924918189644814 ], [ 530029.999107789248228, 7261644.763590464368463 ], [ 530020.0, 7261650.435917503200471 ], [ 530010.0, 7261656.776912964880466 ], [ 530000.0, 7261663.320517199113965 ], [ 529990.0, 7261670.000892210751772 ], [ 529980.0, 7261676.690656976774335 ], [ 529970.0, 7261683.310235233977437 ], [ 529960.0, 7261690.010281966067851 ], [ 529950.0, 7261696.766630999743938 ], [ 529940.0, 7261703.670178714208305 ], [ 529930.0, 7261711.10458592697978 ], [ 529920.0, 7261718.907480461522937 ], [ 529910.0, 7261726.416969484649599 ], [ 529900.000892210751772, 7261733.681352891027927 ], [ 529890.011174176470377, 7261741.541395640000701 ], [ 529880.087148198392242, 7261750.447091680020094 ], [ 529870.447091679205187, 7261760.087148198857903 ], [ 529861.540503428666852, 7261770.0111741758883 ], [ 529853.671070924843661, 7261780.000892210751772 ], [ 529846.340995462262072, 7261790.0 ], [ 529838.546644769841805, 7261800.0 ], [ 529830.000892210751772, 7261810.0 ], [ 529821.465421617496759, 7261820.0 ], [ 529813.757326912716962, 7261830.0 ], [ 529806.864061163389124, 7261840.000000000931323 ], [ 529800.45915806631092, 7261850.0 ], [ 529794.861912838649005, 7261860.0 ], [ 529790.447983889840543, 7261870.0 ], [ 529786.777805175632238, 7261880.0 ], [ 529783.32051719923038, 7261890.0 ], [ 529780.000892210751772, 7261900.0 ], [ 529776.689764766488224, 7261910.0 ], [ 529773.299061056924984, 7261920.0 ], [ 529769.923133767442778, 7261930.0 ], [ 529766.31953932007309, 7261940.0 ], [ 529762.129675285425037, 7261950.0 ], [ 529757.433515001088381, 7261960.0 ], [ 529752.566484998911619, 7261970.0 ], [ 529747.869432503823191, 7261980.0 ], [ 529743.670178714208305, 7261990.0 ], [ 529740.0, 7262000.0 ], [ 529736.329821285791695, 7262010.0 ], [ 529732.130567496176809, 7262020.0 ], [ 529727.433515001204796, 7262030.0 ], [ 529722.565592788159847, 7262040.0 ], [ 529717.859150537988171, 7262050.0 ], [ 529713.593312481534667, 7262060.0 ], [ 529709.629774553468451, 7262070.0 ], [ 529705.160435514291748, 7262080.0 ], [ 529699.640948729938827, 7262090.0 ], [ 529693.680460680043325, 7262100.0 ], [ 529688.30713442794513, 7262110.0 ], [ 529684.116378182778135, 7262120.0 ], [ 529681.180559948086739, 7262130.0 ], [ 529678.831506439251825, 7262140.0 ], [ 529675.969877805095166, 7262150.0 ], [ 529672.129675285541452, 7262160.0 ], [ 529667.784068726818077, 7262170.0 ], [ 529663.670178714208305, 7262180.0 ], [ 529660.087148198508658, 7262189.999107789248228 ], [ 529656.788087141467258, 7262199.987933613359928 ], [ 529653.758219123352319, 7262209.900785414502025 ], [ 529651.551677605253644, 7262219.453693735413253 ], [ 529650.447983889840543, 7262227.913190307095647 ], [ 529650.087148198392242, 7262234.243011592887342 ] ] } },
{ "type": "Feature", "properties": { "id": 6, "reference_id": 8, "dune_id": 8, "dune_name": "Inverted Y Dune", "acquisition_date": "2023-09-01", "length_m": 734.78709634081963 }, "geometry": { "type": "LineString", "coordinates": [ [ 530554.243011592305265, 7261171.999661495909095 ], [ 530547.91319030651357, 7261175.309004518203437 ], [ 530539.453693735296838, 7261180.534239877015352 ], [ 530529.900785414385609, 7261186.776912964880466 ], [ 530519.987933612894267, 7261193.223087035119534 ], [ 530509.999107789248228, 7261199.465760122984648 ], [ 530500.0, 7261204.690995481796563 ], [ 530490.0, 7261208.00033850595355 ], [ 530480.0, 7261209.463975701481104 ], [ 530470.0, 7261209.890503449365497 ], [ 530460.0, 7261209.900785414502025 ], [ 530450.0, 7261209.552016111090779 ], [ 530440.0, 7261208.459496571682394 ], [ 530430.000000000116415, 7261206.329821285791695 ], [ 530420.0, 7261203.670178713276982 ], [ 530410.0, 7261201.540503428317606 ], [ 530400.0, 7261200.447091678157449 ], [ 530390.0, 7261200.087148198857903 ], [ 530380.0, 7261200.0111741758883 ], [ 530370.0, 7261200.000892210751772 ], [ 530360.0, 7261200.000892210751772 ], [ 530350.0, 7261200.0111741758883 ], [ 530340.0, 7261200.087148198857903 ], [ 530330.0, 7261200.447091678157449 ], [ 530320.0, 7261201.541395639069378 ], [ 530310.0, 7261203.681352891027927 ], [ 530300.0, 7261206.417861694470048 ], [ 530290.0, 7261208.918654637411237 ], [ 530280.0, 7261211.191734124906361 ], [ 530270.0, 7261214.118162604048848 ], [ 530260.0, 7261218.318308604881167 ], [ 530250.0, 7261223.768501089885831 ], [ 530240.0, 7261230.099214585497975 ], [ 530230.0, 7261236.788979352451861 ], [ 530220.0, 7261243.758219122886658 ], [ 530210.000892210751772, 7261251.551677605137229 ], [ 530200.011174176586792, 7261260.447983890771866 ], [ 530190.088040409144014, 7261270.087148198857903 ], [ 530180.45915806631092, 7261280.0111741758883 ], [ 530171.638825803645886, 7261290.000892210751772 ], [ 530164.20531080244109, 7261300.0 ], [ 530158.329482780885883, 7261310.000000000931323 ], [ 530153.768501089187339, 7261320.0 ], [ 530150.088040409144014, 7261330.0 ], [ 530146.701831153710373, 7261340.0 ], [ 530143.311127444263548, 7261350.0 ], [ 530140.01028196583502, 7261360.0 ], [ 530136.766630999278277, 7261370.0 ], [ 530133.670178714208305, 7261380.0 ], [ 530131.104585926048458, 7261390.0 ], [ 530128.907480461173691, 7261400.0 ], [ 530126.416969484183937, 7261410.0 ], [ 530123.680460680043325, 7261420.0 ], [ 530121.530221462948248, 7261430.0 ], [ 530120.359943480812944, 7261440.0 ], [ 530119.640056519303471, 7261450.0 ], [ 530118.470670747803524, 7261460.0 ], [ 530116.330713496543467, 7261470.000000000931323 ], [ 530113.670178714208305, 7261480.0 ], [ 530111.540503428666852, 7261490.0 ], [ 530110.44619946856983, 7261500.0 ], [ 530110.075974022038281, 7261510.0 ], [ 530109.924025978078134, 7261520.0 ], [ 530109.553800531546585, 7261530.0 ], [ 530108.459496571333148, 7261539.999553894624114 ], [ 530106.329821285791695, 7261549.993520701304078 ], [ 530103.670178714208305, 7261559.944359513930976 ], [ 530101.540503428783268, 7261569.6772395754233 ], [ 530100.447091679205187, 7261578.683442020788789 ], [ 530100.087148198508658, 7261586.078100949525833 ], [ 530100.011174176470377, 7261591.078100949525833 ] ] } },
{ "type": "Feature", "properties": { "id": 7, "reference_id": 2, "dune_id": 2, "dune_name": "Big Mommy Dune", "acquisition_date": "2023-09-01", "length_m": 699.83378759941468 }, "geometry": { "type": "LineString", "coordinates": [ [ 529104.243011592421681, 7260954.788425646722317 ], [ 529097.913190306629986, 7260949.9888258241117 ], [ 529089.453693735180423, 7260945.12353394459933 ], [ 529079.900785414385609, 7260941.540503429248929 ], [ 529069.987933612894267, 7260938.993736449629068 ], [ 529059.999107789364643, 7260936.427251449786127 ], [ 529050.0, 7260933.671070924960077 ], [ 529040.0, 7260931.453355230391026 ], [ 529030.0, 7260929.9888258241117 ], [ 529020.0, 7260928.459496571682394 ], [ 529010.0, 7260925.893903782591224 ], [ 529000.0, 7260922.129675285890698 ], [ 528990.0, 7260917.859150538221002 ], [ 528980.0, 7260914.030122195370495 ], [ 528970.0, 7260911.180559948086739 ], [ 528960.0, 7260908.916870215907693 ], [ 528950.0, 7260906.406687519513071 ], [ 528940.0, 7260903.594204693101346 ], [ 528930.0, 7260901.093411750160158 ], [ 528920.0, 7260898.895414073951542 ], [ 528910.0, 7260896.329821285791695 ], [ 528900.0, 7260893.234261211939156 ], [ 528890.0, 7260890.0 ], [ 528880.0, 7260886.765738788992167 ], [ 528870.0, 7260883.669286504387856 ], [ 528860.0, 7260881.093411750160158 ], [ 528850.0, 7260878.820332262665033 ], [ 528840.0, 7260875.969877805560827 ], [ 528830.0, 7260872.139957251027226 ], [ 528820.0, 7260867.860042748972774 ], [ 528810.0, 7260864.029229984618723 ], [ 528800.0, 7260861.169385772198439 ], [ 528790.0, 7260858.830614228732884 ], [ 528780.0, 7260855.969877804629505 ], [ 528770.0, 7260852.129675285890698 ], [ 528760.0, 7260847.783176516182721 ], [ 528750.0, 7260843.659004537388682 ], [ 528740.0, 7260839.999107789248228 ], [ 528730.0, 7260836.329821286723018 ], [ 528720.0, 7260832.129675285890698 ], [ 528710.0, 7260827.422340825200081 ], [ 528700.0, 7260822.479336800985038 ], [ 528690.0, 7260817.423233035951853 ], [ 528680.0, 7260812.139957251027226 ], [ 528670.0, 7260806.406687518581748 ], [ 528660.0, 7260800.370225446298718 ], [ 528650.0, 7260794.839564486406744 ], [ 528640.0, 7260790.35994348116219 ], [ 528630.0, 7260786.329821286723018 ], [ 528620.0, 7260781.769731804728508 ], [ 528610.0, 7260776.253847263753414 ], [ 528600.0, 7260769.988825823180377 ], [ 528590.0, 7260763.658112327568233 ], [ 528580.0, 7260757.783176516182721 ], [ 528570.0, 7260752.129675285890698 ], [ 528560.0, 7260745.968985594809055 ], [ 528550.0, 7260738.820332262665033 ], [ 528540.0, 7260731.093411750160158 ], [ 528530.0, 7260723.670178714208305 ], [ 528520.0, 7260716.776912964880466 ], [ 528510.000892210751772, 7260710.087148198857903 ], [ 528500.012066387222148, 7260703.682245101779699 ], [ 528490.099214585614391, 7260697.882391102612019 ], [ 528480.546306264819577, 7260692.664807373657823 ], [ 528472.08680969348643, 7260687.968647089786828 ], [ 528465.756988407694735, 7260684.129336779937148 ] ] } },
{ "type": "Feature", "properties": { "id": 8, "reference_id": 4, "dune_id": 4, "dune_name": "The Star Dune", "acquisition_date": "2023-09-01", "length_m": 648.92559531040195 }, "geometry": { "type": "LineString", "coordinates": [ [ 533005.756988407694735, 7261863.671070925891399 ], [ 533012.08680969348643, 7261866.340995462611318 ], [ 533020.546306264819577, 7261868.546644769608974 ], [ 533030.099214585614391, 7261870.0 ], [ 533040.012066387105733, 7261871.454247441142797 ], [ 533050.000892210751772, 7261873.670178715139627 ], [ 533060.0, 7261876.416077273897827 ], [ 533070.0, 7261878.906588250771165 ], [ 533080.0, 7261881.094303959980607 ], [ 533090.0, 7261883.594204692170024 ], [ 533100.0, 7261886.405795307829976 ], [ 533110.0, 7261888.906588250771165 ], [ 533120.0, 7261891.10458592697978 ], [ 533130.0, 7261893.670178715139627 ], [ 533140.0, 7261896.766630999743938 ], [ 533150.0, 7261900.010281965136528 ], [ 533160.0, 7261903.310235233977437 ], [ 533170.0, 7261906.689764766953886 ], [ 533180.0, 7261909.989718034863472 ], [ 533190.0, 7261913.233369002118707 ], [ 533200.0, 7261916.329821286723018 ], [ 533210.0, 7261918.895414073951542 ], [ 533220.0, 7261921.093411749228835 ], [ 533230.0, 7261923.594204692170024 ], [ 533240.0, 7261926.405795307829976 ], [ 533250.0, 7261928.906588250771165 ], [ 533260.0, 7261931.104585926048458 ], [ 533270.0, 7261933.671070925891399 ], [ 533280.0, 7261936.776912964880466 ], [ 533290.0, 7261940.086255988106132 ], [ 533300.0, 7261943.670178713276982 ], [ 533310.0, 7261947.78406872600317 ], [ 533320.0, 7261952.129675285890698 ], [ 533330.0, 7261955.968985594809055 ], [ 533340.0, 7261958.820332262665033 ], [ 533350.0, 7261961.093411749228835 ], [ 533360.0, 7261963.669286503456533 ], [ 533370.0, 7261966.765738788992167 ], [ 533380.000000000116415, 7261970.0 ], [ 533390.0, 7261973.234261211939156 ], [ 533400.000000000116415, 7261976.329821285791695 ], [ 533410.0, 7261978.896306285634637 ], [ 533420.0, 7261981.103693715296686 ], [ 533430.0, 7261983.670178715139627 ], [ 533440.0, 7261986.766630999743938 ], [ 533450.0, 7261990.010281966067851 ], [ 533460.0, 7261993.311127444729209 ], [ 533470.0, 7261996.700938943773508 ], [ 533480.0, 7262000.076866233721375 ], [ 533490.0, 7262003.680460680276155 ], [ 533500.0, 7262007.871216924861073 ], [ 533510.0, 7262012.576766964048147 ], [ 533520.0, 7262017.510381234809756 ], [ 533530.0, 7262022.500792942941189 ], [ 533540.0, 7262027.499207057058811 ], [ 533550.0, 7262032.488726556301117 ], [ 533560.0, 7262037.41205885913223 ], [ 533570.0, 7262042.041634876281023 ], [ 533579.999107789364643, 7262045.871555430814624 ], [ 533589.987933612894267, 7262048.371456163004041 ], [ 533599.900785414385609, 7262049.541734144091606 ], [ 533609.453693735180423, 7262049.911959591321647 ], [ 533617.91319030651357, 7262049.9888258241117 ], [ 533624.243011592305265, 7262049.999107789248228 ] ] } },
{ "type": "Feature", "properties": { "id": 9, "reference_id": 6, "dune_id": 6, "dune_name": "The Star Dune", "acquisition_date": "2023-09-01", "length_m": 750.40374142181292 }, "geometry": { "type": "LineString", "coordinates": [ [ 533580.447091679205187, 7262784.243011591956019 ], [ 533581.540503428783268, 7262777.913190307095647 ], [ 533583.671070924960077, 7262769.453693735413253 ], [ 533586.340995462262072, 7262759.900785414502025 ], [ 533588.54664476972539, 7262749.987933613359928 ], [ 533590.0, 7262739.999107789248228 ], [ 533591.45335523027461, 7262730.0 ], [ 533593.659004537737928, 7262720.0 ], [ 533596.328929075039923, 7262710.0 ], [ 533598.459496571216732, 7262700.0 ], [ 533599.553800531546585, 7262690.0 ], [ 533599.924025978078134, 7262680.0 ], [ 533600.075974022038281, 7262670.0 ], [ 533600.44619946856983, 7262660.0 ], [ 533601.540503428783268, 7262650.0 ], [ 533603.671070924960077, 7262640.0 ], [ 533606.340995462378487, 7262630.0 ], [ 533608.54664476972539, 7262620.0 ], [ 533610.0, 7262610.0 ], [ 533611.454247441026382, 7262600.000000000931323 ], [ 533613.670178714208305, 7262590.0 ], [ 533616.416077273664996, 7262580.0 ], [ 533618.907480461173691, 7262570.0 ], [ 533621.104585925932042, 7262560.0 ], [ 533623.670178714208305, 7262550.0 ], [ 533626.765738788526505, 7262540.0 ], [ 533630.0, 7262530.0 ], [ 533633.234261211473495, 7262520.0 ], [ 533636.329821285791695, 7262510.0 ], [ 533638.895414074067958, 7262500.0 ], [ 533641.093411749578081, 7262490.0 ], [ 533643.594204692286439, 7262480.0 ], [ 533646.405795307829976, 7262470.0 ], [ 533648.906588250538334, 7262460.0 ], [ 533651.104585926048458, 7262450.0 ], [ 533653.670178714208305, 7262440.0 ], [ 533656.765738788526505, 7262430.0 ], [ 533660.0, 7262420.0 ], [ 533663.234261211473495, 7262410.0 ], [ 533666.329821285791695, 7262400.0 ], [ 533668.895414073951542, 7262390.0 ], [ 533671.092519538942724, 7262380.0 ], [ 533673.583030515816063, 7262370.0 ], [ 533676.318647109437734, 7262360.0 ], [ 533678.458604360697791, 7262350.0 ], [ 533679.552016110159457, 7262340.000000000931323 ], [ 533679.901677625137381, 7262330.0 ], [ 533679.901677625137381, 7262320.0 ], [ 533679.552016110159457, 7262310.0 ], [ 533678.459496571333148, 7262300.0 ], [ 533676.329821285791695, 7262290.0 ], [ 533673.669286503456533, 7262280.0 ], [ 533671.529329252196476, 7262270.0 ], [ 533670.359943480696529, 7262260.0 ], [ 533669.640056519303471, 7262250.0 ], [ 533668.470670747803524, 7262240.0 ], [ 533666.330713496543467, 7262230.0 ], [ 533663.670178714208305, 7262220.0 ], [ 533661.540503428783268, 7262210.0 ], [ 533660.447091679088771, 7262200.0 ], [ 533660.087148198392242, 7262190.0 ], [ 533660.011174176470377, 7262180.0 ], [ 533660.000892210751772, 7262170.0 ], [ 533660.0, 7262160.0 ], [ 533660.0, 7262150.0 ], [ 533660.0, 7262140.0 ], [ 533659.999107789248228, 7262130.0 ], [ 533659.988825823529623, 7262120.0 ], [ 533659.912851801607758, 7262110.0 ], [ 533659.552908320911229, 7262100.000446105375886 ], [ 533658.459496571216732, 7262090.006479298695922 ], [ 533656.329821285791695, 7262080.055640487000346 ], [ 533653.670178714208305, 7262070.322760425508022 ], [ 533651.540503428783268, 7262061.316557979211211 ], [ 533650.447091679205187, 7262053.921899050474167 ], [ 533650.087148198508658, 7262048.921899050474167 ] ] } },
{ "type": "Feature", "properties": { "id": 10, "reference_id": 3, "dune_id": 3, "dune_name": "Big Mommy Dune", "acquisition_date": "2023-09-01", "length_m": 1251.3390582210814 }, "geometry": { "type": "LineString", "coordinates": [ [ 529180.011174176470377, 7260991.078100949525833 ], [ 529180.088040409144014, 7260986.078100949525833 ], [ 529180.458265855675563, 7260978.683442020788789 ], [ 529181.628543837927282, 7260969.6772395754233 ], [ 529184.129336780519225, 7260959.944359514862299 ], [ 529187.968647089437582, 7260949.993520701304078 ], [ 529192.664807373774238, 7260939.999553894624114 ], [ 529197.882391101680696, 7260930.0 ], [ 529203.681352890562266, 7260920.0 ], [ 529210.076866232557222, 7260910.0 ], [ 529216.700938943075016, 7260900.0 ], [ 529223.310235233511776, 7260890.0 ], [ 529230.0, 7260880.0 ], [ 529236.689764766488224, 7260870.0 ], [ 529243.299061057041399, 7260860.0 ], [ 529249.924025978078134, 7260850.0 ], [ 529256.32982128590811, 7260840.0 ], [ 529262.205649307463318, 7260830.0 ], [ 529267.794350692536682, 7260820.0 ], [ 529273.670178714208305, 7260810.0 ], [ 529280.075974022038281, 7260800.0 ], [ 529286.700938943075016, 7260790.0 ], [ 529293.311127444147132, 7260780.000000000931323 ], [ 529300.011174176470377, 7260770.0 ], [ 529306.777805175748654, 7260760.0 ], [ 529313.757326912716962, 7260750.000892210751772 ], [ 529321.551677605253644, 7260740.011174176819623 ], [ 529330.447983889840543, 7260730.087148198857903 ], [ 529340.087148198392242, 7260720.447983889840543 ], [ 529350.011174176586792, 7260711.551677605137229 ], [ 529360.000892210635357, 7260703.75821912381798 ], [ 529370.0, 7260696.788979353383183 ], [ 529380.0, 7260690.098322374746203 ], [ 529390.0, 7260683.758219122886658 ], [ 529400.0, 7260678.242334581911564 ], [ 529410.0, 7260673.758219122886658 ], [ 529420.0, 7260670.097430163994431 ], [ 529430.0, 7260666.777805175632238 ], [ 529440.000000000116415, 7260663.671070924960077 ], [ 529450.0, 7260661.103693716228008 ], [ 529460.0, 7260658.896306285634637 ], [ 529470.0, 7260656.329821285791695 ], [ 529480.0, 7260653.234261211939156 ], [ 529490.0, 7260650.0 ], [ 529500.000000000116415, 7260646.765738788992167 ], [ 529510.0, 7260643.670178715139627 ], [ 529520.0, 7260641.10458592697978 ], [ 529530.0, 7260638.907480461522937 ], [ 529540.0, 7260636.416077274829149 ], [ 529550.0, 7260633.670178715139627 ], [ 529560.0, 7260631.454247441142797 ], [ 529570.0, 7260630.0 ], [ 529580.0, 7260628.546644769608974 ], [ 529590.0, 7260626.340995462611318 ], [ 529600.0, 7260623.670178714208305 ], [ 529610.0, 7260621.529329252429307 ], [ 529620.0, 7260620.35994348116219 ], [ 529630.0, 7260619.640056519769132 ], [ 529640.0, 7260618.470670748502016 ], [ 529650.0, 7260616.33071349747479 ], [ 529660.0, 7260613.670178715139627 ], [ 529670.0, 7260611.540503429248929 ], [ 529680.0, 7260610.447091680020094 ], [ 529690.0, 7260610.086255988106132 ], [ 529700.0, 7260610.0 ], [ 529710.0, 7260609.913744012825191 ], [ 529720.0, 7260609.552908320911229 ], [ 529730.0, 7260608.459496571682394 ], [ 529740.0, 7260606.329821286723018 ], [ 529750.0, 7260603.670178715139627 ], [ 529760.0, 7260601.540503429248929 ], [ 529770.0, 7260600.447091680020094 ], [ 529780.0, 7260600.087148198857903 ], [ 529790.0, 7260600.011174176819623 ], [ 529800.0, 7260600.000892210751772 ], [ 529810.0, 7260600.0 ], [ 529820.0, 7260600.0 ], [ 529830.0, 7260600.0 ], [ 529840.0, 7260600.0 ], [ 529850.0, 7260600.0 ], [ 529860.0, 7260600.0 ], [ 529870.0, 7260600.0 ], [ 529880.0, 7260600.0 ], [ 529890.0, 7260600.0 ], [ 529900.0, 7260600.000892210751772 ], [ 529910.0, 7260600.011174176819623 ], [ 529920.0, 7260600.086255988106132 ], [ 529930.0, 7260600.435917503200471 ], [ 529940.0, 7260601.453355230391026 ], [ 529950.0, 7260603.223087035119534 ], [ 529960.0, 7260604.789317857474089 ], [ 529970.0, 7260604.790210068225861 ], [ 529980.0, 7260603.233369000256062 ], [ 529990.0, 7260601.529329252429307 ], [ 530000.0, 7260600.795860983431339 ], [ 530010.0, 7260601.179667737334967 ], [ 530020.0, 7260602.140849461778998 ], [ 530030.0, 7260602.660534782335162 ], [ 530040.0, 7260602.129675285890698 ], [ 530050.0, 7260601.092519539408386 ], [ 530060.0, 7260600.34876930527389 ], [ 530070.0, 7260599.9888258241117 ], [ 530080.0, 7260599.563190286979079 ], [ 530090.0, 7260598.459496571682394 ], [ 530100.0, 7260596.318647108972073 ], [ 530110.0, 7260593.583030516281724 ], [ 530120.0, 7260591.093411749228835 ], [ 530130.0, 7260588.906588250771165 ], [ 530140.0, 7260586.416077273897827 ], [ 530150.0, 7260583.670178714208305 ], [ 530160.0, 7260581.454247441142797 ], [ 530170.000000000116415, 7260580.0 ], [ 530180.0, 7260578.545752558857203 ], [ 530190.0, 7260576.329821286723018 ], [ 530199.999107789248228, 7260573.583922727033496 ], [ 530209.987933612894267, 7260571.093411749228835 ], [ 530219.900785414385609, 7260568.906588250771165 ], [ 530229.453693735180423, 7260566.416969484649599 ], [ 530237.91319030651357, 7260563.681352891027927 ], [ 530244.243011592421681, 7260561.541395640000701 ] ] } }
]
}
