{
"type": "FeatureCollection",
"name": "crests_2020_10_2020-10-13",
"crs": { "type": "name", "properties": { "name": "urn:ogc:def:crs:EPSG::32733" } },
"features": [
{ "type": "Feature", "properties": { "id": 0, "reference_id": 3, "dune_id": 3, "dune_name": "Big Mommy Dune", "acquisition_date": "2020-10-13", "length_m": 575.15469618583597 }, "geometry": { "type": "LineString", "coordinates": [ [ 529184.128444569883868, 7260954.243011591956019 ], [ 529187.958365123718977, 7260947.913190307095647 ], [ 529192.588833351852372, 7260939.453693735413253 ], [ 529197.521555410232395, 7260929.900785414502025 ], [ 529202.57765917526558, 7260919.987933613359928 ], [ 529207.871216925210319, 7260909.999107789248228 ], [ 529213.680460680043325, 7260900.0 ], [ 529220.076866232557222, 7260890.0 ], [ 529226.700938943075016, 7260880.0 ], [ 529233.31023523339536, 7260870.0 ], [ 529240.0, 7260860.0 ], [ 529246.690656977239996, 7260850.0 ], [ 529253.309343022876419, 7260840.0 ], [ 529260.0, 7260830.0 ], [ 529266.690656977239996, 7260820.0 ], [ 529273.309343022760004, 7260810.0 ], [ 529280.0, 7260800.0 ], [ 529286.690656977239996, 7260790.0 ], [ 529293.310235233511776, 7260780.000000000931323 ], [ 529300.011174176470377, 7260770.0 ], [ 529306.777805175748654, 7260760.0 ], [ 529313.757326912716962, 7260750.000892210751772 ], [ 529321.551677605253644, 7260740.011174176819623 ], [ 529330.447983889840543, 7260730.087148198857903 ], [ 529340.087148198392242, 7260720.447983889840543 ], [ 529350.011174176586792, 7260711.552569815889001 ], [ 529360.000892210635357, 7260703.768501089885831 ], [ 529370.0, 7260696.864953374490142 ], [ 529380.0, 7260690.459158066660166 ], [ 529390.0, 7260684.861912839114666 ], [ 529400.0, 7260680.447983888909221 ], [ 529410.0, 7260676.777805175632238 ], [ 529420.0, 7260673.321409409865737 ], [ 529430.0, 7260670.0111741758883 ], [ 529440.000000000116415, 7260666.766630999743938 ], [ 529450.0, 7260663.670178714208305 ], [ 529460.0, 7260661.10458592697978 ], [ 529470.0, 7260658.906588250771165 ], [ 529480.0, 7260656.405795307829976 ], [ 529490.0, 7260653.594204692170024 ], [ 529500.000000000116415, 7260651.094303959980607 ], [ 529510.0, 7260648.905696040019393 ], [ 529520.0, 7260646.405795307829976 ], [ 529530.0, 7260643.594204693101346 ], [ 529540.0, 7260641.094303959980607 ], [ 529550.0, 7260638.906588250771165 ], [ 529560.0, 7260636.416969483718276 ], [ 529569.999107789248228, 7260633.681352891027927 ], [ 529579.987933612894267, 7260631.541395640000701 ], [ 529589.900785414502025, 7260630.447091680020094 ], [ 529599.453693735180423, 7260630.087148198857903 ], [ 529607.91319030651357, 7260630.011174176819623 ], [ 529614.243011592421681, 7260630.000892210751772 ] ] } },
{ "type": "Feature", "properties": { "id": 1, "reference_id": 3, "dune_id": 3, "dune_name": "Big Mommy Dune", "acquisition_date": "2020-10-13", "length_m": 249.41494234977526 }, "geometry": { "type": "LineString", "coordinates": [ [ 529645.756988407694735, 7260620.0 ], [ 529652.08680969348643, 7260620.0 ], [ 529660.546306264819577, 7260619.999107790179551 ], [ 529670.099214585614391, 7260619.9888258241117 ], [ 529680.012066387222148, 7260619.912851802073419 ], [ 529690.000892210751772, 7260619.552908320911229 ], [ 529700.0, 7260618.459496571682394 ], [ 529710.0, 7260616.329821286723018 ], [ 529720.0, 7260613.670178715139627 ], [ 529730.0, 7260611.540503429248929 ], [ 529740.0, 7260610.447091680020094 ], [ 529750.0, 7260610.087148198857903 ], [ 529760.0, 7260610.011174176819623 ], [ 529770.0, 7260610.000892210751772 ], [ 529780.0, 7260610.0 ], [ 529790.0, 7260610.0 ], [ 529800.0, 7260610.0 ], [ 529810.0, 7260610.0 ], [ 529820.0, 7260610.0 ], [ 529830.0, 7260610.0 ], [ 529840.0, 7260610.0 ], [ 529849.999107789364643, 7260610.0 ], [ 529859.987933612894267, 7260610.0 ], [ 529869.900785414385609, 7260610.0 ], [ 529879.453693735180423, 7260610.0 ], [ 529887.91319030651357, 7260610.0 ], [ 529894.243011592421681, 7260610.0 ] ] } },
{ "type": "Feature", "properties": { "id": 2, "reference_id": 3, "dune_id": 3, "dune_name": "Big Mommy Dune", "acquisition_date": "2020-10-13", "length_m": 181.45631275893521 }, "geometry": { "type": "LineString", "coordinates": [ [ 530194.243011592421681, 7260580.087148198857903 ], [ 530187.91319030651357, 7260580.447091679088771 ], [ 530179.453693735296838, 7260581.540503429248929 ], [ 530169.900785414385609, 7260583.671070924960077 ], [ 530159.987933612894267, 7260586.340995462611318 ], [ 530149.999107789364643, 7260588.546644769608974 ], [ 530140.0, 7260590.0 ], [ 530130.0, 7260591.453355230391026 ], [ 530120.0, 7260593.659004537388682 ], [ 530110.0, 7260596.329821285791695 ], [ 530100.0, 7260598.470670748502016 ], [ 530090.0, 7260599.640056519769132 ], [ 530080.0, 7260600.35994348116219 ], [ 530070.0, 7260601.529329252429307 ], [ 530060.000892210751772, 7260603.669286504387856 ], [ 530050.012066387222148, 7260606.329821286723018 ], [ 530040.099214585614391, 7260608.459496571682394 ], [ 530030.546306264819577, 7260609.552908320911229 ], [ 530022.08680969348643, 7260609.912851802073419 ], [ 530015.756988407694735, 7260609.9888258241117 ] ] } },
{ "type": "Feature", "properties": { "id": 3, "reference_id": 4, "dune_id": 4, "dune_name": "The Star Dune", "acquisition_date": "2020-10-13", "length_m": 607.22448137083177 }, "geometry": { "type": "LineString", "coordinates": [ [ 533584.243011592305265, 7262049.541734144091606 ], [ 533577.91319030651357, 7262048.371456163004041 ], [ 533569.453693735180423, 7262045.871555430814624 ], [ 533559.900785414385609, 7262042.041634876281023 ], [ 533549.987933612894267, 7262037.41205885913223 ], [ 533539.999107789364643, 7262032.489618767052889 ], [ 533530.0, 7262027.509489023126662 ], [ 533520.0, 7262022.57676696497947 ], [ 533510.0, 7262017.871216924861073 ], [ 533500.0, 7262013.680460680276155 ], [ 533490.0, 7262010.076866232790053 ], [ 533480.0, 7262006.700046733021736 ], [ 533470.0, 7262003.299953268840909 ], [ 533460.0, 7261999.924025978893042 ], [ 533450.0, 7261996.329821286723018 ], [ 533440.0, 7261992.205649307928979 ], [ 533430.0, 7261987.794350693002343 ], [ 533420.0, 7261983.670178715139627 ], [ 533410.0, 7261980.075974022969604 ], [ 533400.000000000116415, 7261976.700938943773508 ], [ 533390.0, 7261973.311127444729209 ], [ 533380.000000000116415, 7261970.010281966067851 ], [ 533370.0, 7261966.766630999743938 ], [ 533360.0, 7261963.670178714208305 ], [ 533350.0, 7261961.10458592697978 ], [ 533340.0, 7261958.906588250771165 ], [ 533330.0, 7261956.405795307829976 ], [ 533320.0, 7261953.594204692170024 ], [ 533310.0, 7261951.093411749228835 ], [ 533300.0, 7261948.895414074882865 ], [ 533290.0, 7261946.329821284860373 ], [ 533280.0, 7261943.234261211007833 ], [ 533270.0, 7261940.0 ], [ 533260.0, 7261936.765738788992167 ], [ 533250.0, 7261933.670178715139627 ], [ 533240.0, 7261931.103693715296686 ], [ 533230.0, 7261928.896306285634637 ], [ 533220.0, 7261926.329821286723018 ], [ 533210.0, 7261923.234261211939156 ], [ 533200.0, 7261920.0 ], [ 533190.0, 7261916.765738788992167 ], [ 533180.0, 7261913.670178715139627 ], [ 533170.0, 7261911.103693716228008 ], [ 533160.0, 7261908.896306285634637 ], [ 533150.0, 7261906.329821286723018 ], [ 533140.0, 7261903.234261211939156 ], [ 533130.0, 7261900.0 ], [ 533120.0, 7261896.765738788992167 ], [ 533110.0, 7261893.670178715139627 ], [ 533100.0, 7261891.10458592697978 ], [ 533090.0, 7261888.907480461522937 ], [ 533080.0, 7261886.416969484649599 ], [ 533070.0, 7261883.680460680276155 ], [ 533060.0, 7261881.530221462249756 ], [ 533050.000892210751772, 7261880.35994348116219 ], [ 533040.012066387105733, 7261879.640056519769132 ], [ 533030.099214585614391, 7261878.470670748502016 ], [ 533020.546306264819577, 7261876.33071349747479 ], [ 533012.08680969348643, 7261873.670178715139627 ], [ 533005.756988407694735, 7261871.540503429248929 ] ] } },
{ "type": "Feature", "properties": { "id": 4, "reference_id": 1, "dune_id": 1, "dune_name": "Big Mommy Dune", "acquisition_date": "2020-10-13", "length_m": 347.52478932663269 }, "geometry": { "type": "LineString", "coordinates": [ [ 528895.756988407578319, 7262204.690103271976113 ], [ 528902.08680969348643, 7262199.453693735413253 ], [ 528910.546306264819577, 7262193.123872449621558 ], [ 528920.098322374979034, 7262186.230606701225042 ], [ 528930.000892210751772, 7262178.447430184110999 ], [ 528939.912851801607758, 7262169.552016111090779 ], [ 528949.541734144324437, 7262159.912851801142097 ], [ 528958.371456162189133, 7262149.9888258241117 ], [ 528965.871555430116132, 7262139.999107789248228 ], [ 528972.041634876397438, 7262130.0 ], [ 528977.411166648264043, 7262120.0 ], [ 528982.478444589767605, 7262110.0 ], [ 528987.42234082473442, 7262100.0 ], [ 528992.128783074789681, 7262090.0 ], [ 528996.31953932007309, 7262080.0 ], [ 528999.923133767442778, 7262070.0 ], [ 529003.299953267676756, 7262060.0 ], [ 529006.700046732323244, 7262050.0 ], [ 529010.076866232673638, 7262040.0 ], [ 529013.681352890795097, 7262030.0 ], [ 529017.881498890928924, 7262020.0 ], [ 529022.652740986552089, 7262010.0 ], [ 529027.870324714574963, 7262000.0 ], [ 529033.595096902921796, 7261990.0 ], [ 529039.640948729938827, 7261980.0 ], [ 529045.246691502048634, 7261970.0 ], [ 529050.075974021921866, 7261960.000892210751772 ], [ 529055.122641733847558, 7261950.012066386640072 ], [ 529061.442181053804234, 7261940.099214585497975 ], [ 529068.447430184110999, 7261930.546306265518069 ], [ 529074.341333967167884, 7261922.086809693835676 ], [ 529077.925256693735719, 7261915.756988408043981 ] ] } },
{ "type": "Feature", "properties": { "id": 5, "reference_id": 1, "dune_id": 1, "dune_name": "Big Mommy Dune", "acquisition_date": "2020-10-13", "length_m": 721.83975627705513 }, "geometry": { "type": "LineString", "coordinates": [ [ 529180.0, 7261055.756988408043981 ], [ 529179.999107789364643, 7261062.086809693835676 ], [ 529179.988825823529623, 7261070.546306264586747 ], [ 529179.912851801607758, 7261080.099214585497975 ], [ 529179.552016110159457, 7261090.012066388502717 ], [ 529178.448322394862771, 7261100.000892210751772 ], [ 529176.242673087399453, 7261110.0 ], [ 529173.222194824367762, 7261120.000000000931323 ], [ 529169.988825823529623, 7261130.0 ], [ 529166.689764766488224, 7261140.0 ], [ 529163.309343022760004, 7261150.0 ], [ 529160.0, 7261160.0 ], [ 529156.690656977239996, 7261170.0 ], [ 529153.309343022760004, 7261180.0 ], [ 529150.0, 7261190.0 ], [ 529146.689764766488224, 7261200.0 ], [ 529143.299061056924984, 7261210.000000000931323 ], [ 529139.923133767326362, 7261220.0 ], [ 529136.319539319956675, 7261230.0 ], [ 529132.129675285425037, 7261240.0 ], [ 529127.433515001204796, 7261250.0 ], [ 529122.566484998911619, 7261260.0 ], [ 529117.870324714574963, 7261270.0 ], [ 529113.680460680043325, 7261280.0 ], [ 529110.076866232673638, 7261290.0 ], [ 529106.700046732323244, 7261300.0 ], [ 529103.299953267676756, 7261310.000000000931323 ], [ 529099.923133767442778, 7261320.0 ], [ 529096.31953932007309, 7261330.0 ], [ 529092.129675285541452, 7261340.0 ], [ 529087.433515001088381, 7261350.0 ], [ 529082.566484998911619, 7261360.0 ], [ 529077.870324714574963, 7261370.0 ], [ 529073.680460680043325, 7261380.0 ], [ 529070.076866232673638, 7261390.0 ], [ 529066.700938943075016, 7261400.0 ], [ 529063.310235233511776, 7261410.0 ], [ 529060.0, 7261420.0 ], [ 529056.690656977239996, 7261430.0 ], [ 529053.309343022760004, 7261440.0 ], [ 529050.0, 7261450.0 ], [ 529046.690656977239996, 7261460.0 ], [ 529043.309343022760004, 7261470.000000000931323 ], [ 529040.0, 7261480.0 ], [ 529036.690656977239996, 7261490.0 ], [ 529033.310235233511776, 7261500.0 ], [ 529030.011174176586792, 7261510.0 ], [ 529026.776912964996882, 7261520.0 ], [ 529023.746152736246586, 7261530.0 ], [ 529021.464529406744987, 7261540.0 ], [ 529020.000892210751772, 7261550.0 ], [ 529018.54664476972539, 7261560.000000000931323 ], [ 529016.340995462378487, 7261570.0 ], [ 529013.671070924960077, 7261580.0 ], [ 529011.540503428783268, 7261590.0 ], [ 529010.447091679205187, 7261600.0 ], [ 529010.088040409144014, 7261610.0 ], [ 529010.022348352940753, 7261620.0 ], [ 529010.088040409144014, 7261630.0 ], [ 529010.447091679205187, 7261640.0 ], [ 529011.541395639418624, 7261650.0 ], [ 529013.681352890795097, 7261660.0 ], [ 529016.417861694935709, 7261670.0 ], [ 529018.917762426892295, 7261680.0 ], [ 529021.180559948086739, 7261690.0 ], [ 529024.030122194904834, 7261699.999107789248228 ], [ 529027.859150538104586, 7261709.987933613359928 ], [ 529032.128783074906096, 7261719.900785414502025 ], [ 529035.882729606702924, 7261729.453693735413253 ], [ 529038.37234837282449, 7261737.913190307095647 ], [ 529039.541734144324437, 7261744.243011592887342 ] ] } },
{ "type": "Feature", "properties": { "id": 6, "reference_id": 1, "dune_id": 1, "dune_name": "Big Mommy Dune", "acquisition_date": "2020-10-13", "length_m": 84.01172864450777 }, "geometry": { "type": "LineString", "coordinates": [ [ 529081.552569815889001, 7261785.756988408043981 ], [ 529083.768501089187339, 7261792.086809692904353 ], [ 529086.864061163389124, 7261800.546306265518069 ], [ 529090.447091679205187, 7261810.099214585497975 ], [ 529094.763590463786386, 7261820.011174176819623 ], [ 529099.912851801607758, 7261829.9888258241117 ], [ 529104.778143680654466, 7261839.900785414502025 ], [ 529108.011512681492604, 7261849.453693735413253 ], [ 529109.465760122402571, 7261857.913190307095647 ], [ 529109.901677625137381, 7261864.243011591956019 ] ] } },
{ "type": "Feature", "properties": { "id": 7, "reference_id": 5, "dune_id": 5, "dune_name": "The Star Dune", "acquisition_date": "2020-10-13", "length_m": 913.73026002194808 }, "geometry": { "type": "LineString", "coordinates": [ [ 533651.628543837927282, 7262041.078100949525833 ], [ 533654.129336780519225, 7262036.078100949525833 ], [ 533657.968647089437582, 7262028.683442020788789 ], [ 533662.664807373774238, 7262019.677239574491978 ], [ 533667.881498891045339, 7262009.944359513930976 ], [ 533673.671070924960077, 7261999.993520701304078 ], [ 533680.0, 7261989.999553894624114 ], [ 533686.329821285791695, 7261980.0 ], [ 533692.129675285541452, 7261970.0 ], [ 533697.423233035369776, 7261960.0 ], [ 533702.489618766237982, 7261950.0 ], [ 533707.499207057408057, 7261940.0 ], [ 533712.499900731956586, 7261930.0 ], [ 533717.499207057291642, 7261920.0 ], [ 533722.488726555602625, 7261910.0 ], [ 533727.412951069651172, 7261900.0 ], [ 533732.052809052867815, 7261890.0 ], [ 533735.958703628624789, 7261880.0 ], [ 533738.819440052029677, 7261870.0 ], [ 533741.094303960213438, 7261860.0 ], [ 533743.681352890678681, 7261850.0 ], [ 533746.864953374140896, 7261840.000000000931323 ], [ 533750.545414054067805, 7261830.0 ], [ 533755.309896728489548, 7261820.000892210751772 ], [ 533761.999661495094188, 7261810.011174177750945 ], [ 533770.535132088349201, 7261800.088040409609675 ], [ 533780.098322374979034, 7261790.458265855908394 ], [ 533790.012066387105733, 7261781.628543838858604 ], [ 533800.000892210751772, 7261774.128444570116699 ], [ 533810.0, 7261767.958365123718977 ], [ 533820.0, 7261762.587941141799092 ], [ 533830.0, 7261757.511273443698883 ], [ 533840.0, 7261752.500792942941189 ], [ 533850.0, 7261747.500099267810583 ], [ 533860.0, 7261742.499900732189417 ], [ 533870.0, 7261737.500099267810583 ], [ 533880.0, 7261732.500792942941189 ], [ 533890.0, 7261727.511273444630206 ], [ 533900.0, 7261722.58704893104732 ], [ 533910.0, 7261717.947190947830677 ], [ 533920.0, 7261714.041296371258795 ], [ 533930.0, 7261711.181452158838511 ], [ 533940.0, 7261708.916870215907693 ], [ 533950.0, 7261706.406687518581748 ], [ 533960.0, 7261703.594204692170024 ], [ 533970.0, 7261701.094303959980607 ], [ 533980.0, 7261698.906588250771165 ], [ 533990.0, 7261696.416969484649599 ], [ 534000.0, 7261693.680460680276155 ], [ 534010.0, 7261691.530221464112401 ], [ 534020.0, 7261690.35994348116219 ], [ 534030.0, 7261689.64005651883781 ], [ 534040.0, 7261688.470670748502016 ], [ 534050.0, 7261686.33071349747479 ], [ 534060.0, 7261683.669286504387856 ], [ 534070.0, 7261681.529329252429307 ], [ 534080.0, 7261680.35994348116219 ], [ 534090.0, 7261679.640056519769132 ], [ 534100.0, 7261678.470670748502016 ], [ 534110.0, 7261676.330713496543467 ], [ 534120.0, 7261673.669286503456533 ], [ 534130.0, 7261671.529329252429307 ], [ 534140.0, 7261670.359051270410419 ], [ 534150.0, 7261669.627990132197738 ], [ 534160.0, 7261668.37234837282449 ], [ 534170.0, 7261665.79558140784502 ], [ 534180.0, 7261661.671409429982305 ], [ 534190.0, 7261656.241780877113342 ], [ 534200.0, 7261649.987933613359928 ], [ 534210.0, 7261643.658112327568233 ], [ 534220.0, 7261637.783176516182721 ], [ 534230.0, 7261632.129675285890698 ], [ 534240.0, 7261625.968985594809055 ], [ 534250.0, 7261618.819440051913261 ], [ 534259.999107789248228, 7261611.082237573340535 ], [ 534269.988825823529623, 7261603.582138305529952 ], [ 534279.911959590855986, 7261596.318647108972073 ], [ 534289.54084193368908, 7261588.458604360930622 ], [ 534298.360281985718757, 7261579.552908320911229 ], [ 534305.783515021088533, 7261569.913744012825191 ], [ 534311.583369020721875, 7261560.000892210751772 ], [ 534315.783515021088533, 7261550.098322374746203 ], [ 534318.360281985718757, 7261540.546306265518069 ], [ 534319.54084193368908, 7261532.086809693835676 ], [ 534319.911959590855986, 7261525.756988408043981 ] ] } },
{ "type": "Feature", "properties": { "id": 8, "reference_id": 5, "dune_id": 5, "dune_name": "The Star Dune", "acquisition_date": "2020-10-13", "length_m": 99.162622823519612 }, "geometry": { "type": "LineString", "coordinates": [ [ 534334.342226177919656, 7261304.216484978795052 ], [ 534328.459496571333148, 7261308.416630979627371 ], [ 534321.540503428666852, 7261314.216484978795052 ], [ 534315.657773822080344, 7261321.639718014746904 ], [ 534312.074743306264281, 7261330.459158066660166 ], [ 534310.545414054067805, 7261340.088040409609675 ], [ 534310.099214585614391, 7261350.010281966067851 ], [ 534310.012066387222148, 7261359.9888258241117 ], [ 534310.000892210751772, 7261369.900785414502025 ], [ 534310.0, 7261379.453693735413253 ], [ 534310.0, 7261387.913190307095647 ], [ 534310.0, 7261394.243011592887342 ] ] } },
{ "type": "Feature", "properties": { "id": 9, "reference_id": 5, "dune_id": 5, "dune_name": "The Star Dune", "acquisition_date": "2020-10-13", "length_m": 58.486023183912039 }, "geometry": { "type": "LineString", "coordinates": [ [ 534320.0, 7261425.756988408043981 ], [ 534320.0, 7261432.086809692904353 ], [ 534320.0, 7261440.545414054766297 ], [ 534320.0, 7261450.087148198857903 ], [ 534320.0, 7261459.912851801142097 ], [ 534320.0, 7261469.454585947096348 ], [ 534320.0, 7261477.913190307095647 ], [ 534320.0, 7261484.243011591956019 ] ] } },
{ "type": "Feature", "properties": { "id": 10, "reference_id": 8, "dune_id": 8, "dune_name": "Inverted Y Dune", "acquisition_date": "2020-10-13", "length_m": 524.28240946436983 }, "geometry": { "type": "LineString", "coordinates": [ [ 530364.243011592305265, 7261200.0111741758883 ], [ 530357.91319030651357, 7261200.087148198857903 ], [ 530349.453693735180423, 7261200.447091678157449 ], [ 530339.900785414502025, 7261201.540503428317606 ], [ 530329.987933612894267, 7261203.671070924028754 ], [ 530319.999107789248228, 7261206.340995462611318 ], [ 530310.0, 7261208.547536980360746 ], [ 530300.0, 7261210.011174176819623 ], [ 530290.0, 7261211.541395640000701 ], [ 530280.0, 7261214.117270393297076 ], [ 530270.0, 7261217.957472912967205 ], [ 530260.0, 7261222.588833352550864 ], [ 530250.0, 7261227.522447621449828 ], [ 530240.0, 7261232.588833352550864 ], [ 530230.0, 7261237.958365123718977 ], [ 530220.0, 7261244.128444569185376 ], [ 530210.000892210751772, 7261251.628543837927282 ], [ 530200.011174176586792, 7261260.458265855908394 ], [ 530190.088040409144014, 7261270.088040409609675 ], [ 530180.458265855675563, 7261280.0111741758883 ], [ 530171.628543837927282, 7261290.000892210751772 ], [ 530164.129336780519225, 7261300.0 ], [ 530157.968647089553997, 7261310.000000000931323 ], [ 530152.664807373890653, 7261320.0 ], [ 530147.882391101680696, 7261330.0 ], [ 530143.681352890678681, 7261340.0 ], [ 530140.076866232673638, 7261350.0 ], [ 530136.700938943075016, 7261360.0 ], [ 530133.311127444147132, 7261370.0 ], [ 530130.01028196583502, 7261380.0 ], [ 530126.766630999278277, 7261390.0 ], [ 530123.670178714208305, 7261400.0 ], [ 530121.104585926048458, 7261410.0 ], [ 530118.907480461173691, 7261420.0 ], [ 530116.416969484300353, 7261430.0 ], [ 530113.680460680043325, 7261440.0 ], [ 530111.530221462948248, 7261450.0 ], [ 530110.359943480812944, 7261460.0 ], [ 530109.640056519303471, 7261470.000000000931323 ], [ 530108.470670747803524, 7261480.0 ], [ 530106.330713496543467, 7261490.0 ], [ 530103.670178714208305, 7261500.0 ], [ 530101.540503428783268, 7261510.0 ], [ 530100.447091679205187, 7261520.0 ], [ 530100.086702093132772, 7261529.999553894624114 ], [ 530100.005587088293396, 7261539.993520701304078 ], [ 530099.957318111439236, 7261549.944359513930976 ], [ 530099.776454160455614, 7261559.6772395754233 ], [ 530099.229748285608366, 7261568.683442020788789 ], [ 530098.164910642895848, 7261576.078100949525833 ], [ 530096.835089357104152, 7261581.078100949525833 ] ] } },
{ "type": "Feature", "properties": { "id": 11, "reference_id": 8, "dune_id": 8, "dune_name": "Inverted Y Dune", "acquisition_date": "2020-10-13", "length_m": 168.75182030541441 }, "geometry": { "type": "LineString", "coordinates": [ [ 530554.243011592305265, 7261172.075635517016053 ], [ 530547.91319030651357, 7261175.668947998434305 ], [ 530539.453693735296838, 7261181.627651628106833 ], [ 530529.900785414385609, 7261188.906588250771165 ], [ 530519.987933612894267, 7261195.882729606702924 ], [ 530509.999107789248228, 7261201.595435407944024 ], [ 530500.0, 7261205.78440723195672 ], [ 530490.0, 7261208.360281986184418 ], [ 530480.0, 7261209.540841934271157 ], [ 530470.0, 7261209.911959591321647 ], [ 530460.0, 7261209.9888258241117 ], [ 530450.0, 7261209.999107790179551 ], [ 530440.000892210751772, 7261210.000000000931323 ], [ 530430.012066387222148, 7261210.000000000931323 ], [ 530420.099214585614391, 7261210.000000000931323 ], [ 530410.546306264819577, 7261210.000000000931323 ], [ 530402.08680969348643, 7261210.000000000931323 ], [ 530395.756988407694735, 7261210.000000000931323 ] ] } },
{ "type": "Feature", "properties": { "id": 12, "reference_id": 9, "dune_id": 9, "dune_name": "Inverted Y Dune", "acquisition_date": "2020-10-13", "length_m": 767.6384291467059 }, "geometry": { "type": "LineString", "coordinates": [ [ 530092.618604378192686, 7261588.921899050474167 ], [ 530089.748279663734138, 7261593.921006840653718 ], [ 530085.013263306696899, 7261601.305383803322911 ], [ 530078.136736146174371, 7261610.234720015898347 ], [ 530069.497267834376544, 7261619.597374631091952 ], [ 530059.906372502679005, 7261628.378827672451735 ], [ 530049.988379718270153, 7261635.882283501327038 ], [ 530039.999107789364643, 7261642.118501110002398 ], [ 530030.0, 7261647.782284306362271 ], [ 530020.0, 7261653.659004537388682 ], [ 530010.0, 7261660.0 ], [ 530000.0, 7261666.340103251859546 ], [ 529990.0, 7261672.206541517749429 ], [ 529980.0, 7261677.794350693002343 ], [ 529970.0, 7261683.671070925891399 ], [ 529960.0, 7261690.087148198857903 ], [ 529950.0, 7261696.788087141700089 ], [ 529940.0, 7261703.75821912381798 ], [ 529930.0, 7261711.551677605137229 ], [ 529920.0, 7261720.447983889840543 ], [ 529910.0, 7261730.087148198857903 ], [ 529900.0, 7261740.011174176819623 ], [ 529890.0, 7261750.000892210751772 ], [ 529880.0, 7261760.0 ], [ 529870.000892210751772, 7261770.0 ], [ 529860.011174176470377, 7261780.0 ], [ 529850.087148198392242, 7261790.0 ], [ 529840.447983889840543, 7261800.0 ], [ 529831.551677605137229, 7261810.0 ], [ 529823.758219123352319, 7261820.0 ], [ 529816.788087141467258, 7261830.0 ], [ 529810.088040409144014, 7261840.000000000931323 ], [ 529803.682245101314038, 7261850.0 ], [ 529797.881498891045339, 7261860.0 ], [ 529792.653633197303861, 7261870.0 ], [ 529787.881498891045339, 7261880.0 ], [ 529783.681352890678681, 7261890.0 ], [ 529780.076866232673638, 7261900.0 ], [ 529776.700938943075016, 7261910.0 ], [ 529773.310235233511776, 7261920.0 ], [ 529770.0, 7261930.0 ], [ 529766.689764766488224, 7261940.0 ], [ 529763.299061056924984, 7261950.0 ], [ 529759.923133767326362, 7261960.0 ], [ 529756.319539319956675, 7261970.0 ], [ 529752.128783074789681, 7261980.0 ], [ 529747.423233035369776, 7261990.0 ], [ 529742.490510976989754, 7262000.0 ], [ 529737.509489023126662, 7262010.0 ], [ 529732.576766964630224, 7262020.0 ], [ 529727.870324714574963, 7262030.0 ], [ 529723.670178714208305, 7262040.0 ], [ 529720.000892210751772, 7262050.0 ], [ 529716.340103251626715, 7262060.0 ], [ 529712.20654151821509, 7262070.0 ], [ 529707.793458481901325, 7262080.0 ], [ 529703.659896748373285, 7262090.0 ], [ 529699.999107789248228, 7262100.0 ], [ 529696.329821285791695, 7262110.0 ], [ 529692.129675285425037, 7262120.0 ], [ 529687.423233035369776, 7262130.0 ], [ 529682.490510976873338, 7262140.0 ], [ 529677.510381233762018, 7262149.999107789248228 ], [ 529672.5879411411006, 7262159.987933613359928 ], [ 529667.958365123718977, 7262169.900785414502025 ], [ 529664.128444569883868, 7262179.453693735413253 ], [ 529661.628543837927282, 7262187.913190307095647 ], [ 529660.458265855675563, 7262194.243011591956019 ] ] } },
{ "type": "Feature", "properties": { "id": 13, "reference_id": 7, "dune_id": 7, "dune_name": "Inverted Y Dune", "acquisition_date": "2020-10-13", "length_m": 526.97346768408215 }, "geometry": { "type": "LineString", "coordinates": [ [ 530594.690995482262224, 7261385.756988408043981 ], [ 530589.464867911650799, 7261392.086809693835676 ], [ 530583.211020647897385, 7261400.546306264586747 ], [ 530576.678590590134263, 7261410.099214585497975 ], [ 530569.999107789248228, 7261420.012066387571394 ], [ 530563.309343022760004, 7261430.000892210751772 ], [ 530556.690656977239996, 7261440.0 ], [ 530550.0, 7261450.0 ], [ 530543.309343022760004, 7261460.0 ], [ 530536.689764766488224, 7261470.000000000931323 ], [ 530529.988825823529623, 7261480.0 ], [ 530523.222194824367762, 7261490.0 ], [ 530516.242673087399453, 7261500.0 ], [ 530508.448322394862771, 7261510.0 ], [ 530499.552016110159457, 7261520.0 ], [ 530489.912851801607758, 7261529.999107789248228 ], [ 530479.988825823529623, 7261539.9888258241117 ], [ 530469.999107789364643, 7261549.912851801142097 ], [ 530460.0, 7261559.552016111090779 ], [ 530450.0, 7261568.448322394862771 ], [ 530440.0, 7261576.241780877113342 ], [ 530430.000000000116415, 7261583.211912859231234 ], [ 530420.0, 7261589.911959591321647 ], [ 530410.0, 7261596.317754898220301 ], [ 530400.0, 7261602.118501110002398 ], [ 530390.0, 7261607.346366802230477 ], [ 530380.0, 7261612.118501109071076 ], [ 530370.0, 7261616.318647109903395 ], [ 530360.0, 7261619.92313376814127 ], [ 530350.0, 7261623.299061057157815 ], [ 530340.0, 7261626.689764766022563 ], [ 530330.0, 7261630.0 ], [ 530320.0, 7261633.309343023225665 ], [ 530310.0, 7261636.689764766953886 ], [ 530300.0, 7261639.9888258241117 ], [ 530290.0, 7261643.222194824367762 ], [ 530280.0, 7261646.242673087865114 ], [ 530270.0, 7261648.448322394862771 ], [ 530260.0, 7261649.552016111090779 ], [ 530250.0, 7261649.912851802073419 ], [ 530240.0, 7261649.9888258241117 ], [ 530230.0, 7261649.999107790179551 ], [ 530220.000892210635357, 7261650.0 ], [ 530210.012066387105733, 7261650.0 ], [ 530200.099214585497975, 7261650.0 ], [ 530190.546306264819577, 7261650.0 ], [ 530182.08680969348643, 7261650.0 ], [ 530175.756988407694735, 7261650.0 ] ] } },
{ "type": "Feature", "properties": { "id": 14, "reference_id": 2, "dune_id": 2, "dune_name": "Big Mommy Dune", "acquisition_date": "2020-10-13", "length_m": 715.65013150521429 }, "geometry": { "type": "LineString", "coordinates": [ [ 529151.078100949409418, 7260975.207437729462981 ], [ 529146.078100949409418, 7260974.047640250064433 ], [ 529138.683442020905204, 7260971.358531360514462 ], [ 529129.677239574841224, 7260967.634712487459183 ], [ 529119.944359513698146, 7260963.974481709301472 ], [ 529109.993520701071247, 7260961.076650485396385 ], [ 529099.999553894624114, 7260958.383076444268227 ], [ 529090.0, 7260954.43026658706367 ], [ 529080.0, 7260948.470670748502016 ], [ 529070.0, 7260941.541395640000701 ], [ 529060.0, 7260935.656881611794233 ], [ 529050.0, 7260932.063569130375981 ], [ 529040.0, 7260930.458265855908394 ], [ 529030.0, 7260929.652122907340527 ], [ 529020.0, 7260928.470670748502016 ], [ 529010.0, 7260926.319539319723845 ], [ 529000.0, 7260923.583030516281724 ], [ 528990.0, 7260921.093411749228835 ], [ 528980.0, 7260918.905696040019393 ], [ 528970.0, 7260916.405795307829976 ], [ 528960.0, 7260913.594204692170024 ], [ 528950.0, 7260911.093411749228835 ], [ 528940.0, 7260908.895414074882865 ], [ 528930.0, 7260906.329821286723018 ], [ 528920.0, 7260903.234261211939156 ], [ 528910.0, 7260900.0 ], [ 528900.0, 7260896.765738788992167 ], [ 528890.0, 7260893.670178714208305 ], [ 528880.0, 7260891.10458592697978 ], [ 528870.0, 7260888.906588250771165 ], [ 528860.0, 7260886.405795307829976 ], [ 528850.0, 7260883.593312481418252 ], [ 528840.0, 7260881.083129784092307 ], [ 528830.0, 7260878.818547841161489 ], [ 528820.0, 7260875.958703628741205 ], [ 528810.0, 7260872.05370126478374 ], [ 528800.0, 7260867.423233035951853 ], [ 528790.0, 7260862.565592788159847 ], [ 528780.0, 7260857.86943250335753 ], [ 528770.0, 7260853.670178714208305 ], [ 528760.0, 7260850.000892210751772 ], [ 528750.0, 7260846.340103251859546 ], [ 528740.0, 7260842.206541518680751 ], [ 528730.0, 7260837.793458482250571 ], [ 528720.0, 7260833.659896748140454 ], [ 528710.0, 7260829.999107789248228 ], [ 528700.0, 7260826.329821285791695 ], [ 528690.0, 7260822.129675285890698 ], [ 528680.0, 7260817.423233035951853 ], [ 528670.0, 7260812.489618767052889 ], [ 528660.0, 7260807.498314846307039 ], [ 528650.0, 7260802.489618767052889 ], [ 528640.0, 7260797.423233035951853 ], [ 528630.0, 7260792.128783075138927 ], [ 528620.0, 7260786.319539319723845 ], [ 528610.0, 7260779.92313376814127 ], [ 528600.0, 7260773.299953268840909 ], [ 528590.0, 7260766.700046732090414 ], [ 528580.0, 7260760.075974021106958 ], [ 528570.0, 7260753.670178715139627 ], [ 528560.0, 7260747.794350693002343 ], [ 528550.0, 7260742.205649307928979 ], [ 528540.000892210751772, 7260736.329821286723018 ], [ 528530.012066387105733, 7260729.924918189644814 ], [ 528520.099214585614391, 7260723.311127444729209 ], [ 528510.546306264819577, 7260716.788087140768766 ], [ 528502.08680969348643, 7260710.535132088698447 ], [ 528495.756988407694735, 7260705.309004518203437 ] ] } },
{ "type": "Feature", "properties": { "id": 15, "reference_id": 6, "dune_id": 6, "dune_name": "The Star Dune", "acquisition_date": "2020-10-13", "length_m": 626.49360873568389 }, "geometry": { "type": "LineString", "coordinates": [ [ 533600.0, 7262664.243011592887342 ], [ 533600.000892210635357, 7262657.913190307095647 ], [ 533600.011174176470377, 7262649.453693736344576 ], [ 533600.087148198392242, 7262639.900785414502025 ], [ 533600.447091679205187, 7262629.987933613359928 ], [ 533601.540503428783268, 7262619.999107789248228 ], [ 533603.671070924960077, 7262610.0 ], [ 533606.340995462378487, 7262600.000000000931323 ], [ 533608.54664476972539, 7262590.0 ], [ 533610.000892210751772, 7262580.0 ], [ 533611.464529406744987, 7262570.0 ], [ 533613.746152736246586, 7262560.0 ], [ 533616.776020754361525, 7262550.0 ], [ 533620.000892210635357, 7262540.0 ], [ 533623.234261211473495, 7262530.0 ], [ 533626.329821285791695, 7262520.0 ], [ 533628.896306284703314, 7262510.0 ], [ 533631.103693715296686, 7262500.0 ], [ 533633.670178714208305, 7262490.0 ], [ 533636.766630999278277, 7262480.0 ], [ 533640.01028196583502, 7262470.0 ], [ 533643.310235233511776, 7262460.0 ], [ 533646.689764766488224, 7262450.0 ], [ 533649.989718034281395, 7262440.0 ], [ 533653.233369000838138, 7262430.0 ], [ 533656.329821285791695, 7262420.0 ], [ 533658.895414073951542, 7262410.0 ], [ 533661.092519538942724, 7262400.0 ], [ 533663.583030515816063, 7262390.0 ], [ 533666.318647109437734, 7262380.0 ], [ 533668.458604360697791, 7262370.0 ], [ 533669.552908320911229, 7262360.0 ], [ 533669.912851801607758, 7262350.0 ], [ 533669.988825823646039, 7262340.000000000931323 ], [ 533669.999107789364643, 7262330.0 ], [ 533669.999107789364643, 7262320.0 ], [ 533669.988825823646039, 7262310.0 ], [ 533669.912851801607758, 7262300.0 ], [ 533669.552908320911229, 7262290.0 ], [ 533668.459496571333148, 7262280.0 ], [ 533666.329821285791695, 7262270.0 ], [ 533663.669286503572948, 7262260.0 ], [ 533661.529329252196476, 7262250.0 ], [ 533660.359943480696529, 7262240.0 ], [ 533659.640056519303471, 7262230.0 ], [ 533658.470670747803524, 7262220.0 ], [ 533656.330713496543467, 7262210.0 ], [ 533653.670178714208305, 7262200.0 ], [ 533651.540503428783268, 7262190.0 ], [ 533650.447091679205187, 7262180.0 ], [ 533650.087148198508658, 7262170.0 ], [ 533650.011174176470377, 7262160.0 ], [ 533650.000892210751772, 7262150.0 ], [ 533650.0, 7262140.0 ], [ 533650.0, 7262130.0 ], [ 533650.0, 7262120.0 ], [ 533650.0, 7262110.0 ], [ 533650.0, 7262100.000446105375886 ], [ 533650.0, 7262090.006479298695922 ], [ 533650.0, 7262080.055640487000346 ], [ 533650.0, 7262070.322760425508022 ], [ 533650.0, 7262061.316557979211211 ], [ 533650.0, 7262053.921899050474167 ], [ 533650.0, 7262048.921899050474167 ] ] } }
]
}
