{
"type": "FeatureCollection",
"name": "crests_2021_08_2021-08-22",
"crs": { "type": "name", "properties": { "name": "urn:ogc:def:crs:EPSG::32733" } },
"features": [
{ "type": "Feature", "properties": { "id": 0, "reference_id": 5, "dune_id": 5, "dune_name": "The Star Dune", "acquisition_date": "2021-08-22", "length_m": 871.1836037109822 }, "geometry": { "type": "LineString", "coordinates": [ [ 534307.91319030651357, 7261565.745814232155681 ], [ 534304.243011592305265, 7261571.999661495909095 ], [ 534297.913190306629986, 7261580.098322374746203 ], [ 534289.453693735180423, 7261588.547536980360746 ], [ 534279.900785414502025, 7261596.254739474505186 ], [ 534269.987933612894267, 7261603.223087035119534 ], [ 534259.999107789248228, 7261609.9888258241117 ], [ 534250.0, 7261616.689764766953886 ], [ 534240.0, 7261623.309343023225665 ], [ 534230.0, 7261630.0 ], [ 534220.0, 7261636.689764766953886 ], [ 534210.0, 7261643.298168847337365 ], [ 534200.0, 7261649.911959591321647 ], [ 534190.0, 7261656.231498911976814 ], [ 534180.0, 7261661.670517219230533 ], [ 534170.0, 7261665.79558140784502 ], [ 534160.0, 7261668.37234837282449 ], [ 534150.0, 7261669.627990132197738 ], [ 534140.0, 7261670.359051270410419 ], [ 534130.0, 7261671.529329252429307 ], [ 534120.0, 7261673.669286503456533 ], [ 534110.0, 7261676.329821285791695 ], [ 534100.0, 7261678.460388781502843 ], [ 534090.0, 7261679.564082497730851 ], [ 534080.0, 7261680.0 ], [ 534070.0, 7261680.435917503200471 ], [ 534060.0, 7261681.539611218497157 ], [ 534050.0, 7261683.670178715139627 ], [ 534040.0, 7261686.33071349747479 ], [ 534030.0, 7261688.470670748502016 ], [ 534020.0, 7261689.64005651883781 ], [ 534010.0, 7261690.35994348116219 ], [ 534000.0, 7261691.530221464112401 ], [ 533990.0, 7261693.680460680276155 ], [ 533980.0, 7261696.416969484649599 ], [ 533970.0, 7261698.907480461522937 ], [ 533960.0, 7261701.10458592697978 ], [ 533950.0, 7261703.671070924960077 ], [ 533940.0, 7261706.776912964880466 ], [ 533930.0, 7261710.087148198857903 ], [ 533920.0, 7261713.681352891027927 ], [ 533910.0, 7261717.871216924861073 ], [ 533900.0, 7261722.576766964048147 ], [ 533890.0, 7261727.509489023126662 ], [ 533880.0, 7261732.490510977804661 ], [ 533870.0, 7261737.424125246703625 ], [ 533860.0, 7261742.139957251027226 ], [ 533850.0, 7261746.406687518581748 ], [ 533840.0, 7261750.37111765705049 ], [ 533830.0, 7261754.851630872115493 ], [ 533820.0, 7261760.458265855908394 ], [ 533810.000892210635357, 7261766.864953374490142 ], [ 533800.012066387105733, 7261773.768501089885831 ], [ 533790.098322374979034, 7261781.552569815889001 ], [ 533780.535132088232785, 7261790.447983890771866 ], [ 533771.999661495094188, 7261800.087148198857903 ], [ 533765.309004517854191, 7261810.011174177750945 ], [ 533760.535132088349201, 7261820.000892210751772 ], [ 533756.78897935221903, 7261830.0 ], [ 533753.321409409982152, 7261840.000000000931323 ], [ 533750.000892210751772, 7261850.0 ], [ 533746.689764766488224, 7261860.0 ], [ 533743.299061057041399, 7261870.0 ], [ 533739.923133767442778, 7261880.0 ], [ 533736.31953932007309, 7261890.0 ], [ 533732.128783074906096, 7261900.0 ], [ 533727.423233035253361, 7261910.0 ], [ 533722.489618766237982, 7261920.0 ], [ 533717.49831484653987, 7261930.0 ], [ 533712.489618766237982, 7261940.0 ], [ 533707.423233035369776, 7261950.0 ], [ 533702.128783074789681, 7261960.0 ], [ 533696.31953932007309, 7261970.0 ], [ 533689.923133767326362, 7261980.0 ], [ 533683.299953267676756, 7261989.999553894624114 ], [ 533676.700938943075016, 7261999.993520701304078 ], [ 533670.088040409144014, 7262009.944359513930976 ], [ 533663.768501089187339, 7262019.677239574491978 ], [ 533658.329482780769467, 7262028.683442020788789 ], [ 533654.20531080244109, 7262036.078100949525833 ], [ 533651.638825803645886, 7262041.078100949525833 ] ] } },
{ "type": "Feature", "properties": { "id": 1, "reference_id": 6, "dune_id": 6, "dune_name": "The Star Dune", "acquisition_date": "2021-08-22", "length_m": 431.88330468112451 }, "geometry": { "type": "LineString", "coordinates": [ [ 533659.552016110159457, 7262415.756988408043981 ], [ 533658.448322394862771, 7262422.086809693835676 ], [ 533656.242673087399453, 7262430.546306265518069 ], [ 533653.223087035003118, 7262440.099214585497975 ], [ 533649.999107789364643, 7262450.012066387571394 ], [ 533646.765738788526505, 7262460.000892210751772 ], [ 533643.670178714208305, 7262470.0 ], [ 533641.104585926048458, 7262480.0 ], [ 533638.906588250538334, 7262490.0 ], [ 533636.405795307829976, 7262500.0 ], [ 533633.594204692286439, 7262510.0 ], [ 533631.093411749578081, 7262520.0 ], [ 533628.895414073951542, 7262530.0 ], [ 533626.329821285791695, 7262540.0 ], [ 533623.234261211473495, 7262550.0 ], [ 533620.0, 7262560.0 ], [ 533616.765738788526505, 7262570.0 ], [ 533613.670178714208305, 7262580.0 ], [ 533611.104585926048458, 7262590.0 ], [ 533608.907480461173691, 7262600.000000000931323 ], [ 533606.416969484183937, 7262610.0 ], [ 533603.681352890678681, 7262620.0 ], [ 533601.541395639418624, 7262630.0 ], [ 533600.44619946856983, 7262640.0 ], [ 533600.075974022038281, 7262650.0 ], [ 533599.924025978078134, 7262660.0 ], [ 533599.553800531546585, 7262670.0 ], [ 533598.459496571216732, 7262680.0 ], [ 533596.329821285791695, 7262690.0 ], [ 533593.670178714208305, 7262700.0 ], [ 533591.539611218031496, 7262710.0 ], [ 533590.43591750273481, 7262720.0 ], [ 533590.0, 7262730.0 ], [ 533589.56408249726519, 7262740.0 ], [ 533588.459496571216732, 7262750.0 ], [ 533586.318647109437734, 7262760.0 ], [ 533583.582138305064291, 7262770.0 ], [ 533581.082237573107705, 7262780.0 ], [ 533578.819440052029677, 7262789.999107789248228 ], [ 533575.969877805095166, 7262799.987933613359928 ], [ 533572.140849462011829, 7262809.900785414502025 ], [ 533567.871216925210319, 7262819.453693736344576 ], [ 533564.117270393413492, 7262827.913190307095647 ], [ 533561.62765162717551, 7262834.243011592887342 ] ] } },
{ "type": "Feature", "properties": { "id": 2, "reference_id": 6, "dune_id": 6, "dune_name": "The Star Dune", "acquisition_date": "2021-08-22", "length_m": 78.486023183912039 }, "geometry": { "type": "LineString", "coordinates": [ [ 533660.0, 7262115.756988408043981 ], [ 533660.0, 7262122.086809693835676 ], [ 533660.0, 7262130.546306265518069 ], [ 533660.0, 7262140.099214585497975 ], [ 533660.0, 7262150.0111741758883 ], [ 533660.0, 7262159.9888258241117 ], [ 533660.0, 7262169.900785414502025 ], [ 533660.0, 7262179.453693735413253 ], [ 533660.0, 7262187.913190307095647 ], [ 533660.0, 7262194.243011591956019 ] ] } },
{ "type": "Feature", "properties": { "id": 3, "reference_id": 1, "dune_id": 1, "dune_name": "Big Mommy Dune", "acquisition_date": "2021-08-22", "length_m": 89.355237034670211 }, "geometry": { "type": "LineString", "coordinates": [ [ 529020.0, 7261555.756988408043981 ], [ 529020.0, 7261562.086809693835676 ], [ 529020.0, 7261570.546306264586747 ], [ 529020.0, 7261580.099214585497975 ], [ 529019.999107789364643, 7261590.012066387571394 ], [ 529019.988825823529623, 7261600.0 ], [ 529019.912851801607758, 7261609.987933613359928 ], [ 529019.552908320911229, 7261619.900785414502025 ], [ 529018.459496571333148, 7261629.453693736344576 ], [ 529016.329821285791695, 7261637.913190307095647 ], [ 529013.670178714208305, 7261644.243011591956019 ] ] } },
{ "type": "Feature", "properties": { "id": 4, "reference_id": 1, "dune_id": 1, "dune_name": "Big Mommy Dune", "acquisition_date": "2021-08-22", "length_m": 71.265039916272869 }, "geometry": { "type": "LineString", "coordinates": [ [ 529024.129336780519225, 7261695.756988408043981 ], [ 529027.969539300072938, 7261702.086809693835676 ], [ 529032.675089339492843, 7261710.545414054766297 ], [ 529037.957472912967205, 7261720.087148198857903 ], [ 529044.030122194904834, 7261729.912851802073419 ], [ 529051.082237573107705, 7261739.454585947096348 ], [ 529058.371456162189133, 7261747.913190307095647 ], [ 529064.331052001449279, 7261754.243011591956019 ] ] } },
{ "type": "Feature", "properties": { "id": 5, "reference_id": 1, "dune_id": 1, "dune_name": "Big Mommy Dune", "acquisition_date": "2021-08-22", "length_m": 340.67213232444323 }, "geometry": { "type": "LineString", "coordinates": [ [ 529070.458265855675563, 7261394.243011592887342 ], [ 529071.62765162717551, 7261387.913190307095647 ], [ 529074.118162604048848, 7261379.453693735413253 ], [ 529077.881498890928924, 7261369.900785414502025 ], [ 529082.217715694569051, 7261359.987933613359928 ], [ 529086.340995462262072, 7261349.999107789248228 ], [ 529090.000892210751772, 7261340.0 ], [ 529093.670178714208305, 7261330.0 ], [ 529097.870324714574963, 7261320.0 ], [ 529102.576766964630224, 7261310.000000000931323 ], [ 529107.510381233762018, 7261300.0 ], [ 529112.500792942708358, 7261290.0 ], [ 529117.499207057291642, 7261280.0 ], [ 529122.489618766237982, 7261270.0 ], [ 529127.423233035369776, 7261260.0 ], [ 529132.128783074906096, 7261250.0 ], [ 529136.319539319956675, 7261240.0 ], [ 529139.923133767326362, 7261230.0 ], [ 529143.299953267676756, 7261220.0 ], [ 529146.700046732323244, 7261210.000000000931323 ], [ 529150.075974022038281, 7261200.0 ], [ 529153.669286503572948, 7261190.0 ], [ 529157.784068726818077, 7261180.0 ], [ 529162.129675285541452, 7261170.0 ], [ 529165.968985594343394, 7261160.0 ], [ 529168.819440052029677, 7261150.0 ], [ 529171.083129783859476, 7261140.0 ], [ 529173.593312481534667, 7261130.0 ], [ 529176.405795307829976, 7261120.000892211683095 ], [ 529178.905696039786562, 7261110.012066386640072 ], [ 529181.093411749578081, 7261100.099214585497975 ], [ 529183.583030515816063, 7261090.546306265518069 ], [ 529186.318647109437734, 7261082.086809693835676 ], [ 529188.458604360697791, 7261075.756988408043981 ] ] } },
{ "type": "Feature", "properties": { "id": 6, "reference_id": 1, "dune_id": 1, "dune_name": "Big Mommy Dune", "acquisition_date": "2021-08-22", "length_m": 464.01673010147169 }, "geometry": { "type": "LineString", "coordinates": [ [ 528845.756988407694735, 7262228.001230716705322 ], [ 528852.086809693602845, 7262224.701277447864413 ], [ 528860.546306264819577, 7262219.540841933339834 ], [ 528870.099214585614391, 7262213.57096412871033 ], [ 528880.012066387222148, 7262207.771110128611326 ], [ 528890.000892210635357, 7262202.117608899250627 ], [ 528900.0, 7262195.881837395951152 ], [ 528910.0, 7262188.37234837282449 ], [ 528919.999107789364643, 7262179.541734144091606 ], [ 528929.988825823529623, 7262169.911959591321647 ], [ 528939.911959590972401, 7262159.9888258241117 ], [ 528949.541734144324437, 7262149.999107789248228 ], [ 528958.371456162189133, 7262140.0 ], [ 528965.871555430116132, 7262130.0 ], [ 528972.041634876397438, 7262120.0 ], [ 528977.4120588588994, 7262110.0 ], [ 528982.488726555602625, 7262100.0 ], [ 528987.498314846656285, 7262090.0 ], [ 528992.489618766237982, 7262080.0 ], [ 528997.423233035369776, 7262070.0 ], [ 529002.128783074789681, 7262060.0 ], [ 529006.31953932007309, 7262050.0 ], [ 529009.924025978078134, 7262040.0 ], [ 529013.310235233511776, 7262030.0 ], [ 529016.776912965113297, 7262020.0 ], [ 529020.447983889840543, 7262010.0 ], [ 529024.861020627897233, 7262000.0 ], [ 529030.447983889840543, 7261990.0 ], [ 529036.777805175632238, 7261980.0 ], [ 529043.32051719923038, 7261970.0 ], [ 529050.000892210635357, 7261960.0 ], [ 529056.68976476660464, 7261950.0 ], [ 529063.299061057041399, 7261940.0 ], [ 529069.923133767326362, 7261930.0 ], [ 529076.318647109321319, 7261920.0 ], [ 529082.117608898319304, 7261910.0 ], [ 529087.335192626225762, 7261900.000892210751772 ], [ 529092.031352910562418, 7261890.012066386640072 ], [ 529095.870663219597191, 7261880.099214585497975 ], [ 529098.371456162305549, 7261870.546306265518069 ], [ 529099.541734144324437, 7261862.086809693835676 ], [ 529099.911959590855986, 7261855.756988408043981 ] ] } },
{ "type": "Feature", "properties": { "id": 7, "reference_id": 4, "dune_id": 4, "dune_name": "The Star Dune", "acquisition_date": "2021-08-22", "length_m": 605.03955014772919 }, "geometry": { "type": "LineString", "coordinates": [ [ 533005.756988407694735, 7261870.087148198857903 ], [ 533012.08680969348643, 7261870.447091680020094 ], [ 533020.546306264819577, 7261871.540503429248929 ], [ 533030.099214585614391, 7261873.671070925891399 ], [ 533040.012066387105733, 7261876.340995462611318 ], [ 533050.000892210751772, 7261878.546644769608974 ], [ 533060.0, 7261880.0 ], [ 533070.0, 7261881.454247441142797 ], [ 533080.0, 7261883.670178714208305 ], [ 533090.0, 7261886.416077273897827 ], [ 533100.0, 7261888.906588250771165 ], [ 533110.0, 7261891.094303959980607 ], [ 533120.0, 7261893.594204692170024 ], [ 533130.0, 7261896.405795307829976 ], [ 533140.0, 7261898.906588250771165 ], [ 533150.0, 7261901.104585926048458 ], [ 533160.0, 7261903.670178715139627 ], [ 533170.0, 7261906.766630999743938 ], [ 533180.0, 7261910.010281966999173 ], [ 533190.0, 7261913.310235233977437 ], [ 533200.0, 7261916.689764766022563 ], [ 533210.0, 7261919.989718034863472 ], [ 533220.0, 7261923.233369001187384 ], [ 533230.0, 7261926.329821286723018 ], [ 533240.0, 7261928.896306285634637 ], [ 533250.0, 7261931.103693715296686 ], [ 533260.0, 7261933.670178715139627 ], [ 533270.0, 7261936.765738788992167 ], [ 533280.0, 7261940.0 ], [ 533290.0, 7261943.234261211007833 ], [ 533300.0, 7261946.329821284860373 ], [ 533310.0, 7261948.896306285634637 ], [ 533320.0, 7261951.103693716228008 ], [ 533330.0, 7261953.670178715139627 ], [ 533340.0, 7261956.766630999743938 ], [ 533350.0, 7261960.010281966999173 ], [ 533360.0, 7261963.310235233977437 ], [ 533370.0, 7261966.690656977705657 ], [ 533380.000000000116415, 7261970.0 ], [ 533390.0, 7261973.309343023225665 ], [ 533400.000000000116415, 7261976.690656977705657 ], [ 533410.0, 7261980.0 ], [ 533420.0, 7261983.309343023225665 ], [ 533430.0, 7261986.690656976774335 ], [ 533440.0, 7261990.0 ], [ 533450.0, 7261993.310235233977437 ], [ 533460.0, 7261996.700938943773508 ], [ 533470.0, 7262000.075974022969604 ], [ 533480.0, 7262003.670178715139627 ], [ 533490.0, 7262007.795242903754115 ], [ 533500.0, 7262012.216823484748602 ], [ 533510.0, 7262016.416077273897827 ], [ 533520.0, 7262020.35994348116219 ], [ 533530.0, 7262024.75241628754884 ], [ 533539.999107789364643, 7262029.911959590390325 ], [ 533549.987933612894267, 7262034.778143680654466 ], [ 533559.900785414385609, 7262038.01151268184185 ], [ 533569.453693735180423, 7262039.465760122984648 ], [ 533577.91319030651357, 7262039.901677625253797 ], [ 533584.243011592305265, 7262039.987933613359928 ] ] } },
{ "type": "Feature", "properties": { "id": 8, "reference_id": 3, "dune_id": 3, "dune_name": "Big Mommy Dune", "acquisition_date": "2021-08-22", "length_m": 832.27781189151324 }, "geometry": { "type": "LineString", "coordinates": [ [ 529834.243011592421681, 7260608.546644770540297 ], [ 529827.913190306629986, 7260606.776912964880466 ], [ 529819.453693735180423, 7260605.210682142525911 ], [ 529809.900785414502025, 7260605.210682142525911 ], [ 529799.987933612894267, 7260606.776912964880466 ], [ 529789.999107789364643, 7260608.546644770540297 ], [ 529780.0, 7260609.564082497730851 ], [ 529770.0, 7260609.914636223576963 ], [ 529760.0, 7260610.0 ], [ 529750.0, 7260610.086255988106132 ], [ 529740.0, 7260610.447091680020094 ], [ 529730.0, 7260611.540503429248929 ], [ 529720.0, 7260613.670178715139627 ], [ 529710.0, 7260616.329821286723018 ], [ 529700.0, 7260618.459496571682394 ], [ 529690.0, 7260619.552908320911229 ], [ 529680.0, 7260619.912851802073419 ], [ 529670.0, 7260619.989718034863472 ], [ 529660.0, 7260620.010281966067851 ], [ 529650.0, 7260620.087148198857903 ], [ 529640.0, 7260620.447091679088771 ], [ 529630.0, 7260621.540503429248929 ], [ 529620.0, 7260623.670178714208305 ], [ 529610.0, 7260626.330713496543467 ], [ 529600.0, 7260628.470670747570693 ], [ 529590.0, 7260629.64005651883781 ], [ 529580.0, 7260630.35994348116219 ], [ 529570.0, 7260631.530221463181078 ], [ 529560.0, 7260633.680460680276155 ], [ 529550.0, 7260636.416969483718276 ], [ 529540.0, 7260638.907480461522937 ], [ 529530.0, 7260641.10458592697978 ], [ 529520.0, 7260643.670178715139627 ], [ 529510.0, 7260646.765738788992167 ], [ 529500.000000000116415, 7260650.0 ], [ 529490.0, 7260653.234261211939156 ], [ 529480.0, 7260656.329821285791695 ], [ 529470.0, 7260658.896306285634637 ], [ 529460.0, 7260661.103693716228008 ], [ 529450.0, 7260663.670178714208305 ], [ 529440.000000000116415, 7260666.766630999743938 ], [ 529430.0, 7260670.0111741758883 ], [ 529420.0, 7260673.321409409865737 ], [ 529410.0, 7260676.777805175632238 ], [ 529400.0, 7260680.447983888909221 ], [ 529390.0, 7260684.861912839114666 ], [ 529380.0, 7260690.459158066660166 ], [ 529370.000892210635357, 7260696.864953374490142 ], [ 529360.011174176353961, 7260703.768501089885831 ], [ 529350.087148198508658, 7260711.552569815889001 ], [ 529340.447091679205187, 7260720.447983889840543 ], [ 529331.54139563953504, 7260730.087148198857903 ], [ 529323.681352890678681, 7260740.011174176819623 ], [ 529316.416969484300353, 7260750.000892210751772 ], [ 529308.907480461173691, 7260760.0 ], [ 529301.104585926048458, 7260770.0 ], [ 529293.671070924960077, 7260780.000000000931323 ], [ 529286.776912964996882, 7260790.0 ], [ 529280.086255987756886, 7260800.0 ], [ 529273.671070924960077, 7260810.0 ], [ 529267.794350692536682, 7260820.0 ], [ 529262.205649307463318, 7260830.0 ], [ 529256.32982128590811, 7260840.0 ], [ 529249.924025978078134, 7260850.0 ], [ 529243.299061057041399, 7260860.0 ], [ 529236.689764766488224, 7260870.0 ], [ 529230.0, 7260880.0 ], [ 529223.310235233511776, 7260890.0 ], [ 529216.700938943075016, 7260900.0 ], [ 529210.075974022038281, 7260910.0 ], [ 529203.669286503456533, 7260920.0 ], [ 529197.783622621442191, 7260929.999107789248228 ], [ 529192.124980407999828, 7260939.987933613359928 ], [ 529185.937477882369421, 7260949.900785415433347 ], [ 529178.695108798099682, 7260959.453693736344576 ], [ 529170.858292123419233, 7260967.913190307095647 ], [ 529163.833858641446568, 7260974.243011591956019 ], [ 529158.910724874120206, 7260977.913190307095647 ] ] } },
{ "type": "Feature", "properties": { "id": 9, "reference_id": 3, "dune_id": 3, "dune_name": "Big Mommy Dune", "acquisition_date": "2021-08-22", "length_m": 109.17765554200737 }, "geometry": { "type": "LineString", "coordinates": [ [ 529974.243011592305265, 7260601.464529407210648 ], [ 529967.91319030651357, 7260603.310235233977437 ], [ 529959.453693735180423, 7260605.23640953656286 ], [ 529949.900785414502025, 7260606.329821286723018 ], [ 529939.987933612894267, 7260606.893265749327838 ], [ 529929.999107789364643, 7260607.783176517114043 ], [ 529920.0, 7260608.895414073951542 ], [ 529910.000892210635357, 7260609.63916430901736 ], [ 529900.012066387105733, 7260609.924025978893042 ], [ 529890.099214585614391, 7260609.989718034863472 ], [ 529880.546306264819577, 7260609.999107789248228 ], [ 529872.08680969348643, 7260610.0 ], [ 529865.756988407694735, 7260610.0 ] ] } },
{ "type": "Feature", "properties": { "id": 10, "reference_id": 3, "dune_id": 3, "dune_name": "Big Mommy Dune", "acquisition_date": "2021-08-22", "length_m": 242.99700023045267 }, "geometry": { "type": "LineString", "coordinates": [ [ 530005.756988407578319, 7260609.999107789248228 ], [ 530012.08680969348643, 7260609.9888258241117 ], [ 530020.546306264819577, 7260609.912851802073419 ], [ 530030.099214585614391, 7260609.552908320911229 ], [ 530040.012066387222148, 7260608.459496571682394 ], [ 530050.000892210751772, 7260606.329821286723018 ], [ 530060.0, 7260603.670178715139627 ], [ 530070.0, 7260601.539611218497157 ], [ 530080.0, 7260600.435917503200471 ], [ 530090.0, 7260600.0 ], [ 530100.0, 7260599.563190286979079 ], [ 530110.0, 7260598.449214605614543 ], [ 530120.0, 7260596.242673087865114 ], [ 530130.0, 7260593.223087035119534 ], [ 530140.0, 7260590.0 ], [ 530150.0, 7260586.776020754128695 ], [ 530160.0, 7260583.746152736246586 ], [ 530170.000000000116415, 7260581.464529406279325 ], [ 530180.0, 7260580.000892210751772 ], [ 530190.0, 7260578.546644769608974 ], [ 530199.999107789248228, 7260576.340995462611318 ], [ 530209.987933612894267, 7260573.671070925891399 ], [ 530219.900785414385609, 7260571.540503429248929 ], [ 530229.453693735180423, 7260570.447091680020094 ], [ 530237.91319030651357, 7260570.087148198857903 ], [ 530244.243011592421681, 7260570.011174176819623 ] ] } },
{ "type": "Feature", "properties": { "id": 11, "reference_id": 2, "dune_id": 2, "dune_name": "Big Mommy Dune", "acquisition_date": "2021-08-22", "length_m": 801.79035183363828 }, "geometry": { "type": "LineString", "coordinates": [ [ 529151.078100949409418, 7260978.371456163004041 ], [ 529146.078100949409418, 7260975.871555430814624 ], [ 529138.683442020905204, 7260972.041634876281023 ], [ 529129.677239574841224, 7260967.41205885913223 ], [ 529119.944359513698146, 7260962.489618767052889 ], [ 529109.993520701071247, 7260957.509489024057984 ], [ 529099.999553894624114, 7260952.576766965910792 ], [ 529090.0, 7260947.871216925792396 ], [ 529080.0, 7260943.681352891027927 ], [ 529070.0, 7260940.087148198857903 ], [ 529060.0, 7260936.776912964880466 ], [ 529050.0, 7260933.671070924960077 ], [ 529040.0, 7260931.10458592697978 ], [ 529030.0, 7260928.906588250771165 ], [ 529020.0, 7260926.405795307829976 ], [ 529010.0, 7260923.594204692170024 ], [ 529000.0, 7260921.094303959980607 ], [ 528990.0, 7260918.905696040019393 ], [ 528980.0, 7260916.405795307829976 ], [ 528970.0, 7260913.594204692170024 ], [ 528960.0, 7260911.094303959980607 ], [ 528950.0, 7260908.905696040019393 ], [ 528940.0, 7260906.405795308761299 ], [ 528930.0, 7260903.594204693101346 ], [ 528920.0, 7260901.094303959980607 ], [ 528910.0, 7260898.905696040019393 ], [ 528900.0, 7260896.405795307829976 ], [ 528890.0, 7260893.594204692170024 ], [ 528880.0, 7260891.093411749228835 ], [ 528870.0, 7260888.895414073951542 ], [ 528860.0, 7260886.329821286723018 ], [ 528850.0, 7260883.233369002118707 ], [ 528840.0, 7260879.989718034863472 ], [ 528830.0, 7260876.688872556202114 ], [ 528820.0, 7260873.299061057157815 ], [ 528810.0, 7260869.924025978893042 ], [ 528800.0, 7260866.329821286723018 ], [ 528790.0, 7260862.205649307928979 ], [ 528780.0, 7260857.794350693002343 ], [ 528770.0, 7260853.670178714208305 ], [ 528760.0, 7260850.075974022038281 ], [ 528750.0, 7260846.700046733021736 ], [ 528740.0, 7260843.299953267909586 ], [ 528730.0, 7260839.92313376814127 ], [ 528720.0, 7260836.319539319723845 ], [ 528710.0, 7260832.128783075138927 ], [ 528700.0, 7260827.423233035951853 ], [ 528690.0, 7260822.489618766121566 ], [ 528680.0, 7260817.499207057058811 ], [ 528670.0, 7260812.499900732189417 ], [ 528660.0, 7260807.500099267810583 ], [ 528650.0, 7260802.499900732189417 ], [ 528640.0, 7260797.499207057990134 ], [ 528630.0, 7260792.489618767052889 ], [ 528620.0, 7260787.423233035951853 ], [ 528610.0, 7260782.128783075138927 ], [ 528600.0, 7260776.319539319723845 ], [ 528590.0, 7260769.923133767209947 ], [ 528580.0, 7260763.299061057157815 ], [ 528570.0, 7260756.689764766953886 ], [ 528560.0, 7260750.0 ], [ 528550.0, 7260743.309343023225665 ], [ 528540.0, 7260736.689764766953886 ], [ 528530.0, 7260729.989718034863472 ], [ 528520.0, 7260723.233369001187384 ], [ 528510.0, 7260716.329821286723018 ], [ 528500.0, 7260708.896306284703314 ], [ 528490.0, 7260701.103693716228008 ], [ 528480.0, 7260693.670178715139627 ], [ 528470.000892210751772, 7260686.766630999743938 ], [ 528460.012066387105733, 7260680.0111741758883 ], [ 528450.099214585614391, 7260673.322301620617509 ], [ 528440.546306264819577, 7260666.788979352451861 ], [ 528432.08680969348643, 7260660.535132088698447 ], [ 528425.756988407694735, 7260655.309004518203437 ] ] } },
{ "type": "Feature", "properties": { "id": 12, "reference_id": 7, "dune_id": 7, "dune_name": "Inverted Y Dune", "acquisition_date": "2021-08-22", "length_m": 571.30090937983812 }, "geometry": { "type": "LineString", "coordinates": [ [ 530215.756988407694735, 7261650.0 ], [ 530222.08680969348643, 7261650.0 ], [ 530230.546306264703162, 7261649.999107790179551 ], [ 530240.099214585614391, 7261649.9888258241117 ], [ 530250.012066387105733, 7261649.912851802073419 ], [ 530260.000892210751772, 7261649.552016111090779 ], [ 530270.0, 7261648.448322394862771 ], [ 530280.0, 7261646.242673087865114 ], [ 530290.0, 7261643.222194824367762 ], [ 530300.0, 7261639.9888258241117 ], [ 530310.0, 7261636.688872556202114 ], [ 530320.0, 7261633.299061057157815 ], [ 530330.0, 7261629.924025978893042 ], [ 530340.0, 7261626.329821285791695 ], [ 530350.0, 7261622.204757097177207 ], [ 530360.0, 7261617.783176516182721 ], [ 530370.0, 7261613.583030516281724 ], [ 530380.0, 7261609.62888234294951 ], [ 530390.0, 7261605.159543303772807 ], [ 530400.0, 7261599.62888234294951 ], [ 530410.0, 7261593.582138305529952 ], [ 530420.0, 7261587.772002339363098 ], [ 530430.000000000116415, 7261582.117608899250627 ], [ 530440.0, 7261575.881837395951152 ], [ 530450.0, 7261568.372348373755813 ], [ 530460.0, 7261559.541734145022929 ], [ 530469.999107789364643, 7261549.911959590390325 ], [ 530479.988825823529623, 7261539.9888258241117 ], [ 530489.911959590855986, 7261529.999107789248228 ], [ 530499.541734144324437, 7261520.0 ], [ 530508.37234837282449, 7261510.0 ], [ 530515.881837395951152, 7261500.0 ], [ 530522.118501109071076, 7261490.0 ], [ 530527.783176516182721, 7261480.0 ], [ 530533.669286503456533, 7261470.000000000931323 ], [ 530540.075974021921866, 7261460.0 ], [ 530546.700938943075016, 7261450.0 ], [ 530553.311127444147132, 7261440.0 ], [ 530560.011174176470377, 7261430.0 ], [ 530566.777805175632238, 7261420.0 ], [ 530573.757326912600547, 7261410.0 ], [ 530581.551677605253644, 7261400.0 ], [ 530590.447983889840543, 7261390.0 ], [ 530600.087148198392242, 7261380.0 ], [ 530610.01028196583502, 7261370.000892210751772 ], [ 530619.988825823646039, 7261360.012066386640072 ], [ 530629.900785414502025, 7261350.099214585497975 ], [ 530639.453693735296838, 7261340.546306265518069 ], [ 530647.913190306629986, 7261332.086809693835676 ], [ 530654.243011592305265, 7261325.756988408043981 ] ] } },
{ "type": "Feature", "properties": { "id": 13, "reference_id": 8, "dune_id": 8, "dune_name": "Inverted Y Dune", "acquisition_date": "2021-08-22", "length_m": 512.01308901805578 }, "geometry": { "type": "LineString", "coordinates": [ [ 530096.846263533574529, 7261591.078100949525833 ], [ 530098.25205884128809, 7261586.078100949525833 ], [ 530099.676839964813553, 7261578.683442020788789 ], [ 530101.316957589122467, 7261569.6772395754233 ], [ 530103.626604615012184, 7261559.944359513930976 ], [ 530106.324234197614715, 7261549.993520701304078 ], [ 530108.459050465957262, 7261539.999553894624114 ], [ 530109.552908320911229, 7261530.0 ], [ 530109.913744012243114, 7261520.0 ], [ 530110.0, 7261510.0 ], [ 530110.086255987756886, 7261500.0 ], [ 530110.447091679205187, 7261490.0 ], [ 530111.540503428666852, 7261480.0 ], [ 530113.671070924960077, 7261470.000000000931323 ], [ 530116.340995462262072, 7261460.0 ], [ 530118.54664476972539, 7261450.0 ], [ 530120.0, 7261440.0 ], [ 530121.454247441026382, 7261430.0 ], [ 530123.670178714208305, 7261420.0 ], [ 530126.416077273664996, 7261410.0 ], [ 530128.907480461173691, 7261400.0 ], [ 530131.104585926048458, 7261390.0 ], [ 530133.670178714208305, 7261380.0 ], [ 530136.766630999278277, 7261370.0 ], [ 530140.01028196583502, 7261360.0 ], [ 530143.311127444263548, 7261350.0 ], [ 530146.701831153710373, 7261340.0 ], [ 530150.088040409144014, 7261330.0 ], [ 530153.768501089187339, 7261320.0 ], [ 530158.329482780885883, 7261310.000000000931323 ], [ 530164.20531080244109, 7261300.0 ], [ 530171.638825803645886, 7261290.000892210751772 ], [ 530180.45915806631092, 7261280.0111741758883 ], [ 530190.088040409144014, 7261270.088040409609675 ], [ 530200.011174176586792, 7261260.458265855908394 ], [ 530210.000892210751772, 7261251.628543837927282 ], [ 530220.0, 7261244.128444569185376 ], [ 530230.0, 7261237.958365123718977 ], [ 530240.0, 7261232.588833352550864 ], [ 530250.0, 7261227.522447621449828 ], [ 530260.0, 7261222.588833352550864 ], [ 530270.0, 7261217.958365123718977 ], [ 530280.0, 7261214.128444571048021 ], [ 530290.0, 7261211.628543838858604 ], [ 530299.999107789364643, 7261210.458265855908394 ], [ 530309.987933612894267, 7261210.088040409609675 ], [ 530319.900785414502025, 7261210.011174176819623 ], [ 530329.453693735180423, 7261210.000892211683095 ], [ 530337.91319030651357, 7261210.000000000931323 ], [ 530344.243011592305265, 7261210.000000000931323 ] ] } },
{ "type": "Feature", "properties": { "id": 14, "reference_id": 8, "dune_id": 8, "dune_name": "Inverted Y Dune", "acquisition_date": "2021-08-22", "length_m": 146.74547421729031 }, "geometry": { "type": "LineString", "coordinates": [ [ 530524.243011592421681, 7261185.657773822546005 ], [ 530517.91319030651357, 7261191.540503429248929 ], [ 530509.453693735296838, 7261198.459496570751071 ], [ 530499.900785414502025, 7261204.342226178385317 ], [ 530489.987933612894267, 7261207.925256693735719 ], [ 530479.999107789364643, 7261209.454585946165025 ], [ 530470.0, 7261209.900785414502025 ], [ 530460.0, 7261209.987933613359928 ], [ 530450.0, 7261209.998215579427779 ], [ 530440.0, 7261209.9888258241117 ], [ 530430.000892210751772, 7261209.912851802073419 ], [ 530420.012066387222148, 7261209.552908320911229 ], [ 530410.099214585614391, 7261208.459496571682394 ], [ 530400.546306264819577, 7261206.329821285791695 ], [ 530392.08680969348643, 7261203.670178713276982 ], [ 530385.756988407694735, 7261201.540503428317606 ] ] } },
{ "type": "Feature", "properties": { "id": 15, "reference_id": 9, "dune_id": 9, "dune_name": "Inverted Y Dune", "acquisition_date": "2021-08-22", "length_m": 801.23583245765735 }, "geometry": { "type": "LineString", "coordinates": [ [ 529650.087148198392242, 7262234.243011592887342 ], [ 529650.447983889840543, 7262227.913190307095647 ], [ 529651.551677605253644, 7262219.453693735413253 ], [ 529653.758219123352319, 7262209.900785414502025 ], [ 529656.788087141467258, 7262199.987933613359928 ], [ 529660.087148198508658, 7262189.999107789248228 ], [ 529663.671070924843661, 7262180.0 ], [ 529667.794350692536682, 7262170.0 ], [ 529672.20654151821509, 7262160.0 ], [ 529676.340103251626715, 7262150.0 ], [ 529680.000892210751772, 7262140.0 ], [ 529683.670178714208305, 7262130.0 ], [ 529687.869432503823191, 7262120.0 ], [ 529692.566484998911619, 7262110.0 ], [ 529697.433515001088381, 7262100.0 ], [ 529702.130567496176809, 7262090.0 ], [ 529706.329821285791695, 7262080.0 ], [ 529710.0, 7262070.0 ], [ 529713.670178714208305, 7262060.0 ], [ 529717.870324714574963, 7262050.0 ], [ 529722.576766964630224, 7262040.0 ], [ 529727.510381233762018, 7262030.0 ], [ 529732.500792942708358, 7262020.0 ], [ 529737.499207057291642, 7262010.0 ], [ 529742.489618766237982, 7262000.0 ], [ 529747.423233035369776, 7261990.0 ], [ 529752.128783074789681, 7261980.0 ], [ 529756.318647109321319, 7261970.0 ], [ 529759.912851801607758, 7261960.0 ], [ 529763.223087035119534, 7261950.0 ], [ 529766.329821285791695, 7261940.0 ], [ 529768.906588250538334, 7261930.0 ], [ 529771.179667737334967, 7261920.0 ], [ 529774.031014405656606, 7261910.0 ], [ 529777.871216925210319, 7261900.0 ], [ 529782.227105449652299, 7261890.0 ], [ 529786.417861694935709, 7261880.0 ], [ 529790.372009867918678, 7261870.0 ], [ 529794.8516308729304, 7261860.0 ], [ 529800.458265855675563, 7261850.0 ], [ 529806.864953374140896, 7261840.000000000931323 ], [ 529813.768501089187339, 7261830.0 ], [ 529821.552569815889001, 7261820.0 ], [ 529830.447983889840543, 7261810.0 ], [ 529840.087148198392242, 7261800.0 ], [ 529850.011174176470377, 7261790.0 ], [ 529860.000892210751772, 7261780.0 ], [ 529870.0, 7261770.0 ], [ 529880.0, 7261760.000892210751772 ], [ 529890.0, 7261750.011174176819623 ], [ 529900.0, 7261740.087148198857903 ], [ 529910.0, 7261730.447983890771866 ], [ 529920.0, 7261721.551677605137229 ], [ 529930.0, 7261713.757326913066208 ], [ 529940.0, 7261706.777805175632238 ], [ 529950.0, 7261700.011174177750945 ], [ 529960.0, 7261693.310235233977437 ], [ 529970.0, 7261686.690656976774335 ], [ 529980.0, 7261680.0 ], [ 529990.0, 7261673.310235233977437 ], [ 530000.0, 7261666.700938943773508 ], [ 530010.0, 7261660.075974022969604 ], [ 530020.0, 7261653.669286503456533 ], [ 530030.0, 7261647.783176517114043 ], [ 530039.999553894624114, 7261642.118947215378284 ], [ 530049.993520701071247, 7261635.888316694647074 ], [ 530059.944359513698146, 7261628.427988858893514 ], [ 530069.677239574841224, 7261619.864494569599628 ], [ 530078.683442020905204, 7261611.228517569601536 ], [ 530086.078100949409418, 7261603.910724874585867 ], [ 530091.078100949525833, 7261598.921006839722395 ] ] } }
]
}
