{
"type": "FeatureCollection",
"name": "crests_2017_08_2017-08-23",
"crs": { "type": "name", "properties": { "name": "urn:ogc:def:crs:EPSG::32733" } },
"features": [
{ "type": "Feature", "properties": { "id": 0, "reference_id": 1, "dune_id": 1, "dune_name": "Big Mommy Dune", "acquisition_date": "2017-08-23", "length_m": 58.486023184843361 }, "geometry": { "type": "LineString", "coordinates": [ [ 529020.0, 7261575.756988408043981 ], [ 529020.0, 7261582.086809693835676 ], [ 529020.0, 7261590.545414053834975 ], [ 529020.0, 7261600.087148198857903 ], [ 529020.0, 7261609.912851801142097 ], [ 529020.0, 7261619.454585945233703 ], [ 529020.0, 7261627.913190307095647 ], [ 529020.0, 7261634.243011592887342 ] ] } },
{ "type": "Feature", "properties": { "id": 1, "reference_id": 1, "dune_id": 1, "dune_name": "Big Mommy Dune", "acquisition_date": "2017-08-23", "length_m": 222.13222896737042 }, "geometry": { "type": "LineString", "coordinates": [ [ 529106.241780876647681, 7261315.756988408043981 ], [ 529103.211912858532742, 7261322.086809693835676 ], [ 529099.912851801607758, 7261330.546306264586747 ], [ 529096.328929075156339, 7261340.099214585497975 ], [ 529092.205649307463318, 7261350.012066387571394 ], [ 529087.794350692536682, 7261360.000892210751772 ], [ 529083.670178714208305, 7261370.0 ], [ 529080.075974022038281, 7261380.0 ], [ 529076.700046732323244, 7261390.0 ], [ 529073.299953267676756, 7261400.0 ], [ 529069.924025978078134, 7261410.0 ], [ 529066.329821285791695, 7261420.0 ], [ 529062.205649307463318, 7261430.0 ], [ 529057.794350692536682, 7261440.0 ], [ 529053.670178714208305, 7261450.0 ], [ 529050.075974021921866, 7261460.0 ], [ 529046.700938942958601, 7261470.000000000931323 ], [ 529043.311127444147132, 7261479.999107789248228 ], [ 529040.011174176470377, 7261489.987933613359928 ], [ 529036.777805175632238, 7261499.900785414502025 ], [ 529033.757326912600547, 7261509.453693735413253 ], [ 529031.551677605253644, 7261517.913190307095647 ], [ 529030.447983889840543, 7261524.243011592887342 ] ] } },
{ "type": "Feature", "properties": { "id": 2, "reference_id": 1, "dune_id": 1, "dune_name": "Big Mommy Dune", "acquisition_date": "2017-08-23", "length_m": 482.56316538249791 }, "geometry": { "type": "LineString", "coordinates": [ [ 528865.756988407694735, 7262225.870663220062852 ], [ 528872.08680969348643, 7262222.030460700392723 ], [ 528880.546306264819577, 7262217.324018450453877 ], [ 528890.099214585614391, 7262212.030460700392723 ], [ 528900.012066387105733, 7262205.870663220062852 ], [ 528910.000892210751772, 7262198.371456162072718 ], [ 528919.999107789364643, 7262189.541734144091606 ], [ 528929.988825823529623, 7262179.911959591321647 ], [ 528939.911959590972401, 7262169.9888258241117 ], [ 528949.541734144324437, 7262159.999107789248228 ], [ 528958.371456162189133, 7262150.0 ], [ 528965.871555430116132, 7262140.0 ], [ 528972.041634876397438, 7262130.0 ], [ 528977.4120588588994, 7262120.0 ], [ 528982.488726555602625, 7262110.0 ], [ 528987.498314846656285, 7262100.0 ], [ 528992.488726555602625, 7262090.0 ], [ 528997.412951069651172, 7262080.0 ], [ 529002.052809052867815, 7262070.0 ], [ 529005.959595839376561, 7262060.0 ], [ 529008.830614228500053, 7262050.0 ], [ 529011.180559947970323, 7262040.0 ], [ 529014.117270393413492, 7262030.0 ], [ 529018.318308604415506, 7262020.0 ], [ 529023.767608878435567, 7262010.0 ], [ 529030.088040409144014, 7262000.0 ], [ 529036.700938943075016, 7261990.0 ], [ 529043.299953267676756, 7261980.0 ], [ 529049.924025978078134, 7261970.0 ], [ 529056.329821285791695, 7261960.0 ], [ 529062.205649307463318, 7261950.0 ], [ 529067.793458481901325, 7261940.0 ], [ 529073.659004537737928, 7261930.0 ], [ 529079.988825823529623, 7261920.0 ], [ 529086.252955053234473, 7261910.0 ], [ 529091.758557628374547, 7261900.0 ], [ 529096.241780876764096, 7261890.0 ], [ 529099.901677625137381, 7261880.0 ], [ 529103.211020647897385, 7261870.000892210751772 ], [ 529106.241780876647681, 7261860.012066387571394 ], [ 529108.448322394862771, 7261850.099214585497975 ], [ 529109.552016110159457, 7261840.546306265518069 ], [ 529109.912851801607758, 7261832.086809693835676 ], [ 529109.988825823529623, 7261825.756988408043981 ] ] } },
{ "type": "Feature", "properties": { "id": 3, "reference_id": 1, "dune_id": 1, "dune_name": "Big Mommy Dune", "acquisition_date": "2017-08-23", "length_m": 92.894754169374593 }, "geometry": { "type": "LineString", "coordinates": [ [ 529179.552016110159457, 7261125.756988408043981 ], [ 529178.448322394862771, 7261132.086809693835676 ], [ 529176.242673087399453, 7261140.546306265518069 ], [ 529173.222194824367762, 7261150.099214586429298 ], [ 529169.988825823529623, 7261160.012066386640072 ], [ 529166.689764766488224, 7261170.0 ], [ 529163.310235233511776, 7261179.987933613359928 ], [ 529160.011174176586792, 7261189.900785414502025 ], [ 529156.777805175632238, 7261199.453693734481931 ], [ 529153.757326912716962, 7261207.913190307095647 ], [ 529151.551677605253644, 7261214.243011591956019 ] ] } },
{ "type": "Feature", "properties": { "id": 4, "reference_id": 3, "dune_id": 3, "dune_name": "Big Mommy Dune", "acquisition_date": "2017-08-23", "length_m": 207.09049896647747 }, "geometry": { "type": "LineString", "coordinates": [ [ 529158.910724874120206, 7260984.748279663734138 ], [ 529163.833858641446568, 7260982.407922235317528 ], [ 529170.858292123419233, 7260977.142938592471182 ], [ 529178.695108798099682, 7260969.230147896334529 ], [ 529185.937477882369421, 7260959.857211316004395 ], [ 529192.124980407999828, 7260949.982346525415778 ], [ 529197.782730410690419, 7260939.998661683872342 ], [ 529203.659004537737928, 7260930.0 ], [ 529210.0, 7260920.0 ], [ 529216.340103251626715, 7260910.0 ], [ 529222.206541518098675, 7260900.0 ], [ 529227.794350692536682, 7260890.0 ], [ 529233.670178714208305, 7260880.0 ], [ 529240.075974021921866, 7260870.0 ], [ 529246.700046732323244, 7260860.000892210751772 ], [ 529253.299061057041399, 7260850.012066386640072 ], [ 529259.911959590855986, 7260840.099214585497975 ], [ 529266.231498910929076, 7260830.546306265518069 ], [ 529271.670517219230533, 7260822.086809694766998 ], [ 529275.79468919755891, 7260815.756988408043981 ] ] } },
{ "type": "Feature", "properties": { "id": 5, "reference_id": 3, "dune_id": 3, "dune_name": "Big Mommy Dune", "acquisition_date": "2017-08-23", "length_m": 68.569591572718622 }, "geometry": { "type": "LineString", "coordinates": [ [ 529364.243011592305265, 7260705.756988408043981 ], [ 529357.914082517265342, 7260712.085917483083904 ], [ 529349.465760122518986, 7260720.534239877946675 ], [ 529340.0, 7260730.0 ], [ 529330.534239877713844, 7260739.465760122984648 ], [ 529322.085917482851073, 7260747.914082517847419 ], [ 529315.756988407694735, 7260754.243011591956019 ] ] } },
{ "type": "Feature", "properties": { "id": 6, "reference_id": 3, "dune_id": 3, "dune_name": "Big Mommy Dune", "acquisition_date": "2017-08-23", "length_m": 58.486023184610531 }, "geometry": { "type": "LineString", "coordinates": [ [ 529704.243011592305265, 7260620.0 ], [ 529697.91319030651357, 7260620.0 ], [ 529689.454585945932195, 7260620.0 ], [ 529679.912851801607758, 7260620.0 ], [ 529670.087148198508658, 7260620.0 ], [ 529660.545414054067805, 7260620.0 ], [ 529652.08680969348643, 7260620.0 ], [ 529645.756988407694735, 7260620.0 ] ] } },
{ "type": "Feature", "properties": { "id": 7, "reference_id": 3, "dune_id": 3, "dune_name": "Big Mommy Dune", "acquisition_date": "2017-08-23", "length_m": 168.48602318472695 }, "geometry": { "type": "LineString", "coordinates": [ [ 529755.756988407578319, 7260610.0 ], [ 529762.08680969348643, 7260610.0 ], [ 529770.546306264819577, 7260610.0 ], [ 529780.099214585614391, 7260610.0 ], [ 529790.012066387222148, 7260610.0 ], [ 529800.000892210751772, 7260610.0 ], [ 529810.0, 7260610.0 ], [ 529820.0, 7260610.0 ], [ 529830.0, 7260610.0 ], [ 529840.0, 7260610.0 ], [ 529850.0, 7260610.0 ], [ 529860.0, 7260610.0 ], [ 529870.0, 7260610.0 ], [ 529879.999107789248228, 7260610.0 ], [ 529889.987933612894267, 7260610.0 ], [ 529899.900785414502025, 7260610.0 ], [ 529909.453693735296838, 7260610.0 ], [ 529917.91319030651357, 7260610.0 ], [ 529924.243011592305265, 7260610.0 ] ] } },
{ "type": "Feature", "properties": { "id": 8, "reference_id": 5, "dune_id": 5, "dune_name": "The Star Dune", "acquisition_date": "2017-08-23", "length_m": 89.422516878432106 }, "geometry": { "type": "LineString", "coordinates": [ [ 534320.000892210751772, 7261395.756988408043981 ], [ 534320.011174176470377, 7261402.086809693835676 ], [ 534320.087148198392242, 7261410.546306265518069 ], [ 534320.447091679205187, 7261420.099214585497975 ], [ 534321.540503428666852, 7261430.012066386640072 ], [ 534323.670178714208305, 7261440.0 ], [ 534326.329821285791695, 7261449.987933613359928 ], [ 534328.459496571333148, 7261459.900785414502025 ], [ 534329.552908320794813, 7261469.453693736344576 ], [ 534329.912851801607758, 7261477.913190307095647 ], [ 534329.988825823529623, 7261484.243011591956019 ] ] } },
{ "type": "Feature", "properties": { "id": 9, "reference_id": 5, "dune_id": 5, "dune_name": "The Star Dune", "acquisition_date": "2017-08-23", "length_m": 130.69083883428334 }, "geometry": { "type": "LineString", "coordinates": [ [ 534185.756988407694735, 7261668.000338505022228 ], [ 534192.08680969348643, 7261664.690995482727885 ], [ 534200.546306264819577, 7261659.464867912232876 ], [ 534210.099214585614391, 7261653.211020648479462 ], [ 534220.012066387105733, 7261646.678590590134263 ], [ 534230.000892210751772, 7261639.999107789248228 ], [ 534240.0, 7261633.309343023225665 ], [ 534249.999107789364643, 7261626.690656976774335 ], [ 534259.987933612777852, 7261620.000892210751772 ], [ 534269.900785414385609, 7261613.321409409865737 ], [ 534279.453693735180423, 7261606.788979352451861 ], [ 534287.913190306629986, 7261600.535132088698447 ], [ 534294.243011592305265, 7261595.309004518203437 ] ] } },
{ "type": "Feature", "properties": { "id": 10, "reference_id": 5, "dune_id": 5, "dune_name": "The Star Dune", "acquisition_date": "2017-08-23", "length_m": 530.0727736855132 }, "geometry": { "type": "LineString", "coordinates": [ [ 533658.463633194915019, 7262041.078100949525833 ], [ 533662.294247423415072, 7262036.078100949525833 ], [ 533667.198395375045948, 7262028.683442020788789 ], [ 533672.441261534229852, 7262019.677239574491978 ], [ 533677.837924791732803, 7262009.944359513930976 ], [ 533683.665483836666681, 7261999.993520701304078 ], [ 533689.999553894624114, 7261989.999553894624114 ], [ 533696.32982128590811, 7261980.0 ], [ 533702.129675285541452, 7261970.0 ], [ 533707.423233035369776, 7261960.0 ], [ 533712.489618766237982, 7261950.0 ], [ 533717.49831484653987, 7261940.0 ], [ 533722.489618766237982, 7261930.0 ], [ 533727.423233035253361, 7261920.0 ], [ 533732.128783074906096, 7261910.0 ], [ 533736.31953932007309, 7261900.0 ], [ 533739.923133767442778, 7261890.0 ], [ 533743.299061057041399, 7261880.0 ], [ 533746.689764766488224, 7261870.0 ], [ 533750.000892210751772, 7261860.0 ], [ 533753.321409409982152, 7261850.0 ], [ 533756.78897935221903, 7261840.000000000931323 ], [ 533760.535132088349201, 7261830.000892210751772 ], [ 533765.309004517854191, 7261820.011174176819623 ], [ 533771.999661495094188, 7261810.087148198857903 ], [ 533780.535132088232785, 7261800.447983889840543 ], [ 533790.098322374979034, 7261791.551677605137229 ], [ 533800.012066387105733, 7261783.75821912381798 ], [ 533810.000892210635357, 7261776.788087141700089 ], [ 533820.0, 7261770.088040409609675 ], [ 533830.0, 7261763.681352891027927 ], [ 533840.0, 7261757.871216924861073 ], [ 533850.0, 7261752.57676696497947 ], [ 533860.0, 7261747.510381234809756 ], [ 533870.0, 7261742.501685153692961 ], [ 533880.0, 7261737.510381234809756 ], [ 533890.0, 7261732.576766965910792 ], [ 533900.0, 7261727.871216925792396 ], [ 533910.0, 7261723.681352891027927 ], [ 533920.0, 7261720.087148198857903 ], [ 533930.0, 7261716.776912964880466 ], [ 533940.0, 7261713.671070924960077 ], [ 533950.0, 7261711.10458592697978 ], [ 533960.0, 7261708.907480461522937 ], [ 533969.999107789364643, 7261706.416969484649599 ], [ 533979.987933612894267, 7261703.681352891027927 ], [ 533989.900785414502025, 7261701.541395640000701 ], [ 533999.453693735296838, 7261700.447091680020094 ], [ 534007.913190306629986, 7261700.087148198857903 ], [ 534014.243011592305265, 7261700.011174177750945 ] ] } },
{ "type": "Feature", "properties": { "id": 11, "reference_id": 8, "dune_id": 8, "dune_name": "Inverted Y Dune", "acquisition_date": "2017-08-23", "length_m": 86.421299995936977 }, "geometry": { "type": "LineString", "coordinates": [ [ 530110.0, 7261505.756988408043981 ], [ 530110.0, 7261512.086809692904353 ], [ 530109.999107789364643, 7261520.546306265518069 ], [ 530109.988825823529623, 7261530.099214585497975 ], [ 530109.912851801607758, 7261540.011620281264186 ], [ 530109.552908320911229, 7261549.99441291205585 ], [ 530108.459496571333148, 7261559.944359513930976 ], [ 530106.329821285791695, 7261569.6772395754233 ], [ 530103.670178714208305, 7261578.683442020788789 ], [ 530101.540503428783268, 7261586.078100949525833 ], [ 530100.447091679205187, 7261591.078100949525833 ] ] } },
{ "type": "Feature", "properties": { "id": 12, "reference_id": 8, "dune_id": 8, "dune_name": "Inverted Y Dune", "acquisition_date": "2017-08-23", "length_m": 156.45259756589806 }, "geometry": { "type": "LineString", "coordinates": [ [ 530224.243011592305265, 7261245.756988408043981 ], [ 530217.91319030651357, 7261252.086809693835676 ], [ 530209.454585945932195, 7261260.546306265518069 ], [ 530199.912851801607758, 7261270.099214585497975 ], [ 530190.086255987756886, 7261280.012066386640072 ], [ 530180.534239877597429, 7261290.000892210751772 ], [ 530171.998769284342416, 7261300.0 ], [ 530165.298722552019171, 7261310.000000000931323 ], [ 530160.45915806631092, 7261320.0 ], [ 530156.429035871522501, 7261329.999107789248228 ], [ 530152.228889871155843, 7261339.987933613359928 ], [ 530147.882391101680696, 7261349.900785414502025 ], [ 530144.118162604048848, 7261359.453693735413253 ], [ 530141.62765162717551, 7261367.913190307095647 ], [ 530140.458265855675563, 7261374.243011592887342 ] ] } },
{ "type": "Feature", "properties": { "id": 13, "reference_id": 9, "dune_id": 9, "dune_name": "Inverted Y Dune", "acquisition_date": "2017-08-23", "length_m": 64.133676662304225 }, "geometry": { "type": "LineString", "coordinates": [ [ 529680.458265855675563, 7262154.243011591956019 ], [ 529681.628543837927282, 7262147.913190307095647 ], [ 529684.128444569883868, 7262139.454585946165025 ], [ 529687.957472912967205, 7262129.912851802073419 ], [ 529692.576766964630224, 7262120.087148197926581 ], [ 529697.423233035369776, 7262110.545414054766297 ], [ 529702.042527087032795, 7262102.086809693835676 ], [ 529705.871555430116132, 7262095.756988408043981 ] ] } },
{ "type": "Feature", "properties": { "id": 14, "reference_id": 9, "dune_id": 9, "dune_name": "Inverted Y Dune", "acquisition_date": "2017-08-23", "length_m": 73.597535980187089 }, "geometry": { "type": "LineString", "coordinates": [ [ 529748.372348372940905, 7261995.756988408043981 ], [ 529745.881837395951152, 7262002.086809693835676 ], [ 529742.118501109071076, 7262010.546306264586747 ], [ 529737.783176516066305, 7262020.098322374746203 ], [ 529733.670178714208305, 7262030.0 ], [ 529730.087148198392242, 7262039.901677625253797 ], [ 529726.788087141467258, 7262049.453693736344576 ], [ 529723.758219123352319, 7262057.913190307095647 ], [ 529721.551677605137229, 7262064.243011592887342 ] ] } },
{ "type": "Feature", "properties": { "id": 15, "reference_id": 9, "dune_id": 9, "dune_name": "Inverted Y Dune", "acquisition_date": "2017-08-23", "length_m": 221.08110617280539 }, "geometry": { "type": "LineString", "coordinates": [ [ 529780.447983889840543, 7261914.243011592887342 ], [ 529781.551677605137229, 7261907.913190307095647 ], [ 529783.758219123352319, 7261899.453693736344576 ], [ 529786.788979352102615, 7261889.900785414502025 ], [ 529790.099214585614391, 7261879.987933613359928 ], [ 529793.768501089070924, 7261869.999107789248228 ], [ 529798.318308604415506, 7261860.0 ], [ 529804.118162604048848, 7261850.0 ], [ 529811.1917341244407, 7261840.000000000931323 ], [ 529818.918654637644067, 7261830.0 ], [ 529826.417861694935709, 7261820.0 ], [ 529833.681352890678681, 7261810.0 ], [ 529841.541395639418624, 7261800.0 ], [ 529850.447091679088771, 7261790.0 ], [ 529860.086255987756886, 7261780.000892210751772 ], [ 529869.999107789364643, 7261770.012066386640072 ], [ 529879.901677625020966, 7261760.099214585497975 ], [ 529889.453693735180423, 7261750.546306265518069 ], [ 529897.91319030651357, 7261742.086809693835676 ], [ 529904.243011592421681, 7261735.756988408043981 ] ] } },
{ "type": "Feature", "properties": { "id": 16, "reference_id": 9, "dune_id": 9, "dune_name": "Inverted Y Dune", "acquisition_date": "2017-08-23", "length_m": 71.178657093450767 }, "geometry": { "type": "LineString", "coordinates": [ [ 529994.243011592421681, 7261674.205310802906752 ], [ 529987.91319030651357, 7261678.329482780769467 ], [ 529979.454585945932195, 7261683.768501089885831 ], [ 529969.912851801607758, 7261690.087148198857903 ], [ 529960.087148198392242, 7261696.689764766953886 ], [ 529950.545414054067805, 7261703.211912859231234 ], [ 529942.08680969348643, 7261709.464867912232876 ], [ 529935.756988407694735, 7261714.690995482727885 ] ] } },
{ "type": "Feature", "properties": { "id": 17, "reference_id": 9, "dune_id": 9, "dune_name": "Inverted Y Dune", "acquisition_date": "2017-08-23", "length_m": 92.438933068042857 }, "geometry": { "type": "LineString", "coordinates": [ [ 530097.91319030651357, 7261598.910724874585867 ], [ 530094.243011592421681, 7261603.834750852547586 ], [ 530087.913190306629986, 7261610.868574090301991 ], [ 530079.453693735180423, 7261618.771082820370793 ], [ 530069.901677625137381, 7261626.297421364113688 ], [ 530060.0, 7261633.217499947175384 ], [ 530050.098322374979034, 7261639.901231519877911 ], [ 530040.546306264703162, 7261646.230606701225042 ], [ 530032.08680969348643, 7261651.670517219230533 ], [ 530025.756988407694735, 7261655.794689198024571 ] ] } },
{ "type": "Feature", "properties": { "id": 18, "reference_id": 6, "dune_id": 6, "dune_name": "The Star Dune", "acquisition_date": "2017-08-23", "length_m": 596.87546125639471 }, "geometry": { "type": "LineString", "coordinates": [ [ 533679.552908320911229, 7262345.756988408043981 ], [ 533678.458604360697791, 7262352.086809693835676 ], [ 533676.318647109437734, 7262360.546306265518069 ], [ 533673.583030515816063, 7262370.099214585497975 ], [ 533671.093411749578081, 7262380.012066386640072 ], [ 533668.905696039786562, 7262390.000892210751772 ], [ 533666.405795307829976, 7262400.0 ], [ 533663.594204692286439, 7262410.0 ], [ 533661.093411749578081, 7262420.0 ], [ 533658.895414073951542, 7262430.0 ], [ 533656.329821285791695, 7262440.0 ], [ 533653.234261211473495, 7262450.0 ], [ 533650.0, 7262460.0 ], [ 533646.765738788526505, 7262470.0 ], [ 533643.670178714208305, 7262480.0 ], [ 533641.104585926048458, 7262490.0 ], [ 533638.906588250538334, 7262500.0 ], [ 533636.405795307829976, 7262510.0 ], [ 533633.594204692286439, 7262520.0 ], [ 533631.094303960213438, 7262530.0 ], [ 533628.905696039786562, 7262540.0 ], [ 533626.405795307713561, 7262550.0 ], [ 533623.594204692170024, 7262560.0 ], [ 533621.094303960213438, 7262570.0 ], [ 533618.906588250421919, 7262580.0 ], [ 533616.416969484183937, 7262590.0 ], [ 533613.680460680043325, 7262600.000000000931323 ], [ 533611.530221462948248, 7262610.0 ], [ 533610.359943480696529, 7262620.0 ], [ 533609.640056519303471, 7262630.0 ], [ 533608.470670747803524, 7262640.0 ], [ 533606.330713496543467, 7262650.0 ], [ 533603.670178714208305, 7262660.0 ], [ 533601.540503428783268, 7262670.0 ], [ 533600.44619946856983, 7262680.0 ], [ 533600.075974022038281, 7262690.0 ], [ 533599.924025978078134, 7262700.0 ], [ 533599.553800531546585, 7262710.0 ], [ 533598.459496571216732, 7262720.0 ], [ 533596.328929075039923, 7262730.0 ], [ 533593.659004537737928, 7262740.0 ], [ 533591.45335523027461, 7262750.0 ], [ 533589.999107789248228, 7262760.0 ], [ 533588.535470593255013, 7262770.0 ], [ 533586.252955053234473, 7262780.0 ], [ 533583.212805069284514, 7262790.0 ], [ 533579.912851801607758, 7262800.0 ], [ 533576.328929075156339, 7262810.0 ], [ 533572.205649307463318, 7262820.0 ], [ 533567.794350692653097, 7262830.0 ], [ 533563.671070924843661, 7262840.0 ], [ 533560.087148198392242, 7262850.0 ], [ 533556.787194930715486, 7262860.0 ], [ 533553.747044946881942, 7262870.000000000931323 ], [ 533551.464529406744987, 7262879.999107789248228 ], [ 533550.000892210751772, 7262889.987933613359928 ], [ 533548.54664476972539, 7262899.900785414502025 ], [ 533546.340995462378487, 7262909.453693736344576 ], [ 533543.671070924960077, 7262917.913190307095647 ], [ 533541.540503428783268, 7262924.243011591956019 ] ] } },
{ "type": "Feature", "properties": { "id": 19, "reference_id": 6, "dune_id": 6, "dune_name": "The Star Dune", "acquisition_date": "2017-08-23", "length_m": 160.74037627025041 }, "geometry": { "type": "LineString", "coordinates": [ [ 533660.0, 7262115.756988408043981 ], [ 533660.0, 7262122.086809693835676 ], [ 533660.0, 7262130.546306265518069 ], [ 533660.0, 7262140.099214585497975 ], [ 533660.0, 7262150.012066386640072 ], [ 533660.000892210751772, 7262160.000892210751772 ], [ 533660.011174176470377, 7262170.0 ], [ 533660.087148198392242, 7262180.0 ], [ 533660.447091679088771, 7262190.0 ], [ 533661.541395639418624, 7262200.0 ], [ 533663.681352890678681, 7262210.0 ], [ 533666.416969484300353, 7262220.0 ], [ 533668.906588250538334, 7262229.999107789248228 ], [ 533671.093411749578081, 7262239.987933613359928 ], [ 533673.583030515816063, 7262249.900785414502025 ], [ 533676.318647109437734, 7262259.453693735413253 ], [ 533678.458604360697791, 7262267.913190307095647 ], [ 533679.552908320911229, 7262274.243011591956019 ] ] } },
{ "type": "Feature", "properties": { "id": 20, "reference_id": 4, "dune_id": 4, "dune_name": "The Star Dune", "acquisition_date": "2017-08-23", "length_m": 51.346874423411407 }, "geometry": { "type": "LineString", "coordinates": [ [ 533484.243011592421681, 7262008.448322394862771 ], [ 533477.914082517265342, 7262006.242673087865114 ], [ 533469.465760122402571, 7262003.223087035119534 ], [ 533460.0, 7262000.0 ], [ 533450.534239877597429, 7261996.776912964880466 ], [ 533442.085917482734658, 7261993.757326913997531 ], [ 533435.756988407694735, 7261991.551677605137229 ] ] } },
{ "type": "Feature", "properties": { "id": 21, "reference_id": 4, "dune_id": 4, "dune_name": "The Star Dune", "acquisition_date": "2017-08-23", "length_m": 173.59435447459865 }, "geometry": { "type": "LineString", "coordinates": [ [ 533025.756988407694735, 7261880.0111741758883 ], [ 533032.08680969348643, 7261880.087148198857903 ], [ 533040.546306264819577, 7261880.447091679088771 ], [ 533050.099214585614391, 7261881.541395640000701 ], [ 533060.012066387222148, 7261883.681352891027927 ], [ 533070.000892210751772, 7261886.416969484649599 ], [ 533080.0, 7261888.906588250771165 ], [ 533090.0, 7261891.094303959980607 ], [ 533100.0, 7261893.594204692170024 ], [ 533110.0, 7261896.405795307829976 ], [ 533120.0, 7261898.906588250771165 ], [ 533130.0, 7261901.104585926048458 ], [ 533140.0, 7261903.670178715139627 ], [ 533149.999107789364643, 7261906.765738788992167 ], [ 533159.987933612894267, 7261909.999107789248228 ], [ 533169.900785414502025, 7261913.223087035119534 ], [ 533179.453693735180423, 7261916.242673087865114 ], [ 533187.91319030651357, 7261918.448322394862771 ], [ 533194.243011592305265, 7261919.552016110159457 ] ] } },
{ "type": "Feature", "properties": { "id": 22, "reference_id": 2, "dune_id": 2, "dune_name": "Big Mommy Dune", "acquisition_date": "2017-08-23", "length_m": 383.25726882981502 }, "geometry": { "type": "LineString", "coordinates": [ [ 528754.243011592305265, 7260848.448322394862771 ], [ 528747.91319030651357, 7260846.241780877113342 ], [ 528739.453693735180423, 7260843.211912859231234 ], [ 528729.900785414502025, 7260839.912851801142097 ], [ 528719.987933612894267, 7260836.328929075971246 ], [ 528709.999107789248228, 7260832.205649306997657 ], [ 528700.0, 7260827.793458482250571 ], [ 528690.0, 7260823.659896749071777 ], [ 528680.0, 7260819.999107789248228 ], [ 528670.0, 7260816.328929075971246 ], [ 528660.0, 7260812.11939332075417 ], [ 528650.0, 7260807.346366802230477 ], [ 528640.0, 7260802.118501110002398 ], [ 528630.0, 7260796.318647108972073 ], [ 528620.0, 7260789.923133767209947 ], [ 528610.0, 7260783.299061057157815 ], [ 528600.0, 7260776.689764767885208 ], [ 528590.0, 7260770.0 ], [ 528580.0, 7260763.309343023225665 ], [ 528570.0, 7260756.690656976774335 ], [ 528560.0, 7260750.0 ], [ 528550.0, 7260743.309343023225665 ], [ 528540.0, 7260736.689764766953886 ], [ 528530.0, 7260729.989718034863472 ], [ 528520.0, 7260723.233369001187384 ], [ 528510.0, 7260716.329821286723018 ], [ 528500.0, 7260708.896306284703314 ], [ 528490.0, 7260701.103693716228008 ], [ 528480.0, 7260693.670178715139627 ], [ 528470.000892210751772, 7260686.766630999743938 ], [ 528460.012066387105733, 7260680.0111741758883 ], [ 528450.099214585614391, 7260673.322301620617509 ], [ 528440.546306264819577, 7260666.788979352451861 ], [ 528432.08680969348643, 7260660.535132088698447 ], [ 528425.756988407694735, 7260655.309004518203437 ] ] } },
{ "type": "Feature", "properties": { "id": 23, "reference_id": 2, "dune_id": 2, "dune_name": "Big Mommy Dune", "acquisition_date": "2017-08-23", "length_m": 156.67316567150138 }, "geometry": { "type": "LineString", "coordinates": [ [ 528785.756988407694735, 7260861.628543838858604 ], [ 528792.08680969348643, 7260864.128444570116699 ], [ 528800.546306264819577, 7260867.957472912967205 ], [ 528810.099214585614391, 7260872.576766965910792 ], [ 528820.012066387222148, 7260877.424125246703625 ], [ 528830.000892210751772, 7260882.053701263852417 ], [ 528840.0, 7260885.958703629672527 ], [ 528850.0, 7260888.818547842092812 ], [ 528860.0, 7260891.083129784092307 ], [ 528870.0, 7260893.593312481418252 ], [ 528880.0, 7260896.405795307829976 ], [ 528889.999107789248228, 7260898.905696040019393 ], [ 528899.987933612894267, 7260901.093411750160158 ], [ 528909.900785414502025, 7260903.583030516281724 ], [ 528919.453693735180423, 7260906.318647109903395 ], [ 528927.91319030651357, 7260908.458604361861944 ], [ 528934.243011592305265, 7260909.552908321842551 ] ] } },
{ "type": "Feature", "properties": { "id": 24, "reference_id": 7, "dune_id": 7, "dune_name": "Inverted Y Dune", "acquisition_date": "2017-08-23", "length_m": 235.85597645531118 }, "geometry": { "type": "LineString", "coordinates": [ [ 530435.756988407694735, 7261585.783515021204948 ], [ 530442.08680969348643, 7261581.583369020372629 ], [ 530450.546306264819577, 7261575.783515021204948 ], [ 530460.099214585614391, 7261568.360281986184418 ], [ 530470.011174176470377, 7261559.540841934271157 ], [ 530479.989718034281395, 7261549.911959590390325 ], [ 530489.911959590855986, 7261539.9888258241117 ], [ 530499.541734144324437, 7261529.999107789248228 ], [ 530508.37234837282449, 7261520.0 ], [ 530515.881837395951152, 7261510.0 ], [ 530522.118501109071076, 7261500.0 ], [ 530527.783176516182721, 7261490.0 ], [ 530533.669286503456533, 7261480.0 ], [ 530540.075974021921866, 7261470.000000000931323 ], [ 530546.700938943075016, 7261460.0 ], [ 530553.310235233511776, 7261450.000892210751772 ], [ 530559.999107789248228, 7261440.012066387571394 ], [ 530566.678590590134263, 7261430.099214585497975 ], [ 530573.211020647897385, 7261420.546306264586747 ], [ 530579.464867911767215, 7261412.086809693835676 ], [ 530584.690995482262224, 7261405.756988408043981 ] ] } }
]
}
