{
"type": "FeatureCollection",
"name": "crests_2017_02_2017-02-09",
"crs": { "type": "name", "properties": { "name": "urn:ogc:def:crs:EPSG::32733" } },
"features": [
{ "type": "Feature", "properties": { "id": 0, "reference_id": 4, "dune_id": 4, "dune_name": "The Star Dune", "acquisition_date": "2017-02-09", "length_m": 164.15670286591273 }, "geometry": { "type": "LineString", "coordinates": [ [ 533015.756988407694735, 7261864.117270393297076 ], [ 533022.08680969348643, 7261867.870324715040624 ], [ 533030.546306264819577, 7261872.129675285890698 ], [ 533040.099214585614391, 7261875.882729606702924 ], [ 533050.012066387105733, 7261878.373240583576262 ], [ 533060.000892210751772, 7261879.552908321842551 ], [ 533070.0, 7261879.999107789248228 ], [ 533080.0, 7261880.436809713020921 ], [ 533090.0, 7261881.550785394385457 ], [ 533100.0, 7261883.757326913066208 ], [ 533110.0, 7261886.776912964880466 ], [ 533120.0, 7261890.0 ], [ 533129.999107789364643, 7261893.223087035119534 ], [ 533139.987933612894267, 7261896.242673087865114 ], [ 533149.900785414502025, 7261898.448322394862771 ], [ 533159.453693735180423, 7261899.552016111090779 ], [ 533167.913190306629986, 7261899.912851801142097 ], [ 533174.243011592421681, 7261899.9888258241117 ] ] } },
{ "type": "Feature", "properties": { "id": 1, "reference_id": 4, "dune_id": 4, "dune_name": "The Star Dune", "acquisition_date": "2017-02-09", "length_m": 126.69517778093478 }, "geometry": { "type": "LineString", "coordinates": [ [ 533364.243011592421681, 7261959.999107789248228 ], [ 533357.913190306629986, 7261959.9888258241117 ], [ 533349.453693735180423, 7261959.912851801142097 ], [ 533339.900785414385609, 7261959.552016111090779 ], [ 533329.987933612894267, 7261958.448322394862771 ], [ 533319.999107789364643, 7261956.241780877113342 ], [ 533310.0, 7261953.211020648479462 ], [ 533300.0, 7261949.901677625253797 ], [ 533290.000892210751772, 7261946.242673087865114 ], [ 533280.012066387105733, 7261941.769731804728508 ], [ 533270.099214585614391, 7261936.340995462611318 ], [ 533260.546306264819577, 7261930.447983889840543 ], [ 533252.08680969348643, 7261925.297830341383815 ], [ 533245.756988407694735, 7261921.998769285157323 ] ] } },
{ "type": "Feature", "properties": { "id": 2, "reference_id": 4, "dune_id": 4, "dune_name": "The Star Dune", "acquisition_date": "2017-02-09", "length_m": 84.733464131310484 }, "geometry": { "type": "LineString", "coordinates": [ [ 533435.756988407694735, 7261980.459158066660166 ], [ 533442.086809693370014, 7261981.638825803995132 ], [ 533450.546306264703162, 7261984.20441859215498 ], [ 533460.099214585614391, 7261988.317416394129395 ], [ 533470.011174176470377, 7261993.670178715139627 ], [ 533479.988825823529623, 7261999.552908320911229 ], [ 533489.900785414502025, 7262004.702169658616185 ], [ 533499.453693735296838, 7262008.001230715774 ], [ 533507.91319030651357, 7262009.464867912232876 ], [ 533514.243011592305265, 7262009.901677625253797 ] ] } },
{ "type": "Feature", "properties": { "id": 3, "reference_id": 8, "dune_id": 8, "dune_name": "Inverted Y Dune", "acquisition_date": "2017-02-09", "length_m": 402.77330578239099 }, "geometry": { "type": "LineString", "coordinates": [ [ 530244.243011592421681, 7261232.086809693835676 ], [ 530237.91319030651357, 7261235.756988408043981 ], [ 530229.453693735180423, 7261242.086809693835676 ], [ 530219.900785414385609, 7261250.546306264586747 ], [ 530209.988825823646039, 7261260.099214585497975 ], [ 530200.01028196583502, 7261270.012066387571394 ], [ 530190.088040409144014, 7261280.000892210751772 ], [ 530180.45915806631092, 7261290.0 ], [ 530171.638825803645886, 7261300.0 ], [ 530164.20531080244109, 7261310.000000000931323 ], [ 530158.329482780885883, 7261320.0 ], [ 530153.768501089187339, 7261330.0 ], [ 530150.088040409144014, 7261340.0 ], [ 530146.701831153710373, 7261350.0 ], [ 530143.311127444263548, 7261360.0 ], [ 530140.01028196583502, 7261370.0 ], [ 530136.766630999278277, 7261380.0 ], [ 530133.670178714208305, 7261390.0 ], [ 530131.104585926048458, 7261400.0 ], [ 530128.907480461173691, 7261410.0 ], [ 530126.416969484183937, 7261420.0 ], [ 530123.680460680043325, 7261430.0 ], [ 530121.530221462948248, 7261440.0 ], [ 530120.359943480812944, 7261450.0 ], [ 530119.640056519303471, 7261460.0 ], [ 530118.470670747803524, 7261470.000000000931323 ], [ 530116.330713496543467, 7261480.0 ], [ 530113.670178714208305, 7261490.0 ], [ 530111.540503428666852, 7261500.0 ], [ 530110.447091679205187, 7261510.0 ], [ 530110.086255987756886, 7261520.0 ], [ 530110.0, 7261530.0 ], [ 530109.913744012243114, 7261539.999553894624114 ], [ 530109.552908320911229, 7261549.993520701304078 ], [ 530108.459496571333148, 7261559.944359513930976 ], [ 530106.329821285791695, 7261569.6772395754233 ], [ 530103.670178714208305, 7261578.683442020788789 ], [ 530101.540503428783268, 7261586.078100949525833 ], [ 530100.447091679205187, 7261591.078100949525833 ] ] } },
{ "type": "Feature", "properties": { "id": 4, "reference_id": 9, "dune_id": 9, "dune_name": "Inverted Y Dune", "acquisition_date": "2017-02-09", "length_m": 182.15316255881547 }, "geometry": { "type": "LineString", "coordinates": [ [ 529671.551677605253644, 7262174.243011591956019 ], [ 529673.758219123352319, 7262167.913190307095647 ], [ 529676.788087141467258, 7262159.453693735413253 ], [ 529680.088040409144014, 7262149.900785414502025 ], [ 529683.681352890678681, 7262139.987933613359928 ], [ 529687.870324714458548, 7262129.999107789248228 ], [ 529692.566484998911619, 7262120.0 ], [ 529697.434407211840153, 7262110.0 ], [ 529702.140849462011829, 7262100.0 ], [ 529706.405795307829976, 7262090.0 ], [ 529710.359943480696529, 7262080.0 ], [ 529714.763590463669971, 7262070.0 ], [ 529719.999107789248228, 7262060.0 ], [ 529725.225235359859653, 7262050.000892210751772 ], [ 529729.552016110159457, 7262040.012066386640072 ], [ 529733.135938836610876, 7262030.099214585497975 ], [ 529736.231498910929076, 7262020.546306265518069 ], [ 529738.447430184110999, 7262012.086809693835676 ], [ 529739.552016110159457, 7262005.756988408043981 ] ] } },
{ "type": "Feature", "properties": { "id": 5, "reference_id": 9, "dune_id": 9, "dune_name": "Inverted Y Dune", "acquisition_date": "2017-02-09", "length_m": 514.14872361355083 }, "geometry": { "type": "LineString", "coordinates": [ [ 530097.91319030651357, 7261598.834750852547586 ], [ 530094.243011592421681, 7261603.473915160633624 ], [ 530087.913190306629986, 7261609.764880374073982 ], [ 530079.453693735180423, 7261616.565433513373137 ], [ 530069.900785414502025, 7261623.277835311368108 ], [ 530059.987933612894267, 7261629.995305122807622 ], [ 530049.999107789364643, 7261636.689318661578 ], [ 530040.0, 7261643.299061058089137 ], [ 530030.0, 7261649.924025977961719 ], [ 530020.0, 7261656.329821285791695 ], [ 530010.0, 7261662.205649307928979 ], [ 530000.0, 7261667.794350693002343 ], [ 529990.0, 7261673.670178714208305 ], [ 529980.0, 7261680.075974022038281 ], [ 529970.0, 7261686.700938943773508 ], [ 529960.0, 7261693.311127444729209 ], [ 529950.0, 7261700.011174177750945 ], [ 529940.0, 7261706.777805175632238 ], [ 529930.0, 7261713.757326913066208 ], [ 529920.0, 7261721.551677605137229 ], [ 529910.0, 7261730.447983890771866 ], [ 529900.0, 7261740.087148198857903 ], [ 529890.0, 7261750.011174176819623 ], [ 529880.0, 7261760.000892210751772 ], [ 529870.000892210751772, 7261770.0 ], [ 529860.011174176470377, 7261780.0 ], [ 529850.087148198392242, 7261790.0 ], [ 529840.447091679205187, 7261800.0 ], [ 529831.541395639418624, 7261810.0 ], [ 529823.681352890678681, 7261820.0 ], [ 529816.417861694935709, 7261830.0 ], [ 529808.918654637644067, 7261840.000000000931323 ], [ 529801.192626335192472, 7261850.0 ], [ 529794.129336780519225, 7261860.0 ], [ 529788.404564592172392, 7261870.0 ], [ 529784.204418591805734, 7261880.0 ], [ 529781.552569815889001, 7261890.0 ], [ 529780.011174176586792, 7261900.0 ], [ 529778.536362804006785, 7261910.0 ], [ 529776.253847263869829, 7261919.999107790179551 ], [ 529773.22397924575489, 7261929.987933613359928 ], [ 529770.0, 7261939.900785414502025 ], [ 529766.776912964996882, 7261949.453693736344576 ], [ 529763.757326912600547, 7261957.913190307095647 ], [ 529761.551677605137229, 7261964.243011592887342 ] ] } },
{ "type": "Feature", "properties": { "id": 6, "reference_id": 3, "dune_id": 3, "dune_name": "Big Mommy Dune", "acquisition_date": "2017-02-09", "length_m": 358.2459757735449 }, "geometry": { "type": "LineString", "coordinates": [ [ 529374.243011592305265, 7260695.756988408043981 ], [ 529367.91319030651357, 7260702.086809693835676 ], [ 529359.453693735180423, 7260710.546306265518069 ], [ 529349.901677625253797, 7260720.099214585497975 ], [ 529339.999107789364643, 7260730.012066388502717 ], [ 529330.086255987756886, 7260740.000892210751772 ], [ 529320.447983889956959, 7260750.0 ], [ 529311.551677605253644, 7260760.0 ], [ 529303.757326912600547, 7260770.0 ], [ 529296.777805175632238, 7260780.000000000931323 ], [ 529290.011174176470377, 7260790.0 ], [ 529283.311127444263548, 7260800.0 ], [ 529276.700938943075016, 7260810.0 ], [ 529270.075974022038281, 7260820.0 ], [ 529263.670178714208305, 7260830.0 ], [ 529257.794350692653097, 7260840.0 ], [ 529252.20654151821509, 7260850.0 ], [ 529246.340103251626715, 7260860.0 ], [ 529240.0, 7260870.0 ], [ 529233.659896748373285, 7260880.0 ], [ 529227.79345848178491, 7260890.0 ], [ 529222.205649307463318, 7260900.0 ], [ 529216.329821285791695, 7260910.0 ], [ 529209.924918188713491, 7260920.0 ], [ 529203.311127444147132, 7260930.0 ], [ 529196.788087141467258, 7260939.999553894624114 ], [ 529190.535132088349201, 7260949.993520701304078 ], [ 529185.309004517854191, 7260959.944359514862299 ], [ 529181.999661495094188, 7260969.6772395754233 ], [ 529180.535132088349201, 7260978.683442020788789 ], [ 529180.098322374862619, 7260986.078100949525833 ], [ 529180.012066387222148, 7260991.078100949525833 ] ] } },
{ "type": "Feature", "properties": { "id": 7, "reference_id": 3, "dune_id": 3, "dune_name": "Big Mommy Dune", "acquisition_date": "2017-02-09", "length_m": 214.65994512182033 }, "geometry": { "type": "LineString", "coordinates": [ [ 529405.756988407694735, 7260679.552016109228134 ], [ 529412.08680969348643, 7260678.448322394862771 ], [ 529420.546306264819577, 7260676.242673087865114 ], [ 529430.099214585614391, 7260673.223087035119534 ], [ 529440.012066387222148, 7260669.999107789248228 ], [ 529450.000892210751772, 7260666.765738788992167 ], [ 529460.0, 7260663.670178714208305 ], [ 529470.0, 7260661.10458592697978 ], [ 529480.0, 7260658.906588250771165 ], [ 529490.0, 7260656.405795307829976 ], [ 529500.000000000116415, 7260653.594204692170024 ], [ 529510.0, 7260651.094303959980607 ], [ 529520.0, 7260648.906588250771165 ], [ 529530.0, 7260646.416077273897827 ], [ 529540.0, 7260643.670178715139627 ], [ 529550.0, 7260641.454247441142797 ], [ 529560.0, 7260640.0 ], [ 529569.999107789248228, 7260638.546644769608974 ], [ 529579.987933612894267, 7260636.340995462611318 ], [ 529589.900785414502025, 7260633.671070925891399 ], [ 529599.453693735180423, 7260631.540503429248929 ], [ 529607.91319030651357, 7260630.447091680020094 ], [ 529614.243011592421681, 7260630.087148198857903 ] ] } },
{ "type": "Feature", "properties": { "id": 8, "reference_id": 3, "dune_id": 3, "dune_name": "Big Mommy Dune", "acquisition_date": "2017-02-09", "length_m": 158.48602318472695 }, "geometry": { "type": "LineString", "coordinates": [ [ 529904.243011592421681, 7260610.0 ], [ 529897.91319030651357, 7260610.0 ], [ 529889.453693735180423, 7260610.0 ], [ 529879.900785414385609, 7260610.0 ], [ 529869.987933612894267, 7260610.0 ], [ 529859.999107789364643, 7260610.0 ], [ 529850.0, 7260610.0 ], [ 529840.0, 7260610.0 ], [ 529830.0, 7260610.0 ], [ 529820.0, 7260610.0 ], [ 529810.0, 7260610.0 ], [ 529800.0, 7260610.0 ], [ 529790.000892210751772, 7260610.0 ], [ 529780.012066387105733, 7260610.0 ], [ 529770.099214585614391, 7260610.0 ], [ 529760.546306264819577, 7260610.0 ], [ 529752.08680969348643, 7260610.0 ], [ 529745.756988407694735, 7260610.0 ] ] } },
{ "type": "Feature", "properties": { "id": 9, "reference_id": 3, "dune_id": 3, "dune_name": "Big Mommy Dune", "acquisition_date": "2017-02-09", "length_m": 69.449054173324498 }, "geometry": { "type": "LineString", "coordinates": [ [ 530164.243011592305265, 7260590.087148198857903 ], [ 530157.91319030651357, 7260590.447091680020094 ], [ 530149.453693735296838, 7260591.540503429248929 ], [ 530139.901677625137381, 7260593.670178714208305 ], [ 530130.0, 7260596.329821285791695 ], [ 530120.098322374862619, 7260598.459496571682394 ], [ 530110.546306264819577, 7260599.552908321842551 ], [ 530102.08680969348643, 7260599.912851802073419 ], [ 530095.756988407694735, 7260599.9888258241117 ] ] } },
{ "type": "Feature", "properties": { "id": 10, "reference_id": 1, "dune_id": 1, "dune_name": "Big Mommy Dune", "acquisition_date": "2017-02-09", "length_m": 670.82333716869164 }, "geometry": { "type": "LineString", "coordinates": [ [ 529020.0, 7261565.756988408043981 ], [ 529020.0, 7261572.086809693835676 ], [ 529020.0, 7261580.546306265518069 ], [ 529020.0, 7261590.099214585497975 ], [ 529020.0, 7261600.012066387571394 ], [ 529020.0, 7261610.000892210751772 ], [ 529020.0, 7261620.0 ], [ 529020.000892210751772, 7261630.0 ], [ 529020.011174176470377, 7261640.0 ], [ 529020.087148198508658, 7261650.0 ], [ 529020.447983889840543, 7261660.0 ], [ 529021.551677605137229, 7261670.0 ], [ 529023.758219123352319, 7261680.0 ], [ 529026.78897935221903, 7261690.0 ], [ 529030.099214585614391, 7261700.0 ], [ 529033.768501089187339, 7261710.0 ], [ 529038.318308604415506, 7261720.0 ], [ 529044.117270393297076, 7261730.000000000931323 ], [ 529051.180559947970323, 7261740.0 ], [ 529058.830614228500053, 7261750.0 ], [ 529065.959595839260146, 7261760.0 ], [ 529072.052809052867815, 7261770.0 ], [ 529077.4120588588994, 7261780.0 ], [ 529082.477552379015833, 7261790.0 ], [ 529087.411166648147628, 7261800.0 ], [ 529092.041634876397438, 7261810.0 ], [ 529095.871555430232547, 7261820.0 ], [ 529098.370563951553777, 7261830.0 ], [ 529099.530559967970476, 7261840.000000000931323 ], [ 529099.823919181828387, 7261850.0 ], [ 529099.529667757218704, 7261860.0 ], [ 529098.360281985718757, 7261870.0 ], [ 529095.79468919755891, 7261880.0 ], [ 529091.670517219230533, 7261890.0 ], [ 529086.231498910929076, 7261900.0 ], [ 529079.911959590855986, 7261910.0 ], [ 529073.298168846289627, 7261920.0 ], [ 529066.68976476660464, 7261930.0 ], [ 529060.0, 7261940.0 ], [ 529053.310235233511776, 7261950.0 ], [ 529046.701831153710373, 7261960.0 ], [ 529040.087148198392242, 7261970.0 ], [ 529033.757326912600547, 7261980.0 ], [ 529028.241442371741869, 7261990.0 ], [ 529023.747044946881942, 7262000.0 ], [ 529020.011174176470377, 7262010.0 ], [ 529016.340995462378487, 7262020.0 ], [ 529012.20654151821509, 7262030.0 ], [ 529007.794350692653097, 7262040.0 ], [ 529003.670178714208305, 7262050.0 ], [ 529000.075081811286509, 7262060.0 ], [ 528996.68976476660464, 7262070.0 ], [ 528993.223087035119534, 7262080.0 ], [ 528989.552908320794813, 7262090.0 ], [ 528985.149261337821372, 7262100.0 ], [ 528979.627990132197738, 7262110.0 ], [ 528973.582138305064291, 7262120.0 ], [ 528967.772894550347701, 7262129.999107789248228 ], [ 528962.129675285541452, 7262139.987933613359928 ], [ 528955.981051981565543, 7262149.900785414502025 ], [ 528948.918654637644067, 7262159.453693735413253 ], [ 528941.628543837810867, 7262167.913190307095647 ], [ 528935.668947998550721, 7262174.243011591956019 ] ] } },
{ "type": "Feature", "properties": { "id": 11, "reference_id": 1, "dune_id": 1, "dune_name": "Big Mommy Dune", "acquisition_date": "2017-02-09", "length_m": 446.16110378715751 }, "geometry": { "type": "LineString", "coordinates": [ [ 529179.912851801607758, 7261105.756988408043981 ], [ 529179.552016110159457, 7261112.086809692904353 ], [ 529178.448322394862771, 7261120.546306265518069 ], [ 529176.242673087399453, 7261130.099214586429298 ], [ 529173.222194824367762, 7261140.012066387571394 ], [ 529169.988825823529623, 7261150.000892210751772 ], [ 529166.689764766488224, 7261160.0 ], [ 529163.309343022760004, 7261170.0 ], [ 529159.999107789364643, 7261180.0 ], [ 529156.679482800886035, 7261190.0 ], [ 529153.223087035119534, 7261200.0 ], [ 529149.563190286629833, 7261210.000000000931323 ], [ 529145.226127570495009, 7261220.0 ], [ 529140.0, 7261230.0 ], [ 529134.773872429504991, 7261240.0 ], [ 529130.436809713370167, 7261250.0 ], [ 529126.776020754361525, 7261260.0 ], [ 529123.310235233511776, 7261270.0 ], [ 529119.924025978078134, 7261280.0 ], [ 529116.31953932007309, 7261290.0 ], [ 529112.128783074789681, 7261300.0 ], [ 529107.423233035369776, 7261310.000000000931323 ], [ 529102.490510976873338, 7261320.0 ], [ 529097.510381233878434, 7261330.0 ], [ 529092.587048930465244, 7261340.0 ], [ 529087.947190947132185, 7261350.0 ], [ 529084.040404160739854, 7261360.0 ], [ 529081.170277982251719, 7261370.0 ], [ 529078.829722017748281, 7261380.0 ], [ 529075.959595839260146, 7261390.0 ], [ 529072.053701263503172, 7261400.0 ], [ 529067.423233035369776, 7261410.0 ], [ 529062.565592788159847, 7261420.0 ], [ 529057.870324714574963, 7261430.0 ], [ 529053.681352890678681, 7261440.0 ], [ 529050.087148198508658, 7261450.0 ], [ 529046.776912964880466, 7261460.0 ], [ 529043.671070924843661, 7261470.000000000931323 ], [ 529041.104585926048458, 7261479.999107789248228 ], [ 529038.907480461057276, 7261489.987933613359928 ], [ 529036.416969484183937, 7261499.900785414502025 ], [ 529033.681352890795097, 7261509.453693735413253 ], [ 529031.54139563953504, 7261517.913190307095647 ], [ 529030.447091679205187, 7261524.243011592887342 ] ] } },
{ "type": "Feature", "properties": { "id": 12, "reference_id": 1, "dune_id": 1, "dune_name": "Big Mommy Dune", "acquisition_date": "2017-02-09", "length_m": 76.281445203293146 }, "geometry": { "type": "LineString", "coordinates": [ [ 529180.000892210751772, 7260998.921899050474167 ], [ 529180.011174176470377, 7261003.921899050474167 ], [ 529180.087148198392242, 7261011.316557979211211 ], [ 529180.447091679205187, 7261020.322760425508022 ], [ 529181.540503428783268, 7261030.054748276248574 ], [ 529183.670178714208305, 7261039.99441291205585 ], [ 529186.329821285791695, 7261049.901231519877911 ], [ 529188.459496571333148, 7261059.453693735413253 ], [ 529189.552908320911229, 7261067.913190307095647 ], [ 529189.912851801607758, 7261074.243011591956019 ] ] } },
{ "type": "Feature", "properties": { "id": 13, "reference_id": 5, "dune_id": 5, "dune_name": "The Star Dune", "acquisition_date": "2017-02-09", "length_m": 1137.4004069611826 }, "geometry": { "type": "LineString", "coordinates": [ [ 534334.789317857124843, 7261305.756988408043981 ], [ 534330.0, 7261312.086809693835676 ], [ 534325.210682142991573, 7261320.546306264586747 ], [ 534321.987595107872039, 7261330.099214585497975 ], [ 534320.534239877597429, 7261340.012066386640072 ], [ 534320.098322374862619, 7261350.000892210751772 ], [ 534320.012066387105733, 7261360.0 ], [ 534320.001784421387129, 7261370.0 ], [ 534320.011174176470377, 7261380.0 ], [ 534320.087148198392242, 7261390.0 ], [ 534320.447091679205187, 7261400.0 ], [ 534321.540503428666852, 7261410.0 ], [ 534323.670178714208305, 7261420.0 ], [ 534326.329821285791695, 7261430.0 ], [ 534328.459496571333148, 7261440.0 ], [ 534329.552908320794813, 7261450.0 ], [ 534329.912851801607758, 7261460.0 ], [ 534329.988825823529623, 7261470.000000000931323 ], [ 534329.999107789364643, 7261480.0 ], [ 534330.0, 7261490.0 ], [ 534329.999107789364643, 7261500.0 ], [ 534329.987933612894267, 7261510.0 ], [ 534329.900785414385609, 7261520.0 ], [ 534329.453693735296838, 7261530.0 ], [ 534327.91319030651357, 7261540.0 ], [ 534324.243011592421681, 7261550.0 ], [ 534317.91319030651357, 7261560.000000000931323 ], [ 534309.453693735296838, 7261569.999107789248228 ], [ 534299.900785414502025, 7261579.9888258241117 ], [ 534289.987933612894267, 7261589.912851802073419 ], [ 534279.999107789248228, 7261599.552016111090779 ], [ 534270.0, 7261608.448322394862771 ], [ 534260.0, 7261616.242673087865114 ], [ 534250.0, 7261623.222194824367762 ], [ 534240.0, 7261629.9888258241117 ], [ 534230.0, 7261636.688872556202114 ], [ 534220.0, 7261643.298168847337365 ], [ 534210.0, 7261649.911959591321647 ], [ 534200.0, 7261656.231498911976814 ], [ 534190.0, 7261661.671409429982305 ], [ 534180.0, 7261665.805863374844193 ], [ 534170.0, 7261668.448322394862771 ], [ 534160.0, 7261669.987933613359928 ], [ 534150.0, 7261671.452463019639254 ], [ 534140.0, 7261673.659004537388682 ], [ 534130.0, 7261676.328929075039923 ], [ 534120.0, 7261678.460388781502843 ], [ 534110.0, 7261679.564082497730851 ], [ 534100.0, 7261680.0 ], [ 534090.0, 7261680.435917503200471 ], [ 534080.0, 7261681.539611218497157 ], [ 534070.0, 7261683.670178715139627 ], [ 534060.0, 7261686.33071349747479 ], [ 534050.0, 7261688.470670748502016 ], [ 534040.0, 7261689.64005651883781 ], [ 534030.0, 7261690.35994348116219 ], [ 534020.0, 7261691.529329253360629 ], [ 534010.0, 7261693.670178714208305 ], [ 534000.0, 7261696.340995462611318 ], [ 533990.0, 7261698.546644769608974 ], [ 533980.0, 7261700.000892210751772 ], [ 533970.0, 7261701.464529407210648 ], [ 533960.0, 7261703.747044946998358 ], [ 533950.0, 7261706.787194930948317 ], [ 533940.0, 7261710.088040409609675 ], [ 533930.0, 7261713.681352891027927 ], [ 533920.0, 7261717.870324714109302 ], [ 533910.0, 7261722.566484998911619 ], [ 533900.0, 7261727.433515001088381 ], [ 533890.0, 7261732.13056749664247 ], [ 533880.0, 7261736.329821286723018 ], [ 533870.0, 7261740.0 ], [ 533860.0, 7261743.671070925891399 ], [ 533850.0, 7261747.881498891860247 ], [ 533840.0, 7261752.664807373657823 ], [ 533830.0, 7261757.96864709071815 ], [ 533820.0, 7261764.129336779937148 ], [ 533810.000892210635357, 7261771.628543837927282 ], [ 533800.012066387105733, 7261780.458265855908394 ], [ 533790.098322374979034, 7261790.088040409609675 ], [ 533780.535132088232785, 7261800.011174176819623 ], [ 533771.999661495094188, 7261810.000892210751772 ], [ 533765.309004517854191, 7261820.0 ], [ 533760.535132088349201, 7261830.0 ], [ 533756.78897935221903, 7261840.000000000931323 ], [ 533753.321409409982152, 7261850.0 ], [ 533750.000892210751772, 7261860.0 ], [ 533746.689764766488224, 7261870.0 ], [ 533743.299061057041399, 7261880.0 ], [ 533739.923133767442778, 7261890.0 ], [ 533736.31953932007309, 7261900.0 ], [ 533732.128783074906096, 7261910.0 ], [ 533727.423233035253361, 7261920.0 ], [ 533722.489618766237982, 7261930.0 ], [ 533717.49831484653987, 7261940.0 ], [ 533712.489618766237982, 7261950.0 ], [ 533707.423233035369776, 7261960.0 ], [ 533702.128783074789681, 7261970.0 ], [ 533696.31953932007309, 7261980.0 ], [ 533689.924025978078134, 7261989.999553894624114 ], [ 533683.311127444147132, 7261999.993520701304078 ], [ 533676.788087141467258, 7262009.944359513930976 ], [ 533670.535132088232785, 7262019.677239574491978 ], [ 533665.309004517854191, 7262028.683442020788789 ], [ 533661.999661495094188, 7262036.078100949525833 ], [ 533660.535132088232785, 7262041.078100949525833 ] ] } },
{ "type": "Feature", "properties": { "id": 14, "reference_id": 6, "dune_id": 6, "dune_name": "The Star Dune", "acquisition_date": "2017-02-09", "length_m": 895.7742085276127 }, "geometry": { "type": "LineString", "coordinates": [ [ 533658.470670747803524, 7262048.921899050474167 ], [ 533656.416969484300353, 7262053.921899050474167 ], [ 533654.117270393413492, 7262061.316557979211211 ], [ 533653.08100685745012, 7262070.322760425508022 ], [ 533654.117270393413492, 7262080.055640487000346 ], [ 533656.416969484300353, 7262090.006479298695922 ], [ 533658.470670747803524, 7262100.000446105375886 ], [ 533659.553800531546585, 7262110.0 ], [ 533659.912851801607758, 7262120.0 ], [ 533659.988825823529623, 7262130.0 ], [ 533659.999107789248228, 7262140.0 ], [ 533660.0, 7262150.0 ], [ 533660.0, 7262160.0 ], [ 533660.0, 7262170.0 ], [ 533660.000892210751772, 7262180.0 ], [ 533660.011174176470377, 7262190.0 ], [ 533660.087148198392242, 7262200.0 ], [ 533660.447091679088771, 7262210.0 ], [ 533661.540503428783268, 7262220.0 ], [ 533663.671070924960077, 7262230.0 ], [ 533666.340995462378487, 7262240.0 ], [ 533668.546644769841805, 7262250.0 ], [ 533670.0, 7262260.0 ], [ 533671.453355230391026, 7262270.0 ], [ 533673.659004537737928, 7262280.0 ], [ 533676.328929075156339, 7262290.0 ], [ 533678.459496571333148, 7262300.0 ], [ 533679.552908320911229, 7262310.0 ], [ 533679.911959590855986, 7262320.0 ], [ 533679.977651647059247, 7262330.0 ], [ 533679.911959590855986, 7262340.000000000931323 ], [ 533679.552908320911229, 7262350.0 ], [ 533678.458604360697791, 7262360.0 ], [ 533676.318647109437734, 7262370.0 ], [ 533673.583030515816063, 7262380.0 ], [ 533671.092519538942724, 7262390.0 ], [ 533668.895414073951542, 7262400.0 ], [ 533666.329821285791695, 7262410.0 ], [ 533663.234261211473495, 7262420.0 ], [ 533660.0, 7262430.0 ], [ 533656.765738788526505, 7262440.0 ], [ 533653.670178714208305, 7262450.0 ], [ 533651.103693715413101, 7262460.0 ], [ 533648.896306284703314, 7262470.0 ], [ 533646.329821285791695, 7262480.0 ], [ 533643.234261211473495, 7262490.0 ], [ 533640.000000000116415, 7262500.0 ], [ 533636.765738788526505, 7262510.0 ], [ 533633.670178714208305, 7262520.0 ], [ 533631.104585926048458, 7262530.0 ], [ 533628.906588250421919, 7262540.0 ], [ 533626.405795307713561, 7262550.0 ], [ 533623.594204692170024, 7262560.0 ], [ 533621.094303960213438, 7262570.0 ], [ 533618.906588250421919, 7262580.0 ], [ 533616.416969484183937, 7262590.0 ], [ 533613.680460680043325, 7262600.000000000931323 ], [ 533611.530221462948248, 7262610.0 ], [ 533610.359943480696529, 7262620.0 ], [ 533609.640056519303471, 7262630.0 ], [ 533608.470670747803524, 7262640.0 ], [ 533606.330713496543467, 7262650.0 ], [ 533603.670178714208305, 7262660.0 ], [ 533601.540503428783268, 7262670.0 ], [ 533600.447091679205187, 7262680.0 ], [ 533600.086255987756886, 7262690.0 ], [ 533600.0, 7262700.0 ], [ 533599.913744012243114, 7262710.0 ], [ 533599.552908320794813, 7262720.0 ], [ 533598.458604360581376, 7262730.0 ], [ 533596.318647109321319, 7262740.0 ], [ 533593.583030515816063, 7262750.0 ], [ 533591.092519538942724, 7262760.0 ], [ 533588.895414073951542, 7262770.0 ], [ 533586.329821285791695, 7262780.0 ], [ 533583.233369000838138, 7262790.0 ], [ 533579.989718034281395, 7262800.0 ], [ 533576.68976476660464, 7262810.0 ], [ 533573.309343022876419, 7262820.0 ], [ 533570.0, 7262830.0 ], [ 533566.690656977239996, 7262840.0 ], [ 533563.310235233511776, 7262850.0 ], [ 533560.011174176470377, 7262860.0 ], [ 533556.777805175632238, 7262870.000000000931323 ], [ 533553.757326912600547, 7262879.999107789248228 ], [ 533551.551677605253644, 7262889.987933613359928 ], [ 533550.447983889840543, 7262899.900785414502025 ], [ 533550.087148198392242, 7262909.453693736344576 ], [ 533550.011174176470377, 7262917.913190307095647 ], [ 533550.000892210751772, 7262924.243011591956019 ] ] } },
{ "type": "Feature", "properties": { "id": 15, "reference_id": 2, "dune_id": 2, "dune_name": "Big Mommy Dune", "acquisition_date": "2017-02-09", "length_m": 382.68630199646049 }, "geometry": { "type": "LineString", "coordinates": [ [ 528754.243011592305265, 7260848.448322394862771 ], [ 528747.91319030651357, 7260846.241780877113342 ], [ 528739.453693735180423, 7260843.211912859231234 ], [ 528729.900785414502025, 7260839.911959590390325 ], [ 528719.987933612894267, 7260836.318647108972073 ], [ 528709.999107789248228, 7260832.128783075138927 ], [ 528700.0, 7260827.423233035951853 ], [ 528690.0, 7260822.489618766121566 ], [ 528680.0, 7260817.499207057058811 ], [ 528670.0, 7260812.499900732189417 ], [ 528660.0, 7260807.499207057058811 ], [ 528650.0, 7260802.489618767052889 ], [ 528640.0, 7260797.423233035951853 ], [ 528630.0, 7260792.129675285890698 ], [ 528620.0, 7260786.329821286723018 ], [ 528610.0, 7260779.999107790179551 ], [ 528600.0, 7260773.659896748140454 ], [ 528590.0, 7260767.793458482250571 ], [ 528580.0, 7260762.205649306997657 ], [ 528570.0, 7260756.329821286723018 ], [ 528560.0, 7260749.924025977961719 ], [ 528550.0, 7260743.299061057157815 ], [ 528540.0, 7260736.688872556202114 ], [ 528530.0, 7260729.989718034863472 ], [ 528520.0, 7260723.233369001187384 ], [ 528510.0, 7260716.329821286723018 ], [ 528500.0, 7260708.896306284703314 ], [ 528490.0, 7260701.103693716228008 ], [ 528480.0, 7260693.670178715139627 ], [ 528470.000892210751772, 7260686.766630999743938 ], [ 528460.012066387105733, 7260680.0111741758883 ], [ 528450.099214585614391, 7260673.322301620617509 ], [ 528440.546306264819577, 7260666.788979352451861 ], [ 528432.08680969348643, 7260660.535132088698447 ], [ 528425.756988407694735, 7260655.309004518203437 ] ] } },
{ "type": "Feature", "properties": { "id": 16, "reference_id": 2, "dune_id": 2, "dune_name": "Big Mommy Dune", "acquisition_date": "2017-02-09", "length_m": 92.561527401606611 }, "geometry": { "type": "LineString", "coordinates": [ [ 528805.756988407694735, 7260871.541395640000701 ], [ 528812.08680969348643, 7260873.681352891027927 ], [ 528820.546306264819577, 7260876.416969484649599 ], [ 528830.099214585614391, 7260878.907480461522937 ], [ 528840.012066387105733, 7260881.104585926048458 ], [ 528850.0, 7260883.670178715139627 ], [ 528859.987933612894267, 7260886.765738788992167 ], [ 528869.900785414385609, 7260889.999107789248228 ], [ 528879.453693735296838, 7260893.223087035119534 ], [ 528887.91319030651357, 7260896.242673087865114 ], [ 528894.243011592421681, 7260898.448322394862771 ] ] } },
{ "type": "Feature", "properties": { "id": 17, "reference_id": 7, "dune_id": 7, "dune_name": "Inverted Y Dune", "acquisition_date": "2017-02-09", "length_m": 465.89753693624999 }, "geometry": { "type": "LineString", "coordinates": [ [ 530594.690995482262224, 7261385.756988408043981 ], [ 530589.464867911650799, 7261392.086809693835676 ], [ 530583.211020647897385, 7261400.546306264586747 ], [ 530576.678590590134263, 7261410.099214585497975 ], [ 530569.999107789248228, 7261420.012066387571394 ], [ 530563.309343022760004, 7261430.000892210751772 ], [ 530556.690656977239996, 7261440.0 ], [ 530550.0, 7261450.0 ], [ 530543.309343022760004, 7261460.0 ], [ 530536.689764766488224, 7261470.000000000931323 ], [ 530529.988825823529623, 7261480.0 ], [ 530523.222194824367762, 7261490.0 ], [ 530516.242673087399453, 7261500.0 ], [ 530508.448322394862771, 7261510.0 ], [ 530499.552016110159457, 7261520.0 ], [ 530489.912851801607758, 7261529.999107789248228 ], [ 530479.988825823529623, 7261539.9888258241117 ], [ 530469.999107789364643, 7261549.912851801142097 ], [ 530460.0, 7261559.552016111090779 ], [ 530450.0, 7261568.447430184110999 ], [ 530440.0, 7261576.231498911976814 ], [ 530430.000000000116415, 7261583.135046625509858 ], [ 530420.0, 7261589.541734145022929 ], [ 530410.0, 7261595.148369127884507 ], [ 530400.0, 7261599.627990132197738 ], [ 530390.0, 7261603.583030516281724 ], [ 530380.0, 7261607.783176516182721 ], [ 530370.0, 7261612.204757097177207 ], [ 530360.0, 7261616.329821286723018 ], [ 530350.0, 7261619.924025978893042 ], [ 530340.0, 7261623.299061057157815 ], [ 530330.0, 7261626.689764766022563 ], [ 530320.0, 7261630.0 ], [ 530310.0, 7261633.309343023225665 ], [ 530300.0, 7261636.689764766953886 ], [ 530290.0, 7261639.9888258241117 ], [ 530280.000892210751772, 7261643.222194824367762 ], [ 530270.012066387105733, 7261646.242673087865114 ], [ 530260.099214585614391, 7261648.448322394862771 ], [ 530250.546306264819577, 7261649.552016111090779 ], [ 530242.08680969348643, 7261649.912851802073419 ], [ 530235.756988407694735, 7261649.9888258241117 ] ] } }
]
}
