{
"type": "FeatureCollection",
"name": "crests_2023_11_2023-11-07",
"crs": { "type": "name", "properties": { "name": "urn:ogc:def:crs:EPSG::32733" } },
"features": [
{ "type": "Feature", "properties": { "id": 0, "reference_id": 3, "dune_id": 3, "dune_name": "Big Mommy Dune", "acquisition_date": "2023-11-07", "length_m": 607.91151055298451 }, "geometry": { "type": "LineString", "coordinates": [ [ 529176.788087141467258, 7260984.243011591956019 ], [ 529175.298722552019171, 7260977.913190307095647 ], [ 529175.669840209302492, 7260969.453693735413253 ], [ 529178.415738768642768, 7260959.900785414502025 ], [ 529182.751955572282895, 7260949.987933613359928 ], [ 529187.892673067515716, 7260939.999107789248228 ], [ 529193.671963135595433, 7260930.0 ], [ 529200.000892210751772, 7260920.0 ], [ 529206.3401032515103, 7260910.0 ], [ 529212.206541518098675, 7260900.0 ], [ 529217.794350692536682, 7260890.0 ], [ 529223.670178714208305, 7260880.0 ], [ 529230.075974021921866, 7260870.0 ], [ 529236.700938942958601, 7260860.0 ], [ 529243.310235233511776, 7260850.0 ], [ 529250.0, 7260840.0 ], [ 529256.690656977356412, 7260830.0 ], [ 529263.309343022760004, 7260820.0 ], [ 529270.0, 7260810.0 ], [ 529276.690656977239996, 7260800.0 ], [ 529283.310235233511776, 7260790.0 ], [ 529290.011174176470377, 7260780.000000000931323 ], [ 529296.777805175632238, 7260770.0 ], [ 529303.757326912600547, 7260760.0 ], [ 529311.551677605253644, 7260750.000892210751772 ], [ 529320.447983889956959, 7260740.011174176819623 ], [ 529330.087148198392242, 7260730.087148198857903 ], [ 529340.011174176470377, 7260720.447983889840543 ], [ 529350.000892210751772, 7260711.552569815889001 ], [ 529360.0, 7260703.769393300637603 ], [ 529370.0, 7260696.87523533962667 ], [ 529380.0, 7260690.535132088698447 ], [ 529390.0, 7260685.222748530097306 ], [ 529400.0, 7260681.551677605137229 ], [ 529410.0, 7260678.983454482629895 ], [ 529420.0, 7260676.340995462611318 ], [ 529430.0, 7260673.234261211007833 ], [ 529440.000000000116415, 7260669.989718034863472 ], [ 529450.0, 7260666.689764766953886 ], [ 529460.0, 7260663.310235233977437 ], [ 529470.0, 7260660.011174176819623 ], [ 529480.0, 7260656.776912964880466 ], [ 529490.0, 7260653.746152736246586 ], [ 529500.000000000116415, 7260651.464529406279325 ], [ 529510.0, 7260650.000892210751772 ], [ 529520.0, 7260648.545752558857203 ], [ 529530.0, 7260646.329821286723018 ], [ 529540.0, 7260643.583922727033496 ], [ 529550.0, 7260641.093411749228835 ], [ 529560.0, 7260638.906588250771165 ], [ 529569.999107789248228, 7260636.416969483718276 ], [ 529579.987933612894267, 7260633.681352891027927 ], [ 529589.900785414502025, 7260631.541395640000701 ], [ 529599.453693735180423, 7260630.447091680020094 ], [ 529607.91319030651357, 7260630.087148198857903 ], [ 529614.243011592421681, 7260630.011174176819623 ] ] } },
{ "type": "Feature", "properties": { "id": 1, "reference_id": 3, "dune_id": 3, "dune_name": "Big Mommy Dune", "acquisition_date": "2023-11-07", "length_m": 58.486023184610531 }, "geometry": { "type": "LineString", "coordinates": [ [ 529704.243011592305265, 7260620.0 ], [ 529697.91319030651357, 7260620.0 ], [ 529689.454585945932195, 7260620.0 ], [ 529679.912851801607758, 7260620.0 ], [ 529670.087148198508658, 7260620.0 ], [ 529660.545414054067805, 7260620.0 ], [ 529652.08680969348643, 7260620.0 ], [ 529645.756988407694735, 7260620.0 ] ] } },
{ "type": "Feature", "properties": { "id": 2, "reference_id": 3, "dune_id": 3, "dune_name": "Big Mommy Dune", "acquisition_date": "2023-11-07", "length_m": 512.60733464964528 }, "geometry": { "type": "LineString", "coordinates": [ [ 529735.756988407694735, 7260610.0 ], [ 529742.08680969348643, 7260610.0 ], [ 529750.546306264819577, 7260610.0 ], [ 529760.099214585614391, 7260610.0 ], [ 529770.012066387222148, 7260610.0 ], [ 529780.000892210751772, 7260610.0 ], [ 529790.0, 7260610.0 ], [ 529800.0, 7260610.0 ], [ 529810.0, 7260610.0 ], [ 529820.0, 7260610.0 ], [ 529830.0, 7260610.0 ], [ 529840.0, 7260610.0 ], [ 529850.0, 7260610.0 ], [ 529860.0, 7260610.0 ], [ 529870.0, 7260610.0 ], [ 529880.0, 7260610.0 ], [ 529890.0, 7260610.0 ], [ 529900.0, 7260610.0 ], [ 529910.0, 7260610.0 ], [ 529920.0, 7260610.0 ], [ 529930.0, 7260610.0 ], [ 529940.0, 7260610.0 ], [ 529950.0, 7260610.0 ], [ 529960.0, 7260610.0 ], [ 529970.0, 7260610.0 ], [ 529980.0, 7260610.0 ], [ 529990.0, 7260610.0 ], [ 530000.0, 7260609.999107789248228 ], [ 530010.0, 7260609.9888258241117 ], [ 530020.0, 7260609.912851802073419 ], [ 530030.0, 7260609.552908320911229 ], [ 530040.0, 7260608.459496571682394 ], [ 530050.0, 7260606.329821286723018 ], [ 530060.0, 7260603.669286504387856 ], [ 530070.0, 7260601.529329252429307 ], [ 530080.0, 7260600.35994348116219 ], [ 530090.0, 7260599.640056519769132 ], [ 530100.0, 7260598.469778537750244 ], [ 530110.0, 7260596.319539319723845 ], [ 530120.0, 7260593.583030516281724 ], [ 530130.0, 7260591.093411749228835 ], [ 530140.0, 7260588.906588250771165 ], [ 530150.0, 7260586.416969484649599 ], [ 530160.0, 7260583.680460680276155 ], [ 530170.000000000116415, 7260581.530221463181078 ], [ 530180.0, 7260580.35994348116219 ], [ 530190.0, 7260579.64005651883781 ], [ 530199.999107789248228, 7260578.470670748502016 ], [ 530209.987933612894267, 7260576.33071349747479 ], [ 530219.900785414385609, 7260573.670178715139627 ], [ 530229.453693735180423, 7260571.540503429248929 ], [ 530237.91319030651357, 7260570.447091680020094 ], [ 530244.243011592421681, 7260570.087148198857903 ] ] } },
{ "type": "Feature", "properties": { "id": 3, "reference_id": 4, "dune_id": 4, "dune_name": "The Star Dune", "acquisition_date": "2023-11-07", "length_m": 648.24192315845619 }, "geometry": { "type": "LineString", "coordinates": [ [ 533005.756988407694735, 7261870.447091680020094 ], [ 533012.08680969348643, 7261871.540503429248929 ], [ 533020.546306264819577, 7261873.671070925891399 ], [ 533030.099214585614391, 7261876.340995462611318 ], [ 533040.012066387105733, 7261878.546644769608974 ], [ 533050.000892210751772, 7261880.0 ], [ 533060.0, 7261881.454247441142797 ], [ 533070.0, 7261883.670178714208305 ], [ 533080.0, 7261886.416077273897827 ], [ 533090.0, 7261888.907480461522937 ], [ 533100.0, 7261891.10458592697978 ], [ 533110.0, 7261893.670178715139627 ], [ 533120.0, 7261896.766630999743938 ], [ 533130.0, 7261900.010281965136528 ], [ 533140.0, 7261903.310235233977437 ], [ 533150.0, 7261906.689764766953886 ], [ 533160.0, 7261909.989718034863472 ], [ 533170.0, 7261913.233369002118707 ], [ 533180.0, 7261916.329821286723018 ], [ 533190.0, 7261918.895414073951542 ], [ 533200.0, 7261921.093411749228835 ], [ 533210.0, 7261923.594204692170024 ], [ 533220.0, 7261926.405795307829976 ], [ 533230.0, 7261928.905696040019393 ], [ 533240.0, 7261931.093411750160158 ], [ 533250.0, 7261933.583922727033496 ], [ 533260.0, 7261936.329821286723018 ], [ 533270.0, 7261938.545752558857203 ], [ 533280.0, 7261940.0 ], [ 533290.0, 7261941.454247441142797 ], [ 533300.0, 7261943.670178713276982 ], [ 533310.0, 7261946.416077272966504 ], [ 533320.0, 7261948.907480461522937 ], [ 533330.0, 7261951.104585926048458 ], [ 533340.0, 7261953.670178715139627 ], [ 533350.0, 7261956.766630999743938 ], [ 533360.0, 7261960.010281966999173 ], [ 533370.0, 7261963.310235233977437 ], [ 533380.000000000116415, 7261966.690656977705657 ], [ 533390.0, 7261970.000892210751772 ], [ 533400.000000000116415, 7261973.320517199113965 ], [ 533410.0, 7261976.776912964880466 ], [ 533420.0, 7261980.435917502269149 ], [ 533430.0, 7261984.763590464368463 ], [ 533440.0, 7261989.924025978893042 ], [ 533450.0, 7261994.866184090264142 ], [ 533460.0, 7261998.469778537750244 ], [ 533470.0, 7262001.093411750160158 ], [ 533480.0, 7262004.019840229302645 ], [ 533490.0, 7262007.86943250335753 ], [ 533500.0, 7262012.216823484748602 ], [ 533510.0, 7262016.340995462611318 ], [ 533520.0, 7262020.000892210751772 ], [ 533530.0, 7262023.670178715139627 ], [ 533540.0, 7262027.86943250335753 ], [ 533550.0, 7262032.566484998911619 ], [ 533560.0, 7262037.433515001088381 ], [ 533570.0, 7262042.128783075138927 ], [ 533579.999107789364643, 7262046.307472933083773 ], [ 533589.987933612894267, 7262049.824811393395066 ], [ 533599.900785414385609, 7262052.76482117921114 ], [ 533609.453693735180423, 7262054.701277447864413 ], [ 533617.91319030651357, 7262054.778143681585789 ], [ 533624.243011592305265, 7262053.222194824367762 ] ] } },
{ "type": "Feature", "properties": { "id": 4, "reference_id": 1, "dune_id": 1, "dune_name": "Big Mommy Dune", "acquisition_date": "2023-11-07", "length_m": 348.88215751039155 }, "geometry": { "type": "LineString", "coordinates": [ [ 529094.243903803057037, 7261905.756988408043981 ], [ 529087.925256693735719, 7261912.086809693835676 ], [ 529079.552016110159457, 7261920.546306264586747 ], [ 529070.435025291983038, 7261930.099214585497975 ], [ 529061.976420931401663, 7261940.012066387571394 ], [ 529055.220964108710177, 7261950.000892210751772 ], [ 529050.088040409144014, 7261960.0 ], [ 529045.247583712683991, 7261970.0 ], [ 529039.640948729938827, 7261980.0 ], [ 529033.594204692286439, 7261990.0 ], [ 529027.860042748739943, 7262000.0 ], [ 529022.576766964746639, 7262010.0 ], [ 529017.521555410232395, 7262020.0 ], [ 529012.5879411411006, 7262030.0 ], [ 529007.946298736496828, 7262040.0 ], [ 529004.030122195021249, 7262050.0 ], [ 529001.093411749578081, 7262060.0 ], [ 528998.459496571333148, 7262070.0 ], [ 528994.789317857124843, 7262080.0 ], [ 528989.552016110159457, 7262090.0 ], [ 528983.571856339345686, 7262100.0 ], [ 528977.771110128960572, 7262110.0 ], [ 528972.117608898319304, 7262120.0 ], [ 528965.881837395951152, 7262130.0 ], [ 528958.37234837282449, 7262140.0 ], [ 528949.542626355076209, 7262149.999107789248228 ], [ 528939.924025978078134, 7262159.987933613359928 ], [ 528930.088040409144014, 7262169.900785414502025 ], [ 528920.545414054067805, 7262179.453693735413253 ], [ 528912.086809693602845, 7262187.913190307095647 ], [ 528905.756988407694735, 7262194.243011591956019 ] ] } },
{ "type": "Feature", "properties": { "id": 5, "reference_id": 1, "dune_id": 1, "dune_name": "Big Mommy Dune", "acquisition_date": "2023-11-07", "length_m": 726.03011823159659 }, "geometry": { "type": "LineString", "coordinates": [ [ 529109.541734144440852, 7261864.243011591956019 ], [ 529108.371456162189133, 7261857.913190307095647 ], [ 529105.871555430232547, 7261849.453693735413253 ], [ 529102.041634876397438, 7261839.900785414502025 ], [ 529097.411166648264043, 7261829.987933613359928 ], [ 529092.478444589767605, 7261819.999107789248228 ], [ 529087.42234082473442, 7261810.0 ], [ 529082.128783074789681, 7261800.0 ], [ 529076.319539319956675, 7261790.0 ], [ 529069.923133767326362, 7261780.0 ], [ 529063.299953267676756, 7261770.0 ], [ 529056.700938943075016, 7261760.0 ], [ 529050.087148198508658, 7261750.0 ], [ 529043.757326912600547, 7261740.0 ], [ 529038.242334582377225, 7261730.000000000931323 ], [ 529033.757326912600547, 7261720.0 ], [ 529030.087148198508658, 7261710.0 ], [ 529026.701831153710373, 7261700.0 ], [ 529023.311127444263548, 7261690.0 ], [ 529020.011174176470377, 7261680.0 ], [ 529016.777805175632238, 7261670.0 ], [ 529013.757326912600547, 7261660.0 ], [ 529011.551677605253644, 7261650.0 ], [ 529010.447983889840543, 7261640.0 ], [ 529010.087148198508658, 7261630.0 ], [ 529010.012066387222148, 7261620.0 ], [ 529010.012066387222148, 7261610.0 ], [ 529010.087148198508658, 7261600.0 ], [ 529010.447091679205187, 7261590.0 ], [ 529011.540503428783268, 7261580.0 ], [ 529013.671070924960077, 7261570.0 ], [ 529016.340995462378487, 7261560.000000000931323 ], [ 529018.54664476972539, 7261550.0 ], [ 529020.000892210751772, 7261540.0 ], [ 529021.464529406744987, 7261530.0 ], [ 529023.746152736246586, 7261520.0 ], [ 529026.776020754361525, 7261510.0 ], [ 529030.000892210751772, 7261500.0 ], [ 529033.234261211473495, 7261490.0 ], [ 529036.330713496543467, 7261480.0 ], [ 529038.906588250538334, 7261470.000000000931323 ], [ 529041.179667737334967, 7261460.0 ], [ 529044.031014405540191, 7261450.0 ], [ 529047.870324714458548, 7261440.0 ], [ 529052.216823483933695, 7261430.0 ], [ 529056.340995462262072, 7261420.0 ], [ 529060.0, 7261410.0 ], [ 529063.659896748373285, 7261400.0 ], [ 529067.793458481901325, 7261390.0 ], [ 529072.205649307463318, 7261380.0 ], [ 529076.329821285791695, 7261370.0 ], [ 529079.924025977961719, 7261360.0 ], [ 529083.299953267676756, 7261350.0 ], [ 529086.700046732323244, 7261340.0 ], [ 529090.076866232673638, 7261330.0 ], [ 529093.680460680043325, 7261320.0 ], [ 529097.871216925210319, 7261310.000000000931323 ], [ 529102.576766964630224, 7261300.0 ], [ 529107.509489023126662, 7261290.0 ], [ 529112.490510976873338, 7261280.0 ], [ 529117.423233035369776, 7261270.0 ], [ 529122.128783074906096, 7261260.0 ], [ 529126.31953932007309, 7261250.0 ], [ 529129.923133767326362, 7261240.0 ], [ 529133.299061056924984, 7261230.000892210751772 ], [ 529136.688872555852868, 7261220.012066387571394 ], [ 529139.988825823529623, 7261210.099214586429298 ], [ 529143.222194824367762, 7261200.546306265518069 ], [ 529146.242673087399453, 7261192.086809692904353 ], [ 529148.448322394862771, 7261185.756988408043981 ] ] } },
{ "type": "Feature", "properties": { "id": 6, "reference_id": 1, "dune_id": 1, "dune_name": "Big Mommy Dune", "acquisition_date": "2023-11-07", "length_m": 59.47038464727423 }, "geometry": { "type": "LineString", "coordinates": [ [ 529170.087148198392242, 7261124.243011591956019 ], [ 529170.447091679205187, 7261117.913190307095647 ], [ 529171.540503428783268, 7261109.454585946165025 ], [ 529173.670178714208305, 7261099.912851802073419 ], [ 529176.329821285791695, 7261090.087148198857903 ], [ 529178.459496571333148, 7261080.545414054766297 ], [ 529179.552908320794813, 7261072.086809693835676 ], [ 529179.912851801607758, 7261065.756988408043981 ] ] } },
{ "type": "Feature", "properties": { "id": 7, "reference_id": 9, "dune_id": 9, "dune_name": "Inverted Y Dune", "acquisition_date": "2023-11-07", "length_m": 825.69661740665492 }, "geometry": { "type": "LineString", "coordinates": [ [ 530084.243011592421681, 7261605.309004518203437 ], [ 530077.91319030651357, 7261610.535132088698447 ], [ 530069.453693735180423, 7261616.788979352451861 ], [ 530059.900785414502025, 7261623.321409409865737 ], [ 530049.987933612894267, 7261630.000892210751772 ], [ 530039.999107789364643, 7261636.689764766953886 ], [ 530030.0, 7261643.299061058089137 ], [ 530020.0, 7261649.924025977961719 ], [ 530010.0, 7261656.329821285791695 ], [ 530000.0, 7261662.205649307928979 ], [ 529990.0, 7261667.794350693002343 ], [ 529980.0, 7261673.670178714208305 ], [ 529970.0, 7261680.075974022038281 ], [ 529960.0, 7261686.700938943773508 ], [ 529950.0, 7261693.311127444729209 ], [ 529940.0, 7261700.011174177750945 ], [ 529930.0, 7261706.777805175632238 ], [ 529920.0, 7261713.757326913066208 ], [ 529910.0, 7261721.551677605137229 ], [ 529900.0, 7261730.447983890771866 ], [ 529890.0, 7261740.087148198857903 ], [ 529880.0, 7261750.011174176819623 ], [ 529870.000892210751772, 7261760.000892210751772 ], [ 529860.011174176470377, 7261770.0 ], [ 529850.087148198392242, 7261780.0 ], [ 529840.447983889840543, 7261790.0 ], [ 529831.551677605137229, 7261800.0 ], [ 529823.758219123352319, 7261810.0 ], [ 529816.788087141467258, 7261820.0 ], [ 529810.088040409144014, 7261830.0 ], [ 529803.682245101314038, 7261840.000000000931323 ], [ 529797.881498891045339, 7261850.0 ], [ 529792.653633197303861, 7261860.0 ], [ 529787.881498891045339, 7261870.0 ], [ 529783.681352890678681, 7261880.0 ], [ 529780.076866232673638, 7261890.0 ], [ 529776.700046732323244, 7261900.0 ], [ 529773.299953267676756, 7261910.0 ], [ 529769.924025978078134, 7261920.0 ], [ 529766.329821285791695, 7261930.0 ], [ 529762.205649307463318, 7261940.0 ], [ 529757.79345848178491, 7261950.0 ], [ 529753.659896748373285, 7261960.0 ], [ 529749.999107789364643, 7261970.0 ], [ 529746.329821285791695, 7261980.0 ], [ 529742.129675285541452, 7261990.0 ], [ 529737.423233035369776, 7262000.0 ], [ 529732.490510976873338, 7262010.0 ], [ 529727.509489023126662, 7262020.0 ], [ 529722.576766964630224, 7262030.0 ], [ 529717.870324714574963, 7262040.0 ], [ 529713.670178714208305, 7262050.0 ], [ 529710.0, 7262060.0 ], [ 529706.329821285791695, 7262070.0 ], [ 529702.130567496176809, 7262080.0 ], [ 529697.433515001088381, 7262090.0 ], [ 529692.566484998911619, 7262100.0 ], [ 529687.870324714458548, 7262110.0 ], [ 529683.680460680043325, 7262120.0 ], [ 529680.076866232673638, 7262130.0 ], [ 529676.700046732323244, 7262140.0 ], [ 529673.299953267676756, 7262150.0 ], [ 529669.924025978078134, 7262160.0 ], [ 529666.330713496543467, 7262170.0 ], [ 529662.215931273298338, 7262180.0 ], [ 529657.870324714574963, 7262190.0 ], [ 529654.031014405656606, 7262200.0 ], [ 529651.180559947970323, 7262210.0 ], [ 529648.917762426892295, 7262219.999107789248228 ], [ 529646.417861694935709, 7262229.987933613359928 ], [ 529643.681352890678681, 7262239.900785414502025 ], [ 529641.541395639418624, 7262249.453693735413253 ], [ 529640.447091679205187, 7262257.913190307095647 ], [ 529640.087148198392242, 7262264.243011591956019 ] ] } },
{ "type": "Feature", "properties": { "id": 8, "reference_id": 8, "dune_id": 8, "dune_name": "Inverted Y Dune", "acquisition_date": "2023-11-07", "length_m": 85.589524839083779 }, "geometry": { "type": "LineString", "coordinates": [ [ 530096.835089357104152, 7261581.078100949525833 ], [ 530098.164910642895848, 7261576.078100949525833 ], [ 530099.229748285608366, 7261568.683442020788789 ], [ 530099.776454160455614, 7261559.6772395754233 ], [ 530099.956425900803879, 7261549.944359513930976 ], [ 530099.994412911823019, 7261539.99441291205585 ], [ 530099.999553894624114, 7261530.011620282195508 ], [ 530100.0, 7261520.099214585497975 ], [ 530100.0, 7261510.546306264586747 ], [ 530100.0, 7261502.086809692904353 ], [ 530100.0, 7261495.756988408043981 ] ] } },
{ "type": "Feature", "properties": { "id": 9, "reference_id": 8, "dune_id": 8, "dune_name": "Inverted Y Dune", "acquisition_date": "2023-11-07", "length_m": 386.30210193827924 }, "geometry": { "type": "LineString", "coordinates": [ [ 530110.011174176470377, 7261464.243011591956019 ], [ 530110.087148198392242, 7261457.913190307095647 ], [ 530110.447091679205187, 7261449.453693736344576 ], [ 530111.541395639418624, 7261439.900785414502025 ], [ 530113.681352890678681, 7261429.987933613359928 ], [ 530116.416969484300353, 7261419.999107789248228 ], [ 530118.907480461173691, 7261410.0 ], [ 530121.104585926048458, 7261400.0 ], [ 530123.670178714208305, 7261390.0 ], [ 530126.766630999278277, 7261380.0 ], [ 530130.011174176470377, 7261370.0 ], [ 530133.321409409865737, 7261360.0 ], [ 530136.777805175632238, 7261350.0 ], [ 530140.447983889840543, 7261340.0 ], [ 530144.861912838649005, 7261330.0 ], [ 530150.459158066427335, 7261320.0 ], [ 530156.864953374140896, 7261310.000000000931323 ], [ 530163.768501089070924, 7261300.0 ], [ 530171.552569815889001, 7261290.000892210751772 ], [ 530180.447983889840543, 7261280.0111741758883 ], [ 530190.087148198392242, 7261270.088040409609675 ], [ 530200.011174176586792, 7261260.458265855908394 ], [ 530210.000892210751772, 7261251.628543837927282 ], [ 530220.0, 7261244.128444569185376 ], [ 530230.0, 7261237.958365123718977 ], [ 530240.0, 7261232.588833352550864 ], [ 530250.0, 7261227.522447621449828 ], [ 530260.0, 7261222.588833352550864 ], [ 530270.0, 7261217.958365123718977 ], [ 530280.0, 7261214.128444571048021 ], [ 530290.0, 7261211.628543838858604 ], [ 530299.999107789364643, 7261210.458265855908394 ], [ 530309.987933612894267, 7261210.088040409609675 ], [ 530319.900785414502025, 7261210.011174176819623 ], [ 530329.453693735180423, 7261210.000892211683095 ], [ 530337.91319030651357, 7261210.000000000931323 ], [ 530344.243011592305265, 7261210.000000000931323 ] ] } },
{ "type": "Feature", "properties": { "id": 10, "reference_id": 8, "dune_id": 8, "dune_name": "Inverted Y Dune", "acquisition_date": "2023-11-07", "length_m": 129.49967551778195 }, "geometry": { "type": "LineString", "coordinates": [ [ 530395.756988407694735, 7261210.000000000931323 ], [ 530402.08680969348643, 7261210.000000000931323 ], [ 530410.546306264819577, 7261210.000000000931323 ], [ 530420.099214585614391, 7261210.000000000931323 ], [ 530430.012066387222148, 7261210.000000000931323 ], [ 530440.000892210751772, 7261210.000000000931323 ], [ 530450.0, 7261209.999107790179551 ], [ 530460.0, 7261209.9888258241117 ], [ 530470.0, 7261209.912851802073419 ], [ 530479.999107789364643, 7261209.552908320911229 ], [ 530489.987933612894267, 7261208.459496571682394 ], [ 530499.900785414502025, 7261206.329821285791695 ], [ 530509.453693735296838, 7261203.670178713276982 ], [ 530517.91319030651357, 7261201.540503428317606 ], [ 530524.243011592421681, 7261200.447091678157449 ] ] } },
{ "type": "Feature", "properties": { "id": 11, "reference_id": 6, "dune_id": 6, "dune_name": "The Star Dune", "acquisition_date": "2023-11-07", "length_m": 206.25117100134878 }, "geometry": { "type": "LineString", "coordinates": [ [ 533659.999107789248228, 7262254.243011592887342 ], [ 533659.988825823529623, 7262247.913190307095647 ], [ 533659.912851801607758, 7262239.453693734481931 ], [ 533659.552908320911229, 7262229.900785414502025 ], [ 533658.459496571216732, 7262219.987933613359928 ], [ 533656.329821285791695, 7262209.999107789248228 ], [ 533653.670178714208305, 7262200.0 ], [ 533651.540503428783268, 7262190.0 ], [ 533650.447091679205187, 7262180.0 ], [ 533650.087148198508658, 7262170.0 ], [ 533650.011174176470377, 7262160.0 ], [ 533650.000892210751772, 7262150.0 ], [ 533650.0, 7262140.0 ], [ 533650.0, 7262130.0 ], [ 533650.0, 7262120.0 ], [ 533650.0, 7262110.0 ], [ 533650.0, 7262100.000446105375886 ], [ 533650.0, 7262090.006479298695922 ], [ 533650.0, 7262080.055640487000346 ], [ 533650.0, 7262070.322760425508022 ], [ 533650.0, 7262061.316557979211211 ], [ 533650.0, 7262053.921899050474167 ], [ 533650.0, 7262048.921899050474167 ] ] } },
{ "type": "Feature", "properties": { "id": 12, "reference_id": 6, "dune_id": 6, "dune_name": "The Star Dune", "acquisition_date": "2023-11-07", "length_m": 78.486023183912039 }, "geometry": { "type": "LineString", "coordinates": [ [ 533670.0, 7262285.756988408043981 ], [ 533670.0, 7262292.086809692904353 ], [ 533670.0, 7262300.546306265518069 ], [ 533670.0, 7262310.099214585497975 ], [ 533670.0, 7262320.0111741758883 ], [ 533670.0, 7262329.9888258241117 ], [ 533670.0, 7262339.900785415433347 ], [ 533670.0, 7262349.453693735413253 ], [ 533670.0, 7262357.913190307095647 ], [ 533670.0, 7262364.243011591956019 ] ] } },
{ "type": "Feature", "properties": { "id": 13, "reference_id": 6, "dune_id": 6, "dune_name": "The Star Dune", "acquisition_date": "2023-11-07", "length_m": 90.768432073160639 }, "geometry": { "type": "LineString", "coordinates": [ [ 533629.552908320794813, 7262495.756988408043981 ], [ 533628.458604360581376, 7262502.086809693835676 ], [ 533626.318647109321319, 7262510.546306265518069 ], [ 533623.583030515699647, 7262520.099214585497975 ], [ 533621.093411749578081, 7262530.012066386640072 ], [ 533618.906588250421919, 7262540.0 ], [ 533616.416969484183937, 7262549.987933613359928 ], [ 533613.681352890795097, 7262559.900785414502025 ], [ 533611.541395639418624, 7262569.453693736344576 ], [ 533610.447091679205187, 7262577.913190307095647 ], [ 533610.087148198392242, 7262584.243011591956019 ] ] } },
{ "type": "Feature", "properties": { "id": 14, "reference_id": 5, "dune_id": 5, "dune_name": "The Star Dune", "acquisition_date": "2023-11-07", "length_m": 916.54381429745217 }, "geometry": { "type": "LineString", "coordinates": [ [ 533650.535132088349201, 7262041.078100949525833 ], [ 533651.998769284458831, 7262036.078100949525833 ], [ 533655.298722552019171, 7262028.683442020788789 ], [ 533660.45915806631092, 7262019.677239574491978 ], [ 533666.428143660770729, 7262009.944359513930976 ], [ 533672.217715694569051, 7261999.993520701304078 ], [ 533677.794350692536682, 7261989.999553894624114 ], [ 533683.659896748373285, 7261980.0 ], [ 533689.999107789364643, 7261970.0 ], [ 533696.32982128590811, 7261960.0 ], [ 533702.129675285541452, 7261950.0 ], [ 533707.42234082473442, 7261940.0 ], [ 533712.479336800519377, 7261930.0 ], [ 533717.42234082473442, 7261920.0 ], [ 533722.128783074906096, 7261910.0 ], [ 533726.319539319956675, 7261900.0 ], [ 533729.923133767326362, 7261890.0 ], [ 533733.299061057041399, 7261880.0 ], [ 533736.689764766488224, 7261870.0 ], [ 533740.000892210751772, 7261860.0 ], [ 533743.321409409865737, 7261850.0 ], [ 533746.788979352102615, 7261840.000000000931323 ], [ 533750.535132088349201, 7261830.0 ], [ 533755.309004517854191, 7261820.0 ], [ 533761.999661495094188, 7261810.000892210751772 ], [ 533770.535132088349201, 7261800.011174176819623 ], [ 533780.098322374979034, 7261790.088040409609675 ], [ 533790.012066387105733, 7261780.458265855908394 ], [ 533800.000892210751772, 7261771.628543837927282 ], [ 533810.0, 7261764.128444569185376 ], [ 533820.0, 7261757.958365123718977 ], [ 533830.0, 7261752.58794114086777 ], [ 533840.0, 7261747.511273445561528 ], [ 533850.0, 7261742.501685153692961 ], [ 533860.0, 7261737.510381234809756 ], [ 533870.0, 7261732.576766965910792 ], [ 533880.0, 7261727.871216925792396 ], [ 533890.0, 7261723.680460680276155 ], [ 533900.0, 7261720.076866232790053 ], [ 533910.0, 7261716.700938943773508 ], [ 533920.0, 7261713.311127444729209 ], [ 533930.0, 7261710.010281965136528 ], [ 533940.0, 7261706.766630999743938 ], [ 533950.0, 7261703.670178714208305 ], [ 533960.0, 7261701.10458592697978 ], [ 533970.0, 7261698.907480461522937 ], [ 533980.0, 7261696.416077273897827 ], [ 533990.0, 7261693.670178714208305 ], [ 534000.0, 7261691.454247441142797 ], [ 534010.0, 7261690.0 ], [ 534020.0, 7261688.546644769608974 ], [ 534030.0, 7261686.340995462611318 ], [ 534040.0, 7261683.671070925891399 ], [ 534050.0, 7261681.540503429248929 ], [ 534060.0, 7261680.446199468336999 ], [ 534070.0, 7261680.075974022038281 ], [ 534080.0, 7261679.924025977961719 ], [ 534090.0, 7261679.553800531663001 ], [ 534100.0, 7261678.459496570751071 ], [ 534110.0, 7261676.329821285791695 ], [ 534120.0, 7261673.669286503456533 ], [ 534130.0, 7261671.528437041677535 ], [ 534140.0, 7261670.34876930527389 ], [ 534150.0, 7261669.552016110159457 ], [ 534160.0, 7261668.012404892593622 ], [ 534170.0, 7261664.702169658616185 ], [ 534180.0, 7261659.541734144091606 ], [ 534190.0, 7261653.582138305529952 ], [ 534200.0, 7261647.85825832746923 ], [ 534210.0, 7261642.564700577408075 ], [ 534220.0, 7261637.423233035951853 ], [ 534230.0, 7261632.053701263852417 ], [ 534240.0, 7261625.958703628741205 ], [ 534250.0, 7261618.818547841161489 ], [ 534260.0, 7261611.082237573340535 ], [ 534269.999107789248228, 7261603.582138305529952 ], [ 534279.987933612894267, 7261596.318647108972073 ], [ 534289.900785414502025, 7261588.458604360930622 ], [ 534299.453693735296838, 7261579.552908320911229 ], [ 534307.91319030651357, 7261569.913744012825191 ], [ 534314.243011592305265, 7261560.000892210751772 ], [ 534317.91319030651357, 7261550.098322374746203 ], [ 534319.453693735296838, 7261540.546306265518069 ], [ 534319.900785414385609, 7261532.086809693835676 ], [ 534319.987933612894267, 7261525.756988408043981 ] ] } },
{ "type": "Feature", "properties": { "id": 15, "reference_id": 5, "dune_id": 5, "dune_name": "The Star Dune", "acquisition_date": "2023-11-07", "length_m": 92.000302426575118 }, "geometry": { "type": "LineString", "coordinates": [ [ 534324.789317857124843, 7261305.756988408043981 ], [ 534320.0, 7261312.086809693835676 ], [ 534315.210682142991573, 7261320.546306264586747 ], [ 534311.987595107872039, 7261330.099214585497975 ], [ 534310.534239877597429, 7261340.012066386640072 ], [ 534310.098322374862619, 7261350.0 ], [ 534310.012066387222148, 7261359.987933613359928 ], [ 534310.000892210751772, 7261369.900785414502025 ], [ 534310.0, 7261379.453693735413253 ], [ 534310.0, 7261387.913190307095647 ], [ 534310.0, 7261394.243011592887342 ] ] } },
{ "type": "Feature", "properties": { "id": 16, "reference_id": 5, "dune_id": 5, "dune_name": "The Star Dune", "acquisition_date": "2023-11-07", "length_m": 58.486023183912039 }, "geometry": { "type": "LineString", "coordinates": [ [ 534320.0, 7261425.756988408043981 ], [ 534320.0, 7261432.086809692904353 ], [ 534320.0, 7261440.545414054766297 ], [ 534320.0, 7261450.087148198857903 ], [ 534320.0, 7261459.912851801142097 ], [ 534320.0, 7261469.454585947096348 ], [ 534320.0, 7261477.913190307095647 ], [ 534320.0, 7261484.243011591956019 ] ] } },
{ "type": "Feature", "properties": { "id": 17, "reference_id": 2, "dune_id": 2, "dune_name": "Big Mommy Dune", "acquisition_date": "2023-11-07", "length_m": 240.7567695991805 }, "geometry": { "type": "LineString", "coordinates": [ [ 528724.243011592421681, 7260838.371456163004041 ], [ 528717.91319030651357, 7260835.871555430814624 ], [ 528709.453693735180423, 7260832.041634876281023 ], [ 528699.900785414502025, 7260827.41205885913223 ], [ 528689.987933612894267, 7260822.488726555369794 ], [ 528679.999107789364643, 7260817.499207057058811 ], [ 528670.0, 7260812.499900732189417 ], [ 528660.0, 7260807.499207057058811 ], [ 528650.0, 7260802.488726556301117 ], [ 528640.0, 7260797.412951069884002 ], [ 528630.0, 7260792.052809052169323 ], [ 528620.000892210635357, 7260785.958703628741205 ], [ 528610.011174176470377, 7260778.818547842092812 ], [ 528600.087148198392242, 7260771.083129784092307 ], [ 528590.447091679088771, 7260763.593312481418252 ], [ 528581.540503428783268, 7260756.405795307829976 ], [ 528573.670178714208305, 7260748.905696040019393 ], [ 528566.330713496543467, 7260741.094303959980607 ], [ 528558.471562958438881, 7260733.595096902921796 ], [ 528549.652122906409204, 7260726.417861695401371 ], [ 528540.459158066427335, 7260719.004910625517368 ], [ 528532.075635517016053, 7260711.639718014746904 ], [ 528525.756096197059378, 7260705.669840209186077 ] ] } },
{ "type": "Feature", "properties": { "id": 18, "reference_id": 2, "dune_id": 2, "dune_name": "Big Mommy Dune", "acquisition_date": "2023-11-07", "length_m": 134.11680152626315 }, "geometry": { "type": "LineString", "coordinates": [ [ 528805.756988407694735, 7260871.551677605137229 ], [ 528812.08680969348643, 7260873.757326913066208 ], [ 528820.546306264819577, 7260876.776912964880466 ], [ 528830.099214585614391, 7260880.000892210751772 ], [ 528840.012066387105733, 7260883.234261211007833 ], [ 528850.000892210751772, 7260886.329821286723018 ], [ 528860.0, 7260888.896306284703314 ], [ 528870.0, 7260891.103693716228008 ], [ 528880.0, 7260893.670178714208305 ], [ 528889.999107789248228, 7260896.765738788992167 ], [ 528899.987933612894267, 7260899.999107789248228 ], [ 528909.900785414502025, 7260903.223087036050856 ], [ 528919.453693735180423, 7260906.242673087865114 ], [ 528927.91319030651357, 7260908.448322394862771 ], [ 528934.243011592305265, 7260909.552016111090779 ] ] } },
{ "type": "Feature", "properties": { "id": 19, "reference_id": 7, "dune_id": 7, "dune_name": "Inverted Y Dune", "acquisition_date": "2023-11-07", "length_m": 597.54949820570585 }, "geometry": { "type": "LineString", "coordinates": [ [ 530185.756988407694735, 7261650.0 ], [ 530192.086809693370014, 7261650.0 ], [ 530200.546306264819577, 7261650.0 ], [ 530210.099214585614391, 7261649.999107790179551 ], [ 530220.012066387105733, 7261649.9888258241117 ], [ 530230.000892210635357, 7261649.912851802073419 ], [ 530240.0, 7261649.552908321842551 ], [ 530250.0, 7261648.458604361861944 ], [ 530260.0, 7261646.318647109903395 ], [ 530270.0, 7261643.583030516281724 ], [ 530280.0, 7261641.092519538477063 ], [ 530290.0, 7261638.895414074882865 ], [ 530300.0, 7261636.328929075971246 ], [ 530310.0, 7261633.223087035119534 ], [ 530320.0, 7261629.913744011893868 ], [ 530330.0, 7261626.328929075039923 ], [ 530340.0, 7261622.205649307928979 ], [ 530350.0, 7261617.793458482250571 ], [ 530360.0, 7261613.659896748140454 ], [ 530370.0, 7261609.999107789248228 ], [ 530380.0, 7261606.328929075039923 ], [ 530390.0, 7261602.118501110002398 ], [ 530400.0, 7261597.335192626342177 ], [ 530410.0, 7261592.031352911144495 ], [ 530420.0, 7261585.870663220062852 ], [ 530430.000000000116415, 7261578.371456162072718 ], [ 530440.0, 7261569.541734145022929 ], [ 530450.0, 7261559.911959591321647 ], [ 530460.0, 7261549.9888258241117 ], [ 530469.999107789364643, 7261539.999107789248228 ], [ 530479.988825823529623, 7261530.0 ], [ 530489.912851801607758, 7261520.0 ], [ 530499.552016110159457, 7261510.0 ], [ 530508.448322394862771, 7261500.0 ], [ 530516.242673087399453, 7261490.0 ], [ 530523.223087035119534, 7261480.0 ], [ 530529.999107789364643, 7261470.000000000931323 ], [ 530536.765738788526505, 7261460.0 ], [ 530543.670178714208305, 7261450.0 ], [ 530551.104585926048458, 7261440.0 ], [ 530558.907480461057276, 7261430.0 ], [ 530566.416969484183937, 7261420.0 ], [ 530573.681352890678681, 7261410.0 ], [ 530581.54139563953504, 7261400.0 ], [ 530590.447091679205187, 7261390.0 ], [ 530600.087148198392242, 7261380.0 ], [ 530610.01028196583502, 7261370.000892210751772 ], [ 530619.988825823646039, 7261360.012066386640072 ], [ 530629.900785414502025, 7261350.099214585497975 ], [ 530639.453693735296838, 7261340.546306265518069 ], [ 530647.913190306629986, 7261332.086809693835676 ], [ 530654.243011592305265, 7261325.756988408043981 ] ] } }
]
}
