{
"type": "FeatureCollection",
"name": "crests_2024_01_2024-01-01",
"crs": { "type": "name", "properties": { "name": "urn:ogc:def:crs:EPSG::32733" } },
"features": [
{ "type": "Feature", "properties": { "id": 0, "reference_id": 1, "dune_id": 1, "dune_name": "Big Mommy Dune", "acquisition_date": "2024-01-01", "length_m": 1205.2145089909484 }, "geometry": { "type": "LineString", "coordinates": [ [ 528954.129336780519225, 7262154.243011591956019 ], [ 528957.968647089437582, 7262147.913190307095647 ], [ 528962.663915163138881, 7262139.453693735413253 ], [ 528967.871216925210319, 7262129.900785414502025 ], [ 528973.594204692286439, 7262119.987933613359928 ], [ 528979.629774553468451, 7262109.999107789248228 ], [ 528985.159543303656392, 7262100.0 ], [ 528989.628882342833094, 7262090.0 ], [ 528993.582138305064291, 7262080.0 ], [ 528997.772894550347701, 7262070.0 ], [ 529002.128783074789681, 7262060.0 ], [ 529005.969877805095166, 7262050.0 ], [ 529008.831506439251825, 7262040.0 ], [ 529011.180559947970323, 7262030.0 ], [ 529014.117270393413492, 7262020.0 ], [ 529018.318308604415506, 7262010.0 ], [ 529023.767608878435567, 7262000.0 ], [ 529030.088040409144014, 7261990.0 ], [ 529036.701831153710373, 7261980.0 ], [ 529043.31023523339536, 7261970.0 ], [ 529050.0, 7261960.0 ], [ 529056.68976476660464, 7261950.0 ], [ 529063.299061057041399, 7261940.0 ], [ 529069.923133767326362, 7261930.0 ], [ 529076.318647109321319, 7261920.0 ], [ 529082.117608898319304, 7261910.0 ], [ 529087.335192626225762, 7261900.0 ], [ 529092.031352910562418, 7261890.0 ], [ 529095.869771008845419, 7261880.0 ], [ 529098.360281985718757, 7261870.0 ], [ 529099.453693735413253, 7261860.0 ], [ 529099.453693735413253, 7261850.0 ], [ 529098.360281985718757, 7261840.000000000931323 ], [ 529095.870663219597191, 7261830.0 ], [ 529092.041634876397438, 7261820.0 ], [ 529087.411166648147628, 7261810.0 ], [ 529082.478444589767605, 7261800.0 ], [ 529077.42234082473442, 7261790.0 ], [ 529072.128783074789681, 7261780.0 ], [ 529066.31953932007309, 7261770.0 ], [ 529059.923133767442778, 7261760.0 ], [ 529053.299953267676756, 7261750.0 ], [ 529046.700938942958601, 7261740.0 ], [ 529040.088040409144014, 7261730.000000000931323 ], [ 529033.767608878435567, 7261720.0 ], [ 529028.318308604415506, 7261710.0 ], [ 529024.118162604048848, 7261700.0 ], [ 529021.1917341244407, 7261690.0 ], [ 529018.918654637644067, 7261680.0 ], [ 529016.417861694935709, 7261670.0 ], [ 529013.681352890795097, 7261660.0 ], [ 529011.541395639418624, 7261650.0 ], [ 529010.447983889840543, 7261640.0 ], [ 529010.098322374979034, 7261630.0 ], [ 529010.098322374979034, 7261620.0 ], [ 529010.447983889840543, 7261610.0 ], [ 529011.540503428783268, 7261600.0 ], [ 529013.670178714208305, 7261590.0 ], [ 529016.330713496543467, 7261580.0 ], [ 529018.470670747803524, 7261570.0 ], [ 529019.640056519303471, 7261560.000000000931323 ], [ 529020.359943480812944, 7261550.0 ], [ 529021.530221462948248, 7261540.0 ], [ 529023.680460680043325, 7261530.0 ], [ 529026.416969484183937, 7261520.0 ], [ 529028.906588250538334, 7261510.0 ], [ 529031.094303960213438, 7261500.0 ], [ 529033.594204692286439, 7261490.0 ], [ 529036.406687518465333, 7261480.0 ], [ 529038.916870216256939, 7261470.000000000931323 ], [ 529041.18145215860568, 7261460.0 ], [ 529044.041296371375211, 7261450.0 ], [ 529047.946298736496828, 7261440.0 ], [ 529052.576766964630224, 7261430.0 ], [ 529057.434407211840153, 7261420.0 ], [ 529062.129675285541452, 7261410.0 ], [ 529066.31953932007309, 7261400.0 ], [ 529069.923133767326362, 7261390.0 ], [ 529073.299953267676756, 7261380.0 ], [ 529076.700046732323244, 7261370.0 ], [ 529080.076866232557222, 7261360.0 ], [ 529083.680460680043325, 7261350.0 ], [ 529087.870324714574963, 7261340.0 ], [ 529092.566484998911619, 7261330.0 ], [ 529097.433515001204796, 7261320.0 ], [ 529102.130567496176809, 7261310.000000000931323 ], [ 529106.329821285791695, 7261300.0 ], [ 529110.0, 7261290.0 ], [ 529113.670178714208305, 7261280.0 ], [ 529117.869432503939606, 7261270.0 ], [ 529122.566484998911619, 7261260.0 ], [ 529127.433515001204796, 7261250.0 ], [ 529132.129675285425037, 7261240.0 ], [ 529136.319539319956675, 7261230.0 ], [ 529139.923133767326362, 7261220.0 ], [ 529143.299061056924984, 7261210.000000000931323 ], [ 529146.689764766488224, 7261200.0 ], [ 529150.0, 7261190.0 ], [ 529153.309343022760004, 7261180.0 ], [ 529156.690656977239996, 7261170.0 ], [ 529160.0, 7261160.0 ], [ 529163.309343022760004, 7261150.0 ], [ 529166.689764766488224, 7261140.0 ], [ 529169.988825823529623, 7261130.0 ], [ 529173.222194824367762, 7261120.000000000931323 ], [ 529176.242673087399453, 7261110.0 ], [ 529178.448322394862771, 7261100.0 ], [ 529179.552016110159457, 7261090.0 ], [ 529179.912851801607758, 7261080.000892210751772 ], [ 529179.988825823529623, 7261070.012066387571394 ], [ 529179.999107789364643, 7261060.099214585497975 ], [ 529180.0, 7261050.546306265518069 ], [ 529180.0, 7261042.086809693835676 ], [ 529180.0, 7261035.756988408043981 ] ] } },
{ "type": "Feature", "properties": { "id": 1, "reference_id": 8, "dune_id": 8, "dune_name": "Inverted Y Dune", "acquisition_date": "2024-01-01", "length_m": 406.9368918340349 }, "geometry": { "type": "LineString", "coordinates": [ [ 530244.243011592421681, 7261232.075635517016053 ], [ 530237.91319030651357, 7261235.669840209186077 ], [ 530229.453693735180423, 7261241.639718014746904 ], [ 530219.901677625137381, 7261249.00580283626914 ], [ 530209.999107789364643, 7261256.429035872220993 ], [ 530200.086255987756886, 7261263.682245101779699 ], [ 530190.447983889840543, 7261271.541395640000701 ], [ 530181.552569815889001, 7261280.447091680020094 ], [ 530173.768501089187339, 7261290.087148198857903 ], [ 530166.864953374140896, 7261300.011174176819623 ], [ 530160.458265855675563, 7261310.000892210751772 ], [ 530154.851630872813985, 7261320.0 ], [ 530150.372009867918678, 7261330.0 ], [ 530146.416969484300353, 7261340.0 ], [ 530142.216823483933695, 7261350.0 ], [ 530137.795242903288454, 7261360.0 ], [ 530133.671070924960077, 7261370.0 ], [ 530130.086255987756886, 7261380.0 ], [ 530126.776912964996882, 7261390.0 ], [ 530123.671070924960077, 7261400.0 ], [ 530121.104585926048458, 7261410.0 ], [ 530118.907480461173691, 7261420.0 ], [ 530116.416969484300353, 7261430.0 ], [ 530113.681352890678681, 7261440.0 ], [ 530111.540503428666852, 7261450.0 ], [ 530110.43591750273481, 7261460.0 ], [ 530110.0, 7261470.000000000931323 ], [ 530109.564082497381605, 7261480.0 ], [ 530108.460388781968504, 7261490.0 ], [ 530106.329821285791695, 7261500.0 ], [ 530103.670178714208305, 7261510.0 ], [ 530101.540503428783268, 7261520.0 ], [ 530100.447091679205187, 7261530.0 ], [ 530100.086702093132772, 7261539.999553894624114 ], [ 530100.005587088293396, 7261549.993520701304078 ], [ 530099.957318111439236, 7261559.944359513930976 ], [ 530099.776454160455614, 7261569.6772395754233 ], [ 530099.229748285608366, 7261578.683442020788789 ], [ 530098.164910642895848, 7261586.078100949525833 ], [ 530096.835089357104152, 7261591.078100949525833 ] ] } },
{ "type": "Feature", "properties": { "id": 2, "reference_id": 8, "dune_id": 8, "dune_name": "Inverted Y Dune", "acquisition_date": "2024-01-01", "length_m": 167.56071821893215 }, "geometry": { "type": "LineString", "coordinates": [ [ 530554.243011592305265, 7261174.205310802906752 ], [ 530547.91319030651357, 7261178.328590570017695 ], [ 530539.453693735296838, 7261183.757326913066208 ], [ 530529.900785414385609, 7261190.0 ], [ 530519.987933612894267, 7261196.242673086933792 ], [ 530509.999107789248228, 7261201.671409429982305 ], [ 530500.0, 7261205.794689197093248 ], [ 530490.0, 7261208.36117419693619 ], [ 530480.0, 7261209.540841934271157 ], [ 530470.0, 7261209.911959591321647 ], [ 530460.0, 7261209.9888258241117 ], [ 530450.0, 7261209.999107790179551 ], [ 530440.000892210751772, 7261210.000000000931323 ], [ 530430.012066387222148, 7261210.000000000931323 ], [ 530420.099214585614391, 7261210.000000000931323 ], [ 530410.546306264819577, 7261210.000000000931323 ], [ 530402.08680969348643, 7261210.000000000931323 ], [ 530395.756988407694735, 7261210.000000000931323 ] ] } },
{ "type": "Feature", "properties": { "id": 3, "reference_id": 3, "dune_id": 3, "dune_name": "Big Mommy Dune", "acquisition_date": "2024-01-01", "length_m": 335.87464874348041 }, "geometry": { "type": "LineString", "coordinates": [ [ 529374.243011592305265, 7260695.756988408043981 ], [ 529367.91319030651357, 7260702.086809693835676 ], [ 529359.453693735180423, 7260710.546306265518069 ], [ 529349.900785414502025, 7260720.099214585497975 ], [ 529339.988825823529623, 7260730.012066388502717 ], [ 529330.01028196583502, 7260740.000892210751772 ], [ 529320.087148198508658, 7260750.0 ], [ 529310.447983889956959, 7260760.0 ], [ 529301.551677605253644, 7260770.0 ], [ 529293.757326912600547, 7260780.000000000931323 ], [ 529286.777805175632238, 7260790.0 ], [ 529280.011174176470377, 7260800.0 ], [ 529273.310235233511776, 7260810.0 ], [ 529266.690656977239996, 7260820.0 ], [ 529260.0, 7260830.0 ], [ 529253.309343022876419, 7260840.0 ], [ 529246.690656977239996, 7260850.0 ], [ 529240.0, 7260860.0 ], [ 529233.31023523339536, 7260870.0 ], [ 529226.700938943075016, 7260880.0 ], [ 529220.076866232557222, 7260890.0 ], [ 529213.680460680043325, 7260900.0 ], [ 529207.870324714574963, 7260910.0 ], [ 529202.566484998795204, 7260919.999107789248228 ], [ 529197.434407211840153, 7260929.987933613359928 ], [ 529192.141741672647186, 7260939.900785414502025 ], [ 529186.417861694935709, 7260949.453693735413253 ], [ 529180.458265855675563, 7260957.913190307095647 ], [ 529175.298722552019171, 7260964.243011592887342 ] ] } },
{ "type": "Feature", "properties": { "id": 4, "reference_id": 3, "dune_id": 3, "dune_name": "Big Mommy Dune", "acquisition_date": "2024-01-01", "length_m": 233.02463699555065 }, "geometry": { "type": "LineString", "coordinates": [ [ 529704.243011592305265, 7260620.0 ], [ 529697.91319030651357, 7260620.0 ], [ 529689.453693735296838, 7260620.0 ], [ 529679.900785414502025, 7260620.000892210751772 ], [ 529669.987933612894267, 7260620.011174176819623 ], [ 529659.999107789364643, 7260620.087148198857903 ], [ 529650.0, 7260620.447091679088771 ], [ 529640.0, 7260621.540503429248929 ], [ 529630.0, 7260623.671070924960077 ], [ 529620.0, 7260626.340995462611318 ], [ 529610.0, 7260628.546644769608974 ], [ 529600.0, 7260630.0 ], [ 529590.0, 7260631.454247441142797 ], [ 529580.0, 7260633.670178715139627 ], [ 529570.0, 7260636.416077274829149 ], [ 529560.0, 7260638.906588250771165 ], [ 529550.0, 7260641.094303959980607 ], [ 529540.0, 7260643.594204693101346 ], [ 529530.0, 7260646.405795307829976 ], [ 529520.000892210751772, 7260648.905696040019393 ], [ 529510.012066387105733, 7260651.093411749228835 ], [ 529500.099214585614391, 7260653.583030516281724 ], [ 529490.546306264819577, 7260656.318647109903395 ], [ 529482.08680969348643, 7260658.458604361861944 ], [ 529475.756988407694735, 7260659.552908320911229 ] ] } },
{ "type": "Feature", "properties": { "id": 5, "reference_id": 3, "dune_id": 3, "dune_name": "Big Mommy Dune", "acquisition_date": "2024-01-01", "length_m": 158.48602318472695 }, "geometry": { "type": "LineString", "coordinates": [ [ 529755.756988407578319, 7260610.0 ], [ 529762.08680969348643, 7260610.0 ], [ 529770.546306264819577, 7260610.0 ], [ 529780.099214585614391, 7260610.0 ], [ 529790.012066387222148, 7260610.0 ], [ 529800.000892210751772, 7260610.0 ], [ 529810.0, 7260610.0 ], [ 529820.0, 7260610.0 ], [ 529830.0, 7260610.0 ], [ 529840.0, 7260610.0 ], [ 529850.0, 7260610.0 ], [ 529860.0, 7260610.0 ], [ 529869.999107789364643, 7260610.0 ], [ 529879.987933612894267, 7260610.0 ], [ 529889.900785414385609, 7260610.0 ], [ 529899.453693735296838, 7260610.0 ], [ 529907.91319030651357, 7260610.0 ], [ 529914.243011592305265, 7260610.0 ] ] } },
{ "type": "Feature", "properties": { "id": 6, "reference_id": 3, "dune_id": 3, "dune_name": "Big Mommy Dune", "acquisition_date": "2024-01-01", "length_m": 79.528904602444356 }, "geometry": { "type": "LineString", "coordinates": [ [ 529975.756988407694735, 7260608.906588250771165 ], [ 529982.08680969348643, 7260607.870324715040624 ], [ 529990.546306264819577, 7260607.34035742841661 ], [ 530000.099214585614391, 7260607.869432504288852 ], [ 530010.011174176470377, 7260608.895414073951542 ], [ 530019.988825823529623, 7260609.552908320911229 ], [ 530029.900785414502025, 7260609.476934298872948 ], [ 530039.453693735296838, 7260608.449214606545866 ], [ 530047.91319030651357, 7260606.328929075971246 ], [ 530054.243011592305265, 7260603.670178715139627 ] ] } },
{ "type": "Feature", "properties": { "id": 7, "reference_id": 3, "dune_id": 3, "dune_name": "Big Mommy Dune", "acquisition_date": "2024-01-01", "length_m": 151.73115995942439 }, "geometry": { "type": "LineString", "coordinates": [ [ 530244.243011592421681, 7260570.087148198857903 ], [ 530237.91319030651357, 7260570.447091680020094 ], [ 530229.453693735180423, 7260571.540503429248929 ], [ 530219.900785414385609, 7260573.670178715139627 ], [ 530209.987933612894267, 7260576.33071349747479 ], [ 530199.999107789248228, 7260578.470670748502016 ], [ 530190.0, 7260579.64005651883781 ], [ 530180.0, 7260580.35994348116219 ], [ 530170.000000000116415, 7260581.530221463181078 ], [ 530160.0, 7260583.680460680276155 ], [ 530150.0, 7260586.416969484649599 ], [ 530140.000892210751772, 7260588.906588250771165 ], [ 530130.012066387222148, 7260591.093411749228835 ], [ 530120.099214585614391, 7260593.583030516281724 ], [ 530110.546306264819577, 7260596.318647108972073 ], [ 530102.08680969348643, 7260598.458604360930622 ], [ 530095.756988407694735, 7260599.552908321842551 ] ] } },
{ "type": "Feature", "properties": { "id": 8, "reference_id": 6, "dune_id": 6, "dune_name": "The Star Dune", "acquisition_date": "2024-01-01", "length_m": 636.83649215981563 }, "geometry": { "type": "LineString", "coordinates": [ [ 533600.0, 7262674.243011591956019 ], [ 533600.0, 7262667.913190307095647 ], [ 533600.000892210635357, 7262659.453693736344576 ], [ 533600.011174176470377, 7262649.900785414502025 ], [ 533600.087148198392242, 7262639.987933612428606 ], [ 533600.447091679205187, 7262629.999107789248228 ], [ 533601.540503428783268, 7262620.0 ], [ 533603.671070924960077, 7262610.0 ], [ 533606.340995462378487, 7262600.000000000931323 ], [ 533608.54664476972539, 7262590.0 ], [ 533610.000892210751772, 7262580.0 ], [ 533611.464529406744987, 7262570.0 ], [ 533613.746152736246586, 7262560.0 ], [ 533616.776020754361525, 7262550.0 ], [ 533620.000892210635357, 7262540.0 ], [ 533623.234261211473495, 7262530.0 ], [ 533626.329821285791695, 7262520.0 ], [ 533628.896306284703314, 7262510.0 ], [ 533631.103693715296686, 7262500.0 ], [ 533633.670178714208305, 7262490.0 ], [ 533636.766630999278277, 7262480.0 ], [ 533640.01028196583502, 7262470.0 ], [ 533643.310235233511776, 7262460.0 ], [ 533646.690656977239996, 7262450.0 ], [ 533650.0, 7262440.0 ], [ 533653.309343022760004, 7262430.0 ], [ 533656.689764766488224, 7262420.0 ], [ 533659.988825823529623, 7262410.0 ], [ 533663.222194824367762, 7262400.0 ], [ 533666.242673087399453, 7262390.0 ], [ 533668.448322394862771, 7262380.0 ], [ 533669.552016110159457, 7262370.0 ], [ 533669.912851801607758, 7262360.0 ], [ 533669.988825823646039, 7262350.0 ], [ 533669.999107789364643, 7262340.000000000931323 ], [ 533670.0, 7262330.0 ], [ 533669.999107789364643, 7262320.0 ], [ 533669.988825823646039, 7262310.0 ], [ 533669.912851801607758, 7262300.0 ], [ 533669.552908320911229, 7262290.0 ], [ 533668.459496571333148, 7262280.0 ], [ 533666.329821285791695, 7262270.0 ], [ 533663.670178714208305, 7262260.0 ], [ 533661.540503428783268, 7262250.0 ], [ 533660.447091679088771, 7262240.0 ], [ 533660.086255987756886, 7262230.0 ], [ 533660.0, 7262220.0 ], [ 533659.913744012243114, 7262210.0 ], [ 533659.552908320911229, 7262200.0 ], [ 533658.459496571216732, 7262190.0 ], [ 533656.329821285791695, 7262180.0 ], [ 533653.670178714208305, 7262170.0 ], [ 533651.540503428783268, 7262160.0 ], [ 533650.447091679205187, 7262150.0 ], [ 533650.087148198508658, 7262140.0 ], [ 533650.011174176470377, 7262130.0 ], [ 533650.000892210751772, 7262120.0 ], [ 533650.0, 7262110.0 ], [ 533650.0, 7262100.000446105375886 ], [ 533650.0, 7262090.006479298695922 ], [ 533650.0, 7262080.055640487000346 ], [ 533650.0, 7262070.322760425508022 ], [ 533650.0, 7262061.316557979211211 ], [ 533650.0, 7262053.921899050474167 ], [ 533650.0, 7262048.921899050474167 ] ] } },
{ "type": "Feature", "properties": { "id": 9, "reference_id": 5, "dune_id": 5, "dune_name": "The Star Dune", "acquisition_date": "2024-01-01", "length_m": 1143.2903242468478 }, "geometry": { "type": "LineString", "coordinates": [ [ 533651.628543837927282, 7262041.078100949525833 ], [ 533654.129336780519225, 7262036.078100949525833 ], [ 533657.968647089437582, 7262028.683442020788789 ], [ 533662.664807373774238, 7262019.677239574491978 ], [ 533667.881498891045339, 7262009.944359513930976 ], [ 533673.671070924960077, 7261999.993520701304078 ], [ 533680.0, 7261989.999553894624114 ], [ 533686.329821285791695, 7261980.0 ], [ 533692.129675285541452, 7261970.0 ], [ 533697.423233035369776, 7261960.0 ], [ 533702.489618766237982, 7261950.0 ], [ 533707.499207057408057, 7261940.0 ], [ 533712.499900731956586, 7261930.0 ], [ 533717.499207057291642, 7261920.0 ], [ 533722.489618766237982, 7261910.0 ], [ 533727.423233035253361, 7261900.0 ], [ 533732.128783074906096, 7261890.0 ], [ 533736.31953932007309, 7261880.0 ], [ 533739.923133767442778, 7261870.0 ], [ 533743.299953267676756, 7261860.0 ], [ 533746.700938942958601, 7261850.0 ], [ 533750.088040409144014, 7261840.000000000931323 ], [ 533753.768501089187339, 7261830.000892210751772 ], [ 533758.329482780885883, 7261820.011174176819623 ], [ 533764.205310802557506, 7261810.088040409609675 ], [ 533771.638825803645886, 7261800.458265855908394 ], [ 533780.45915806631092, 7261791.627651628106833 ], [ 533790.088040409144014, 7261784.118162604048848 ], [ 533800.011174176470377, 7261777.881498891860247 ], [ 533810.000892210635357, 7261772.217715695500374 ], [ 533820.0, 7261766.340995462611318 ], [ 533830.0, 7261760.000892210751772 ], [ 533840.0, 7261753.670178715139627 ], [ 533850.0, 7261747.870324715040624 ], [ 533860.0, 7261742.577659175731242 ], [ 533870.0, 7261737.520663199946284 ], [ 533880.0, 7261732.577659176662564 ], [ 533890.0, 7261727.871216925792396 ], [ 533900.0, 7261723.681352891027927 ], [ 533910.0, 7261720.087148198857903 ], [ 533920.0, 7261716.776912964880466 ], [ 533930.0, 7261713.671070924960077 ], [ 533940.0, 7261711.10458592697978 ], [ 533950.0, 7261708.906588250771165 ], [ 533960.0, 7261706.405795307829976 ], [ 533970.0, 7261703.594204692170024 ], [ 533980.0, 7261701.094303959980607 ], [ 533990.0, 7261698.906588250771165 ], [ 534000.0, 7261696.416969484649599 ], [ 534010.0, 7261693.681352891027927 ], [ 534020.0, 7261691.540503429248929 ], [ 534030.0, 7261690.435917503200471 ], [ 534040.0, 7261690.0 ], [ 534050.0, 7261689.564082497730851 ], [ 534060.0, 7261688.460388783365488 ], [ 534070.0, 7261686.329821286723018 ], [ 534080.0, 7261683.669286504387856 ], [ 534090.0, 7261681.529329252429307 ], [ 534100.0, 7261680.35994348116219 ], [ 534110.0, 7261679.640056519769132 ], [ 534120.0, 7261678.469778537750244 ], [ 534130.0, 7261676.319539319723845 ], [ 534140.0, 7261673.582138305529952 ], [ 534150.0, 7261671.081345362588763 ], [ 534160.0, 7261668.808265876024961 ], [ 534170.0, 7261665.881837395951152 ], [ 534180.0, 7261661.682583605870605 ], [ 534190.0, 7261656.242673087865114 ], [ 534200.0, 7261649.987933613359928 ], [ 534210.0, 7261643.659004538320005 ], [ 534220.0, 7261637.793458482250571 ], [ 534230.0, 7261632.205649307928979 ], [ 534240.0, 7261626.328929075039923 ], [ 534250.0, 7261619.912851801142097 ], [ 534260.0, 7261613.211912859231234 ], [ 534269.999107789248228, 7261606.241780877113342 ], [ 534279.987933612894267, 7261598.448322394862771 ], [ 534289.900785414502025, 7261589.552016110159457 ], [ 534299.454585945932195, 7261579.912851802073419 ], [ 534307.924364482983947, 7261569.9888258241117 ], [ 534314.330159790813923, 7261559.999107790179551 ], [ 534318.360281985718757, 7261550.0 ], [ 534320.993304953328334, 7261540.0 ], [ 534323.559789952239953, 7261530.0 ], [ 534326.23060670029372, 7261520.0 ], [ 534328.011512681492604, 7261510.0 ], [ 534328.012404892127961, 7261500.0 ], [ 534326.242673087399453, 7261490.0 ], [ 534323.659004537737928, 7261480.0 ], [ 534321.539611218031496, 7261470.000000000931323 ], [ 534320.446199468453415, 7261460.0 ], [ 534320.075974021921866, 7261450.0 ], [ 534319.924025978078134, 7261440.0 ], [ 534319.553800531546585, 7261430.0 ], [ 534318.459496571216732, 7261420.0 ], [ 534316.329821285791695, 7261410.0 ], [ 534313.670178714208305, 7261400.0 ], [ 534311.540503428666852, 7261390.0 ], [ 534310.447983889840543, 7261380.0 ], [ 534310.099214585614391, 7261370.0 ], [ 534310.110388762084767, 7261360.0 ], [ 534310.546306264703162, 7261350.000892210751772 ], [ 534312.074743306264281, 7261340.012066386640072 ], [ 534315.657773822080344, 7261330.099214585497975 ], [ 534321.540503428666852, 7261320.546306264586747 ], [ 534328.459496571333148, 7261312.086809693835676 ], [ 534334.342226177919656, 7261305.756988408043981 ] ] } },
{ "type": "Feature", "properties": { "id": 10, "reference_id": 2, "dune_id": 2, "dune_name": "Big Mommy Dune", "acquisition_date": "2024-01-01", "length_m": 351.32596024602049 }, "geometry": { "type": "LineString", "coordinates": [ [ 528724.243011592421681, 7260838.371456163004041 ], [ 528717.91319030651357, 7260835.871555430814624 ], [ 528709.453693735180423, 7260832.042527087032795 ], [ 528699.900785414502025, 7260827.422340825200081 ], [ 528689.987933612894267, 7260822.564700577408075 ], [ 528679.999107789364643, 7260817.859150538221002 ], [ 528670.0, 7260813.593312481418252 ], [ 528660.0, 7260809.629774553701282 ], [ 528650.0, 7260805.159543303772807 ], [ 528640.0, 7260799.62888234294951 ], [ 528630.0, 7260793.583030516281724 ], [ 528620.0, 7260787.783176517114043 ], [ 528610.0, 7260782.20475709810853 ], [ 528600.0, 7260776.329821286723018 ], [ 528590.0, 7260769.924025977961719 ], [ 528580.0, 7260763.299061057157815 ], [ 528570.0, 7260756.689764766953886 ], [ 528560.0, 7260750.0 ], [ 528550.0, 7260743.309343023225665 ], [ 528540.0, 7260736.689764766953886 ], [ 528530.0, 7260729.989718034863472 ], [ 528520.0, 7260723.233369001187384 ], [ 528510.0, 7260716.329821286723018 ], [ 528500.0, 7260708.896306284703314 ], [ 528490.0, 7260701.103693716228008 ], [ 528480.0, 7260693.670178715139627 ], [ 528470.000892210751772, 7260686.766630999743938 ], [ 528460.012066387105733, 7260680.0111741758883 ], [ 528450.099214585614391, 7260673.322301620617509 ], [ 528440.546306264819577, 7260666.788979352451861 ], [ 528432.08680969348643, 7260660.535132088698447 ], [ 528425.756988407694735, 7260655.309004518203437 ] ] } },
{ "type": "Feature", "properties": { "id": 11, "reference_id": 2, "dune_id": 2, "dune_name": "Big Mommy Dune", "acquisition_date": "2024-01-01", "length_m": 50.766248076779704 }, "geometry": { "type": "LineString", "coordinates": [ [ 528805.756988407694735, 7260871.541395640000701 ], [ 528812.085917482851073, 7260873.681352891027927 ], [ 528820.534239877713844, 7260876.416969484649599 ], [ 528830.0, 7260878.906588250771165 ], [ 528839.465760122518986, 7260881.093411750160158 ], [ 528847.914082517148927, 7260883.583030516281724 ], [ 528854.243011592421681, 7260886.318647108972073 ] ] } },
{ "type": "Feature", "properties": { "id": 12, "reference_id": 9, "dune_id": 9, "dune_name": "Inverted Y Dune", "acquisition_date": "2024-01-01", "length_m": 737.98514370739167 }, "geometry": { "type": "LineString", "coordinates": [ [ 530044.243011592305265, 7261641.638825803995132 ], [ 530037.91319030651357, 7261644.205310802906752 ], [ 530029.453693735180423, 7261648.328590570017695 ], [ 530019.900785414502025, 7261653.75821912381798 ], [ 530009.987933612894267, 7261660.012066387571394 ], [ 529999.999107789364643, 7261666.34188767336309 ], [ 529990.0, 7261672.216823484748602 ], [ 529980.0, 7261677.870324714109302 ], [ 529970.0, 7261684.031014405190945 ], [ 529960.0, 7261691.180559948086739 ], [ 529950.0, 7261698.917762426659465 ], [ 529940.0, 7261706.417861695401371 ], [ 529930.0, 7261713.681352891027927 ], [ 529920.0, 7261721.541395640000701 ], [ 529910.0, 7261730.447091680020094 ], [ 529900.0, 7261740.087148198857903 ], [ 529890.0, 7261750.011174176819623 ], [ 529880.0, 7261760.000892210751772 ], [ 529870.0, 7261770.0 ], [ 529860.000892210751772, 7261780.0 ], [ 529850.011174176470377, 7261790.0 ], [ 529840.087148198392242, 7261800.0 ], [ 529830.447983889840543, 7261810.0 ], [ 529821.552569815889001, 7261820.0 ], [ 529813.768501089187339, 7261830.0 ], [ 529806.864953374140896, 7261840.000000000931323 ], [ 529800.45915806631092, 7261850.0 ], [ 529794.861912838649005, 7261860.0 ], [ 529790.447983889840543, 7261870.0 ], [ 529786.776912964996882, 7261880.0 ], [ 529783.310235233511776, 7261890.0 ], [ 529779.924918188713491, 7261900.0 ], [ 529776.329821285791695, 7261910.0 ], [ 529772.205649307463318, 7261920.0 ], [ 529767.794350692536682, 7261930.0 ], [ 529763.670178714208305, 7261940.0 ], [ 529760.075081811286509, 7261950.0 ], [ 529756.689764766488224, 7261960.0 ], [ 529753.223979245638475, 7261970.0 ], [ 529749.563190286629833, 7261980.0 ], [ 529745.226127570495009, 7261990.0 ], [ 529739.999107789364643, 7262000.0 ], [ 529734.763590463786386, 7262010.0 ], [ 529730.360835691448301, 7262020.0 ], [ 529726.416077273548581, 7262030.0 ], [ 529722.215931273298338, 7262040.0 ], [ 529717.784068726818077, 7262050.0 ], [ 529713.583922726451419, 7262060.0 ], [ 529709.639164308551699, 7262070.0 ], [ 529705.236409536330029, 7262080.0 ], [ 529700.000892210751772, 7262090.0 ], [ 529694.773872429504991, 7262100.0 ], [ 529690.436809713486582, 7262110.0 ], [ 529686.776020754361525, 7262120.0 ], [ 529683.310235233511776, 7262130.0 ], [ 529679.924918188829906, 7262140.0 ], [ 529676.329821285791695, 7262150.0 ], [ 529672.205649307463318, 7262160.0 ], [ 529667.794350692536682, 7262170.0 ], [ 529663.671070924843661, 7262180.0 ], [ 529660.087148198508658, 7262189.999107789248228 ], [ 529656.788087141467258, 7262199.987933613359928 ], [ 529653.758219123352319, 7262209.900785414502025 ], [ 529651.551677605253644, 7262219.453693735413253 ], [ 529650.447983889840543, 7262227.913190307095647 ], [ 529650.087148198392242, 7262234.243011592887342 ] ] } },
{ "type": "Feature", "properties": { "id": 13, "reference_id": 4, "dune_id": 4, "dune_name": "The Star Dune", "acquisition_date": "2024-01-01", "length_m": 91.177476879135071 }, "geometry": { "type": "LineString", "coordinates": [ [ 533174.243011592421681, 7261899.999107789248228 ], [ 533167.913190306629986, 7261899.9888258241117 ], [ 533159.453693735180423, 7261899.912851801142097 ], [ 533149.900785414502025, 7261899.552016111090779 ], [ 533139.987933612894267, 7261898.448322394862771 ], [ 533130.0, 7261896.242673087865114 ], [ 533120.012066387105733, 7261893.223087035119534 ], [ 533110.099214585497975, 7261890.0 ], [ 533100.546306264819577, 7261886.776912964880466 ], [ 533092.08680969348643, 7261883.757326913066208 ], [ 533085.756988407694735, 7261881.551677605137229 ] ] } },
{ "type": "Feature", "properties": { "id": 14, "reference_id": 4, "dune_id": 4, "dune_name": "The Star Dune", "acquisition_date": "2024-01-01", "length_m": 173.82769084570921 }, "geometry": { "type": "LineString", "coordinates": [ [ 533384.243011592305265, 7261959.912851801142097 ], [ 533377.91319030651357, 7261959.552908321842551 ], [ 533369.453693735296838, 7261958.459496571682394 ], [ 533359.900785414502025, 7261956.329821286723018 ], [ 533349.987933612894267, 7261953.669286504387856 ], [ 533339.999107789364643, 7261951.529329252429307 ], [ 533330.0, 7261950.359051270410419 ], [ 533320.0, 7261949.62888234294951 ], [ 533310.0, 7261948.383522549644113 ], [ 533300.0, 7261945.883621817454696 ], [ 533290.0, 7261942.128783075138927 ], [ 533280.0, 7261937.859150538221002 ], [ 533270.0, 7261934.030122194439173 ], [ 533260.000892210751772, 7261931.180559948086739 ], [ 533250.012066387222148, 7261928.917762426659465 ], [ 533240.099214585730806, 7261926.417861694470048 ], [ 533230.546306264819577, 7261923.681352891027927 ], [ 533222.08680969348643, 7261921.541395640000701 ], [ 533215.756988407694735, 7261920.447091680020094 ] ] } },
{ "type": "Feature", "properties": { "id": 15, "reference_id": 7, "dune_id": 7, "dune_name": "Inverted Y Dune", "acquisition_date": "2024-01-01", "length_m": 488.35397650646257 }, "geometry": { "type": "LineString", "coordinates": [ [ 530295.756988407694735, 7261636.318647109903395 ], [ 530302.08680969348643, 7261633.583030516281724 ], [ 530310.546306264819577, 7261631.092519538477063 ], [ 530320.099214585614391, 7261628.895414073951542 ], [ 530330.012066387105733, 7261626.328929075039923 ], [ 530340.000892210751772, 7261623.223087035119534 ], [ 530350.0, 7261619.913744011893868 ], [ 530360.0, 7261616.328929075971246 ], [ 530370.0, 7261612.204757097177207 ], [ 530380.0, 7261607.783176516182721 ], [ 530390.0, 7261603.583030516281724 ], [ 530400.0, 7261599.627990132197738 ], [ 530410.0, 7261595.148369127884507 ], [ 530420.0, 7261589.541734145022929 ], [ 530430.000000000116415, 7261583.135046625509858 ], [ 530440.0, 7261576.231498911976814 ], [ 530450.0, 7261568.447430184110999 ], [ 530459.999107789364643, 7261559.552016111090779 ], [ 530469.988825823529623, 7261549.912851801142097 ], [ 530479.912851801607758, 7261539.9888258241117 ], [ 530489.552016110159457, 7261529.999107789248228 ], [ 530498.448322394862771, 7261520.0 ], [ 530506.242673087399453, 7261510.0 ], [ 530513.222194824367762, 7261500.0 ], [ 530519.988825823529623, 7261490.0 ], [ 530526.689764766488224, 7261480.0 ], [ 530533.309343022760004, 7261470.000000000931323 ], [ 530540.0, 7261460.0 ], [ 530546.690656977239996, 7261450.0 ], [ 530553.310235233511776, 7261440.0 ], [ 530560.011174176470377, 7261430.0 ], [ 530566.777805175632238, 7261420.0 ], [ 530573.757326912600547, 7261410.0 ], [ 530581.551677605253644, 7261400.0 ], [ 530590.447983889840543, 7261390.0 ], [ 530600.087148198392242, 7261380.0 ], [ 530610.01028196583502, 7261370.000892210751772 ], [ 530619.988825823646039, 7261360.012066386640072 ], [ 530629.900785414502025, 7261350.099214585497975 ], [ 530639.453693735296838, 7261340.546306265518069 ], [ 530647.913190306629986, 7261332.086809693835676 ], [ 530654.243011592305265, 7261325.756988408043981 ] ] } }
]
}
