{
"type": "FeatureCollection",
"name": "crests_2024_06_2024-06-14",
"crs": { "type": "name", "properties": { "name": "urn:ogc:def:crs:EPSG::32733" } },
"features": [
{ "type": "Feature", "properties": { "id": 0, "reference_id": 5, "dune_id": 5, "dune_name": "The Star Dune", "acquisition_date": "2024-06-14", "length_m": 872.01134155950217 }, "geometry": { "type": "LineString", "coordinates": [ [ 534307.91319030651357, 7261565.756096197292209 ], [ 534304.243011592305265, 7261572.075635517947376 ], [ 534297.913190306629986, 7261580.459158066660166 ], [ 534289.453693735180423, 7261589.651230695657432 ], [ 534279.900785414502025, 7261598.460388782434165 ], [ 534269.987933612894267, 7261606.243565298616886 ], [ 534259.999107789248228, 7261613.222194824367762 ], [ 534250.0, 7261619.9888258241117 ], [ 534240.0, 7261626.688872555270791 ], [ 534230.0, 7261633.299061057157815 ], [ 534220.0, 7261639.92313376814127 ], [ 534210.0, 7261646.318647109903395 ], [ 534200.0, 7261652.117608899250627 ], [ 534190.0, 7261657.335192626342177 ], [ 534180.0, 7261662.032245121896267 ], [ 534170.0, 7261665.881837395951152 ], [ 534160.0, 7261668.458604360930622 ], [ 534150.0, 7261669.9888258241117 ], [ 534140.0, 7261671.452463019639254 ], [ 534130.0, 7261673.659004537388682 ], [ 534120.0, 7261676.329821285791695 ], [ 534110.0, 7261678.470670748502016 ], [ 534100.0, 7261679.640056519769132 ], [ 534090.0, 7261680.35994348116219 ], [ 534080.0, 7261681.529329252429307 ], [ 534070.0, 7261683.669286504387856 ], [ 534060.0, 7261686.33071349747479 ], [ 534050.0, 7261688.470670748502016 ], [ 534040.0, 7261689.64005651883781 ], [ 534030.0, 7261690.35994348116219 ], [ 534020.0, 7261691.529329253360629 ], [ 534010.0, 7261693.670178714208305 ], [ 534000.0, 7261696.340995462611318 ], [ 533990.0, 7261698.546644769608974 ], [ 533980.0, 7261700.000892210751772 ], [ 533970.0, 7261701.464529407210648 ], [ 533960.0, 7261703.746152736246586 ], [ 533950.0, 7261706.776912964880466 ], [ 533940.0, 7261710.0111741758883 ], [ 533930.0, 7261713.311127444729209 ], [ 533920.0, 7261716.700938943773508 ], [ 533910.0, 7261720.076866232790053 ], [ 533900.0, 7261723.680460680276155 ], [ 533890.0, 7261727.871216925792396 ], [ 533880.0, 7261732.576766965910792 ], [ 533870.0, 7261737.510381234809756 ], [ 533860.0, 7261742.500792942941189 ], [ 533850.0, 7261747.500099267810583 ], [ 533840.0, 7261752.500792942941189 ], [ 533830.0, 7261757.511273443698883 ], [ 533820.0, 7261762.587941141799092 ], [ 533810.000892210635357, 7261767.958365123718977 ], [ 533800.011174176470377, 7261774.128444570116699 ], [ 533790.088040409144014, 7261781.628543838858604 ], [ 533780.45915806631092, 7261790.458265855908394 ], [ 533771.638825803645886, 7261800.088040409609675 ], [ 533764.205310802557506, 7261810.011174177750945 ], [ 533758.329482780885883, 7261820.000892210751772 ], [ 533753.768501089187339, 7261830.0 ], [ 533750.088040409144014, 7261840.000000000931323 ], [ 533746.700938942958601, 7261850.0 ], [ 533743.299953267676756, 7261860.0 ], [ 533739.923133767442778, 7261870.0 ], [ 533736.31953932007309, 7261880.0 ], [ 533732.128783074906096, 7261890.0 ], [ 533727.423233035253361, 7261900.0 ], [ 533722.489618766237982, 7261910.0 ], [ 533717.499207057291642, 7261920.0 ], [ 533712.499900731956586, 7261930.0 ], [ 533707.499207057408057, 7261940.0 ], [ 533702.489618766237982, 7261950.0 ], [ 533697.423233035369776, 7261960.0 ], [ 533692.129675285541452, 7261970.0 ], [ 533686.329821285791695, 7261980.0 ], [ 533679.999553894624114, 7261989.999553894624114 ], [ 533673.665483836666681, 7261999.993520701304078 ], [ 533667.837924791732803, 7262009.944359513930976 ], [ 533662.441261534229852, 7262019.677239574491978 ], [ 533657.198395375045948, 7262028.683442020788789 ], [ 533652.294247423415072, 7262036.078100949525833 ], [ 533648.463633195031434, 7262041.078100949525833 ] ] } },
{ "type": "Feature", "properties": { "id": 1, "reference_id": 4, "dune_id": 4, "dune_name": "The Star Dune", "acquisition_date": "2024-06-14", "length_m": 498.82878883050756 }, "geometry": { "type": "LineString", "coordinates": [ [ 533005.756988407694735, 7261870.447091680020094 ], [ 533012.08680969348643, 7261871.541395640000701 ], [ 533020.546306264819577, 7261873.681352891027927 ], [ 533030.099214585614391, 7261876.416969484649599 ], [ 533040.012066387105733, 7261878.906588250771165 ], [ 533050.000892210751772, 7261881.093411749228835 ], [ 533060.0, 7261883.583922726102173 ], [ 533070.0, 7261886.329821285791695 ], [ 533080.0, 7261888.545752558857203 ], [ 533090.0, 7261890.000892210751772 ], [ 533100.0, 7261891.464529407210648 ], [ 533110.0, 7261893.746152736246586 ], [ 533120.0, 7261896.776912964880466 ], [ 533130.0, 7261900.0111741758883 ], [ 533140.0, 7261903.310235233977437 ], [ 533150.0, 7261906.689764766953886 ], [ 533160.0, 7261909.989718034863472 ], [ 533170.0, 7261913.233369002118707 ], [ 533180.0, 7261916.329821286723018 ], [ 533190.0, 7261918.895414073951542 ], [ 533200.0, 7261921.093411749228835 ], [ 533210.0, 7261923.594204692170024 ], [ 533220.0, 7261926.405795307829976 ], [ 533230.0, 7261928.905696040019393 ], [ 533240.0, 7261931.094303959980607 ], [ 533250.0, 7261933.594204692170024 ], [ 533260.0, 7261936.405795307829976 ], [ 533270.0, 7261938.906588250771165 ], [ 533280.0, 7261941.104585926048458 ], [ 533290.0, 7261943.670178713276982 ], [ 533300.0, 7261946.766630999743938 ], [ 533310.0, 7261950.010281966999173 ], [ 533320.0, 7261953.310235233977437 ], [ 533330.0, 7261956.689764766953886 ], [ 533340.0, 7261959.989718034863472 ], [ 533350.0, 7261963.233369001187384 ], [ 533360.0, 7261966.329821286723018 ], [ 533370.0, 7261968.896306285634637 ], [ 533380.000000000116415, 7261971.103693716228008 ], [ 533390.0, 7261973.671070924960077 ], [ 533400.000000000116415, 7261976.776912964880466 ], [ 533410.0, 7261980.086255988106132 ], [ 533420.0, 7261983.671070924960077 ], [ 533430.0, 7261987.794350693002343 ], [ 533439.999107789364643, 7261992.205649307928979 ], [ 533449.987933612894267, 7261996.328929075971246 ], [ 533459.900785414385609, 7261999.912851801142097 ], [ 533469.453693735180423, 7262003.211912859231234 ], [ 533477.913190306629986, 7262006.241780877113342 ], [ 533484.243011592421681, 7262008.448322394862771 ] ] } },
{ "type": "Feature", "properties": { "id": 2, "reference_id": 4, "dune_id": 4, "dune_name": "The Star Dune", "acquisition_date": "2024-06-14", "length_m": 114.58641025501171 }, "geometry": { "type": "LineString", "coordinates": [ [ 533624.243011592305265, 7262059.552908321842551 ], [ 533617.91319030651357, 7262058.458604361861944 ], [ 533609.453693735180423, 7262056.318647109903395 ], [ 533599.900785414385609, 7262053.582138305529952 ], [ 533589.987933612894267, 7262051.082237573340535 ], [ 533579.999107789364643, 7262048.819440051913261 ], [ 533570.0, 7262045.968985594809055 ], [ 533560.000892210635357, 7262042.129675285890698 ], [ 533550.012066387105733, 7262037.784068726934493 ], [ 533540.099214585614391, 7262033.670178715139627 ], [ 533530.546306264819577, 7262030.087148198857903 ], [ 533522.08680969348643, 7262026.788087140768766 ], [ 533515.756988407694735, 7262023.758219122886658 ] ] } },
{ "type": "Feature", "properties": { "id": 3, "reference_id": 1, "dune_id": 1, "dune_name": "Big Mommy Dune", "acquisition_date": "2024-06-14", "length_m": 99.417236259724334 }, "geometry": { "type": "LineString", "coordinates": [ [ 529019.999107789364643, 7261555.756988408043981 ], [ 529019.988825823529623, 7261562.086809693835676 ], [ 529019.912851801607758, 7261570.546306264586747 ], [ 529019.552908320911229, 7261580.099214585497975 ], [ 529018.459496571333148, 7261590.012066387571394 ], [ 529016.329821285791695, 7261600.000892210751772 ], [ 529013.670178714208305, 7261609.999107789248228 ], [ 529011.540503428783268, 7261619.987933613359928 ], [ 529010.447091679205187, 7261629.900785414502025 ], [ 529010.087148198508658, 7261639.453693734481931 ], [ 529010.011174176470377, 7261647.913190307095647 ], [ 529010.000892210751772, 7261654.243011591956019 ] ] } },
{ "type": "Feature", "properties": { "id": 4, "reference_id": 1, "dune_id": 1, "dune_name": "Big Mommy Dune", "acquisition_date": "2024-06-14", "length_m": 435.73304216385998 }, "geometry": { "type": "LineString", "coordinates": [ [ 529179.541734144324437, 7261115.756988408043981 ], [ 529178.372348372940905, 7261122.086809694766998 ], [ 529175.881837395951152, 7261130.546306265518069 ], [ 529172.118501109071076, 7261140.099214585497975 ], [ 529167.783176516182721, 7261150.012066387571394 ], [ 529163.669286503456533, 7261160.000892210751772 ], [ 529160.075974022038281, 7261170.0 ], [ 529156.700046732323244, 7261180.0 ], [ 529153.299953267676756, 7261190.0 ], [ 529149.923133767442778, 7261200.0 ], [ 529146.319539319956675, 7261210.000000000931323 ], [ 529142.128783074906096, 7261220.0 ], [ 529137.423233035369776, 7261230.0 ], [ 529132.490510976873338, 7261240.0 ], [ 529127.509489023126662, 7261250.0 ], [ 529122.576766964630224, 7261260.0 ], [ 529117.871216925210319, 7261270.0 ], [ 529113.680460680043325, 7261280.0 ], [ 529110.076866232673638, 7261290.0 ], [ 529106.700046732323244, 7261300.0 ], [ 529103.299953267676756, 7261310.000000000931323 ], [ 529099.924025978078134, 7261320.0 ], [ 529096.329821285791695, 7261330.0 ], [ 529092.205649307463318, 7261340.0 ], [ 529087.794350692536682, 7261350.0 ], [ 529083.670178714208305, 7261360.0 ], [ 529080.075974022038281, 7261370.0 ], [ 529076.700046732323244, 7261380.0 ], [ 529073.299953267676756, 7261390.0 ], [ 529069.924025978078134, 7261400.0 ], [ 529066.330713496543467, 7261410.0 ], [ 529062.215931273298338, 7261420.0 ], [ 529057.870324714574963, 7261430.0 ], [ 529054.031014405656606, 7261440.0 ], [ 529051.179667737334967, 7261450.0 ], [ 529048.906588250421919, 7261460.0 ], [ 529046.330713496427052, 7261470.000000000931323 ], [ 529043.234261211473495, 7261479.999107789248228 ], [ 529040.000892210751772, 7261489.987933613359928 ], [ 529036.776912964996882, 7261499.900785414502025 ], [ 529033.757326912600547, 7261509.453693735413253 ], [ 529031.551677605253644, 7261517.913190307095647 ], [ 529030.447983889840543, 7261524.243011592887342 ] ] } },
{ "type": "Feature", "properties": { "id": 5, "reference_id": 1, "dune_id": 1, "dune_name": "Big Mommy Dune", "acquisition_date": "2024-06-14", "length_m": 514.35002609323499 }, "geometry": { "type": "LineString", "coordinates": [ [ 529109.999107789364643, 7261825.756988408043981 ], [ 529109.988825823529623, 7261832.086809693835676 ], [ 529109.911959590855986, 7261840.546306265518069 ], [ 529109.541734144440852, 7261850.099214585497975 ], [ 529108.371456162189133, 7261860.012066387571394 ], [ 529105.871555430232547, 7261870.000892210751772 ], [ 529102.041634876397438, 7261880.0 ], [ 529097.411166648264043, 7261890.0 ], [ 529092.478444589767605, 7261900.0 ], [ 529087.42234082473442, 7261910.0 ], [ 529082.128783074789681, 7261920.0 ], [ 529076.319539319956675, 7261930.0 ], [ 529069.923133767326362, 7261940.0 ], [ 529063.299061057041399, 7261950.0 ], [ 529056.68976476660464, 7261960.0 ], [ 529050.0, 7261970.0 ], [ 529043.31023523339536, 7261980.0 ], [ 529036.701831153710373, 7261990.0 ], [ 529030.087148198508658, 7262000.0 ], [ 529023.757326912600547, 7262010.0 ], [ 529018.242334582377225, 7262020.0 ], [ 529013.757326912600547, 7262030.0 ], [ 529010.087148198508658, 7262040.0 ], [ 529006.700938943075016, 7262050.0 ], [ 529003.299953267676756, 7262060.0 ], [ 528999.923133767442778, 7262070.0 ], [ 528996.31953932007309, 7262080.0 ], [ 528992.128783074789681, 7262090.0 ], [ 528987.42234082473442, 7262100.0 ], [ 528982.478444589767605, 7262110.0 ], [ 528977.411166648264043, 7262120.0 ], [ 528972.041634876397438, 7262130.0 ], [ 528965.871555430116132, 7262139.999107789248228 ], [ 528958.371456162189133, 7262149.9888258241117 ], [ 528949.541734144324437, 7262159.912851801142097 ], [ 528939.911959590972401, 7262169.552016111090779 ], [ 528929.988825823529623, 7262178.448322394862771 ], [ 528919.999107789364643, 7262186.241780877113342 ], [ 528910.0, 7262193.211912859231234 ], [ 528900.0, 7262199.912851802073419 ], [ 528890.0, 7262206.328929075039923 ], [ 528880.000892210751772, 7262212.204757097177207 ], [ 528870.012066387105733, 7262217.782284306362271 ], [ 528860.099214585614391, 7262223.571856339462101 ], [ 528850.546306264819577, 7262229.540841933339834 ], [ 528842.086809693370014, 7262234.701277447864413 ], [ 528835.756988407694735, 7262238.001230715774 ] ] } },
{ "type": "Feature", "properties": { "id": 6, "reference_id": 8, "dune_id": 8, "dune_name": "Inverted Y Dune", "acquisition_date": "2024-06-14", "length_m": 402.35846565723864 }, "geometry": { "type": "LineString", "coordinates": [ [ 530264.243011592421681, 7261221.638825803995132 ], [ 530257.913190306629986, 7261224.205310802906752 ], [ 530249.453693735180423, 7261228.329482780769467 ], [ 530239.900785414502025, 7261233.76939329970628 ], [ 530229.987933612777852, 7261240.099214585497975 ], [ 530220.0, 7261246.788979351520538 ], [ 530210.011174176470377, 7261253.75821912381798 ], [ 530200.087148198392242, 7261261.551677605137229 ], [ 530190.447983889840543, 7261270.447983890771866 ], [ 530181.552569815889001, 7261280.087148198857903 ], [ 530173.768501089187339, 7261290.0111741758883 ], [ 530166.864953374140896, 7261300.000892210751772 ], [ 530160.458265855675563, 7261310.000000000931323 ], [ 530154.851630872813985, 7261320.0 ], [ 530150.372009867918678, 7261330.0 ], [ 530146.417861694935709, 7261340.0 ], [ 530142.227105449652299, 7261350.0 ], [ 530137.871216925326735, 7261360.0 ], [ 530134.031014405656606, 7261370.0 ], [ 530131.180559947970323, 7261380.0 ], [ 530128.916870216256939, 7261390.0 ], [ 530126.406687518581748, 7261400.0 ], [ 530123.594204692170024, 7261410.0 ], [ 530121.094303960213438, 7261420.0 ], [ 530118.906588250421919, 7261430.0 ], [ 530116.416969484300353, 7261440.0 ], [ 530113.681352890678681, 7261450.0 ], [ 530111.540503428666852, 7261460.0 ], [ 530110.43591750273481, 7261470.000000000931323 ], [ 530110.0, 7261480.0 ], [ 530109.564082497381605, 7261490.0 ], [ 530108.460388781968504, 7261500.0 ], [ 530106.329821285791695, 7261510.0 ], [ 530103.670178714208305, 7261519.999107789248228 ], [ 530101.540503428783268, 7261529.987933613359928 ], [ 530100.447091679205187, 7261539.900785414502025 ], [ 530100.087148198508658, 7261549.453693735413253 ], [ 530100.011174176470377, 7261557.913190307095647 ], [ 530100.000892210751772, 7261564.243011593818665 ] ] } },
{ "type": "Feature", "properties": { "id": 7, "reference_id": 8, "dune_id": 8, "dune_name": "Inverted Y Dune", "acquisition_date": "2024-06-14", "length_m": 67.483393654288022 }, "geometry": { "type": "LineString", "coordinates": [ [ 530554.243011592305265, 7261175.298722552135587 ], [ 530547.91319030651357, 7261180.458265855908394 ], [ 530539.454585945932195, 7261186.416969484649599 ], [ 530529.912851801607758, 7261192.129675285890698 ], [ 530520.087148198392242, 7261197.336084837093949 ], [ 530510.545414054067805, 7261202.031352910213172 ], [ 530502.08680969348643, 7261205.870663220062852 ], [ 530495.756988407694735, 7261208.371456163004041 ] ] } },
{ "type": "Feature", "properties": { "id": 8, "reference_id": 3, "dune_id": 3, "dune_name": "Big Mommy Dune", "acquisition_date": "2024-06-14", "length_m": 363.22755210465994 }, "geometry": { "type": "LineString", "coordinates": [ [ 529374.243011592305265, 7260695.756988408043981 ], [ 529367.91319030651357, 7260702.086809693835676 ], [ 529359.453693735180423, 7260710.546306265518069 ], [ 529349.900785414502025, 7260720.099214585497975 ], [ 529339.988825823529623, 7260730.012066388502717 ], [ 529330.01028196583502, 7260740.000892210751772 ], [ 529320.087148198508658, 7260750.0 ], [ 529310.447983889956959, 7260760.0 ], [ 529301.551677605253644, 7260770.0 ], [ 529293.757326912600547, 7260780.000000000931323 ], [ 529286.777805175632238, 7260790.0 ], [ 529280.011174176470377, 7260800.0 ], [ 529273.310235233511776, 7260810.0 ], [ 529266.690656977239996, 7260820.0 ], [ 529260.0, 7260830.0 ], [ 529253.309343022876419, 7260840.0 ], [ 529246.690656977239996, 7260850.0 ], [ 529240.0, 7260860.0 ], [ 529233.31023523339536, 7260870.0 ], [ 529226.700938943075016, 7260880.0 ], [ 529220.076866232557222, 7260890.0 ], [ 529213.680460680043325, 7260900.0 ], [ 529207.871216925210319, 7260910.0 ], [ 529202.576766964630224, 7260920.0 ], [ 529197.509489023126662, 7260930.0 ], [ 529192.490064871613868, 7260939.998661683872342 ], [ 529187.418538157828152, 7260949.982346525415778 ], [ 529182.097275362699293, 7260959.857211316004395 ], [ 529176.194315855274908, 7260969.230147896334529 ], [ 529169.688014141283929, 7260977.142938592471182 ], [ 529163.463633195031434, 7260982.407922235317528 ], [ 529158.833858641446568, 7260984.748279663734138 ] ] } },
{ "type": "Feature", "properties": { "id": 9, "reference_id": 3, "dune_id": 3, "dune_name": "Big Mommy Dune", "acquisition_date": "2024-06-14", "length_m": 100.746861416717 }, "geometry": { "type": "LineString", "coordinates": [ [ 529574.243011592305265, 7260640.011174176819623 ], [ 529567.91319030651357, 7260640.087148198857903 ], [ 529559.453693735296838, 7260640.447091679088771 ], [ 529549.900785414385609, 7260641.541395640000701 ], [ 529539.987933612894267, 7260643.681352891027927 ], [ 529529.999107789364643, 7260646.416969484649599 ], [ 529520.000892210751772, 7260648.906588250771165 ], [ 529510.012066387105733, 7260651.093411749228835 ], [ 529500.099214585614391, 7260653.583030516281724 ], [ 529490.546306264819577, 7260656.318647109903395 ], [ 529482.08680969348643, 7260658.458604361861944 ], [ 529475.756988407694735, 7260659.552908320911229 ] ] } },
{ "type": "Feature", "properties": { "id": 10, "reference_id": 3, "dune_id": 3, "dune_name": "Big Mommy Dune", "acquisition_date": "2024-06-14", "length_m": 248.48602318484336 }, "geometry": { "type": "LineString", "coordinates": [ [ 529755.756988407578319, 7260610.0 ], [ 529762.08680969348643, 7260610.0 ], [ 529770.546306264819577, 7260610.0 ], [ 529780.099214585614391, 7260610.0 ], [ 529790.012066387222148, 7260610.0 ], [ 529800.000892210751772, 7260610.0 ], [ 529810.0, 7260610.0 ], [ 529820.0, 7260610.0 ], [ 529830.0, 7260610.0 ], [ 529840.0, 7260610.0 ], [ 529850.0, 7260610.0 ], [ 529860.0, 7260610.0 ], [ 529870.0, 7260610.0 ], [ 529880.0, 7260610.0 ], [ 529890.0, 7260610.0 ], [ 529900.0, 7260610.0 ], [ 529910.0, 7260610.0 ], [ 529920.0, 7260610.0 ], [ 529930.0, 7260610.0 ], [ 529940.0, 7260610.0 ], [ 529950.0, 7260610.0 ], [ 529959.999107789248228, 7260610.0 ], [ 529969.987933612894267, 7260610.0 ], [ 529979.900785414385609, 7260610.0 ], [ 529989.453693735296838, 7260610.0 ], [ 529997.91319030651357, 7260610.0 ], [ 530004.243011592421681, 7260610.0 ] ] } },
{ "type": "Feature", "properties": { "id": 11, "reference_id": 3, "dune_id": 3, "dune_name": "Big Mommy Dune", "acquisition_date": "2024-06-14", "length_m": 69.449054173324498 }, "geometry": { "type": "LineString", "coordinates": [ [ 530164.243011592305265, 7260590.087148198857903 ], [ 530157.91319030651357, 7260590.447091680020094 ], [ 530149.453693735296838, 7260591.540503429248929 ], [ 530139.901677625137381, 7260593.670178714208305 ], [ 530130.0, 7260596.329821285791695 ], [ 530120.098322374862619, 7260598.459496571682394 ], [ 530110.546306264819577, 7260599.552908321842551 ], [ 530102.08680969348643, 7260599.912851802073419 ], [ 530095.756988407694735, 7260599.9888258241117 ] ] } },
{ "type": "Feature", "properties": { "id": 12, "reference_id": 2, "dune_id": 2, "dune_name": "Big Mommy Dune", "acquisition_date": "2024-06-14", "length_m": 623.91417386015212 }, "geometry": { "type": "LineString", "coordinates": [ [ 528984.243011592421681, 7260919.552908321842551 ], [ 528977.913190306629986, 7260918.458604359999299 ], [ 528969.453693735180423, 7260916.318647108972073 ], [ 528959.900785414502025, 7260913.583030516281724 ], [ 528949.987933612894267, 7260911.093411749228835 ], [ 528939.999107789364643, 7260908.905696040019393 ], [ 528930.0, 7260906.405795308761299 ], [ 528920.0, 7260903.594204693101346 ], [ 528910.0, 7260901.093411750160158 ], [ 528900.0, 7260898.895414073951542 ], [ 528890.0, 7260896.329821285791695 ], [ 528880.0, 7260893.233369001187384 ], [ 528870.0, 7260889.989718034863472 ], [ 528860.0, 7260886.689764766022563 ], [ 528850.0, 7260883.309343023225665 ], [ 528840.0, 7260880.0 ], [ 528830.0, 7260876.689764766953886 ], [ 528820.0, 7260873.299061057157815 ], [ 528810.0, 7260869.924025978893042 ], [ 528800.0, 7260866.329821286723018 ], [ 528790.0, 7260862.205649307928979 ], [ 528780.0, 7260857.794350693002343 ], [ 528770.0, 7260853.670178714208305 ], [ 528760.0, 7260850.075974022038281 ], [ 528750.0, 7260846.700046733021736 ], [ 528740.0, 7260843.299953267909586 ], [ 528730.0, 7260839.92313376814127 ], [ 528720.0, 7260836.319539319723845 ], [ 528710.0, 7260832.128783075138927 ], [ 528700.0, 7260827.423233035951853 ], [ 528690.0, 7260822.489618766121566 ], [ 528680.0, 7260817.499207057058811 ], [ 528670.0, 7260812.499900732189417 ], [ 528660.0, 7260807.500099267810583 ], [ 528650.0, 7260802.499900732189417 ], [ 528640.0, 7260797.499207057990134 ], [ 528630.0, 7260792.489618767052889 ], [ 528620.0, 7260787.423233035951853 ], [ 528610.0, 7260782.128783075138927 ], [ 528600.0, 7260776.319539319723845 ], [ 528590.0, 7260769.923133767209947 ], [ 528580.0, 7260763.299061057157815 ], [ 528570.0, 7260756.689764766953886 ], [ 528560.0, 7260750.0 ], [ 528550.0, 7260743.309343023225665 ], [ 528540.0, 7260736.689764766953886 ], [ 528530.0, 7260729.989718034863472 ], [ 528520.0, 7260723.233369001187384 ], [ 528510.0, 7260716.329821286723018 ], [ 528500.0, 7260708.896306284703314 ], [ 528490.0, 7260701.103693716228008 ], [ 528480.0, 7260693.670178715139627 ], [ 528470.000892210751772, 7260686.766630999743938 ], [ 528460.012066387105733, 7260680.0111741758883 ], [ 528450.099214585614391, 7260673.322301620617509 ], [ 528440.546306264819577, 7260666.788979352451861 ], [ 528432.08680969348643, 7260660.535132088698447 ], [ 528425.756988407694735, 7260655.309004518203437 ] ] } },
{ "type": "Feature", "properties": { "id": 13, "reference_id": 2, "dune_id": 2, "dune_name": "Big Mommy Dune", "acquisition_date": "2024-06-14", "length_m": 145.14302880452874 }, "geometry": { "type": "LineString", "coordinates": [ [ 529151.078100949409418, 7260981.61323303822428 ], [ 529146.078100949409418, 7260978.077762445434928 ], [ 529138.683442020905204, 7260973.992446538992226 ], [ 529129.677239574841224, 7260970.212371663190424 ], [ 529119.944359513698146, 7260966.733338866382837 ], [ 529109.993520701071247, 7260963.314930111169815 ], [ 529099.999553894624114, 7260960.000446105375886 ], [ 529090.0, 7260956.689764766953886 ], [ 529080.0, 7260953.299061058089137 ], [ 529070.0, 7260949.924025978893042 ], [ 529060.000892210751772, 7260946.330713496543467 ], [ 529050.012066387222148, 7260942.216823483817279 ], [ 529040.099214585614391, 7260937.881498890928924 ], [ 529030.546306264819577, 7260934.118162604048848 ], [ 529022.08680969348643, 7260931.627651628106833 ], [ 529015.756988407694735, 7260930.458265855908394 ] ] } },
{ "type": "Feature", "properties": { "id": 14, "reference_id": 6, "dune_id": 6, "dune_name": "The Star Dune", "acquisition_date": "2024-06-14", "length_m": 573.71724106543252 }, "geometry": { "type": "LineString", "coordinates": [ [ 533560.458265855675563, 7262844.243011592887342 ], [ 533561.628543837810867, 7262837.913190307095647 ], [ 533564.128444569883868, 7262829.453693736344576 ], [ 533567.957472912967205, 7262819.900785414502025 ], [ 533572.576766964746639, 7262809.987933613359928 ], [ 533577.423233035369776, 7262799.999107789248228 ], [ 533582.04252708714921, 7262790.0 ], [ 533585.872447640867904, 7262780.0 ], [ 533588.38263033865951, 7262770.0 ], [ 533589.628882342716679, 7262760.0 ], [ 533590.359051270061173, 7262750.0 ], [ 533591.529329252196476, 7262740.0 ], [ 533593.669286503456533, 7262730.0 ], [ 533596.329821285791695, 7262720.0 ], [ 533598.459496571216732, 7262710.0 ], [ 533599.552908320794813, 7262700.0 ], [ 533599.913744012243114, 7262690.0 ], [ 533600.0, 7262680.0 ], [ 533600.086255987756886, 7262670.0 ], [ 533600.447091679205187, 7262660.0 ], [ 533601.540503428783268, 7262650.0 ], [ 533603.670178714208305, 7262640.0 ], [ 533606.330713496543467, 7262630.0 ], [ 533608.470670747803524, 7262620.0 ], [ 533609.640056519303471, 7262610.0 ], [ 533610.359943480696529, 7262600.000000000931323 ], [ 533611.530221462948248, 7262590.0 ], [ 533613.680460680043325, 7262580.0 ], [ 533616.416969484183937, 7262570.0 ], [ 533618.906588250421919, 7262560.0 ], [ 533621.094303960213438, 7262550.0 ], [ 533623.594204692170024, 7262540.0 ], [ 533626.405795307713561, 7262530.0 ], [ 533628.906588250421919, 7262520.0 ], [ 533631.104585926048458, 7262510.0 ], [ 533633.670178714208305, 7262500.0 ], [ 533636.765738788526505, 7262490.0 ], [ 533640.000000000116415, 7262480.0 ], [ 533643.234261211473495, 7262470.0 ], [ 533646.329821285791695, 7262460.0 ], [ 533648.896306284703314, 7262450.0 ], [ 533651.103693715413101, 7262440.0 ], [ 533653.670178714208305, 7262430.0 ], [ 533656.765738788526505, 7262420.0 ], [ 533659.999107789248228, 7262410.0 ], [ 533663.223087035119534, 7262400.0 ], [ 533666.242673087399453, 7262390.0 ], [ 533668.448322394862771, 7262380.0 ], [ 533669.552016110159457, 7262370.0 ], [ 533669.912851801607758, 7262360.0 ], [ 533669.988825823646039, 7262350.0 ], [ 533669.999107789364643, 7262340.000000000931323 ], [ 533670.0, 7262330.000892210751772 ], [ 533670.0, 7262320.012066386640072 ], [ 533670.0, 7262310.099214585497975 ], [ 533670.0, 7262300.546306265518069 ], [ 533670.0, 7262292.086809692904353 ], [ 533670.0, 7262285.756988408043981 ] ] } },
{ "type": "Feature", "properties": { "id": 15, "reference_id": 6, "dune_id": 6, "dune_name": "The Star Dune", "acquisition_date": "2024-06-14", "length_m": 192.00030110512114 }, "geometry": { "type": "LineString", "coordinates": [ [ 533660.0, 7262254.243011592887342 ], [ 533660.0, 7262247.913190307095647 ], [ 533660.0, 7262239.453693734481931 ], [ 533660.0, 7262229.900785414502025 ], [ 533660.0, 7262219.987933613359928 ], [ 533660.0, 7262209.999107789248228 ], [ 533660.0, 7262200.0 ], [ 533660.0, 7262190.0 ], [ 533660.0, 7262180.0 ], [ 533660.0, 7262170.0 ], [ 533660.0, 7262160.0 ], [ 533660.0, 7262150.0 ], [ 533660.0, 7262140.0 ], [ 533659.999107789248228, 7262130.0 ], [ 533659.987933612894267, 7262120.0 ], [ 533659.901677625020966, 7262110.000892210751772 ], [ 533659.465760122402571, 7262100.012066387571394 ], [ 533658.012404892127961, 7262090.099214586429298 ], [ 533654.789317857124843, 7262080.546306265518069 ], [ 533650.0, 7262072.086809692904353 ], [ 533645.210682142875157, 7262065.756988408043981 ] ] } },
{ "type": "Feature", "properties": { "id": 16, "reference_id": 7, "dune_id": 7, "dune_name": "Inverted Y Dune", "acquisition_date": "2024-06-14", "length_m": 525.31784694514965 }, "geometry": { "type": "LineString", "coordinates": [ [ 530155.75698840781115, 7261650.0 ], [ 530162.08680969348643, 7261650.0 ], [ 530170.546306264819577, 7261650.0 ], [ 530180.099214585614391, 7261650.0 ], [ 530190.012066387105733, 7261650.0 ], [ 530200.000892210751772, 7261650.0 ], [ 530210.0, 7261650.0 ], [ 530220.0, 7261650.0 ], [ 530230.0, 7261650.0 ], [ 530240.0, 7261649.999107790179551 ], [ 530250.0, 7261649.9888258241117 ], [ 530260.0, 7261649.911959591321647 ], [ 530270.0, 7261649.541734145022929 ], [ 530280.0, 7261648.372348373755813 ], [ 530290.0, 7261645.881837395951152 ], [ 530300.0, 7261642.118501110002398 ], [ 530310.0, 7261637.783176516182721 ], [ 530320.0, 7261633.669286504387856 ], [ 530330.0, 7261630.075974022969604 ], [ 530340.0, 7261626.700046733021736 ], [ 530350.0, 7261623.299953267909586 ], [ 530360.0, 7261619.92313376814127 ], [ 530370.0, 7261616.318647109903395 ], [ 530380.0, 7261612.118501109071076 ], [ 530390.0, 7261607.346366802230477 ], [ 530400.0, 7261602.118501110002398 ], [ 530410.0, 7261596.317754898220301 ], [ 530420.0, 7261589.911959591321647 ], [ 530430.000000000116415, 7261583.211912859231234 ], [ 530440.0, 7261576.241780877113342 ], [ 530450.0, 7261568.448322394862771 ], [ 530460.0, 7261559.552016111090779 ], [ 530469.999107789364643, 7261549.912851801142097 ], [ 530479.988825823529623, 7261539.9888258241117 ], [ 530489.912851801607758, 7261529.999107789248228 ], [ 530499.552016110159457, 7261520.0 ], [ 530508.448322394862771, 7261510.0 ], [ 530516.242673087399453, 7261500.0 ], [ 530523.222194824367762, 7261490.0 ], [ 530529.988825823529623, 7261480.0 ], [ 530536.689764766488224, 7261470.000000000931323 ], [ 530543.31023523339536, 7261460.0 ], [ 530550.01028196583502, 7261450.000892210751772 ], [ 530556.765738788526505, 7261440.012066387571394 ], [ 530563.658112327102572, 7261430.099214585497975 ], [ 530571.005371340434067, 7261420.546306264586747 ], [ 530578.361174196470529, 7261412.086809693835676 ], [ 530584.330159790813923, 7261405.756988408043981 ] ] } },
{ "type": "Feature", "properties": { "id": 17, "reference_id": 9, "dune_id": 9, "dune_name": "Inverted Y Dune", "acquisition_date": "2024-06-14", "length_m": 758.95263166470795 }, "geometry": { "type": "LineString", "coordinates": [ [ 529661.62765162717551, 7262194.243011591956019 ], [ 529664.118162604048848, 7262187.913190307095647 ], [ 529667.881498891045339, 7262179.453693735413253 ], [ 529672.216823483933695, 7262169.900785414502025 ], [ 529676.330713496543467, 7262159.987933613359928 ], [ 529679.924918188829906, 7262149.999107789248228 ], [ 529683.310235233511776, 7262140.0 ], [ 529686.776020754361525, 7262130.0 ], [ 529690.436809713486582, 7262120.0 ], [ 529694.773872429504991, 7262110.0 ], [ 529700.0, 7262100.0 ], [ 529705.226127570495009, 7262090.0 ], [ 529709.563190286629833, 7262080.0 ], [ 529713.223979245638475, 7262070.0 ], [ 529716.689764766488224, 7262060.0 ], [ 529720.075974022038281, 7262050.0 ], [ 529723.680460680043325, 7262040.0 ], [ 529727.871216925210319, 7262030.0 ], [ 529732.576766964630224, 7262020.0 ], [ 529737.510381233762018, 7262010.0 ], [ 529742.500792942708358, 7262000.0 ], [ 529747.499207057408057, 7261990.0 ], [ 529752.489618766237982, 7261980.0 ], [ 529757.423233035253361, 7261970.0 ], [ 529762.128783074906096, 7261960.0 ], [ 529766.31953932007309, 7261950.0 ], [ 529769.923133767442778, 7261940.0 ], [ 529773.299061056924984, 7261930.0 ], [ 529776.689764766488224, 7261920.0 ], [ 529780.0, 7261910.0 ], [ 529783.310235233511776, 7261900.0 ], [ 529786.700938942958601, 7261890.0 ], [ 529790.076866232673638, 7261880.0 ], [ 529793.681352890678681, 7261870.0 ], [ 529797.882391101680696, 7261860.0 ], [ 529802.664807373774238, 7261850.0 ], [ 529807.968647089437582, 7261840.000000000931323 ], [ 529814.129336780519225, 7261830.0 ], [ 529821.628543837927282, 7261820.0 ], [ 529830.458265855675563, 7261810.0 ], [ 529840.088040409144014, 7261800.0 ], [ 529850.011174176470377, 7261790.0 ], [ 529860.000892210751772, 7261780.0 ], [ 529870.0, 7261770.0 ], [ 529880.0, 7261760.000892210751772 ], [ 529890.0, 7261750.011174176819623 ], [ 529900.0, 7261740.087148198857903 ], [ 529910.0, 7261730.447091680020094 ], [ 529920.0, 7261721.541395640000701 ], [ 529930.0, 7261713.681352891027927 ], [ 529940.0, 7261706.417861695401371 ], [ 529950.0, 7261698.917762426659465 ], [ 529960.0, 7261691.180559948086739 ], [ 529970.0, 7261684.031014405190945 ], [ 529980.0, 7261677.870324714109302 ], [ 529990.0, 7261672.216823484748602 ], [ 530000.0, 7261666.340995462611318 ], [ 530010.0, 7261660.0 ], [ 530020.0, 7261653.659004537388682 ], [ 530030.0, 7261647.782284306362271 ], [ 530039.999107789364643, 7261642.118501110002398 ], [ 530049.987933612894267, 7261635.882729606702924 ], [ 530059.900785414502025, 7261628.384414760395885 ], [ 530069.453693735180423, 7261619.640948729589581 ], [ 530077.91319030651357, 7261610.458265855908394 ], [ 530084.243011592421681, 7261602.075635517016053 ], [ 530087.913190306629986, 7261595.756096197292209 ] ] } }
]
}
