{
"type": "FeatureCollection",
"name": "crests_2021_01_2021-01-16",
"crs": { "type": "name", "properties": { "name": "urn:ogc:def:crs:EPSG::32733" } },
"features": [
{ "type": "Feature", "properties": { "id": 0, "reference_id": 1, "dune_id": 1, "dune_name": "Big Mommy Dune", "acquisition_date": "2021-01-16", "length_m": 371.82413483438279 }, "geometry": { "type": "LineString", "coordinates": [ [ 528935.668947998550721, 7262174.243011591956019 ], [ 528941.628543837810867, 7262167.913190307095647 ], [ 528948.917762426892295, 7262159.453693735413253 ], [ 528955.970770015846938, 7262149.900785414502025 ], [ 528962.053701263619587, 7262139.987933613359928 ], [ 528967.412951069651172, 7262129.999107789248228 ], [ 528972.488726555602625, 7262120.0 ], [ 528977.499207057291642, 7262110.0 ], [ 528982.499900732073002, 7262100.0 ], [ 528987.499207057291642, 7262090.0 ], [ 528992.488726555602625, 7262080.0 ], [ 528997.412951069651172, 7262070.0 ], [ 529002.052809052867815, 7262060.0 ], [ 529005.959595839376561, 7262050.0 ], [ 529008.829722017864697, 7262040.0 ], [ 529011.170277982251719, 7262030.0 ], [ 529014.041296371491626, 7262020.0 ], [ 529017.957472912967205, 7262010.0 ], [ 529022.663915163138881, 7262000.0 ], [ 529027.882391101680696, 7261990.0 ], [ 529033.681352890795097, 7261980.0 ], [ 529040.076866232673638, 7261970.0 ], [ 529046.700938942958601, 7261960.0 ], [ 529053.310235233511776, 7261950.0 ], [ 529060.0, 7261940.0 ], [ 529066.68976476660464, 7261930.0 ], [ 529073.298168846289627, 7261920.0 ], [ 529079.911959590855986, 7261910.0 ], [ 529086.231498910929076, 7261900.0 ], [ 529091.670517219230533, 7261890.000892210751772 ], [ 529095.79468919755891, 7261880.012066386640072 ], [ 529098.361174196470529, 7261870.099214585497975 ], [ 529099.540841933805496, 7261860.546306265518069 ], [ 529099.911959590855986, 7261852.086809693835676 ], [ 529099.988825823646039, 7261845.756988408043981 ] ] } },
{ "type": "Feature", "properties": { "id": 1, "reference_id": 1, "dune_id": 1, "dune_name": "Big Mommy Dune", "acquisition_date": "2021-01-16", "length_m": 826.67589227651274 }, "geometry": { "type": "LineString", "coordinates": [ [ 529088.361174196470529, 7261814.243011592887342 ], [ 529085.79468919755891, 7261807.913190307095647 ], [ 529081.670517219230533, 7261799.453693735413253 ], [ 529076.231498910812661, 7261789.900785414502025 ], [ 529069.911959590972401, 7261779.987933613359928 ], [ 529063.299061057041399, 7261769.999107789248228 ], [ 529056.700046732323244, 7261760.0 ], [ 529050.076866232673638, 7261750.0 ], [ 529043.681352890678681, 7261740.0 ], [ 529037.882391101680696, 7261730.000000000931323 ], [ 529032.663915163138881, 7261720.0 ], [ 529027.957472912967205, 7261710.0 ], [ 529024.042188582126983, 7261700.0 ], [ 529021.181452158722095, 7261690.0 ], [ 529018.917762426892295, 7261680.0 ], [ 529016.417861694935709, 7261670.0 ], [ 529013.681352890795097, 7261660.0 ], [ 529011.541395639418624, 7261650.0 ], [ 529010.447091679205187, 7261640.0 ], [ 529010.088040409144014, 7261630.0 ], [ 529010.022348352940753, 7261620.0 ], [ 529010.088040409144014, 7261610.0 ], [ 529010.447091679205187, 7261600.0 ], [ 529011.540503428783268, 7261590.0 ], [ 529013.671070924960077, 7261580.0 ], [ 529016.340995462378487, 7261570.0 ], [ 529018.54664476972539, 7261560.000000000931323 ], [ 529020.0, 7261550.0 ], [ 529021.454247440909967, 7261540.0 ], [ 529023.670178714208305, 7261530.0 ], [ 529026.416077273548581, 7261520.0 ], [ 529028.907480461173691, 7261510.0 ], [ 529031.104585926048458, 7261500.0 ], [ 529033.670178714208305, 7261490.0 ], [ 529036.766630999278277, 7261480.0 ], [ 529040.01028196583502, 7261470.000000000931323 ], [ 529043.311127444147132, 7261460.0 ], [ 529046.700938942958601, 7261450.0 ], [ 529050.075974021921866, 7261440.0 ], [ 529053.670178714208305, 7261430.0 ], [ 529057.794350692536682, 7261420.0 ], [ 529062.206541518098675, 7261410.0 ], [ 529066.340103251626715, 7261400.0 ], [ 529070.0, 7261390.0 ], [ 529073.659896748373285, 7261380.0 ], [ 529077.79345848178491, 7261370.0 ], [ 529082.206541518098675, 7261360.0 ], [ 529086.340103251626715, 7261350.0 ], [ 529090.0, 7261340.0 ], [ 529093.6598967484897, 7261330.0 ], [ 529097.793458481901325, 7261320.0 ], [ 529102.206541518098675, 7261310.000000000931323 ], [ 529106.3401032515103, 7261300.0 ], [ 529110.0, 7261290.0 ], [ 529113.659896748373285, 7261280.0 ], [ 529117.793458481901325, 7261270.0 ], [ 529122.20654151821509, 7261260.0 ], [ 529126.340103251626715, 7261250.0 ], [ 529130.000892210751772, 7261240.0 ], [ 529133.670178714208305, 7261230.0 ], [ 529137.869432503823191, 7261220.0 ], [ 529142.566484998911619, 7261210.000000000931323 ], [ 529147.433515001088381, 7261200.0 ], [ 529152.129675285541452, 7261190.0 ], [ 529156.318647109437734, 7261180.0 ], [ 529159.912851801607758, 7261170.0 ], [ 529163.223087035119534, 7261160.0 ], [ 529166.328929075156339, 7261150.0 ], [ 529168.895414074067958, 7261140.0 ], [ 529171.092519538942724, 7261130.0 ], [ 529173.583030515816063, 7261120.000000000931323 ], [ 529176.318647109321319, 7261110.0 ], [ 529178.458604360581376, 7261100.0 ], [ 529179.552908320794813, 7261090.0 ], [ 529179.912851801607758, 7261080.000892210751772 ], [ 529179.988825823529623, 7261070.012066387571394 ], [ 529179.999107789364643, 7261060.099214585497975 ], [ 529180.0, 7261050.546306265518069 ], [ 529180.0, 7261042.086809693835676 ], [ 529180.0, 7261035.756988408043981 ] ] } },
{ "type": "Feature", "properties": { "id": 2, "reference_id": 3, "dune_id": 3, "dune_name": "Big Mommy Dune", "acquisition_date": "2021-01-16", "length_m": 348.7793006551716 }, "geometry": { "type": "LineString", "coordinates": [ [ 529364.243011592305265, 7260705.756988408043981 ], [ 529357.91319030651357, 7260712.086809693835676 ], [ 529349.453693735180423, 7260720.546306265518069 ], [ 529339.901677625137381, 7260730.099214585497975 ], [ 529329.999107789248228, 7260740.012066387571394 ], [ 529320.086255987756886, 7260750.000892210751772 ], [ 529310.447983889956959, 7260760.0 ], [ 529301.551677605253644, 7260770.0 ], [ 529293.757326912600547, 7260780.000000000931323 ], [ 529286.777805175632238, 7260790.0 ], [ 529280.011174176470377, 7260800.0 ], [ 529273.310235233511776, 7260810.0 ], [ 529266.690656977239996, 7260820.0 ], [ 529260.0, 7260830.0 ], [ 529253.309343022876419, 7260840.0 ], [ 529246.690656977239996, 7260850.0 ], [ 529240.0, 7260860.0 ], [ 529233.31023523339536, 7260870.0 ], [ 529226.700938943075016, 7260880.0 ], [ 529220.075974022038281, 7260890.0 ], [ 529213.670178714208305, 7260900.0 ], [ 529207.794350692536682, 7260910.0 ], [ 529202.206541518098675, 7260920.0 ], [ 529196.340995462262072, 7260930.0 ], [ 529190.012066387222148, 7260939.999553894624114 ], [ 529183.758219123352319, 7260949.993520701304078 ], [ 529178.328590570134111, 7260959.944359514862299 ], [ 529174.20531080244109, 7260969.6772395754233 ], [ 529171.638825803645886, 7260978.683442020788789 ], [ 529170.45915806631092, 7260986.078100949525833 ], [ 529170.088040409144014, 7260991.078100949525833 ] ] } },
{ "type": "Feature", "properties": { "id": 3, "reference_id": 3, "dune_id": 3, "dune_name": "Big Mommy Dune", "acquisition_date": "2021-01-16", "length_m": 148.48602318484336 }, "geometry": { "type": "LineString", "coordinates": [ [ 529904.243011592421681, 7260610.0 ], [ 529897.91319030651357, 7260610.0 ], [ 529889.453693735180423, 7260610.0 ], [ 529879.900785414385609, 7260610.0 ], [ 529869.987933612894267, 7260610.0 ], [ 529859.999107789364643, 7260610.0 ], [ 529850.0, 7260610.0 ], [ 529840.0, 7260610.0 ], [ 529830.0, 7260610.0 ], [ 529820.0, 7260610.0 ], [ 529810.0, 7260610.0 ], [ 529800.000892210751772, 7260610.0 ], [ 529790.012066387222148, 7260610.0 ], [ 529780.099214585614391, 7260610.0 ], [ 529770.546306264819577, 7260610.0 ], [ 529762.08680969348643, 7260610.0 ], [ 529755.756988407578319, 7260610.0 ] ] } },
{ "type": "Feature", "properties": { "id": 4, "reference_id": 3, "dune_id": 3, "dune_name": "Big Mommy Dune", "acquisition_date": "2021-01-16", "length_m": 174.26317646538067 }, "geometry": { "type": "LineString", "coordinates": [ [ 530075.756988407694735, 7260599.9888258241117 ], [ 530082.08680969348643, 7260599.912851802073419 ], [ 530090.546306264819577, 7260599.552016111090779 ], [ 530100.099214585614391, 7260598.448322394862771 ], [ 530110.012066387222148, 7260596.242673087865114 ], [ 530120.000892210751772, 7260593.223087035119534 ], [ 530130.0, 7260590.0 ], [ 530140.0, 7260586.776912964880466 ], [ 530150.0, 7260583.757326913066208 ], [ 530160.0, 7260581.550785394385457 ], [ 530170.000000000116415, 7260580.436809713020921 ], [ 530180.0, 7260579.999107789248228 ], [ 530190.0, 7260579.552908321842551 ], [ 530199.999107789248228, 7260578.373240584507585 ], [ 530209.987933612894267, 7260575.882729606702924 ], [ 530219.900785414385609, 7260572.129675285890698 ], [ 530229.453693735180423, 7260567.870324715040624 ], [ 530237.91319030651357, 7260564.117270393297076 ], [ 530244.243011592421681, 7260561.627651628106833 ] ] } },
{ "type": "Feature", "properties": { "id": 5, "reference_id": 3, "dune_id": 3, "dune_name": "Big Mommy Dune", "acquisition_date": "2021-01-16", "length_m": 141.81245207770343 }, "geometry": { "type": "LineString", "coordinates": [ [ 529614.243011592421681, 7260630.087148198857903 ], [ 529607.91319030651357, 7260630.447091680020094 ], [ 529599.453693735180423, 7260631.540503429248929 ], [ 529589.900785414502025, 7260633.671070925891399 ], [ 529579.987933612894267, 7260636.340995462611318 ], [ 529569.999107789248228, 7260638.546644769608974 ], [ 529560.0, 7260640.0 ], [ 529550.0, 7260641.454247441142797 ], [ 529540.0, 7260643.670178715139627 ], [ 529530.0, 7260646.416077273897827 ], [ 529520.000892210751772, 7260648.906588250771165 ], [ 529510.012066387105733, 7260651.093411749228835 ], [ 529500.099214585614391, 7260653.583030516281724 ], [ 529490.546306264819577, 7260656.318647109903395 ], [ 529482.08680969348643, 7260658.458604361861944 ], [ 529475.756988407694735, 7260659.552908320911229 ] ] } },
{ "type": "Feature", "properties": { "id": 6, "reference_id": 8, "dune_id": 8, "dune_name": "Inverted Y Dune", "acquisition_date": "2021-01-16", "length_m": 405.66810540398814 }, "geometry": { "type": "LineString", "coordinates": [ [ 530244.243011592421681, 7261232.086809693835676 ], [ 530237.91319030651357, 7261235.756988408043981 ], [ 530229.453693735180423, 7261242.086809693835676 ], [ 530219.900785414385609, 7261250.546306264586747 ], [ 530209.987933612894267, 7261260.099214585497975 ], [ 530200.0, 7261270.012066387571394 ], [ 530190.012066387105733, 7261280.000892210751772 ], [ 530180.098322374862619, 7261290.0 ], [ 530170.535132088349201, 7261300.0 ], [ 530161.998769284342416, 7261310.000000000931323 ], [ 530155.298722552135587, 7261320.0 ], [ 530150.459158066427335, 7261330.0 ], [ 530146.428143660770729, 7261340.0 ], [ 530142.217715694569051, 7261350.0 ], [ 530137.795242903288454, 7261360.0 ], [ 530133.671070924960077, 7261370.0 ], [ 530130.086255987756886, 7261380.0 ], [ 530126.776912964996882, 7261390.0 ], [ 530123.671070924960077, 7261400.0 ], [ 530121.104585926048458, 7261410.0 ], [ 530118.907480461173691, 7261420.0 ], [ 530116.416969484300353, 7261430.0 ], [ 530113.680460680043325, 7261440.0 ], [ 530111.530221462948248, 7261450.0 ], [ 530110.359943480812944, 7261460.0 ], [ 530109.640056519303471, 7261470.000000000931323 ], [ 530108.470670747803524, 7261480.0 ], [ 530106.330713496543467, 7261490.0 ], [ 530103.670178714208305, 7261500.0 ], [ 530101.540503428783268, 7261510.0 ], [ 530100.447091679205187, 7261520.0 ], [ 530100.087148198508658, 7261530.0 ], [ 530100.010728071210906, 7261539.999553894624114 ], [ 530099.995305122458376, 7261549.993520701304078 ], [ 530099.956425900803879, 7261559.944359513930976 ], [ 530099.776454160455614, 7261569.6772395754233 ], [ 530099.229748285608366, 7261578.683442020788789 ], [ 530098.164910642895848, 7261586.078100949525833 ], [ 530096.835089357104152, 7261591.078100949525833 ] ] } },
{ "type": "Feature", "properties": { "id": 7, "reference_id": 8, "dune_id": 8, "dune_name": "Inverted Y Dune", "acquisition_date": "2021-01-16", "length_m": 70.095108305550156 }, "geometry": { "type": "LineString", "coordinates": [ [ 530554.243011592305265, 7261172.085917483083904 ], [ 530547.91319030651357, 7261175.744922020472586 ], [ 530539.454585945932195, 7261181.987595107406378 ], [ 530529.912851801607758, 7261190.0 ], [ 530520.087148198392242, 7261198.012404892593622 ], [ 530510.545414054067805, 7261204.255077979527414 ], [ 530502.08680969348643, 7261207.914082517847419 ], [ 530495.756988407694735, 7261209.453693735413253 ] ] } },
{ "type": "Feature", "properties": { "id": 8, "reference_id": 9, "dune_id": 9, "dune_name": "Inverted Y Dune", "acquisition_date": "2021-01-16", "length_m": 801.35881540650973 }, "geometry": { "type": "LineString", "coordinates": [ [ 530091.078100949525833, 7261598.921006839722395 ], [ 530086.078100949409418, 7261603.910724874585867 ], [ 530078.683442020905204, 7261611.229409780353308 ], [ 530069.677239574841224, 7261619.874776534736156 ], [ 530059.944359513698146, 7261628.503962881863117 ], [ 530049.993520701071247, 7261636.248260175809264 ], [ 530039.999553894624114, 7261643.21235896460712 ], [ 530030.0, 7261649.912851802073419 ], [ 530020.0, 7261656.328929075039923 ], [ 530010.0, 7261662.205649307928979 ], [ 530000.0, 7261667.794350693002343 ], [ 529990.0, 7261673.670178714208305 ], [ 529980.0, 7261680.075974022038281 ], [ 529970.0, 7261686.700938943773508 ], [ 529960.0, 7261693.311127444729209 ], [ 529950.0, 7261700.011174177750945 ], [ 529940.0, 7261706.777805175632238 ], [ 529930.0, 7261713.757326913066208 ], [ 529920.0, 7261721.551677605137229 ], [ 529910.0, 7261730.447983890771866 ], [ 529900.0, 7261740.087148198857903 ], [ 529890.0, 7261750.011174176819623 ], [ 529880.0, 7261760.000892210751772 ], [ 529870.0, 7261770.0 ], [ 529860.000892210751772, 7261780.0 ], [ 529850.011174176470377, 7261790.0 ], [ 529840.087148198392242, 7261800.0 ], [ 529830.447983889840543, 7261810.0 ], [ 529821.551677605137229, 7261820.0 ], [ 529813.758219123352319, 7261830.0 ], [ 529806.78897935221903, 7261840.000000000931323 ], [ 529800.098322374862619, 7261850.0 ], [ 529793.758219123352319, 7261860.0 ], [ 529788.24233458249364, 7261870.0 ], [ 529783.757326912600547, 7261880.0 ], [ 529780.087148198392242, 7261890.0 ], [ 529776.701831153710373, 7261900.0 ], [ 529773.310235233511776, 7261910.0 ], [ 529770.0, 7261920.0 ], [ 529766.690656977239996, 7261930.0 ], [ 529763.309343022760004, 7261940.0 ], [ 529760.0, 7261950.0 ], [ 529756.689764766488224, 7261960.0 ], [ 529753.299061056924984, 7261970.0 ], [ 529749.923133767326362, 7261980.0 ], [ 529746.31953932007309, 7261990.0 ], [ 529742.129675285541452, 7262000.0 ], [ 529737.433515001088381, 7262010.0 ], [ 529732.565592788159847, 7262020.0 ], [ 529727.859150538104586, 7262030.0 ], [ 529723.594204692286439, 7262040.0 ], [ 529719.640056519303471, 7262050.0 ], [ 529715.236409536330029, 7262060.0 ], [ 529710.000892210751772, 7262070.0 ], [ 529704.773872429504991, 7262080.0 ], [ 529700.436809713486582, 7262090.0 ], [ 529696.77602075424511, 7262100.0 ], [ 529693.310235233511776, 7262110.0 ], [ 529689.924025978078134, 7262120.0 ], [ 529686.31953932007309, 7262130.0 ], [ 529682.129675285541452, 7262140.0 ], [ 529677.433515001088381, 7262150.0 ], [ 529672.566484998911619, 7262160.0 ], [ 529667.870324714574963, 7262170.0 ], [ 529663.681352890678681, 7262180.0 ], [ 529660.088040409144014, 7262189.999107789248228 ], [ 529656.788087141467258, 7262199.987933613359928 ], [ 529653.758219123352319, 7262209.900785414502025 ], [ 529651.551677605253644, 7262219.453693735413253 ], [ 529650.447983889840543, 7262227.913190307095647 ], [ 529650.087148198392242, 7262234.243011592887342 ] ] } },
{ "type": "Feature", "properties": { "id": 9, "reference_id": 2, "dune_id": 2, "dune_name": "Big Mommy Dune", "acquisition_date": "2021-01-16", "length_m": 61.27163556894569 }, "geometry": { "type": "LineString", "coordinates": [ [ 528825.756988407694735, 7260880.447983890771866 ], [ 528832.08680969348643, 7260881.551677605137229 ], [ 528840.545414054067805, 7260883.757326912134886 ], [ 528850.087148198392242, 7260886.776912964880466 ], [ 528859.912851801607758, 7260890.0 ], [ 528869.454585945932195, 7260893.223087035119534 ], [ 528877.91319030651357, 7260896.242673087865114 ], [ 528884.243011592305265, 7260898.448322394862771 ] ] } },
{ "type": "Feature", "properties": { "id": 10, "reference_id": 2, "dune_id": 2, "dune_name": "Big Mommy Dune", "acquisition_date": "2021-01-16", "length_m": 351.64099414545581 }, "geometry": { "type": "LineString", "coordinates": [ [ 528724.243011592421681, 7260838.372348373755813 ], [ 528717.91319030651357, 7260835.881837395951152 ], [ 528709.453693735180423, 7260832.118501109071076 ], [ 528699.900785414502025, 7260827.782284305430949 ], [ 528689.987933612894267, 7260823.659004538320005 ], [ 528679.999107789364643, 7260819.999107789248228 ], [ 528670.0, 7260816.328929075971246 ], [ 528660.0, 7260812.11939332075417 ], [ 528650.0, 7260807.346366802230477 ], [ 528640.0, 7260802.118501110002398 ], [ 528630.0, 7260796.318647108972073 ], [ 528620.0, 7260789.923133767209947 ], [ 528610.0, 7260783.299061057157815 ], [ 528600.0, 7260776.689764767885208 ], [ 528590.0, 7260770.0 ], [ 528580.0, 7260763.309343023225665 ], [ 528570.0, 7260756.690656976774335 ], [ 528560.0, 7260750.0 ], [ 528550.0, 7260743.309343023225665 ], [ 528540.0, 7260736.689764766953886 ], [ 528530.0, 7260729.989718034863472 ], [ 528520.0, 7260723.233369001187384 ], [ 528510.0, 7260716.329821286723018 ], [ 528500.0, 7260708.896306284703314 ], [ 528490.0, 7260701.103693716228008 ], [ 528480.0, 7260693.670178715139627 ], [ 528470.000892210751772, 7260686.766630999743938 ], [ 528460.012066387105733, 7260680.0111741758883 ], [ 528450.099214585614391, 7260673.322301620617509 ], [ 528440.546306264819577, 7260666.788979352451861 ], [ 528432.08680969348643, 7260660.535132088698447 ], [ 528425.756988407694735, 7260655.309004518203437 ] ] } },
{ "type": "Feature", "properties": { "id": 11, "reference_id": 7, "dune_id": 7, "dune_name": "Inverted Y Dune", "acquisition_date": "2021-01-16", "length_m": 540.69487921495113 }, "geometry": { "type": "LineString", "coordinates": [ [ 530245.756988407694735, 7261640.0 ], [ 530252.08680969348643, 7261640.0 ], [ 530260.546306264819577, 7261640.0 ], [ 530270.099214585614391, 7261639.999107789248228 ], [ 530280.012066387222148, 7261639.9888258241117 ], [ 530290.000892210635357, 7261639.911959590390325 ], [ 530300.0, 7261639.541734144091606 ], [ 530310.0, 7261638.372348373755813 ], [ 530320.0, 7261635.881837395951152 ], [ 530330.0, 7261632.118501109071076 ], [ 530340.0, 7261627.782284305430949 ], [ 530350.0, 7261623.659004537388682 ], [ 530360.0, 7261619.999107789248228 ], [ 530370.0, 7261616.328929075971246 ], [ 530380.0, 7261612.119393319822848 ], [ 530390.0, 7261607.346366802230477 ], [ 530400.0, 7261602.118501110002398 ], [ 530410.0, 7261596.317754898220301 ], [ 530420.0, 7261589.911959591321647 ], [ 530430.000000000116415, 7261583.211912859231234 ], [ 530440.0, 7261576.241780877113342 ], [ 530450.0, 7261568.448322394862771 ], [ 530460.0, 7261559.552016111090779 ], [ 530469.999107789364643, 7261549.912851801142097 ], [ 530479.988825823529623, 7261539.9888258241117 ], [ 530489.911959590855986, 7261529.999107789248228 ], [ 530499.541734144324437, 7261520.0 ], [ 530508.37234837282449, 7261510.0 ], [ 530515.881837395951152, 7261500.0 ], [ 530522.118501109071076, 7261490.0 ], [ 530527.783176516182721, 7261480.0 ], [ 530533.669286503456533, 7261470.000000000931323 ], [ 530540.075974021921866, 7261460.0 ], [ 530546.700938943075016, 7261450.0 ], [ 530553.311127444147132, 7261440.0 ], [ 530560.011174176470377, 7261430.0 ], [ 530566.777805175632238, 7261420.0 ], [ 530573.757326912600547, 7261410.0 ], [ 530581.551677605253644, 7261400.0 ], [ 530590.447983889840543, 7261390.0 ], [ 530600.087148198392242, 7261380.0 ], [ 530610.01028196583502, 7261370.000892210751772 ], [ 530619.988825823646039, 7261360.012066386640072 ], [ 530629.900785414502025, 7261350.099214585497975 ], [ 530639.453693735296838, 7261340.546306265518069 ], [ 530647.913190306629986, 7261332.086809693835676 ], [ 530654.243011592305265, 7261325.756988408043981 ] ] } },
{ "type": "Feature", "properties": { "id": 12, "reference_id": 6, "dune_id": 6, "dune_name": "The Star Dune", "acquisition_date": "2021-01-16", "length_m": 636.4673648454667 }, "geometry": { "type": "LineString", "coordinates": [ [ 533600.0, 7262674.243011591956019 ], [ 533600.0, 7262667.913190307095647 ], [ 533600.000892210635357, 7262659.453693736344576 ], [ 533600.011174176470377, 7262649.900785414502025 ], [ 533600.087148198392242, 7262639.987933612428606 ], [ 533600.447091679205187, 7262629.999107789248228 ], [ 533601.540503428783268, 7262620.0 ], [ 533603.671070924960077, 7262610.0 ], [ 533606.340995462378487, 7262600.000000000931323 ], [ 533608.54664476972539, 7262590.0 ], [ 533610.000892210751772, 7262580.0 ], [ 533611.464529406744987, 7262570.0 ], [ 533613.746152736246586, 7262560.0 ], [ 533616.776020754361525, 7262550.0 ], [ 533620.000892210635357, 7262540.0 ], [ 533623.234261211473495, 7262530.0 ], [ 533626.329821285791695, 7262520.0 ], [ 533628.896306284703314, 7262510.0 ], [ 533631.103693715296686, 7262500.0 ], [ 533633.670178714208305, 7262490.0 ], [ 533636.766630999278277, 7262480.0 ], [ 533640.01028196583502, 7262470.0 ], [ 533643.310235233511776, 7262460.0 ], [ 533646.689764766488224, 7262450.0 ], [ 533649.989718034281395, 7262440.0 ], [ 533653.233369000838138, 7262430.0 ], [ 533656.329821285791695, 7262420.0 ], [ 533658.895414073951542, 7262410.0 ], [ 533661.092519538942724, 7262400.0 ], [ 533663.583030515816063, 7262390.0 ], [ 533666.318647109437734, 7262380.0 ], [ 533668.458604360697791, 7262370.0 ], [ 533669.552908320911229, 7262360.0 ], [ 533669.912851801607758, 7262350.0 ], [ 533669.988825823646039, 7262340.000000000931323 ], [ 533669.999107789364643, 7262330.0 ], [ 533669.999107789364643, 7262320.0 ], [ 533669.988825823646039, 7262310.0 ], [ 533669.912851801607758, 7262300.0 ], [ 533669.552908320911229, 7262290.0 ], [ 533668.459496571333148, 7262280.0 ], [ 533666.329821285791695, 7262270.0 ], [ 533663.670178714208305, 7262260.0 ], [ 533661.539611218031496, 7262250.0 ], [ 533660.43591750273481, 7262240.0 ], [ 533660.0, 7262230.0 ], [ 533659.56408249726519, 7262220.0 ], [ 533658.460388781968504, 7262210.0 ], [ 533656.329821285791695, 7262200.0 ], [ 533653.670178714208305, 7262190.0 ], [ 533651.540503428783268, 7262180.0 ], [ 533650.447091679205187, 7262170.0 ], [ 533650.087148198508658, 7262160.0 ], [ 533650.011174176470377, 7262150.0 ], [ 533650.000892210751772, 7262140.0 ], [ 533650.0, 7262130.0 ], [ 533650.0, 7262120.0 ], [ 533650.0, 7262110.0 ], [ 533650.0, 7262100.000446105375886 ], [ 533650.0, 7262090.006479298695922 ], [ 533650.0, 7262080.055640487000346 ], [ 533650.0, 7262070.322760425508022 ], [ 533650.0, 7262061.316557979211211 ], [ 533650.0, 7262053.921899050474167 ], [ 533650.0, 7262048.921899050474167 ] ] } },
{ "type": "Feature", "properties": { "id": 13, "reference_id": 5, "dune_id": 5, "dune_name": "The Star Dune", "acquisition_date": "2021-01-16", "length_m": 914.30025493779249 }, "geometry": { "type": "LineString", "coordinates": [ [ 533651.638825803645886, 7262041.078100949525833 ], [ 533654.20531080244109, 7262036.078100949525833 ], [ 533658.328590570134111, 7262028.683442020788789 ], [ 533663.758219123352319, 7262019.677239574491978 ], [ 533670.011174176586792, 7262009.944359513930976 ], [ 533676.330713496543467, 7261999.993520701304078 ], [ 533682.129675285541452, 7261989.999553894624114 ], [ 533687.423233035369776, 7261980.0 ], [ 533692.489618766237982, 7261970.0 ], [ 533697.499207057408057, 7261960.0 ], [ 533702.499900732073002, 7261950.0 ], [ 533707.500099268043414, 7261940.0 ], [ 533712.499900731956586, 7261930.0 ], [ 533717.499207057291642, 7261920.0 ], [ 533722.489618766237982, 7261910.0 ], [ 533727.423233035253361, 7261900.0 ], [ 533732.128783074906096, 7261890.0 ], [ 533736.31953932007309, 7261880.0 ], [ 533739.923133767442778, 7261870.0 ], [ 533743.299953267676756, 7261860.0 ], [ 533746.700938942958601, 7261850.0 ], [ 533750.088040409144014, 7261840.000000000931323 ], [ 533753.768501089187339, 7261830.000892210751772 ], [ 533758.329482780885883, 7261820.011174176819623 ], [ 533764.205310802557506, 7261810.087148198857903 ], [ 533771.638825803645886, 7261800.447983889840543 ], [ 533780.45915806631092, 7261791.551677605137229 ], [ 533790.088040409144014, 7261783.75821912381798 ], [ 533800.011174176470377, 7261776.788979352451861 ], [ 533810.000892210635357, 7261770.098322374746203 ], [ 533820.0, 7261763.758219122886658 ], [ 533830.0, 7261758.241442371159792 ], [ 533840.0, 7261753.746152736246586 ], [ 533850.0, 7261750.0 ], [ 533860.0, 7261746.254739474505186 ], [ 533870.0, 7261741.769731804728508 ], [ 533880.0, 7261736.329821286723018 ], [ 533890.0, 7261730.360835691913962 ], [ 533900.0, 7261724.850738662295043 ], [ 533910.0, 7261720.457373645156622 ], [ 533920.0, 7261716.853779197670519 ], [ 533930.0, 7261713.681352891027927 ], [ 533940.0, 7261711.105478137731552 ], [ 533950.0, 7261708.907480461522937 ], [ 533960.0, 7261706.416077273897827 ], [ 533970.0, 7261703.670178714208305 ], [ 533980.0, 7261701.454247441142797 ], [ 533990.0, 7261700.0 ], [ 534000.0, 7261698.546644769608974 ], [ 534010.0, 7261696.340995462611318 ], [ 534020.0, 7261693.671070924960077 ], [ 534030.0, 7261691.539611218497157 ], [ 534040.0, 7261690.435917503200471 ], [ 534050.0, 7261690.0 ], [ 534060.0, 7261689.564082497730851 ], [ 534070.0, 7261688.460388783365488 ], [ 534080.0, 7261686.329821286723018 ], [ 534090.0, 7261683.669286504387856 ], [ 534100.0, 7261681.529329252429307 ], [ 534110.0, 7261680.35994348116219 ], [ 534120.0, 7261679.640056519769132 ], [ 534130.0, 7261678.469778537750244 ], [ 534140.0, 7261676.318647108972073 ], [ 534150.0, 7261673.571856340393424 ], [ 534160.0, 7261671.005371341481805 ], [ 534170.0, 7261668.447430184110999 ], [ 534180.0, 7261664.778143680654466 ], [ 534190.0, 7261659.476042088121176 ], [ 534200.0, 7261653.211912859231234 ], [ 534210.0, 7261646.678590590134263 ], [ 534220.0, 7261639.999107789248228 ], [ 534230.0, 7261633.309343023225665 ], [ 534240.0, 7261626.689764766022563 ], [ 534250.0, 7261619.9888258241117 ], [ 534260.0, 7261613.222194824367762 ], [ 534269.999107789248228, 7261606.242673087865114 ], [ 534279.987933612894267, 7261598.448322394862771 ], [ 534289.900785414502025, 7261589.552016110159457 ], [ 534299.453693735296838, 7261579.912851802073419 ], [ 534307.91319030651357, 7261569.989718034863472 ], [ 534314.243011592305265, 7261560.011174176819623 ], [ 534317.91319030651357, 7261550.099214585497975 ], [ 534319.453693735296838, 7261540.546306265518069 ], [ 534319.900785414385609, 7261532.086809693835676 ], [ 534319.987933612894267, 7261525.756988408043981 ] ] } },
{ "type": "Feature", "properties": { "id": 14, "reference_id": 5, "dune_id": 5, "dune_name": "The Star Dune", "acquisition_date": "2021-01-16", "length_m": 95.687187792080934 }, "geometry": { "type": "LineString", "coordinates": [ [ 534334.342226177919656, 7261305.756988408043981 ], [ 534328.459496571333148, 7261312.086809693835676 ], [ 534321.540503428666852, 7261320.546306264586747 ], [ 534315.657773822080344, 7261330.099214585497975 ], [ 534312.074743306264281, 7261340.012066386640072 ], [ 534310.545414054067805, 7261350.0 ], [ 534310.099214585614391, 7261359.987933613359928 ], [ 534310.012066387222148, 7261369.900785414502025 ], [ 534310.000892210751772, 7261379.453693735413253 ], [ 534310.0, 7261387.913190307095647 ], [ 534310.0, 7261394.243011592887342 ] ] } },
{ "type": "Feature", "properties": { "id": 15, "reference_id": 5, "dune_id": 5, "dune_name": "The Star Dune", "acquisition_date": "2021-01-16", "length_m": 58.486023183912039 }, "geometry": { "type": "LineString", "coordinates": [ [ 534320.0, 7261425.756988408043981 ], [ 534320.0, 7261432.086809692904353 ], [ 534320.0, 7261440.545414054766297 ], [ 534320.0, 7261450.087148198857903 ], [ 534320.0, 7261459.912851801142097 ], [ 534320.0, 7261469.454585947096348 ], [ 534320.0, 7261477.913190307095647 ], [ 534320.0, 7261484.243011591956019 ] ] } }
]
}
