{
"type": "FeatureCollection",
"name": "crests_2026_01_2026-01-08",
"crs": { "type": "name", "properties": { "name": "urn:ogc:def:crs:EPSG::32733" } },
"features": [
{ "type": "Feature", "properties": { "id": 0, "reference_id": 3, "dune_id": 3, "dune_name": "Big Mommy Dune", "acquisition_date": "2026-01-08", "length_m": 361.14233881728222 }, "geometry": { "type": "LineString", "coordinates": [ [ 529374.243011592305265, 7260695.756988408043981 ], [ 529367.91319030651357, 7260702.086809693835676 ], [ 529359.453693735180423, 7260710.546306265518069 ], [ 529349.900785414502025, 7260720.099214585497975 ], [ 529339.988825823529623, 7260730.012066388502717 ], [ 529330.01028196583502, 7260740.000892210751772 ], [ 529320.087148198508658, 7260750.0 ], [ 529310.447983889956959, 7260760.0 ], [ 529301.551677605253644, 7260770.0 ], [ 529293.758219123352319, 7260780.000000000931323 ], [ 529286.788087141467258, 7260790.0 ], [ 529280.087148198392242, 7260800.0 ], [ 529273.671070924960077, 7260810.0 ], [ 529267.794350692536682, 7260820.0 ], [ 529262.205649307463318, 7260830.0 ], [ 529256.32982128590811, 7260840.0 ], [ 529249.924025978078134, 7260850.0 ], [ 529243.299953267676756, 7260860.0 ], [ 529236.700046732323244, 7260870.0 ], [ 529230.075974021921866, 7260880.0 ], [ 529223.670178714208305, 7260890.0 ], [ 529217.794350692536682, 7260900.0 ], [ 529212.206541518098675, 7260910.0 ], [ 529206.340995462262072, 7260920.0 ], [ 529200.011174176353961, 7260930.0 ], [ 529193.747044946881942, 7260939.999553894624114 ], [ 529188.241442371741869, 7260949.993520701304078 ], [ 529183.758219123352319, 7260959.944359514862299 ], [ 529180.098322374862619, 7260969.6772395754233 ], [ 529176.788979352102615, 7260978.683442020788789 ], [ 529173.758219123352319, 7260986.078100949525833 ], [ 529171.551677605253644, 7260991.078100949525833 ] ] } },
{ "type": "Feature", "properties": { "id": 1, "reference_id": 3, "dune_id": 3, "dune_name": "Big Mommy Dune", "acquisition_date": "2026-01-08", "length_m": 215.0215565901816 }, "geometry": { "type": "LineString", "coordinates": [ [ 529405.756988407694735, 7260679.552016109228134 ], [ 529412.08680969348643, 7260678.448322394862771 ], [ 529420.546306264819577, 7260676.242673087865114 ], [ 529430.099214585614391, 7260673.222194824367762 ], [ 529440.012066387222148, 7260669.9888258241117 ], [ 529450.000892210751772, 7260666.689764766953886 ], [ 529460.0, 7260663.310235233977437 ], [ 529470.0, 7260660.010281966067851 ], [ 529480.0, 7260656.766630999743938 ], [ 529490.0, 7260653.670178714208305 ], [ 529500.000000000116415, 7260651.10458592697978 ], [ 529510.0, 7260648.907480461522937 ], [ 529520.0, 7260646.416077273897827 ], [ 529530.0, 7260643.670178715139627 ], [ 529540.0, 7260641.454247441142797 ], [ 529550.0, 7260640.0 ], [ 529560.0, 7260638.546644769608974 ], [ 529569.999107789248228, 7260636.340995462611318 ], [ 529579.987933612894267, 7260633.671070925891399 ], [ 529589.900785414502025, 7260631.540503429248929 ], [ 529599.453693735180423, 7260630.447091680020094 ], [ 529607.91319030651357, 7260630.087148198857903 ], [ 529614.243011592421681, 7260630.011174176819623 ] ] } },
{ "type": "Feature", "properties": { "id": 2, "reference_id": 3, "dune_id": 3, "dune_name": "Big Mommy Dune", "acquisition_date": "2026-01-08", "length_m": 58.486023184610531 }, "geometry": { "type": "LineString", "coordinates": [ [ 529704.243011592305265, 7260620.0 ], [ 529697.91319030651357, 7260620.0 ], [ 529689.454585945932195, 7260620.0 ], [ 529679.912851801607758, 7260620.0 ], [ 529670.087148198508658, 7260620.0 ], [ 529660.545414054067805, 7260620.0 ], [ 529652.08680969348643, 7260620.0 ], [ 529645.756988407694735, 7260620.0 ] ] } },
{ "type": "Feature", "properties": { "id": 3, "reference_id": 3, "dune_id": 3, "dune_name": "Big Mommy Dune", "acquisition_date": "2026-01-08", "length_m": 169.66306270857342 }, "geometry": { "type": "LineString", "coordinates": [ [ 529735.756988407694735, 7260610.0 ], [ 529742.08680969348643, 7260610.0 ], [ 529750.546306264819577, 7260609.999107789248228 ], [ 529760.099214585614391, 7260609.9888258241117 ], [ 529770.012066387222148, 7260609.912851802073419 ], [ 529780.000892210751772, 7260609.553800531663001 ], [ 529790.0, 7260608.470670748502016 ], [ 529800.0, 7260606.416969485580921 ], [ 529810.0, 7260604.117270393297076 ], [ 529820.0, 7260603.081006857566535 ], [ 529830.0, 7260604.117270393297076 ], [ 529840.0, 7260606.416969485580921 ], [ 529850.0, 7260608.470670748502016 ], [ 529859.999107789364643, 7260609.553800531663001 ], [ 529869.987933612894267, 7260609.912851802073419 ], [ 529879.900785414385609, 7260609.9888258241117 ], [ 529889.453693735180423, 7260609.999107789248228 ], [ 529897.91319030651357, 7260610.0 ], [ 529904.243011592421681, 7260610.0 ] ] } },
{ "type": "Feature", "properties": { "id": 4, "reference_id": 3, "dune_id": 3, "dune_name": "Big Mommy Dune", "acquisition_date": "2026-01-08", "length_m": 223.91331924614533 }, "geometry": { "type": "LineString", "coordinates": [ [ 530025.756988407694735, 7260601.453355230391026 ], [ 530032.08680969348643, 7260603.223087035119534 ], [ 530040.546306264703162, 7260604.789317857474089 ], [ 530050.099214585614391, 7260604.789317857474089 ], [ 530060.012066387222148, 7260603.222194824367762 ], [ 530070.000892210751772, 7260601.442181054502726 ], [ 530080.0, 7260600.34876930527389 ], [ 530090.0, 7260599.63916430901736 ], [ 530100.0, 7260598.469778537750244 ], [ 530110.0, 7260596.319539319723845 ], [ 530120.0, 7260593.583030516281724 ], [ 530130.0, 7260591.092519538477063 ], [ 530140.0, 7260588.895414073951542 ], [ 530150.0, 7260586.329821285791695 ], [ 530160.0, 7260583.234261211007833 ], [ 530170.000000000116415, 7260580.000892210751772 ], [ 530180.0, 7260576.776912965811789 ], [ 530190.0, 7260573.756434702314436 ], [ 530199.999107789248228, 7260571.540503429248929 ], [ 530209.987933612894267, 7260570.360835691913962 ], [ 530219.900785414385609, 7260569.640056519769132 ], [ 530229.453693735180423, 7260568.470670748502016 ], [ 530237.91319030651357, 7260566.330713496543467 ], [ 530244.243011592421681, 7260563.670178714208305 ] ] } },
{ "type": "Feature", "properties": { "id": 5, "reference_id": 8, "dune_id": 8, "dune_name": "Inverted Y Dune", "acquisition_date": "2026-01-08", "length_m": 428.41529666241843 }, "geometry": { "type": "LineString", "coordinates": [ [ 530264.243011592421681, 7261221.638825803995132 ], [ 530257.913190306629986, 7261224.205310802906752 ], [ 530249.453693735180423, 7261228.329482780769467 ], [ 530239.900785414502025, 7261233.76939329970628 ], [ 530229.987933612777852, 7261240.099214585497975 ], [ 530220.0, 7261246.788979351520538 ], [ 530210.011174176470377, 7261253.75821912381798 ], [ 530200.087148198392242, 7261261.551677605137229 ], [ 530190.447983889840543, 7261270.447983890771866 ], [ 530181.552569815889001, 7261280.087148198857903 ], [ 530173.768501089187339, 7261290.0111741758883 ], [ 530166.864953374140896, 7261300.000892210751772 ], [ 530160.45915806631092, 7261310.000000000931323 ], [ 530154.861912838649005, 7261320.0 ], [ 530150.447983889840543, 7261330.0 ], [ 530146.777805175632238, 7261340.0 ], [ 530143.321409409982152, 7261350.0 ], [ 530140.011174176586792, 7261360.0 ], [ 530136.766630999278277, 7261370.0 ], [ 530133.670178714208305, 7261380.0 ], [ 530131.104585926048458, 7261390.0 ], [ 530128.907480461173691, 7261400.0 ], [ 530126.416077273664996, 7261410.0 ], [ 530123.670178714208305, 7261420.0 ], [ 530121.454247441026382, 7261430.0 ], [ 530120.0, 7261440.0 ], [ 530118.54664476972539, 7261450.0 ], [ 530116.340995462262072, 7261460.0 ], [ 530113.671070924960077, 7261470.000000000931323 ], [ 530111.540503428666852, 7261480.0 ], [ 530110.447091679205187, 7261490.0 ], [ 530110.086255987756886, 7261500.0 ], [ 530110.0, 7261510.0 ], [ 530109.913744012243114, 7261520.0 ], [ 530109.552908320911229, 7261530.0 ], [ 530108.459496571333148, 7261539.999553894624114 ], [ 530106.329821285791695, 7261549.993520701304078 ], [ 530103.670178714208305, 7261559.944359513930976 ], [ 530101.540503428783268, 7261569.6772395754233 ], [ 530100.447091679205187, 7261578.683442020788789 ], [ 530100.087148198508658, 7261586.078100949525833 ], [ 530100.011174176470377, 7261591.078100949525833 ] ] } },
{ "type": "Feature", "properties": { "id": 6, "reference_id": 8, "dune_id": 8, "dune_name": "Inverted Y Dune", "acquisition_date": "2026-01-08", "length_m": 69.544496895609811 }, "geometry": { "type": "LineString", "coordinates": [ [ 530364.243011592305265, 7261201.540503428317606 ], [ 530357.91319030651357, 7261203.670178713276982 ], [ 530349.453693735180423, 7261206.329821285791695 ], [ 530339.901677625137381, 7261208.459496571682394 ], [ 530330.0, 7261209.552908320911229 ], [ 530320.098322374979034, 7261209.912851802073419 ], [ 530310.546306264819577, 7261209.9888258241117 ], [ 530302.08680969348643, 7261209.999107790179551 ], [ 530295.756988407694735, 7261210.000000000931323 ] ] } },
{ "type": "Feature", "properties": { "id": 7, "reference_id": 9, "dune_id": 9, "dune_name": "Inverted Y Dune", "acquisition_date": "2026-01-08", "length_m": 799.12219233680912 }, "geometry": { "type": "LineString", "coordinates": [ [ 530074.243011592421681, 7261615.309004518203437 ], [ 530067.913190306629986, 7261620.535132087767124 ], [ 530059.453693735296838, 7261626.788087141700089 ], [ 530049.900785414502025, 7261633.311127444729209 ], [ 530039.987933612777852, 7261639.924918189644814 ], [ 530029.999107789248228, 7261646.329821286723018 ], [ 530020.0, 7261652.205649306997657 ], [ 530010.0, 7261657.794350693002343 ], [ 530000.0, 7261663.670178715139627 ], [ 529990.0, 7261670.075974022038281 ], [ 529980.0, 7261676.700938943773508 ], [ 529970.0, 7261683.311127444729209 ], [ 529960.0, 7261690.011174176819623 ], [ 529950.0, 7261696.777805175632238 ], [ 529940.0, 7261703.757326913066208 ], [ 529930.0, 7261711.551677605137229 ], [ 529920.0, 7261720.447983889840543 ], [ 529910.0, 7261730.087148198857903 ], [ 529900.0, 7261740.011174176819623 ], [ 529890.0, 7261750.000892210751772 ], [ 529880.0, 7261760.0 ], [ 529870.0, 7261770.0 ], [ 529860.000892210751772, 7261780.0 ], [ 529850.011174176470377, 7261790.0 ], [ 529840.087148198392242, 7261800.0 ], [ 529830.447983889840543, 7261810.0 ], [ 529821.552569815889001, 7261820.0 ], [ 529813.768501089187339, 7261830.0 ], [ 529806.864953374140896, 7261840.000000000931323 ], [ 529800.45915806631092, 7261850.0 ], [ 529794.861912838649005, 7261860.0 ], [ 529790.447983889840543, 7261870.0 ], [ 529786.776912964996882, 7261880.0 ], [ 529783.310235233511776, 7261890.0 ], [ 529779.924918188713491, 7261900.0 ], [ 529776.329821285791695, 7261910.0 ], [ 529772.205649307463318, 7261920.0 ], [ 529767.793458481901325, 7261930.0 ], [ 529763.659896748373285, 7261940.0 ], [ 529759.999107789364643, 7261950.0 ], [ 529756.329821285791695, 7261960.0 ], [ 529752.130567496176809, 7261970.0 ], [ 529747.433515001204796, 7261980.0 ], [ 529742.566484998911619, 7261990.0 ], [ 529737.869432503823191, 7262000.0 ], [ 529733.670178714208305, 7262010.0 ], [ 529730.000892210635357, 7262020.0 ], [ 529726.340103251626715, 7262030.0 ], [ 529722.20654151821509, 7262040.0 ], [ 529717.793458481901325, 7262050.0 ], [ 529713.659896748373285, 7262060.0 ], [ 529709.999107789248228, 7262070.0 ], [ 529706.329821285791695, 7262080.0 ], [ 529702.130567496176809, 7262090.0 ], [ 529697.433515001088381, 7262100.0 ], [ 529692.566484998911619, 7262110.0 ], [ 529687.870324714458548, 7262120.0 ], [ 529683.680460680043325, 7262130.0 ], [ 529680.075974022038281, 7262140.0 ], [ 529676.68976476660464, 7262150.0 ], [ 529673.22397924575489, 7262160.0 ], [ 529669.564082497381605, 7262170.0 ], [ 529665.237301746965386, 7262180.0 ], [ 529660.086255987873301, 7262190.0 ], [ 529655.210682142991573, 7262200.0 ], [ 529651.901339120231569, 7262209.999107789248228 ], [ 529650.087148198392242, 7262219.987933613359928 ], [ 529648.557818946195766, 7262229.900785414502025 ], [ 529646.341887672897428, 7262239.453693734481931 ], [ 529643.671070924960077, 7262247.913190307095647 ], [ 529641.540503428783268, 7262254.243011592887342 ] ] } },
{ "type": "Feature", "properties": { "id": 8, "reference_id": 1, "dune_id": 1, "dune_name": "Big Mommy Dune", "acquisition_date": "2026-01-08", "length_m": 220.88818862945163 }, "geometry": { "type": "LineString", "coordinates": [ [ 528960.458265855675563, 7262154.243011591956019 ], [ 528961.628543837927282, 7262147.913190307095647 ], [ 528964.129336780519225, 7262139.453693735413253 ], [ 528967.968647089437582, 7262129.900785414502025 ], [ 528972.663915163138881, 7262119.987933613359928 ], [ 528977.871216925210319, 7262109.999107789248228 ], [ 528983.594204692170024, 7262100.0 ], [ 528989.628882342833094, 7262090.0 ], [ 528995.149261337821372, 7262080.0 ], [ 528999.552908320911229, 7262070.0 ], [ 529003.223087035119534, 7262060.0 ], [ 529006.68976476660464, 7262050.0 ], [ 529010.075974022038281, 7262040.0 ], [ 529013.680460680043325, 7262030.0 ], [ 529017.871216925326735, 7262020.0 ], [ 529022.577659175381996, 7262010.0 ], [ 529027.520663199597038, 7262000.000892210751772 ], [ 529032.576766964746639, 7261990.012066387571394 ], [ 529037.859150537988171, 7261980.099214585497975 ], [ 529043.582138305064291, 7261970.546306265518069 ], [ 529049.541734144440852, 7261962.086809694766998 ], [ 529054.701277447980829, 7261955.756988408043981 ] ] } },
{ "type": "Feature", "properties": { "id": 9, "reference_id": 1, "dune_id": 1, "dune_name": "Big Mommy Dune", "acquisition_date": "2026-01-08", "length_m": 1008.65169846718 }, "geometry": { "type": "LineString", "coordinates": [ [ 529171.540503428783268, 7260998.921899050474167 ], [ 529173.671070924843661, 7261003.921899050474167 ], [ 529176.340995462262072, 7261011.316557979211211 ], [ 529178.545752559090033, 7261020.322760425508022 ], [ 529179.988825823529623, 7261030.055640487000346 ], [ 529181.366207031882368, 7261040.006479299627244 ], [ 529183.211912858532742, 7261050.000446105375886 ], [ 529184.788425646489486, 7261060.0 ], [ 529184.788425646489486, 7261070.0 ], [ 529183.211912858532742, 7261080.0 ], [ 529181.366207031882368, 7261090.0 ], [ 529179.987933612894267, 7261100.0 ], [ 529178.534578382619657, 7261110.0 ], [ 529176.253847263869829, 7261120.000000000931323 ], [ 529173.223087035003118, 7261130.0 ], [ 529169.988825823529623, 7261140.0 ], [ 529166.688872555969283, 7261150.0 ], [ 529163.299061057041399, 7261160.0 ], [ 529159.924025978078134, 7261170.0 ], [ 529156.329821285791695, 7261180.0 ], [ 529152.205649307463318, 7261190.0 ], [ 529147.794350692536682, 7261200.0 ], [ 529143.670178714208305, 7261210.000000000931323 ], [ 529140.075081811286509, 7261220.0 ], [ 529136.689764766488224, 7261230.0 ], [ 529133.22397924575489, 7261240.0 ], [ 529129.563190286629833, 7261250.0 ], [ 529125.226127570495009, 7261260.0 ], [ 529120.000000000116415, 7261270.0 ], [ 529114.773872429504991, 7261280.0 ], [ 529110.436809713370167, 7261290.0 ], [ 529106.77602075424511, 7261300.0 ], [ 529103.31023523339536, 7261310.000000000931323 ], [ 529099.924918188713491, 7261320.0 ], [ 529096.329821285791695, 7261330.0 ], [ 529092.205649307463318, 7261340.0 ], [ 529087.793458481901325, 7261350.0 ], [ 529083.659896748373285, 7261360.0 ], [ 529080.0, 7261370.0 ], [ 529076.340103251626715, 7261380.0 ], [ 529072.20654151821509, 7261390.0 ], [ 529067.793458481901325, 7261400.0 ], [ 529063.659896748373285, 7261410.0 ], [ 529060.0, 7261420.0 ], [ 529056.340995462262072, 7261430.0 ], [ 529052.216823483933695, 7261440.0 ], [ 529047.870324714458548, 7261450.0 ], [ 529044.031014405540191, 7261460.0 ], [ 529041.179667737334967, 7261470.000000000931323 ], [ 529038.906588250538334, 7261480.0 ], [ 529036.330713496543467, 7261490.0 ], [ 529033.234261211473495, 7261500.0 ], [ 529030.000892210751772, 7261510.0 ], [ 529026.776912964996882, 7261520.0 ], [ 529023.757326912600547, 7261530.0 ], [ 529021.551677605137229, 7261540.0 ], [ 529020.447983889840543, 7261550.0 ], [ 529020.087148198508658, 7261560.000000000931323 ], [ 529020.011174176470377, 7261570.0 ], [ 529020.000892210751772, 7261580.0 ], [ 529020.0, 7261590.0 ], [ 529020.0, 7261600.0 ], [ 529020.0, 7261610.0 ], [ 529020.0, 7261620.0 ], [ 529020.0, 7261630.0 ], [ 529020.000892210751772, 7261640.0 ], [ 529020.011174176470377, 7261650.0 ], [ 529020.088040409144014, 7261660.0 ], [ 529020.459158066427335, 7261670.0 ], [ 529021.638825803645886, 7261680.0 ], [ 529024.20531080244109, 7261690.0 ], [ 529028.329482780885883, 7261700.0 ], [ 529033.768501089187339, 7261710.0 ], [ 529040.088040409144014, 7261720.0 ], [ 529046.700938942958601, 7261730.000000000931323 ], [ 529053.299953267676756, 7261740.0 ], [ 529059.923133767442778, 7261750.0 ], [ 529066.31953932007309, 7261760.0 ], [ 529072.128783074789681, 7261770.0 ], [ 529077.423233035369776, 7261780.0 ], [ 529082.489618766237982, 7261790.0 ], [ 529087.498314846656285, 7261800.0 ], [ 529092.488726555602625, 7261810.0 ], [ 529097.411166648264043, 7261820.0 ], [ 529102.029568489291705, 7261830.0 ], [ 529105.773233055253513, 7261840.000000000931323 ], [ 529107.836324073956348, 7261850.0 ], [ 529107.542964859982021, 7261860.0 ], [ 529104.61323703895323, 7261870.0 ], [ 529099.530559967970476, 7261880.0 ], [ 529093.581246094428934, 7261890.0 ], [ 529087.859150538104586, 7261899.999107789248228 ], [ 529082.576766964746639, 7261909.987933613359928 ], [ 529077.521555410232395, 7261919.900785414502025 ], [ 529072.588833351852372, 7261929.453693735413253 ], [ 529067.958365123718977, 7261937.913190307095647 ], [ 529064.128444569883868, 7261944.243011591956019 ] ] } },
{ "type": "Feature", "properties": { "id": 10, "reference_id": 5, "dune_id": 5, "dune_name": "The Star Dune", "acquisition_date": "2026-01-08", "length_m": 1142.7115756458729 }, "geometry": { "type": "LineString", "coordinates": [ [ 534334.703061869367957, 7261305.756988408043981 ], [ 534329.56408249726519, 7261312.086809693835676 ], [ 534323.757326912716962, 7261320.546306264586747 ], [ 534318.764508072868921, 7261330.099214585497975 ], [ 534315.744922020589001, 7261340.012066386640072 ], [ 534315.309004517854191, 7261350.000892210751772 ], [ 534316.788979352102615, 7261360.0 ], [ 534318.547536980360746, 7261370.0 ], [ 534319.564974708016962, 7261380.0 ], [ 534319.924918188713491, 7261390.0 ], [ 534320.075974021921866, 7261400.0 ], [ 534320.446199468453415, 7261410.0 ], [ 534321.540503428666852, 7261420.0 ], [ 534323.670178714208305, 7261430.0 ], [ 534326.329821285791695, 7261440.0 ], [ 534328.459496571333148, 7261450.0 ], [ 534329.552908320794813, 7261460.0 ], [ 534329.912851801607758, 7261470.000000000931323 ], [ 534329.988825823529623, 7261480.0 ], [ 534329.998215578729287, 7261490.0 ], [ 534329.988825823529623, 7261500.0 ], [ 534329.911959590855986, 7261510.0 ], [ 534329.54084193368908, 7261520.0 ], [ 534328.360281985718757, 7261530.0 ], [ 534325.783515021088533, 7261540.0 ], [ 534321.583369020721875, 7261550.0 ], [ 534315.783515021088533, 7261559.999107790179551 ], [ 534308.360281985718757, 7261569.9888258241117 ], [ 534299.54084193368908, 7261579.912851802073419 ], [ 534289.911959590855986, 7261589.552016110159457 ], [ 534279.988825823529623, 7261598.448322394862771 ], [ 534269.999107789248228, 7261606.242673087865114 ], [ 534260.0, 7261613.222194824367762 ], [ 534250.0, 7261619.9888258241117 ], [ 534240.0, 7261626.688872555270791 ], [ 534230.0, 7261633.298168846406043 ], [ 534220.0, 7261639.912851801142097 ], [ 534210.0, 7261646.242673087865114 ], [ 534200.0, 7261651.757665418088436 ], [ 534190.0, 7261656.242673087865114 ], [ 534180.0, 7261659.912851801142097 ], [ 534170.0, 7261663.298168847337365 ], [ 534160.0, 7261666.688872557133436 ], [ 534150.0, 7261669.9888258241117 ], [ 534140.0, 7261673.222194824367762 ], [ 534130.0, 7261676.243565298616886 ], [ 534120.0, 7261678.459496570751071 ], [ 534110.0, 7261679.63916430901736 ], [ 534100.0, 7261680.35994348116219 ], [ 534090.0, 7261681.529329252429307 ], [ 534080.0, 7261683.669286504387856 ], [ 534070.0, 7261686.329821286723018 ], [ 534060.0, 7261688.460388783365488 ], [ 534050.0, 7261689.564082497730851 ], [ 534040.0, 7261690.0 ], [ 534030.0, 7261690.435917503200471 ], [ 534020.0, 7261691.539611218497157 ], [ 534010.0, 7261693.671070924960077 ], [ 534000.0, 7261696.340995462611318 ], [ 533990.0, 7261698.546644769608974 ], [ 533980.0, 7261700.000892210751772 ], [ 533970.0, 7261701.464529407210648 ], [ 533960.0, 7261703.747044946998358 ], [ 533950.0, 7261706.787194930948317 ], [ 533940.0, 7261710.087148198857903 ], [ 533930.0, 7261713.671070924960077 ], [ 533920.0, 7261717.794350693002343 ], [ 533910.0, 7261722.206541517749429 ], [ 533900.0, 7261726.340103251859546 ], [ 533890.0, 7261730.000892211683095 ], [ 533880.0, 7261733.670178715139627 ], [ 533870.0, 7261737.870324715040624 ], [ 533860.0, 7261742.57676696497947 ], [ 533850.0, 7261747.510381234809756 ], [ 533840.0, 7261752.501685153692961 ], [ 533830.0, 7261757.511273443698883 ], [ 533820.000892210635357, 7261762.587941141799092 ], [ 533810.011174176470377, 7261767.958365123718977 ], [ 533800.088040409144014, 7261774.128444570116699 ], [ 533790.458265855675563, 7261781.628543838858604 ], [ 533781.628543837927282, 7261790.458265855908394 ], [ 533774.129336780519225, 7261800.088040409609675 ], [ 533767.968647089437582, 7261810.011174177750945 ], [ 533762.664807373774238, 7261820.000892210751772 ], [ 533757.882391101680696, 7261830.0 ], [ 533753.681352890678681, 7261840.000000000931323 ], [ 533750.076866232673638, 7261850.0 ], [ 533746.700046732323244, 7261860.0 ], [ 533743.299953267676756, 7261870.0 ], [ 533739.923133767442778, 7261880.0 ], [ 533736.31953932007309, 7261890.0 ], [ 533732.128783074906096, 7261900.0 ], [ 533727.423233035253361, 7261910.0 ], [ 533722.489618766237982, 7261920.0 ], [ 533717.49831484653987, 7261930.0 ], [ 533712.489618766237982, 7261940.0 ], [ 533707.423233035369776, 7261950.0 ], [ 533702.128783074789681, 7261960.0 ], [ 533696.31953932007309, 7261970.0 ], [ 533689.923133767326362, 7261980.0 ], [ 533683.299953267676756, 7261989.999553894624114 ], [ 533676.700938943075016, 7261999.993520701304078 ], [ 533670.088040409144014, 7262009.944359513930976 ], [ 533663.768501089187339, 7262019.677239574491978 ], [ 533658.329482780769467, 7262028.683442020788789 ], [ 533654.20531080244109, 7262036.078100949525833 ], [ 533651.638825803645886, 7262041.078100949525833 ] ] } },
{ "type": "Feature", "properties": { "id": 11, "reference_id": 6, "dune_id": 6, "dune_name": "The Star Dune", "acquisition_date": "2026-01-08", "length_m": 750.07420667569818 }, "geometry": { "type": "LineString", "coordinates": [ [ 533650.0, 7262048.921899050474167 ], [ 533650.0, 7262053.921899050474167 ], [ 533650.000892210751772, 7262061.316557979211211 ], [ 533650.011174176470377, 7262070.322760425508022 ], [ 533650.087148198508658, 7262080.055640487000346 ], [ 533650.447091679205187, 7262090.006479298695922 ], [ 533651.540503428783268, 7262100.000446105375886 ], [ 533653.670178714208305, 7262110.0 ], [ 533656.329821285791695, 7262120.0 ], [ 533658.459496571216732, 7262130.0 ], [ 533659.552908320911229, 7262140.0 ], [ 533659.912851801607758, 7262150.0 ], [ 533659.988825823529623, 7262160.0 ], [ 533659.999107789248228, 7262170.0 ], [ 533660.000892210751772, 7262180.0 ], [ 533660.011174176470377, 7262190.0 ], [ 533660.087148198392242, 7262200.0 ], [ 533660.447091679088771, 7262210.0 ], [ 533661.540503428783268, 7262220.0 ], [ 533663.670178714208305, 7262230.0 ], [ 533666.330713496543467, 7262240.0 ], [ 533668.470670747803524, 7262250.0 ], [ 533669.640056519303471, 7262260.0 ], [ 533670.359943480696529, 7262270.0 ], [ 533671.529329252196476, 7262280.0 ], [ 533673.669286503456533, 7262290.0 ], [ 533676.328929075156339, 7262300.0 ], [ 533678.448322394862771, 7262310.0 ], [ 533679.465760122518986, 7262320.0 ], [ 533679.465760122518986, 7262330.0 ], [ 533678.448322394862771, 7262340.000000000931323 ], [ 533676.328036864520982, 7262350.0 ], [ 533673.659004537737928, 7262360.0 ], [ 533671.453355230391026, 7262370.0 ], [ 533669.999107789364643, 7262380.0 ], [ 533668.535470593255013, 7262390.0 ], [ 533666.253847263869829, 7262400.0 ], [ 533663.223979245638475, 7262410.0 ], [ 533659.999107789248228, 7262420.0 ], [ 533656.765738788526505, 7262430.0 ], [ 533653.670178714208305, 7262440.0 ], [ 533651.103693715413101, 7262450.0 ], [ 533648.896306284703314, 7262460.0 ], [ 533646.329821285791695, 7262470.0 ], [ 533643.234261211473495, 7262480.0 ], [ 533640.000000000116415, 7262490.0 ], [ 533636.765738788526505, 7262500.0 ], [ 533633.670178714208305, 7262510.0 ], [ 533631.104585926048458, 7262520.0 ], [ 533628.906588250421919, 7262530.0 ], [ 533626.405795307713561, 7262540.0 ], [ 533623.594204692170024, 7262550.0 ], [ 533621.094303960213438, 7262560.0 ], [ 533618.906588250421919, 7262570.0 ], [ 533616.416969484183937, 7262580.0 ], [ 533613.680460680043325, 7262590.0 ], [ 533611.530221462948248, 7262600.000000000931323 ], [ 533610.359943480696529, 7262610.0 ], [ 533609.640056519303471, 7262620.0 ], [ 533608.470670747803524, 7262630.0 ], [ 533606.330713496543467, 7262640.0 ], [ 533603.670178714208305, 7262650.0 ], [ 533601.540503428783268, 7262660.0 ], [ 533600.44619946856983, 7262670.0 ], [ 533600.075974022038281, 7262680.0 ], [ 533599.924025978078134, 7262690.0 ], [ 533599.553800531546585, 7262700.0 ], [ 533598.459496571216732, 7262710.0 ], [ 533596.328929075039923, 7262720.0 ], [ 533593.659004537737928, 7262730.0 ], [ 533591.45335523027461, 7262739.999107789248228 ], [ 533590.0, 7262749.987933613359928 ], [ 533588.54664476972539, 7262759.900785414502025 ], [ 533586.340995462262072, 7262769.453693735413253 ], [ 533583.671070924960077, 7262777.913190307095647 ], [ 533581.540503428783268, 7262784.243011591956019 ] ] } },
{ "type": "Feature", "properties": { "id": 12, "reference_id": 4, "dune_id": 4, "dune_name": "The Star Dune", "acquisition_date": "2026-01-08", "length_m": 246.57456841640425 }, "geometry": { "type": "LineString", "coordinates": [ [ 533294.243011592305265, 7261939.9888258241117 ], [ 533287.91319030651357, 7261939.912851801142097 ], [ 533279.453693735180423, 7261939.552016110159457 ], [ 533269.900785414502025, 7261938.448322394862771 ], [ 533259.987933612894267, 7261936.242673087865114 ], [ 533249.999107789364643, 7261933.222194824367762 ], [ 533240.0, 7261929.9888258241117 ], [ 533230.0, 7261926.689764766953886 ], [ 533220.0, 7261923.310235233977437 ], [ 533210.0, 7261920.010281966067851 ], [ 533200.0, 7261916.766630999743938 ], [ 533190.0, 7261913.670178715139627 ], [ 533180.0, 7261911.103693716228008 ], [ 533170.0, 7261908.896306285634637 ], [ 533160.0, 7261906.329821286723018 ], [ 533150.0, 7261903.234261211939156 ], [ 533140.0, 7261900.000892210751772 ], [ 533130.0, 7261896.776912964880466 ], [ 533120.0, 7261893.756434702314436 ], [ 533110.0, 7261891.540503429248929 ], [ 533100.000892210751772, 7261890.360835691913962 ], [ 533090.012066387222148, 7261889.64005651883781 ], [ 533080.099214585614391, 7261888.470670748502016 ], [ 533070.546306264819577, 7261886.330713496543467 ], [ 533062.08680969348643, 7261883.670178714208305 ], [ 533055.756988407694735, 7261881.540503429248929 ] ] } },
{ "type": "Feature", "properties": { "id": 13, "reference_id": 2, "dune_id": 2, "dune_name": "Big Mommy Dune", "acquisition_date": "2026-01-08", "length_m": 51.145727784057151 }, "geometry": { "type": "LineString", "coordinates": [ [ 529114.243011592421681, 7260966.242673087865114 ], [ 529107.914082517265342, 7260963.223087035119534 ], [ 529099.465760122518986, 7260960.0 ], [ 529090.0, 7260956.776912964880466 ], [ 529080.534239877713844, 7260953.757326913066208 ], [ 529072.085917482851073, 7260951.551677605137229 ], [ 529065.756988407694735, 7260950.447983890771866 ] ] } },
{ "type": "Feature", "properties": { "id": 14, "reference_id": 2, "dune_id": 2, "dune_name": "Big Mommy Dune", "acquisition_date": "2026-01-08", "length_m": 538.14561856720684 }, "geometry": { "type": "LineString", "coordinates": [ [ 528435.756988407694735, 7260661.999661495909095 ], [ 528442.08680969348643, 7260665.309896728955209 ], [ 528450.546306264819577, 7260670.545414054766297 ], [ 528460.099214585614391, 7260676.864953374490142 ], [ 528470.012066387105733, 7260683.682245101779699 ], [ 528480.000892210751772, 7260691.104585926048458 ], [ 528490.0, 7260698.896306284703314 ], [ 528500.0, 7260706.329821286723018 ], [ 528510.0, 7260713.233369000256062 ], [ 528520.0, 7260719.989718034863472 ], [ 528530.0, 7260726.688872556202114 ], [ 528540.0, 7260733.299061058089137 ], [ 528550.0, 7260739.924025978893042 ], [ 528560.0, 7260746.329821285791695 ], [ 528570.0, 7260752.205649306997657 ], [ 528580.0, 7260757.793458482250571 ], [ 528590.0, 7260763.659896748140454 ], [ 528600.0, 7260769.999107789248228 ], [ 528610.0, 7260776.329821286723018 ], [ 528620.0, 7260782.129675285890698 ], [ 528630.0, 7260787.423233035951853 ], [ 528640.0, 7260792.489618767052889 ], [ 528650.0, 7260797.499207057990134 ], [ 528660.0, 7260802.499900732189417 ], [ 528670.0, 7260807.500099267810583 ], [ 528680.0, 7260812.499900732189417 ], [ 528690.0, 7260817.500099267810583 ], [ 528700.0, 7260822.499900732189417 ], [ 528710.0, 7260827.499207057058811 ], [ 528720.0, 7260832.489618767052889 ], [ 528730.0, 7260837.423233035951853 ], [ 528740.0, 7260842.128783075138927 ], [ 528750.0, 7260846.319539319723845 ], [ 528760.0, 7260849.92313376814127 ], [ 528770.0, 7260853.299953267909586 ], [ 528780.0, 7260856.700046732090414 ], [ 528790.0, 7260860.075974022969604 ], [ 528800.0, 7260863.670178715139627 ], [ 528810.0, 7260867.794350693002343 ], [ 528820.0, 7260872.205649306997657 ], [ 528830.0, 7260876.328929075971246 ], [ 528840.0, 7260879.913744012825191 ], [ 528850.0, 7260883.223087035119534 ], [ 528860.0, 7260886.328929075971246 ], [ 528869.999107789364643, 7260888.895414073951542 ], [ 528879.987933612894267, 7260891.092519538477063 ], [ 528889.900785414385609, 7260893.583030516281724 ], [ 528899.453693735180423, 7260896.318647108972073 ], [ 528907.91319030651357, 7260898.458604359999299 ], [ 528914.243011592421681, 7260899.552908320911229 ] ] } },
{ "type": "Feature", "properties": { "id": 15, "reference_id": 7, "dune_id": 7, "dune_name": "Inverted Y Dune", "acquisition_date": "2026-01-08", "length_m": 453.67388098166714 }, "geometry": { "type": "LineString", "coordinates": [ [ 530325.756988407694735, 7261619.911959590390325 ], [ 530332.08680969348643, 7261619.541734144091606 ], [ 530340.546306264819577, 7261618.371456163004041 ], [ 530350.099214585614391, 7261615.871555430814624 ], [ 530360.012066387105733, 7261612.042527087032795 ], [ 530370.000892210635357, 7261607.422340825200081 ], [ 530380.0, 7261602.564700578339398 ], [ 530390.0, 7261597.859150538221002 ], [ 530400.0, 7261593.593312481418252 ], [ 530410.0, 7261589.62888234294951 ], [ 530420.0, 7261585.148369127884507 ], [ 530430.000000000116415, 7261579.541734144091606 ], [ 530440.0, 7261573.135046625509858 ], [ 530450.0, 7261566.231498911976814 ], [ 530460.0, 7261558.447430184110999 ], [ 530469.999107789364643, 7261549.552016110159457 ], [ 530479.988825823529623, 7261539.912851801142097 ], [ 530489.912851801607758, 7261529.9888258241117 ], [ 530499.552016110159457, 7261519.999107789248228 ], [ 530508.448322394862771, 7261510.0 ], [ 530516.242673087399453, 7261500.0 ], [ 530523.222194824367762, 7261490.0 ], [ 530529.988825823529623, 7261480.0 ], [ 530536.689764766488224, 7261470.000000000931323 ], [ 530543.309343022760004, 7261460.0 ], [ 530550.0, 7261450.0 ], [ 530556.690656977239996, 7261440.0 ], [ 530563.310235233511776, 7261430.0 ], [ 530570.011174176470377, 7261420.0 ], [ 530576.777805175632238, 7261410.0 ], [ 530583.757326912600547, 7261400.0 ], [ 530591.551677605137229, 7261390.0 ], [ 530600.447983889840543, 7261380.0 ], [ 530610.086255987756886, 7261370.000892210751772 ], [ 530619.999107789364643, 7261360.012066386640072 ], [ 530629.901677625137381, 7261350.099214585497975 ], [ 530639.453693735296838, 7261340.546306265518069 ], [ 530647.913190306629986, 7261332.086809693835676 ], [ 530654.243011592305265, 7261325.756988408043981 ] ] } }
]
}
