{
"type": "FeatureCollection",
"name": "crests_2021_12_2021-12-20",
"crs": { "type": "name", "properties": { "name": "urn:ogc:def:crs:EPSG::32733" } },
"features": [
{ "type": "Feature", "properties": { "id": 0, "reference_id": 4, "dune_id": 4, "dune_name": "The Star Dune", "acquisition_date": "2021-12-20", "length_m": 98.173492494497694 }, "geometry": { "type": "LineString", "coordinates": [ [ 533594.243011592305265, 7262056.242673087865114 ], [ 533587.913190306629986, 7262053.222194824367762 ], [ 533579.453693735296838, 7262049.9888258241117 ], [ 533569.900785414385609, 7262046.688872556202114 ], [ 533559.987933612777852, 7262043.298168846406043 ], [ 533550.0, 7262039.912851801142097 ], [ 533540.012066387105733, 7262036.243565298616886 ], [ 533530.099214585614391, 7262031.769731804728508 ], [ 533520.546306264819577, 7262026.340995462611318 ], [ 533512.08680969348643, 7262020.447983890771866 ], [ 533505.756988407694735, 7262015.297830341383815 ] ] } },
{ "type": "Feature", "properties": { "id": 1, "reference_id": 1, "dune_id": 1, "dune_name": "Big Mommy Dune", "acquisition_date": "2021-12-20", "length_m": 1217.6438533706878 }, "geometry": { "type": "LineString", "coordinates": [ [ 528951.998769284342416, 7262154.243011591956019 ], [ 528955.298722552135587, 7262147.913190307095647 ], [ 528960.458265855675563, 7262139.453693735413253 ], [ 528966.417861694935709, 7262129.900785414502025 ], [ 528972.140849462011829, 7262119.987933613359928 ], [ 528977.423233035369776, 7262109.999107789248228 ], [ 528982.478444589767605, 7262100.0 ], [ 528987.4120588588994, 7262090.0 ], [ 528992.052809052867815, 7262080.0 ], [ 528995.958703628624789, 7262070.0 ], [ 528998.819440052029677, 7262060.0 ], [ 529001.094303960213438, 7262050.0 ], [ 529003.680460680043325, 7262040.0 ], [ 529006.853779197670519, 7262030.0 ], [ 529010.458265855675563, 7262020.0 ], [ 529014.861912838649005, 7262010.0 ], [ 529020.447983889840543, 7262000.0 ], [ 529026.777805175632238, 7261990.0 ], [ 529033.320517199346796, 7261980.0 ], [ 529040.000892210751772, 7261970.0 ], [ 529046.690656977239996, 7261960.0 ], [ 529053.309343022760004, 7261950.0 ], [ 529060.0, 7261940.0 ], [ 529066.68976476660464, 7261930.0 ], [ 529073.298168846289627, 7261920.0 ], [ 529079.912851801607758, 7261910.0 ], [ 529086.241780876647681, 7261900.0 ], [ 529091.746491241152398, 7261890.0 ], [ 529096.154632678255439, 7261880.0 ], [ 529099.453693735413253, 7261870.0 ], [ 529101.658450832008384, 7261860.0 ], [ 529102.473279787693173, 7261850.0 ], [ 529101.584261231473647, 7261840.000000000931323 ], [ 529099.104032220318913, 7261830.0 ], [ 529095.137194950715639, 7261820.0 ], [ 529089.977651647059247, 7261810.0 ], [ 529084.685832020477392, 7261800.0 ], [ 529079.988825823529623, 7261790.0 ], [ 529075.225235359743237, 7261780.0 ], [ 529069.563190286629833, 7261770.0 ], [ 529063.22397924575489, 7261760.0 ], [ 529056.68976476660464, 7261750.0 ], [ 529050.075974021921866, 7261740.0 ], [ 529043.681352890678681, 7261730.000000000931323 ], [ 529037.882391101680696, 7261720.0 ], [ 529032.664807373774238, 7261710.0 ], [ 529027.967754878802225, 7261700.0 ], [ 529024.118162604048848, 7261690.0 ], [ 529021.541395639418624, 7261680.0 ], [ 529020.011174176470377, 7261670.0 ], [ 529018.547536980360746, 7261660.0 ], [ 529016.340995462378487, 7261650.0 ], [ 529013.671963135479018, 7261640.0 ], [ 529011.551677605253644, 7261630.0 ], [ 529010.534239877597429, 7261620.0 ], [ 529010.534239877597429, 7261610.0 ], [ 529011.551677605253644, 7261600.0 ], [ 529013.671070924960077, 7261590.0 ], [ 529016.329821285791695, 7261580.0 ], [ 529018.460388781968504, 7261570.0 ], [ 529019.564082497381605, 7261560.000000000931323 ], [ 529020.0, 7261550.0 ], [ 529020.436809713486582, 7261540.0 ], [ 529021.550785394501872, 7261530.0 ], [ 529023.757326912600547, 7261520.0 ], [ 529026.777805175632238, 7261510.0 ], [ 529030.011174176586792, 7261500.0 ], [ 529033.310235233511776, 7261490.0 ], [ 529036.690656977239996, 7261480.0 ], [ 529040.0, 7261470.000000000931323 ], [ 529043.31023523339536, 7261460.0 ], [ 529046.700938942958601, 7261450.0 ], [ 529050.075974021921866, 7261440.0 ], [ 529053.669286503572948, 7261430.0 ], [ 529057.784068726818077, 7261420.0 ], [ 529062.129675285541452, 7261410.0 ], [ 529065.969877805095166, 7261400.0 ], [ 529068.830614228500053, 7261390.0 ], [ 529071.170277982251719, 7261380.0 ], [ 529074.040404160739854, 7261370.0 ], [ 529077.947190947132185, 7261360.0 ], [ 529082.587048930465244, 7261350.0 ], [ 529087.510381233878434, 7261340.0 ], [ 529092.490510976989754, 7261330.0 ], [ 529097.423233035369776, 7261320.0 ], [ 529102.129675285541452, 7261310.000000000931323 ], [ 529106.329821285791695, 7261300.0 ], [ 529110.0, 7261290.0 ], [ 529113.670178714208305, 7261280.0 ], [ 529117.869432503939606, 7261270.0 ], [ 529122.566484998911619, 7261260.0 ], [ 529127.433515001204796, 7261250.0 ], [ 529132.130567496176809, 7261240.0 ], [ 529136.329821285791695, 7261230.0 ], [ 529139.999107789364643, 7261220.0 ], [ 529143.659896748373285, 7261210.000000000931323 ], [ 529147.793458481901325, 7261200.0 ], [ 529152.205649307463318, 7261190.0 ], [ 529156.328929075156339, 7261180.0 ], [ 529159.91374401235953, 7261170.0 ], [ 529163.223087035119534, 7261160.0 ], [ 529166.328929075156339, 7261150.0 ], [ 529168.895414074067958, 7261140.0 ], [ 529171.092519538942724, 7261130.0 ], [ 529173.583030515816063, 7261120.000000000931323 ], [ 529176.318647109321319, 7261110.0 ], [ 529178.458604360581376, 7261100.0 ], [ 529179.552908320794813, 7261090.0 ], [ 529179.912851801607758, 7261080.0 ], [ 529179.988825823529623, 7261070.000892210751772 ], [ 529179.999107789364643, 7261060.012066387571394 ], [ 529180.0, 7261050.099214585497975 ], [ 529180.0, 7261040.546306265518069 ], [ 529180.0, 7261032.086809692904353 ], [ 529180.0, 7261025.756988408043981 ] ] } },
{ "type": "Feature", "properties": { "id": 2, "reference_id": 3, "dune_id": 3, "dune_name": "Big Mommy Dune", "acquisition_date": "2021-12-20", "length_m": 365.45139892891564 }, "geometry": { "type": "LineString", "coordinates": [ [ 529374.243011592305265, 7260694.216484978795052 ], [ 529367.91319030651357, 7260698.416630979627371 ], [ 529359.453693735180423, 7260704.216484978795052 ], [ 529349.901677625253797, 7260711.639718014746904 ], [ 529339.999107789364643, 7260720.459158066660166 ], [ 529330.087148198392242, 7260730.088040409609675 ], [ 529320.458265855675563, 7260740.011174176819623 ], [ 529311.62765162717551, 7260750.000892210751772 ], [ 529304.118162604048848, 7260760.0 ], [ 529297.881498890928924, 7260770.0 ], [ 529292.216823483933695, 7260780.000000000931323 ], [ 529286.330713496543467, 7260790.0 ], [ 529279.924025978078134, 7260800.0 ], [ 529273.299061056924984, 7260810.0 ], [ 529266.689764766488224, 7260820.0 ], [ 529260.0, 7260830.0 ], [ 529253.310235233511776, 7260840.0 ], [ 529246.700938943075016, 7260850.0 ], [ 529240.075974021921866, 7260860.0 ], [ 529233.670178714208305, 7260870.0 ], [ 529227.794350692536682, 7260880.0 ], [ 529222.205649307463318, 7260890.0 ], [ 529216.329821285791695, 7260900.0 ], [ 529209.924025977961719, 7260910.0 ], [ 529203.299953267676756, 7260920.0 ], [ 529196.700938943075016, 7260930.0 ], [ 529190.088040409144014, 7260939.999553894624114 ], [ 529183.768501089187339, 7260949.993520701304078 ], [ 529178.329482780885883, 7260959.944359514862299 ], [ 529174.20531080244109, 7260969.6772395754233 ], [ 529171.638825803645886, 7260978.683442020788789 ], [ 529170.45915806631092, 7260986.078100949525833 ], [ 529170.088040409144014, 7260991.078100949525833 ] ] } },
{ "type": "Feature", "properties": { "id": 3, "reference_id": 3, "dune_id": 3, "dune_name": "Big Mommy Dune", "acquisition_date": "2021-12-20", "length_m": 61.079396222540069 }, "geometry": { "type": "LineString", "coordinates": [ [ 529544.243011592305265, 7260633.757326912134886 ], [ 529537.91319030651357, 7260636.776912964880466 ], [ 529529.454585945932195, 7260640.0 ], [ 529519.912851801607758, 7260643.223087035119534 ], [ 529510.087148198392242, 7260646.242673087865114 ], [ 529500.545414054067805, 7260648.448322394862771 ], [ 529492.08680969348643, 7260649.552016111090779 ], [ 529485.756988407694735, 7260649.912851801142097 ] ] } },
{ "type": "Feature", "properties": { "id": 4, "reference_id": 5, "dune_id": 5, "dune_name": "The Star Dune", "acquisition_date": "2021-12-20", "length_m": 409.66972340243342 }, "geometry": { "type": "LineString", "coordinates": [ [ 534195.756988407694735, 7261645.871555430814624 ], [ 534202.08680969348643, 7261642.041634876281023 ], [ 534210.546306264819577, 7261637.411166648380458 ], [ 534220.099214585614391, 7261632.478444589301944 ], [ 534230.012066387222148, 7261627.422340825200081 ], [ 534240.000892210751772, 7261622.128783075138927 ], [ 534250.0, 7261616.318647109903395 ], [ 534259.999107789248228, 7261609.911959590390325 ], [ 534269.988825823529623, 7261603.211912859231234 ], [ 534279.911959590855986, 7261596.241780877113342 ], [ 534289.541734144324437, 7261588.448322394862771 ], [ 534298.371456162189133, 7261579.552016110159457 ], [ 534305.870663219480775, 7261569.912851802073419 ], [ 534312.030460699927062, 7261559.9888258241117 ], [ 534317.324018449755386, 7261549.999107789248228 ], [ 534322.030460699927062, 7261540.0 ], [ 534325.870663219480775, 7261530.0 ], [ 534328.371456162189133, 7261520.0 ], [ 534329.541734144324437, 7261510.0 ], [ 534329.911067380220629, 7261500.0 ], [ 534329.977651647059247, 7261490.0 ], [ 534329.911959590855986, 7261480.0 ], [ 534329.552908320794813, 7261470.000000000931323 ], [ 534328.459496571333148, 7261460.0 ], [ 534326.329821285791695, 7261450.0 ], [ 534323.670178714208305, 7261440.0 ], [ 534321.539611218031496, 7261430.0 ], [ 534320.43591750273481, 7261420.0 ], [ 534320.0, 7261410.0 ], [ 534319.56408249726519, 7261400.0 ], [ 534318.460388781968504, 7261390.0 ], [ 534316.329821285791695, 7261380.0 ], [ 534313.671070924960077, 7261370.0 ], [ 534311.552569815889001, 7261360.0 ], [ 534310.545414054067805, 7261350.000892210751772 ], [ 534310.621388075989671, 7261340.012066386640072 ], [ 534311.998769284342416, 7261330.099214585497975 ], [ 534315.211574353626929, 7261320.546306264586747 ], [ 534320.0, 7261312.086809693835676 ], [ 534324.789317857124843, 7261305.756988408043981 ] ] } },
{ "type": "Feature", "properties": { "id": 5, "reference_id": 5, "dune_id": 5, "dune_name": "The Star Dune", "acquisition_date": "2021-12-20", "length_m": 482.13057494241178 }, "geometry": { "type": "LineString", "coordinates": [ [ 533954.243011592305265, 7261700.447983890771866 ], [ 533947.91319030651357, 7261701.551677605137229 ], [ 533939.453693735296838, 7261703.75821912381798 ], [ 533929.900785414385609, 7261706.788087141700089 ], [ 533919.987933612894267, 7261710.087148198857903 ], [ 533909.999107789248228, 7261713.671070924960077 ], [ 533900.0, 7261717.794350693002343 ], [ 533890.0, 7261722.206541517749429 ], [ 533880.0, 7261726.340995462611318 ], [ 533870.0, 7261730.011174176819623 ], [ 533860.0, 7261733.747044946998358 ], [ 533850.0, 7261738.241442372091115 ], [ 533840.0, 7261743.758219124749303 ], [ 533830.0, 7261750.098322374746203 ], [ 533820.0, 7261756.788979352451861 ], [ 533810.000892210635357, 7261763.758219122886658 ], [ 533800.011174176470377, 7261771.551677605137229 ], [ 533790.088040409144014, 7261780.447983889840543 ], [ 533780.45915806631092, 7261790.087148198857903 ], [ 533771.638825803645886, 7261800.011174176819623 ], [ 533764.205310802557506, 7261810.000892210751772 ], [ 533758.329482780885883, 7261820.0 ], [ 533753.768501089187339, 7261830.0 ], [ 533750.088040409144014, 7261840.000000000931323 ], [ 533746.700938942958601, 7261850.0 ], [ 533743.299953267676756, 7261860.0 ], [ 533739.924025978078134, 7261870.0 ], [ 533736.329821285791695, 7261880.0 ], [ 533732.205649307463318, 7261890.0 ], [ 533727.79345848178491, 7261900.0 ], [ 533723.659896748373285, 7261910.0 ], [ 533719.999107789364643, 7261920.0 ], [ 533716.328929075039923, 7261930.0 ], [ 533712.119393319706433, 7261940.0 ], [ 533707.346366802812554, 7261950.0 ], [ 533702.118501109071076, 7261960.0 ], [ 533696.318647109321319, 7261970.0 ], [ 533689.923133767326362, 7261980.0 ], [ 533683.299953267676756, 7261989.999553894624114 ], [ 533676.700938943075016, 7261999.993520701304078 ], [ 533670.088040409144014, 7262009.944359513930976 ], [ 533663.768501089187339, 7262019.677239574491978 ], [ 533658.329482780769467, 7262028.683442020788789 ], [ 533654.20531080244109, 7262036.078100949525833 ], [ 533651.638825803645886, 7262041.078100949525833 ] ] } },
{ "type": "Feature", "properties": { "id": 6, "reference_id": 7, "dune_id": 7, "dune_name": "Inverted Y Dune", "acquisition_date": "2021-12-20", "length_m": 356.82954328782881 }, "geometry": { "type": "LineString", "coordinates": [ [ 530644.243903803057037, 7261325.756988408043981 ], [ 530637.924364482983947, 7261332.086809693835676 ], [ 530629.54084193368908, 7261340.546306265518069 ], [ 530620.347877093590796, 7261350.099214585497975 ], [ 530611.528437041561119, 7261360.012066386640072 ], [ 530603.670178714208305, 7261370.000892210751772 ], [ 530596.340995462262072, 7261380.0 ], [ 530588.54664476972539, 7261390.0 ], [ 530580.000892210751772, 7261400.0 ], [ 530571.464529406744987, 7261410.0 ], [ 530563.746152736246586, 7261420.0 ], [ 530556.776912964996882, 7261430.0 ], [ 530550.011174176470377, 7261440.0 ], [ 530543.31023523339536, 7261450.0 ], [ 530536.689764766488224, 7261460.0 ], [ 530529.988825823529623, 7261470.000000000931323 ], [ 530523.222194824367762, 7261480.0 ], [ 530516.242673087399453, 7261490.0 ], [ 530508.448322394862771, 7261500.0 ], [ 530499.552016110159457, 7261510.0 ], [ 530489.912851801607758, 7261520.0 ], [ 530479.988825823529623, 7261529.999107789248228 ], [ 530469.999107789364643, 7261539.987933613359928 ], [ 530460.0, 7261549.901677625253797 ], [ 530450.000892210751772, 7261559.464867912232876 ], [ 530440.012066387105733, 7261568.00033850595355 ], [ 530430.099214585614391, 7261574.690103271976113 ], [ 530420.546306264819577, 7261579.453693735413253 ], [ 530412.08680969348643, 7261583.123872449621558 ], [ 530405.756988407694735, 7261586.230606701225042 ] ] } },
{ "type": "Feature", "properties": { "id": 7, "reference_id": 7, "dune_id": 7, "dune_name": "Inverted Y Dune", "acquisition_date": "2021-12-20", "length_m": 170.46550998045581 }, "geometry": { "type": "LineString", "coordinates": [ [ 530095.756988407694735, 7261630.011174176819623 ], [ 530102.08680969348643, 7261630.087148198857903 ], [ 530110.546306264819577, 7261630.447091680020094 ], [ 530120.099214585614391, 7261631.540503429248929 ], [ 530130.012066387222148, 7261633.671070924960077 ], [ 530140.000892210751772, 7261636.340995462611318 ], [ 530150.0, 7261638.546644769608974 ], [ 530160.0, 7261640.0 ], [ 530170.000000000116415, 7261641.453355230391026 ], [ 530180.0, 7261643.659004538320005 ], [ 530190.0, 7261646.328929075971246 ], [ 530200.0, 7261648.459496572613716 ], [ 530210.0, 7261649.552908321842551 ], [ 530219.999107789248228, 7261649.912851802073419 ], [ 530229.987933612777852, 7261649.9888258241117 ], [ 530239.900785414502025, 7261649.999107790179551 ], [ 530249.453693735180423, 7261650.0 ], [ 530257.913190306629986, 7261650.0 ], [ 530264.243011592421681, 7261650.0 ] ] } },
{ "type": "Feature", "properties": { "id": 8, "reference_id": 8, "dune_id": 8, "dune_name": "Inverted Y Dune", "acquisition_date": "2021-12-20", "length_m": 383.74545679390087 }, "geometry": { "type": "LineString", "coordinates": [ [ 530224.243011592305265, 7261244.216484978795052 ], [ 530217.91319030651357, 7261248.416630979627371 ], [ 530209.454585945932195, 7261254.216484979726374 ], [ 530199.911959590855986, 7261261.639718014746904 ], [ 530190.075974022038281, 7261270.459158066660166 ], [ 530180.457373644923791, 7261280.088040409609675 ], [ 530171.628543837927282, 7261290.0111741758883 ], [ 530164.129336780519225, 7261300.000892210751772 ], [ 530157.968647089553997, 7261310.000000000931323 ], [ 530152.664807373890653, 7261320.0 ], [ 530147.882391101680696, 7261330.0 ], [ 530143.682245101314038, 7261340.0 ], [ 530140.087148198392242, 7261350.0 ], [ 530136.776912964996882, 7261360.0 ], [ 530133.671070924960077, 7261370.0 ], [ 530131.104585926048458, 7261380.0 ], [ 530128.907480461173691, 7261390.0 ], [ 530126.416077273664996, 7261400.0 ], [ 530123.670178714208305, 7261410.0 ], [ 530121.454247441026382, 7261420.0 ], [ 530120.0, 7261430.0 ], [ 530118.54664476972539, 7261440.0 ], [ 530116.340995462262072, 7261450.0 ], [ 530113.671070924960077, 7261460.0 ], [ 530111.540503428666852, 7261470.000000000931323 ], [ 530110.44619946856983, 7261480.0 ], [ 530110.075974022038281, 7261490.0 ], [ 530109.924025978078134, 7261500.0 ], [ 530109.553800531546585, 7261510.0 ], [ 530108.459496571333148, 7261520.0 ], [ 530106.329821285791695, 7261530.0 ], [ 530103.670178714208305, 7261539.999553894624114 ], [ 530101.540503428783268, 7261549.993520701304078 ], [ 530100.447091679205187, 7261559.944359513930976 ], [ 530100.087148198508658, 7261569.6772395754233 ], [ 530100.011174176470377, 7261578.683442020788789 ], [ 530100.000892210751772, 7261586.078100949525833 ], [ 530100.0, 7261591.078100949525833 ] ] } },
{ "type": "Feature", "properties": { "id": 9, "reference_id": 2, "dune_id": 2, "dune_name": "Big Mommy Dune", "acquisition_date": "2021-12-20", "length_m": 662.96912862256227 }, "geometry": { "type": "LineString", "coordinates": [ [ 528435.756988407694735, 7260664.205310802906752 ], [ 528442.08680969348643, 7260668.329482780769467 ], [ 528450.546306264819577, 7260673.768501089885831 ], [ 528460.099214585614391, 7260680.088040409609675 ], [ 528470.012066387105733, 7260686.70183115452528 ], [ 528480.000892210751772, 7260693.310235233977437 ], [ 528490.0, 7260700.000000000931323 ], [ 528500.0, 7260706.690656977705657 ], [ 528510.0, 7260713.309343023225665 ], [ 528520.0, 7260720.0 ], [ 528530.0, 7260726.690656976774335 ], [ 528540.0, 7260733.309343023225665 ], [ 528550.0, 7260740.0 ], [ 528560.0, 7260746.689764766953886 ], [ 528570.0, 7260753.299061057157815 ], [ 528580.0, 7260759.92313376814127 ], [ 528590.0, 7260766.319539319723845 ], [ 528600.0, 7260772.129675285890698 ], [ 528610.0, 7260777.433515001088381 ], [ 528620.0, 7260782.566484998911619 ], [ 528630.0, 7260787.86943250335753 ], [ 528640.0, 7260793.670178715139627 ], [ 528650.0, 7260800.0 ], [ 528660.0, 7260806.328929074108601 ], [ 528670.0, 7260812.11939332075417 ], [ 528680.0, 7260817.346366802230477 ], [ 528690.0, 7260822.119393319822848 ], [ 528700.0, 7260826.328929075039923 ], [ 528710.0, 7260829.999107789248228 ], [ 528720.0, 7260833.659896748140454 ], [ 528730.0, 7260837.793458482250571 ], [ 528740.0, 7260842.205649307928979 ], [ 528750.0, 7260846.329821285791695 ], [ 528760.0, 7260849.924025977961719 ], [ 528770.0, 7260853.299061057157815 ], [ 528780.0, 7260856.689764766953886 ], [ 528790.0, 7260860.0 ], [ 528800.0, 7260863.309343023225665 ], [ 528810.0, 7260866.690656977705657 ], [ 528820.0, 7260870.0 ], [ 528830.0, 7260873.309343023225665 ], [ 528840.0, 7260876.689764766953886 ], [ 528850.0, 7260879.989718034863472 ], [ 528860.0, 7260883.233369002118707 ], [ 528870.0, 7260886.329821286723018 ], [ 528880.0, 7260888.895414073951542 ], [ 528890.0, 7260891.093411749228835 ], [ 528900.0, 7260893.594204692170024 ], [ 528910.0, 7260896.405795307829976 ], [ 528920.0, 7260898.905696040019393 ], [ 528930.0, 7260901.094303959980607 ], [ 528940.0, 7260903.594204693101346 ], [ 528950.0, 7260906.405795308761299 ], [ 528960.0, 7260908.906588250771165 ], [ 528970.0, 7260911.10458592697978 ], [ 528980.0, 7260913.671070924960077 ], [ 528989.999107789364643, 7260916.776912964880466 ], [ 528999.987933612894267, 7260920.086255988106132 ], [ 529009.900785414502025, 7260923.670178715139627 ], [ 529019.453693735296838, 7260927.783176516182721 ], [ 529027.913190306629986, 7260932.118501109071076 ], [ 529034.243011592305265, 7260935.881837395951152 ] ] } },
{ "type": "Feature", "properties": { "id": 10, "reference_id": 2, "dune_id": 2, "dune_name": "Big Mommy Dune", "acquisition_date": "2021-12-20", "length_m": 61.271635569009618 }, "geometry": { "type": "LineString", "coordinates": [ [ 529124.243011592421681, 7260968.448322394862771 ], [ 529117.91319030651357, 7260966.242673087865114 ], [ 529109.454585945932195, 7260963.223087035119534 ], [ 529099.912851801607758, 7260960.0 ], [ 529090.087148198392242, 7260956.776912964880466 ], [ 529080.545414054067805, 7260953.757326913066208 ], [ 529072.08680969348643, 7260951.551677605137229 ], [ 529065.756988407694735, 7260950.447983890771866 ] ] } },
{ "type": "Feature", "properties": { "id": 11, "reference_id": 6, "dune_id": 6, "dune_name": "The Star Dune", "acquisition_date": "2021-12-20", "length_m": 748.71493241898304 }, "geometry": { "type": "LineString", "coordinates": [ [ 533650.0, 7262048.921899050474167 ], [ 533650.0, 7262053.921899050474167 ], [ 533650.0, 7262061.316557979211211 ], [ 533650.0, 7262070.322760425508022 ], [ 533650.0, 7262080.055640487000346 ], [ 533650.0, 7262090.006479298695922 ], [ 533650.0, 7262100.000446105375886 ], [ 533650.000892210751772, 7262110.0 ], [ 533650.011174176470377, 7262120.0 ], [ 533650.087148198508658, 7262130.0 ], [ 533650.447091679205187, 7262140.0 ], [ 533651.540503428783268, 7262150.0 ], [ 533653.670178714208305, 7262160.0 ], [ 533656.329821285791695, 7262170.0 ], [ 533658.459496571216732, 7262180.0 ], [ 533659.553800531546585, 7262190.0 ], [ 533659.924025977961719, 7262200.0 ], [ 533660.075974022038281, 7262210.0 ], [ 533660.44619946856983, 7262220.0 ], [ 533661.540503428783268, 7262230.0 ], [ 533663.670178714208305, 7262240.0 ], [ 533666.329821285791695, 7262250.0 ], [ 533668.460388781968504, 7262260.0 ], [ 533669.56408249726519, 7262270.0 ], [ 533669.999107789364643, 7262280.0 ], [ 533670.424743326264434, 7262290.0 ], [ 533671.452463019639254, 7262300.0 ], [ 533673.223087035119534, 7262310.0 ], [ 533674.789317857124843, 7262320.0 ], [ 533674.789317857124843, 7262330.0 ], [ 533673.222194824367762, 7262340.000000000931323 ], [ 533671.442181053804234, 7262350.0 ], [ 533670.348769304342568, 7262360.0 ], [ 533669.639164308551699, 7262370.0 ], [ 533668.469778537051752, 7262380.0 ], [ 533666.319539319956675, 7262390.0 ], [ 533663.583030515816063, 7262400.0 ], [ 533661.092519538942724, 7262410.0 ], [ 533658.895414073951542, 7262420.0 ], [ 533656.329821285791695, 7262430.0 ], [ 533653.233369000838138, 7262440.0 ], [ 533649.989718034281395, 7262450.0 ], [ 533646.689764766488224, 7262460.0 ], [ 533643.310235233511776, 7262470.0 ], [ 533640.01028196583502, 7262480.0 ], [ 533636.766630999278277, 7262490.0 ], [ 533633.670178714208305, 7262500.0 ], [ 533631.104585926048458, 7262510.0 ], [ 533628.906588250421919, 7262520.0 ], [ 533626.405795307713561, 7262530.0 ], [ 533623.594204692170024, 7262540.0 ], [ 533621.094303960213438, 7262550.0 ], [ 533618.906588250421919, 7262560.0 ], [ 533616.416969484183937, 7262570.0 ], [ 533613.680460680043325, 7262580.0 ], [ 533611.530221462948248, 7262590.0 ], [ 533610.359943480696529, 7262600.000000000931323 ], [ 533609.640056519303471, 7262610.0 ], [ 533608.470670747803524, 7262620.0 ], [ 533606.330713496543467, 7262630.0 ], [ 533603.669286503456533, 7262640.0 ], [ 533601.529329252312891, 7262650.0 ], [ 533600.359943480696529, 7262660.0 ], [ 533599.640056519303471, 7262670.0 ], [ 533598.470670747803524, 7262680.0 ], [ 533596.330713496543467, 7262690.0 ], [ 533593.670178714208305, 7262700.0 ], [ 533591.539611218031496, 7262710.0 ], [ 533590.43591750273481, 7262720.0 ], [ 533590.0, 7262730.0 ], [ 533589.56408249726519, 7262739.999107789248228 ], [ 533588.460388781968504, 7262749.987933613359928 ], [ 533586.329821285791695, 7262759.900785414502025 ], [ 533583.670178714208305, 7262769.453693735413253 ], [ 533581.540503428783268, 7262777.913190307095647 ], [ 533580.447091679205187, 7262784.243011591956019 ] ] } },
{ "type": "Feature", "properties": { "id": 12, "reference_id": 9, "dune_id": 9, "dune_name": "Inverted Y Dune", "acquisition_date": "2021-12-20", "length_m": 766.17448316303614 }, "geometry": { "type": "LineString", "coordinates": [ [ 529650.087148198392242, 7262234.243011592887342 ], [ 529650.447983889840543, 7262227.913190307095647 ], [ 529651.551677605253644, 7262219.453693735413253 ], [ 529653.757326912600547, 7262209.900785414502025 ], [ 529656.777805175632238, 7262199.987933613359928 ], [ 529660.011174176586792, 7262189.999107789248228 ], [ 529663.311127444147132, 7262180.0 ], [ 529666.700938943075016, 7262170.0 ], [ 529670.075974022038281, 7262160.0 ], [ 529673.670178714208305, 7262150.0 ], [ 529677.794350692536682, 7262140.0 ], [ 529682.20654151821509, 7262130.0 ], [ 529686.340103251626715, 7262120.0 ], [ 529690.0, 7262110.0 ], [ 529693.659896748373285, 7262100.0 ], [ 529697.794350692536682, 7262090.0 ], [ 529702.216823483933695, 7262080.0 ], [ 529706.416969484183937, 7262070.0 ], [ 529710.371117657166906, 7262060.0 ], [ 529714.839564485708252, 7262050.0 ], [ 529720.359051270061173, 7262040.0 ], [ 529726.31953932007309, 7262030.0 ], [ 529731.692865572171286, 7262020.0 ], [ 529735.88362181733828, 7262010.0 ], [ 529738.819440052029677, 7262000.0 ], [ 529741.169385771499947, 7261990.0 ], [ 529744.040404160739854, 7261980.0 ], [ 529747.946298736496828, 7261970.0 ], [ 529752.576766964746639, 7261960.0 ], [ 529757.434407211840153, 7261950.0 ], [ 529762.129675285425037, 7261940.0 ], [ 529766.31953932007309, 7261930.0 ], [ 529769.923133767442778, 7261920.0 ], [ 529773.299953267676756, 7261910.0 ], [ 529776.700938943075016, 7261900.0 ], [ 529780.087148198392242, 7261890.0 ], [ 529783.757326912600547, 7261880.0 ], [ 529788.24233458249364, 7261870.0 ], [ 529793.757326912600547, 7261860.0 ], [ 529800.087148198508658, 7261850.0 ], [ 529806.701831153710373, 7261840.000000000931323 ], [ 529813.311127444147132, 7261830.0 ], [ 529820.011174176586792, 7261820.0 ], [ 529826.777805175632238, 7261810.0 ], [ 529833.757326912600547, 7261800.0 ], [ 529841.551677605137229, 7261790.000892210751772 ], [ 529850.447983889840543, 7261780.011174176819623 ], [ 529860.087148198392242, 7261770.087148198857903 ], [ 529870.011174176470377, 7261760.447091679088771 ], [ 529880.000892210751772, 7261751.540503429248929 ], [ 529890.0, 7261743.671070925891399 ], [ 529900.0, 7261736.340995462611318 ], [ 529910.0, 7261728.546644770540297 ], [ 529920.0, 7261720.0 ], [ 529930.0, 7261711.454247441142797 ], [ 529940.0, 7261703.670178714208305 ], [ 529950.0, 7261696.416969484649599 ], [ 529960.0, 7261688.917762426659465 ], [ 529970.0, 7261681.180559948086739 ], [ 529980.0, 7261674.031014405190945 ], [ 529990.0, 7261667.870324714109302 ], [ 530000.0, 7261662.216823484748602 ], [ 530010.0, 7261656.340995462611318 ], [ 530019.999107789248228, 7261650.000892210751772 ], [ 530029.987933612894267, 7261643.671070925891399 ], [ 530039.900785414385609, 7261637.881498890928924 ], [ 530049.453693735180423, 7261632.664807373657823 ], [ 530057.91319030651357, 7261627.968647089786828 ], [ 530064.243011592305265, 7261624.129336779937148 ] ] } }
]
}
