{
"type": "FeatureCollection",
"name": "crests_2024_11_2024-11-04",
"crs": { "type": "name", "properties": { "name": "urn:ogc:def:crs:EPSG::32733" } },
"features": [
{ "type": "Feature", "properties": { "id": 0, "reference_id": 2, "dune_id": 2, "dune_name": "Big Mommy Dune", "acquisition_date": "2024-11-04", "length_m": 234.24070785015951 }, "geometry": { "type": "LineString", "coordinates": [ [ 528572.08680969348643, 7260745.745814231224358 ], [ 528575.756988407694735, 7260751.999661495909095 ], [ 528582.086809693370014, 7260760.098322374746203 ], [ 528590.546306264819577, 7260768.547536980360746 ], [ 528600.099214585730806, 7260776.253847263753414 ], [ 528610.012066387105733, 7260783.212805069983006 ], [ 528620.000892210635357, 7260789.911959591321647 ], [ 528630.0, 7260796.317754898220301 ], [ 528640.0, 7260802.118501110002398 ], [ 528650.0, 7260807.346366802230477 ], [ 528660.0, 7260812.11939332075417 ], [ 528670.0, 7260816.328929075971246 ], [ 528680.0, 7260819.999107789248228 ], [ 528690.0, 7260823.659896749071777 ], [ 528700.0, 7260827.793458482250571 ], [ 528710.0, 7260832.205649306997657 ], [ 528720.0, 7260836.329821286723018 ], [ 528729.999107789248228, 7260839.924025978893042 ], [ 528739.987933612894267, 7260843.299061057157815 ], [ 528749.900785414385609, 7260846.688872555270791 ], [ 528759.453693735296838, 7260849.9888258241117 ], [ 528767.91319030651357, 7260853.222194824367762 ], [ 528774.243011592421681, 7260856.242673086933792 ] ] } },
{ "type": "Feature", "properties": { "id": 1, "reference_id": 2, "dune_id": 2, "dune_name": "Big Mommy Dune", "acquisition_date": "2024-11-04", "length_m": 71.197214143849351 }, "geometry": { "type": "LineString", "coordinates": [ [ 528825.756988407694735, 7260880.447983890771866 ], [ 528832.08680969348643, 7260881.551677605137229 ], [ 528840.546306264819577, 7260883.757326912134886 ], [ 528850.098322374979034, 7260886.776912964880466 ], [ 528860.0, 7260890.0 ], [ 528869.901677625020966, 7260893.223087035119534 ], [ 528879.453693735296838, 7260896.242673087865114 ], [ 528887.91319030651357, 7260898.448322394862771 ], [ 528894.243011592421681, 7260899.552016110159457 ] ] } },
{ "type": "Feature", "properties": { "id": 2, "reference_id": 2, "dune_id": 2, "dune_name": "Big Mommy Dune", "acquisition_date": "2024-11-04", "length_m": 63.502250515001187 }, "geometry": { "type": "LineString", "coordinates": [ [ 529035.75698840781115, 7260934.118162604048848 ], [ 529042.08680969348643, 7260937.881498890928924 ], [ 529050.545414054067805, 7260942.216823483817279 ], [ 529060.087148198508658, 7260946.329821285791695 ], [ 529069.912851801607758, 7260949.912851802073419 ], [ 529079.454585945932195, 7260953.211912859231234 ], [ 529087.913190306629986, 7260956.241780877113342 ], [ 529094.243011592305265, 7260958.448322394862771 ] ] } },
{ "type": "Feature", "properties": { "id": 3, "reference_id": 3, "dune_id": 3, "dune_name": "Big Mommy Dune", "acquisition_date": "2024-11-04", "length_m": 614.07207824328702 }, "geometry": { "type": "LineString", "coordinates": [ [ 529614.243011592421681, 7260630.000892210751772 ], [ 529607.91319030651357, 7260630.011174176819623 ], [ 529599.453693735180423, 7260630.087148198857903 ], [ 529589.900785414502025, 7260630.447091680020094 ], [ 529579.987933612894267, 7260631.541395640000701 ], [ 529569.999107789248228, 7260633.681352891027927 ], [ 529560.0, 7260636.416969483718276 ], [ 529550.0, 7260638.906588250771165 ], [ 529540.0, 7260641.094303959980607 ], [ 529530.0, 7260643.594204693101346 ], [ 529520.0, 7260646.405795307829976 ], [ 529510.0, 7260648.906588250771165 ], [ 529500.000000000116415, 7260651.10458592697978 ], [ 529490.0, 7260653.670178714208305 ], [ 529480.0, 7260656.765738788992167 ], [ 529470.0, 7260660.0 ], [ 529460.0, 7260663.234261211939156 ], [ 529450.0, 7260666.329821285791695 ], [ 529440.000000000116415, 7260668.896306285634637 ], [ 529430.0, 7260671.104585926048458 ], [ 529420.0, 7260673.681352891027927 ], [ 529410.0, 7260676.853779197670519 ], [ 529400.0, 7260680.458265855908394 ], [ 529390.0, 7260684.862805049866438 ], [ 529380.0, 7260690.459158066660166 ], [ 529370.0, 7260696.864953374490142 ], [ 529360.000892210635357, 7260703.768501089885831 ], [ 529350.011174176586792, 7260711.552569815889001 ], [ 529340.087148198392242, 7260720.447983889840543 ], [ 529330.447983889840543, 7260730.087148198857903 ], [ 529321.551677605253644, 7260740.011174176819623 ], [ 529313.757326912716962, 7260750.000892210751772 ], [ 529306.777805175748654, 7260760.0 ], [ 529300.011174176470377, 7260770.0 ], [ 529293.310235233511776, 7260780.000000000931323 ], [ 529286.690656977239996, 7260790.0 ], [ 529280.0, 7260800.0 ], [ 529273.309343022760004, 7260810.0 ], [ 529266.690656977239996, 7260820.0 ], [ 529260.0, 7260830.0 ], [ 529253.309343022876419, 7260840.0 ], [ 529246.690656977239996, 7260850.0 ], [ 529240.0, 7260860.0 ], [ 529233.31023523339536, 7260870.0 ], [ 529226.700938943075016, 7260880.0 ], [ 529220.076866232557222, 7260890.0 ], [ 529213.680460680043325, 7260900.0 ], [ 529207.870324714574963, 7260910.0 ], [ 529202.566484998795204, 7260920.0 ], [ 529197.435299422475509, 7260930.0 ], [ 529192.152915849117562, 7260939.999553894624114 ], [ 529186.505009893444367, 7260949.993520701304078 ], [ 529180.90535753488075, 7260959.944359514862299 ], [ 529176.839225980802439, 7260969.6772395754233 ], [ 529175.668947998550721, 7260978.683442020788789 ], [ 529176.864953374140896, 7260986.078100949525833 ], [ 529178.557818946195766, 7260991.078100949525833 ] ] } },
{ "type": "Feature", "properties": { "id": 4, "reference_id": 3, "dune_id": 3, "dune_name": "Big Mommy Dune", "acquisition_date": "2024-11-04", "length_m": 58.486023184610531 }, "geometry": { "type": "LineString", "coordinates": [ [ 529704.243011592305265, 7260620.0 ], [ 529697.91319030651357, 7260620.0 ], [ 529689.454585945932195, 7260620.0 ], [ 529679.912851801607758, 7260620.0 ], [ 529670.087148198508658, 7260620.0 ], [ 529660.545414054067805, 7260620.0 ], [ 529652.08680969348643, 7260620.0 ], [ 529645.756988407694735, 7260620.0 ] ] } },
{ "type": "Feature", "properties": { "id": 5, "reference_id": 3, "dune_id": 3, "dune_name": "Big Mommy Dune", "acquisition_date": "2024-11-04", "length_m": 178.48602318461053 }, "geometry": { "type": "LineString", "coordinates": [ [ 529924.243011592305265, 7260610.0 ], [ 529917.91319030651357, 7260610.0 ], [ 529909.453693735296838, 7260610.0 ], [ 529899.900785414502025, 7260610.0 ], [ 529889.987933612894267, 7260610.0 ], [ 529879.999107789248228, 7260610.0 ], [ 529870.0, 7260610.0 ], [ 529860.0, 7260610.0 ], [ 529850.0, 7260610.0 ], [ 529840.0, 7260610.0 ], [ 529830.0, 7260610.0 ], [ 529820.0, 7260610.0 ], [ 529810.0, 7260610.0 ], [ 529800.0, 7260610.0 ], [ 529790.000892210751772, 7260610.0 ], [ 529780.012066387105733, 7260610.0 ], [ 529770.099214585614391, 7260610.0 ], [ 529760.546306264819577, 7260610.0 ], [ 529752.08680969348643, 7260610.0 ], [ 529745.756988407694735, 7260610.0 ] ] } },
{ "type": "Feature", "properties": { "id": 6, "reference_id": 3, "dune_id": 3, "dune_name": "Big Mommy Dune", "acquisition_date": "2024-11-04", "length_m": 88.486023184610531 }, "geometry": { "type": "LineString", "coordinates": [ [ 530044.243011592305265, 7260610.0 ], [ 530037.91319030651357, 7260610.0 ], [ 530029.453693735180423, 7260610.0 ], [ 530019.900785414502025, 7260610.0 ], [ 530009.987933612894267, 7260610.0 ], [ 530000.0, 7260610.0 ], [ 529990.012066387222148, 7260610.0 ], [ 529980.099214585614391, 7260610.0 ], [ 529970.546306264703162, 7260610.0 ], [ 529962.086809693602845, 7260610.0 ], [ 529955.756988407694735, 7260610.0 ] ] } },
{ "type": "Feature", "properties": { "id": 7, "reference_id": 3, "dune_id": 3, "dune_name": "Big Mommy Dune", "acquisition_date": "2024-11-04", "length_m": 162.00457738824596 }, "geometry": { "type": "LineString", "coordinates": [ [ 530085.756988407694735, 7260599.9888258241117 ], [ 530092.08680969348643, 7260599.912851802073419 ], [ 530100.546306264819577, 7260599.552016111090779 ], [ 530110.099214585614391, 7260598.448322394862771 ], [ 530120.012066387222148, 7260596.242673087865114 ], [ 530130.000892210751772, 7260593.223087035119534 ], [ 530140.0, 7260590.0 ], [ 530150.0, 7260586.776912964880466 ], [ 530160.0, 7260583.756434702314436 ], [ 530170.000000000116415, 7260581.540503429248929 ], [ 530180.0, 7260580.360835691913962 ], [ 530190.0, 7260579.64005651883781 ], [ 530199.999107789248228, 7260578.470670748502016 ], [ 530209.987933612894267, 7260576.33071349747479 ], [ 530219.900785414385609, 7260573.670178715139627 ], [ 530229.453693735180423, 7260571.540503429248929 ], [ 530237.91319030651357, 7260570.447091680020094 ], [ 530244.243011592421681, 7260570.087148198857903 ] ] } },
{ "type": "Feature", "properties": { "id": 8, "reference_id": 4, "dune_id": 4, "dune_name": "The Star Dune", "acquisition_date": "2024-11-04", "length_m": 236.32266419262385 }, "geometry": { "type": "LineString", "coordinates": [ [ 533005.756988407694735, 7261870.447091680020094 ], [ 533012.08680969348643, 7261871.540503429248929 ], [ 533020.546306264819577, 7261873.671070925891399 ], [ 533030.099214585614391, 7261876.340995462611318 ], [ 533040.012066387105733, 7261878.546644769608974 ], [ 533050.000892210751772, 7261880.0 ], [ 533060.0, 7261881.454247441142797 ], [ 533070.0, 7261883.670178714208305 ], [ 533080.0, 7261886.416077273897827 ], [ 533090.0, 7261888.907480461522937 ], [ 533100.0, 7261891.10458592697978 ], [ 533110.0, 7261893.670178715139627 ], [ 533120.0, 7261896.765738788992167 ], [ 533130.0, 7261900.0 ], [ 533140.0, 7261903.234261211939156 ], [ 533150.0, 7261906.329821286723018 ], [ 533160.0, 7261908.896306285634637 ], [ 533170.0, 7261911.103693716228008 ], [ 533180.0, 7261913.670178715139627 ], [ 533189.999107789364643, 7261916.765738788992167 ], [ 533199.987933612894267, 7261919.999107790179551 ], [ 533209.900785414502025, 7261923.223087035119534 ], [ 533219.453693735180423, 7261926.242673087865114 ], [ 533227.91319030651357, 7261928.448322394862771 ], [ 533234.243011592421681, 7261929.552016110159457 ] ] } },
{ "type": "Feature", "properties": { "id": 9, "reference_id": 4, "dune_id": 4, "dune_name": "The Star Dune", "acquisition_date": "2024-11-04", "length_m": 143.72488562462735 }, "geometry": { "type": "LineString", "coordinates": [ [ 533265.756988407694735, 7261940.447091679088771 ], [ 533272.08680969348643, 7261941.541395639069378 ], [ 533280.546306264703162, 7261943.681352891027927 ], [ 533290.099214585497975, 7261946.416969483718276 ], [ 533300.012066387105733, 7261948.907480461522937 ], [ 533310.000892210751772, 7261951.104585926048458 ], [ 533320.0, 7261953.670178715139627 ], [ 533330.0, 7261956.765738788992167 ], [ 533340.0, 7261960.0 ], [ 533350.0, 7261963.234261211939156 ], [ 533359.999107789364643, 7261966.329821286723018 ], [ 533369.987933612894267, 7261968.895414074882865 ], [ 533379.900785414385609, 7261971.092519538477063 ], [ 533389.453693735296838, 7261973.583030516281724 ], [ 533397.913190306629986, 7261976.318647109903395 ], [ 533404.243011592421681, 7261978.458604359999299 ] ] } },
{ "type": "Feature", "properties": { "id": 10, "reference_id": 4, "dune_id": 4, "dune_name": "The Star Dune", "acquisition_date": "2024-11-04", "length_m": 201.3919767909411 }, "geometry": { "type": "LineString", "coordinates": [ [ 533435.756988407694735, 7261991.541395640000701 ], [ 533442.086809693370014, 7261993.680460680276155 ], [ 533450.546306264703162, 7261996.406687518581748 ], [ 533460.099214585614391, 7261998.831506439484656 ], [ 533470.012066387105733, 7262000.745534656569362 ], [ 533480.000892210751772, 7262002.587941141799092 ], [ 533490.0, 7262004.723211701959372 ], [ 533500.0, 7262007.787449107505381 ], [ 533510.0, 7262012.645981565117836 ], [ 533520.0, 7262018.917762426659465 ], [ 533530.0, 7262024.952440077438951 ], [ 533540.0, 7262029.923133767209947 ], [ 533550.0, 7262034.66705251019448 ], [ 533560.0, 7262039.911959590390325 ], [ 533570.0, 7262044.863507458008826 ], [ 533579.999107789364643, 7262048.447430184110999 ], [ 533589.987933612894267, 7262050.919115353375673 ], [ 533599.900785414385609, 7262053.12476466037333 ], [ 533609.453693735180423, 7262054.777251470834017 ], [ 533617.91319030651357, 7262054.788425646722317 ], [ 533624.243011592305265, 7262053.223087035119534 ] ] } },
{ "type": "Feature", "properties": { "id": 11, "reference_id": 5, "dune_id": 5, "dune_name": "The Star Dune", "acquisition_date": "2024-11-04", "length_m": 1145.6101316525228 }, "geometry": { "type": "LineString", "coordinates": [ [ 534334.342226177919656, 7261305.756988408043981 ], [ 534328.459496571333148, 7261312.086809693835676 ], [ 534321.540503428666852, 7261320.546306264586747 ], [ 534315.657773822080344, 7261330.099214585497975 ], [ 534312.075635517016053, 7261340.012066386640072 ], [ 534310.556588230538182, 7261350.000892210751772 ], [ 534310.186362784006633, 7261360.0 ], [ 534310.45915806631092, 7261370.0 ], [ 534311.541395639418624, 7261380.0 ], [ 534313.670178714208305, 7261390.0 ], [ 534316.329821285791695, 7261400.0 ], [ 534318.459496571216732, 7261410.0 ], [ 534319.553800531546585, 7261420.0 ], [ 534319.924025978078134, 7261430.0 ], [ 534320.075974021921866, 7261440.0 ], [ 534320.446199468453415, 7261450.0 ], [ 534321.540503428666852, 7261460.0 ], [ 534323.669286503572948, 7261470.000000000931323 ], [ 534326.318647109321319, 7261480.0 ], [ 534328.37234837282449, 7261490.0 ], [ 534329.105816641706042, 7261500.0 ], [ 534328.371456162189133, 7261510.0 ], [ 534326.306580722215585, 7261520.0 ], [ 534323.570071917958558, 7261530.0 ], [ 534320.99419716396369, 7261540.0 ], [ 534318.360281985718757, 7261550.0 ], [ 534314.330159790813923, 7261559.999107790179551 ], [ 534307.924364482983947, 7261569.9888258241117 ], [ 534299.454585945932195, 7261579.912851802073419 ], [ 534289.900785414502025, 7261589.552016110159457 ], [ 534279.987933612894267, 7261598.448322394862771 ], [ 534269.999107789248228, 7261606.242673087865114 ], [ 534260.0, 7261613.222194824367762 ], [ 534250.0, 7261619.9888258241117 ], [ 534240.0, 7261626.688872555270791 ], [ 534230.0, 7261633.299061057157815 ], [ 534220.0, 7261639.92313376814127 ], [ 534210.0, 7261646.318647109903395 ], [ 534200.0, 7261652.117608899250627 ], [ 534190.0, 7261657.335192626342177 ], [ 534180.0, 7261662.031352911144495 ], [ 534170.0, 7261665.871555430814624 ], [ 534160.0, 7261668.382630338892341 ], [ 534150.0, 7261669.62888234294951 ], [ 534140.0, 7261670.359051270410419 ], [ 534130.0, 7261671.529329252429307 ], [ 534120.0, 7261673.669286503456533 ], [ 534110.0, 7261676.330713496543467 ], [ 534100.0, 7261678.470670748502016 ], [ 534090.0, 7261679.640056519769132 ], [ 534080.0, 7261680.35994348116219 ], [ 534070.0, 7261681.529329252429307 ], [ 534060.0, 7261683.669286504387856 ], [ 534050.0, 7261686.329821286723018 ], [ 534040.0, 7261688.460388783365488 ], [ 534030.0, 7261689.564082497730851 ], [ 534020.0, 7261690.0 ], [ 534010.0, 7261690.435917503200471 ], [ 534000.0, 7261691.540503429248929 ], [ 533990.0, 7261693.681352891027927 ], [ 533980.0, 7261696.416969484649599 ], [ 533970.0, 7261698.907480461522937 ], [ 533960.0, 7261701.10458592697978 ], [ 533950.0, 7261703.670178714208305 ], [ 533940.0, 7261706.766630999743938 ], [ 533930.0, 7261710.0111741758883 ], [ 533920.0, 7261713.321409409865737 ], [ 533910.0, 7261716.777805175632238 ], [ 533900.0, 7261720.447091679088771 ], [ 533890.0, 7261724.850738662295043 ], [ 533880.0, 7261730.371117657981813 ], [ 533870.0, 7261736.406687518581748 ], [ 533860.0, 7261742.139957251027226 ], [ 533850.0, 7261747.424125246703625 ], [ 533840.0, 7261752.490510977804661 ], [ 533830.0, 7261757.510381232947111 ], [ 533820.0, 7261762.587941141799092 ], [ 533810.000892210635357, 7261767.958365123718977 ], [ 533800.011174176470377, 7261774.128444570116699 ], [ 533790.088040409144014, 7261781.628543838858604 ], [ 533780.45915806631092, 7261790.458265855908394 ], [ 533771.638825803645886, 7261800.088040409609675 ], [ 533764.205310802557506, 7261810.011174177750945 ], [ 533758.329482780885883, 7261820.000892210751772 ], [ 533753.768501089187339, 7261830.0 ], [ 533750.088040409144014, 7261840.000000000931323 ], [ 533746.701831153710373, 7261850.0 ], [ 533743.31023523339536, 7261860.0 ], [ 533739.999107789364643, 7261870.0 ], [ 533736.679482800886035, 7261880.0 ], [ 533733.222194824367762, 7261890.0 ], [ 533729.552908320794813, 7261900.0 ], [ 533725.149261337937787, 7261910.0 ], [ 533719.628882342833094, 7261920.0 ], [ 533713.593312481534667, 7261930.0 ], [ 533707.860042748739943, 7261940.0 ], [ 533702.575874753994867, 7261950.0 ], [ 533697.509489023126662, 7261960.0 ], [ 533692.490510976989754, 7261970.0 ], [ 533687.423233035369776, 7261980.0 ], [ 533682.129675285541452, 7261989.999553894624114 ], [ 533676.330713496543467, 7261999.993520701304078 ], [ 533670.011174176586792, 7262009.944359513930976 ], [ 533663.758219123352319, 7262019.677239574491978 ], [ 533658.328590570134111, 7262028.683442020788789 ], [ 533654.20531080244109, 7262036.078100949525833 ], [ 533651.638825803645886, 7262041.078100949525833 ] ] } },
{ "type": "Feature", "properties": { "id": 12, "reference_id": 6, "dune_id": 6, "dune_name": "The Star Dune", "acquisition_date": "2024-11-04", "length_m": 570.08181094708459 }, "geometry": { "type": "LineString", "coordinates": [ [ 533660.011174176470377, 7262225.756988408043981 ], [ 533660.087148198392242, 7262232.086809693835676 ], [ 533660.447091679088771, 7262240.546306265518069 ], [ 533661.540503428783268, 7262250.099214585497975 ], [ 533663.670178714208305, 7262260.012066387571394 ], [ 533666.329821285791695, 7262270.000892210751772 ], [ 533668.459496571333148, 7262280.0 ], [ 533669.552908320911229, 7262290.0 ], [ 533669.912851801607758, 7262300.0 ], [ 533669.988825823646039, 7262310.0 ], [ 533669.999107789364643, 7262320.0 ], [ 533669.999107789364643, 7262330.0 ], [ 533669.988825823646039, 7262340.000000000931323 ], [ 533669.912851801607758, 7262350.0 ], [ 533669.552908320911229, 7262360.0 ], [ 533668.458604360697791, 7262370.0 ], [ 533666.318647109437734, 7262380.0 ], [ 533663.583030515816063, 7262390.0 ], [ 533661.092519538942724, 7262400.0 ], [ 533658.895414073951542, 7262410.0 ], [ 533656.329821285791695, 7262420.0 ], [ 533653.234261211473495, 7262430.0 ], [ 533650.0, 7262440.0 ], [ 533646.765738788526505, 7262450.0 ], [ 533643.670178714208305, 7262460.0 ], [ 533641.103693715413101, 7262470.0 ], [ 533638.896306284703314, 7262480.0 ], [ 533636.329821285791695, 7262490.0 ], [ 533633.234261211473495, 7262500.0 ], [ 533630.000892210751772, 7262510.0 ], [ 533626.77602075424511, 7262520.0 ], [ 533623.746152736130171, 7262530.0 ], [ 533621.464529406744987, 7262540.0 ], [ 533620.000892210635357, 7262550.0 ], [ 533618.54664476972539, 7262560.0 ], [ 533616.340103251626715, 7262570.0 ], [ 533613.659896748373285, 7262580.0 ], [ 533611.45335523027461, 7262590.0 ], [ 533610.0, 7262600.000000000931323 ], [ 533608.54664476972539, 7262610.0 ], [ 533606.340995462378487, 7262620.0 ], [ 533603.671070924960077, 7262630.0 ], [ 533601.539611218031496, 7262640.0 ], [ 533600.43591750273481, 7262650.0 ], [ 533600.0, 7262660.0 ], [ 533599.56408249726519, 7262670.0 ], [ 533598.460388781968504, 7262680.0 ], [ 533596.329821285791695, 7262690.0 ], [ 533593.670178714208305, 7262700.0 ], [ 533591.539611218031496, 7262710.0 ], [ 533590.43591750273481, 7262720.0 ], [ 533590.0, 7262730.0 ], [ 533589.56408249726519, 7262739.999107789248228 ], [ 533588.460388781968504, 7262749.987933613359928 ], [ 533586.329821285791695, 7262759.900785414502025 ], [ 533583.670178714208305, 7262769.453693735413253 ], [ 533581.540503428783268, 7262777.913190307095647 ], [ 533580.447091679205187, 7262784.243011591956019 ] ] } },
{ "type": "Feature", "properties": { "id": 13, "reference_id": 6, "dune_id": 6, "dune_name": "The Star Dune", "acquisition_date": "2024-11-04", "length_m": 145.32111254148185 }, "geometry": { "type": "LineString", "coordinates": [ [ 533650.0, 7262048.921899050474167 ], [ 533650.0, 7262053.921899050474167 ], [ 533650.0, 7262061.316557979211211 ], [ 533650.0, 7262070.322760425508022 ], [ 533650.0, 7262080.055640487000346 ], [ 533650.0, 7262090.006479298695922 ], [ 533650.0, 7262100.000446105375886 ], [ 533650.0, 7262110.0 ], [ 533650.0, 7262120.0 ], [ 533650.0, 7262130.0 ], [ 533650.0, 7262140.0 ], [ 533650.0, 7262149.999107789248228 ], [ 533650.0, 7262159.987933613359928 ], [ 533650.0, 7262169.900785414502025 ], [ 533650.0, 7262179.453693735413253 ], [ 533650.0, 7262187.913190307095647 ], [ 533650.0, 7262194.243011591956019 ] ] } },
{ "type": "Feature", "properties": { "id": 14, "reference_id": 7, "dune_id": 7, "dune_name": "Inverted Y Dune", "acquisition_date": "2024-11-04", "length_m": 589.45774228324649 }, "geometry": { "type": "LineString", "coordinates": [ [ 530195.756988407694735, 7261650.0 ], [ 530202.086809693370014, 7261650.0 ], [ 530210.546306264819577, 7261649.999107790179551 ], [ 530220.099214585614391, 7261649.9888258241117 ], [ 530230.012066387105733, 7261649.912851802073419 ], [ 530240.000892210751772, 7261649.552908321842551 ], [ 530250.0, 7261648.458604361861944 ], [ 530260.0, 7261646.318647109903395 ], [ 530270.0, 7261643.583030516281724 ], [ 530280.0, 7261641.092519538477063 ], [ 530290.0, 7261638.895414074882865 ], [ 530300.0, 7261636.329821285791695 ], [ 530310.0, 7261633.233369001187384 ], [ 530320.0, 7261629.989718034863472 ], [ 530330.0, 7261626.689764766022563 ], [ 530340.0, 7261623.309343023225665 ], [ 530350.0, 7261619.999107789248228 ], [ 530360.0, 7261616.679482800886035 ], [ 530370.0, 7261613.222194824367762 ], [ 530380.0, 7261609.552016110159457 ], [ 530390.0, 7261605.138979372568429 ], [ 530400.0, 7261599.552016111090779 ], [ 530410.0, 7261593.222194824367762 ], [ 530420.0, 7261586.678590590134263 ], [ 530430.000000000116415, 7261579.987933613359928 ], [ 530440.0, 7261573.222194824367762 ], [ 530449.999107789248228, 7261566.242673087865114 ], [ 530459.988825823646039, 7261558.448322394862771 ], [ 530469.912851801607758, 7261549.552016110159457 ], [ 530479.552908320794813, 7261539.912851801142097 ], [ 530488.458604360581376, 7261529.9888258241117 ], [ 530496.318647109437734, 7261519.999107789248228 ], [ 530503.583030515816063, 7261510.0 ], [ 530511.092519538826309, 7261500.0 ], [ 530518.895414073951542, 7261490.0 ], [ 530526.329821285791695, 7261480.0 ], [ 530533.233369000838138, 7261470.000000000931323 ], [ 530539.989718034281395, 7261460.0 ], [ 530546.68976476660464, 7261450.0 ], [ 530553.310235233511776, 7261440.0 ], [ 530560.011174176470377, 7261430.0 ], [ 530566.777805175632238, 7261420.0 ], [ 530573.757326912600547, 7261410.0 ], [ 530581.551677605253644, 7261400.0 ], [ 530590.447983889840543, 7261390.0 ], [ 530600.087148198392242, 7261380.0 ], [ 530610.01028196583502, 7261370.000892210751772 ], [ 530619.988825823646039, 7261360.012066386640072 ], [ 530629.900785414502025, 7261350.099214585497975 ], [ 530639.453693735296838, 7261340.546306265518069 ], [ 530647.913190306629986, 7261332.086809693835676 ], [ 530654.243011592305265, 7261325.756988408043981 ] ] } },
{ "type": "Feature", "properties": { "id": 15, "reference_id": 9, "dune_id": 9, "dune_name": "Inverted Y Dune", "acquisition_date": "2024-11-04", "length_m": 835.94581684640855 }, "geometry": { "type": "LineString", "coordinates": [ [ 529640.011174176470377, 7262264.243011591956019 ], [ 529640.087148198392242, 7262257.913190307095647 ], [ 529640.447983889840543, 7262249.453693735413253 ], [ 529641.551677605137229, 7262239.900785414502025 ], [ 529643.758219123352319, 7262229.987933613359928 ], [ 529646.788087141467258, 7262219.999107789248228 ], [ 529650.087148198392242, 7262210.0 ], [ 529653.671070924960077, 7262200.0 ], [ 529657.794350692536682, 7262190.0 ], [ 529662.205649307463318, 7262180.0 ], [ 529666.329821285791695, 7262170.0 ], [ 529669.924025978078134, 7262160.0 ], [ 529673.299953267676756, 7262150.0 ], [ 529676.700938943075016, 7262140.0 ], [ 529680.087148198508658, 7262130.0 ], [ 529683.75643470196519, 7262120.0 ], [ 529688.231160405906849, 7262110.0 ], [ 529693.670178714208305, 7262100.0 ], [ 529699.639164308551699, 7262090.0 ], [ 529705.150153548456728, 7262080.0 ], [ 529709.552908320911229, 7262070.0 ], [ 529713.223087035003118, 7262060.0 ], [ 529716.689764766488224, 7262050.0 ], [ 529720.075974022038281, 7262040.0 ], [ 529723.680460680043325, 7262030.0 ], [ 529727.871216925210319, 7262020.0 ], [ 529732.576766964630224, 7262010.0 ], [ 529737.509489023126662, 7262000.0 ], [ 529742.490510976989754, 7261990.0 ], [ 529747.423233035369776, 7261980.0 ], [ 529752.128783074789681, 7261970.0 ], [ 529756.319539319956675, 7261960.0 ], [ 529759.923133767326362, 7261950.0 ], [ 529763.299061056924984, 7261940.0 ], [ 529766.689764766488224, 7261930.0 ], [ 529770.0, 7261920.0 ], [ 529773.310235233511776, 7261910.0 ], [ 529776.700938943075016, 7261900.0 ], [ 529780.076866232673638, 7261890.0 ], [ 529783.681352890678681, 7261880.0 ], [ 529787.881498891045339, 7261870.0 ], [ 529792.653633197303861, 7261860.0 ], [ 529797.881498891045339, 7261850.0 ], [ 529803.682245101314038, 7261840.000000000931323 ], [ 529810.088040409144014, 7261830.0 ], [ 529816.788087141467258, 7261820.0 ], [ 529823.758219123352319, 7261810.0 ], [ 529831.551677605137229, 7261800.0 ], [ 529840.447983889840543, 7261790.0 ], [ 529850.087148198392242, 7261780.0 ], [ 529860.011174176470377, 7261770.000892210751772 ], [ 529870.000892210751772, 7261760.011174176819623 ], [ 529880.0, 7261750.087148198857903 ], [ 529890.0, 7261740.447091680020094 ], [ 529900.0, 7261731.541395640000701 ], [ 529910.0, 7261723.681352891027927 ], [ 529920.0, 7261716.417861695401371 ], [ 529930.0, 7261708.917762426659465 ], [ 529940.0, 7261701.181452158838511 ], [ 529950.0, 7261694.041296372190118 ], [ 529960.0, 7261687.946298736147583 ], [ 529970.0, 7261682.576766964048147 ], [ 529980.0, 7261677.434407211840153 ], [ 529990.0, 7261672.129675285890698 ], [ 530000.0, 7261666.319539319723845 ], [ 530010.0, 7261659.92313376814127 ], [ 530020.0, 7261653.299061057157815 ], [ 530030.0, 7261646.688872557133436 ], [ 530039.999553894624114, 7261639.989271929487586 ], [ 530049.993520701071247, 7261633.228674123063684 ], [ 530059.944359513698146, 7261626.298313573934138 ], [ 530069.677239574841224, 7261618.771082820370793 ], [ 530078.683442020905204, 7261610.868574090301991 ], [ 530086.078100949409418, 7261603.834750852547586 ], [ 530091.078100949525833, 7261598.910724874585867 ] ] } },
{ "type": "Feature", "properties": { "id": 16, "reference_id": 8, "dune_id": 8, "dune_name": "Inverted Y Dune", "acquisition_date": "2024-11-04", "length_m": 512.99818483328841 }, "geometry": { "type": "LineString", "coordinates": [ [ 530096.835089357104152, 7261591.078100949525833 ], [ 530098.164910642895848, 7261586.078100949525833 ], [ 530099.229748285608366, 7261578.683442020788789 ], [ 530099.777346371090971, 7261569.6772395754233 ], [ 530099.967600077274255, 7261559.944359513930976 ], [ 530100.081561110215262, 7261549.993520701304078 ], [ 530100.446645573829301, 7261539.999553894624114 ], [ 530101.540503428783268, 7261530.0 ], [ 530103.670178714208305, 7261520.0 ], [ 530106.329821285791695, 7261510.0 ], [ 530108.460388781968504, 7261500.0 ], [ 530109.564082497381605, 7261490.0 ], [ 530110.0, 7261480.0 ], [ 530110.43591750273481, 7261470.000000000931323 ], [ 530111.539611218031496, 7261460.0 ], [ 530113.671070924960077, 7261450.0 ], [ 530116.340995462262072, 7261440.0 ], [ 530118.54664476972539, 7261430.0 ], [ 530120.000892210751772, 7261420.0 ], [ 530121.464529406744987, 7261410.0 ], [ 530123.746152736246586, 7261400.0 ], [ 530126.776912964996882, 7261390.0 ], [ 530130.011174176470377, 7261380.0 ], [ 530133.311127444147132, 7261370.0 ], [ 530136.700938943075016, 7261360.0 ], [ 530140.076866232673638, 7261350.0 ], [ 530143.681352890678681, 7261340.0 ], [ 530147.882391101680696, 7261330.0 ], [ 530152.664807373890653, 7261320.0 ], [ 530157.968647089553997, 7261310.000000000931323 ], [ 530164.129336780519225, 7261300.0 ], [ 530171.628543837927282, 7261290.000892210751772 ], [ 530180.458265855675563, 7261280.0111741758883 ], [ 530190.088040409144014, 7261270.088040409609675 ], [ 530200.011174176586792, 7261260.458265855908394 ], [ 530210.000892210751772, 7261251.628543837927282 ], [ 530220.0, 7261244.128444569185376 ], [ 530230.0, 7261237.958365123718977 ], [ 530240.0, 7261232.588833352550864 ], [ 530250.0, 7261227.522447621449828 ], [ 530260.0, 7261222.588833352550864 ], [ 530270.0, 7261217.958365123718977 ], [ 530280.0, 7261214.128444571048021 ], [ 530290.0, 7261211.628543838858604 ], [ 530299.999107789364643, 7261210.458265855908394 ], [ 530309.987933612894267, 7261210.088040409609675 ], [ 530319.900785414502025, 7261210.011174176819623 ], [ 530329.453693735180423, 7261210.000892211683095 ], [ 530337.91319030651357, 7261210.000000000931323 ], [ 530344.243011592305265, 7261210.000000000931323 ] ] } },
{ "type": "Feature", "properties": { "id": 17, "reference_id": 8, "dune_id": 8, "dune_name": "Inverted Y Dune", "acquisition_date": "2024-11-04", "length_m": 121.62080541231006 }, "geometry": { "type": "LineString", "coordinates": [ [ 530514.243011592421681, 7261194.117270393297076 ], [ 530507.91319030651357, 7261197.870324715040624 ], [ 530499.453693735296838, 7261202.129675285890698 ], [ 530489.900785414385609, 7261205.882729606702924 ], [ 530479.987933612894267, 7261208.372348373755813 ], [ 530469.999107789364643, 7261209.541734145022929 ], [ 530460.0, 7261209.911959591321647 ], [ 530450.0, 7261209.9888258241117 ], [ 530440.000892210751772, 7261209.999107790179551 ], [ 530430.012066387222148, 7261210.000000000931323 ], [ 530420.099214585614391, 7261210.000000000931323 ], [ 530410.546306264819577, 7261210.000000000931323 ], [ 530402.08680969348643, 7261210.000000000931323 ], [ 530395.756988407694735, 7261210.000000000931323 ] ] } },
{ "type": "Feature", "properties": { "id": 18, "reference_id": 1, "dune_id": 1, "dune_name": "Big Mommy Dune", "acquisition_date": "2024-11-04", "length_m": 1288.4278067688663 }, "geometry": { "type": "LineString", "coordinates": [ [ 529180.0, 7260998.921899050474167 ], [ 529180.0, 7261003.921899050474167 ], [ 529180.0, 7261011.316557979211211 ], [ 529180.0, 7261020.322760425508022 ], [ 529180.0, 7261030.055640487000346 ], [ 529180.0, 7261040.006479299627244 ], [ 529180.0, 7261050.000446105375886 ], [ 529179.999107789364643, 7261060.0 ], [ 529179.988825823529623, 7261070.0 ], [ 529179.912851801607758, 7261080.0 ], [ 529179.552016110159457, 7261090.0 ], [ 529178.448322394862771, 7261100.0 ], [ 529176.242673087399453, 7261110.0 ], [ 529173.222194824367762, 7261120.000000000931323 ], [ 529169.988825823529623, 7261130.0 ], [ 529166.689764766488224, 7261140.0 ], [ 529163.309343022760004, 7261150.0 ], [ 529160.0, 7261160.0 ], [ 529156.68976476660464, 7261170.0 ], [ 529153.299061057041399, 7261180.0 ], [ 529149.924025978078134, 7261190.0 ], [ 529146.329821285791695, 7261200.0 ], [ 529142.205649307463318, 7261210.000000000931323 ], [ 529137.79345848178491, 7261220.0 ], [ 529133.659896748373285, 7261230.0 ], [ 529129.999107789364643, 7261240.0 ], [ 529126.329821285791695, 7261250.0 ], [ 529122.130567496176809, 7261260.0 ], [ 529117.433515001204796, 7261270.0 ], [ 529112.566484998911619, 7261280.0 ], [ 529107.869432503823191, 7261290.0 ], [ 529103.670178714208305, 7261300.0 ], [ 529100.000892210751772, 7261310.000000000931323 ], [ 529096.340103251626715, 7261320.0 ], [ 529092.20654151821509, 7261330.0 ], [ 529087.794350692536682, 7261340.0 ], [ 529083.670178714208305, 7261350.0 ], [ 529080.075974022038281, 7261360.0 ], [ 529076.700046732323244, 7261370.0 ], [ 529073.299953267676756, 7261380.0 ], [ 529069.924025978078134, 7261390.0 ], [ 529066.329821285791695, 7261400.0 ], [ 529062.205649307463318, 7261410.0 ], [ 529057.794350692536682, 7261420.0 ], [ 529053.670178714208305, 7261430.0 ], [ 529050.075974021921866, 7261440.0 ], [ 529046.700938942958601, 7261450.0 ], [ 529043.31023523339536, 7261460.0 ], [ 529040.0, 7261470.000000000931323 ], [ 529036.690656977239996, 7261480.0 ], [ 529033.310235233511776, 7261490.0 ], [ 529030.011174176586792, 7261500.0 ], [ 529026.777805175632238, 7261510.0 ], [ 529023.757326912600547, 7261520.0 ], [ 529021.550785394501872, 7261530.0 ], [ 529020.436809713486582, 7261540.0 ], [ 529020.0, 7261550.0 ], [ 529019.564082497381605, 7261560.000000000931323 ], [ 529018.460388781968504, 7261570.0 ], [ 529016.329821285791695, 7261580.0 ], [ 529013.670178714208305, 7261590.0 ], [ 529011.541395639418624, 7261600.0 ], [ 529010.458265855675563, 7261610.0 ], [ 529010.1742963969009, 7261620.0 ], [ 529010.458265855675563, 7261630.0 ], [ 529011.542287850053981, 7261640.0 ], [ 529013.681352890795097, 7261650.0 ], [ 529016.417861694935709, 7261660.0 ], [ 529018.917762426892295, 7261670.0 ], [ 529021.181452158722095, 7261680.0 ], [ 529024.041296371491626, 7261690.0 ], [ 529027.9471909472486, 7261700.0 ], [ 529032.5879411411006, 7261710.0 ], [ 529037.521555410232395, 7261720.0 ], [ 529042.577659175381996, 7261730.000000000931323 ], [ 529047.871216925210319, 7261740.0 ], [ 529053.680460680043325, 7261750.0 ], [ 529060.075974022038281, 7261760.0 ], [ 529066.68976476660464, 7261770.0 ], [ 529073.223087035003118, 7261780.0 ], [ 529079.552016110159457, 7261790.0 ], [ 529085.138087161350995, 7261800.0 ], [ 529089.54084193368908, 7261810.0 ], [ 529093.135046625975519, 7261820.0 ], [ 529096.231498910929076, 7261830.0 ], [ 529098.446537973592058, 7261840.000000000931323 ], [ 529099.539949723053724, 7261850.0 ], [ 529099.814529426628724, 7261860.0 ], [ 529099.453693735413253, 7261870.0 ], [ 529097.999446294270456, 7261880.0 ], [ 529094.690103271510452, 7261890.0 ], [ 529089.454585945932195, 7261900.0 ], [ 529083.135046625859104, 7261910.0 ], [ 529076.317754898685962, 7261920.0 ], [ 529068.895414073951542, 7261930.0 ], [ 529061.103693715296686, 7261940.0 ], [ 529053.671070924960077, 7261950.0 ], [ 529046.776912964880466, 7261960.0 ], [ 529040.087148198392242, 7261970.0 ], [ 529033.682245101314038, 7261980.0 ], [ 529027.881498891045339, 7261990.0 ], [ 529022.653633197303861, 7262000.0 ], [ 529017.881498890928924, 7262010.0 ], [ 529013.681352890795097, 7262020.0 ], [ 529010.076866232673638, 7262030.0 ], [ 529006.700046732323244, 7262040.0 ], [ 529003.299061057041399, 7262050.0 ], [ 528999.912851801607758, 7262060.0 ], [ 528996.242673087399453, 7262070.0 ], [ 528991.758557628258131, 7262080.0 ], [ 528986.252955053118058, 7262090.0 ], [ 528979.988825823646039, 7262100.0 ], [ 528973.658112327102572, 7262110.0 ], [ 528967.782284305430949, 7262120.0 ], [ 528962.118501109071076, 7262130.0 ], [ 528955.882729606702924, 7262139.999107789248228 ], [ 528948.384414759930223, 7262149.987933613359928 ], [ 528939.640948729938827, 7262159.900785414502025 ], [ 528930.458265855675563, 7262169.453693735413253 ], [ 528922.075635517016053, 7262177.913190307095647 ], [ 528915.756096197059378, 7262184.243011591956019 ] ] } }
]
}
