{
"type": "FeatureCollection",
"name": "crests_2025_02_2025-02-19",
"crs": { "type": "name", "properties": { "name": "urn:ogc:def:crs:EPSG::32733" } },
"features": [
{ "type": "Feature", "properties": { "id": 0, "reference_id": 2, "dune_id": 2, "dune_name": "Big Mommy Dune", "acquisition_date": "2025-02-19", "length_m": 51.346874423322014 }, "geometry": { "type": "LineString", "coordinates": [ [ 528994.243011592305265, 7260918.448322394862771 ], [ 528987.914082517265342, 7260916.242673087865114 ], [ 528979.465760122518986, 7260913.223087035119534 ], [ 528970.0, 7260910.0 ], [ 528960.534239877713844, 7260906.776912965811789 ], [ 528952.085917482851073, 7260903.757326913066208 ], [ 528945.756988407694735, 7260901.551677605137229 ] ] } },
{ "type": "Feature", "properties": { "id": 1, "reference_id": 2, "dune_id": 2, "dune_name": "Big Mommy Dune", "acquisition_date": "2025-02-19", "length_m": 351.0768099241252 }, "geometry": { "type": "LineString", "coordinates": [ [ 528724.243011592421681, 7260838.371456163004041 ], [ 528717.91319030651357, 7260835.871555430814624 ], [ 528709.453693735180423, 7260832.041634876281023 ], [ 528699.900785414502025, 7260827.41205885913223 ], [ 528689.987933612894267, 7260822.488726555369794 ], [ 528679.999107789364643, 7260817.499207057058811 ], [ 528670.0, 7260812.499900732189417 ], [ 528660.0, 7260807.499207057058811 ], [ 528650.0, 7260802.489618767052889 ], [ 528640.0, 7260797.423233035951853 ], [ 528630.0, 7260792.129675285890698 ], [ 528620.0, 7260786.329821286723018 ], [ 528610.0, 7260779.999107790179551 ], [ 528600.0, 7260773.659896748140454 ], [ 528590.0, 7260767.793458482250571 ], [ 528580.0, 7260762.205649306997657 ], [ 528570.0, 7260756.329821286723018 ], [ 528560.0, 7260749.924025977961719 ], [ 528550.0, 7260743.299061057157815 ], [ 528540.0, 7260736.688872556202114 ], [ 528530.0, 7260729.989718034863472 ], [ 528520.0, 7260723.233369001187384 ], [ 528510.0, 7260716.329821286723018 ], [ 528500.0, 7260708.896306284703314 ], [ 528490.0, 7260701.103693716228008 ], [ 528480.0, 7260693.670178715139627 ], [ 528470.000892210751772, 7260686.766630999743938 ], [ 528460.012066387105733, 7260680.0111741758883 ], [ 528450.099214585614391, 7260673.322301620617509 ], [ 528440.546306264819577, 7260666.788979352451861 ], [ 528432.08680969348643, 7260660.535132088698447 ], [ 528425.756988407694735, 7260655.309004518203437 ] ] } },
{ "type": "Feature", "properties": { "id": 2, "reference_id": 8, "dune_id": 8, "dune_name": "Inverted Y Dune", "acquisition_date": "2025-02-19", "length_m": 429.48704688732477 }, "geometry": { "type": "LineString", "coordinates": [ [ 530264.243011592421681, 7261221.638825803995132 ], [ 530257.913190306629986, 7261224.205310802906752 ], [ 530249.453693735180423, 7261228.329482780769467 ], [ 530239.900785414502025, 7261233.76939329970628 ], [ 530229.987933612777852, 7261240.099214585497975 ], [ 530220.0, 7261246.788979351520538 ], [ 530210.011174176470377, 7261253.75821912381798 ], [ 530200.087148198392242, 7261261.551677605137229 ], [ 530190.447983889840543, 7261270.447983890771866 ], [ 530181.552569815889001, 7261280.087148198857903 ], [ 530173.768501089187339, 7261290.0111741758883 ], [ 530166.864953374140896, 7261300.000892210751772 ], [ 530160.458265855675563, 7261310.000000000931323 ], [ 530154.851630872813985, 7261320.0 ], [ 530150.372009867918678, 7261330.0 ], [ 530146.417861694935709, 7261340.0 ], [ 530142.227105449652299, 7261350.0 ], [ 530137.871216925326735, 7261360.0 ], [ 530134.031014405656606, 7261370.0 ], [ 530131.180559947970323, 7261380.0 ], [ 530128.916870216256939, 7261390.0 ], [ 530126.406687518581748, 7261400.0 ], [ 530123.594204692170024, 7261410.0 ], [ 530121.094303960213438, 7261420.0 ], [ 530118.906588250421919, 7261430.0 ], [ 530116.416969484300353, 7261440.0 ], [ 530113.680460680043325, 7261450.0 ], [ 530111.530221462948248, 7261460.0 ], [ 530110.359943480812944, 7261470.000000000931323 ], [ 530109.640056519303471, 7261480.0 ], [ 530108.470670747803524, 7261490.0 ], [ 530106.330713496543467, 7261500.0 ], [ 530103.670178714208305, 7261510.0 ], [ 530101.540503428783268, 7261520.0 ], [ 530100.447091679205187, 7261530.0 ], [ 530100.086702093132772, 7261539.999553894624114 ], [ 530100.005587088293396, 7261549.993520701304078 ], [ 530099.957318111439236, 7261559.944359513930976 ], [ 530099.776454160455614, 7261569.6772395754233 ], [ 530099.229748285608366, 7261578.683442020788789 ], [ 530098.164910642895848, 7261586.078100949525833 ], [ 530096.835089357104152, 7261591.078100949525833 ] ] } },
{ "type": "Feature", "properties": { "id": 3, "reference_id": 8, "dune_id": 8, "dune_name": "Inverted Y Dune", "acquisition_date": "2025-02-19", "length_m": 144.77791663347341 }, "geometry": { "type": "LineString", "coordinates": [ [ 530534.243011592305265, 7261185.297830341383815 ], [ 530527.91319030651357, 7261190.447091679088771 ], [ 530519.453693735180423, 7261196.329821285791695 ], [ 530509.900785414385609, 7261201.682583605870605 ], [ 530499.987933612894267, 7261205.79558140784502 ], [ 530489.999107789364643, 7261208.36117419693619 ], [ 530480.0, 7261209.540841934271157 ], [ 530470.0, 7261209.911959591321647 ], [ 530460.0, 7261209.9888258241117 ], [ 530450.0, 7261209.999107790179551 ], [ 530440.000892210751772, 7261210.000000000931323 ], [ 530430.012066387222148, 7261210.000000000931323 ], [ 530420.099214585614391, 7261210.000000000931323 ], [ 530410.546306264819577, 7261210.000000000931323 ], [ 530402.08680969348643, 7261210.000000000931323 ], [ 530395.756988407694735, 7261210.000000000931323 ] ] } },
{ "type": "Feature", "properties": { "id": 4, "reference_id": 9, "dune_id": 9, "dune_name": "Inverted Y Dune", "acquisition_date": "2025-02-19", "length_m": 800.80781099830722 }, "geometry": { "type": "LineString", "coordinates": [ [ 530091.078100949525833, 7261598.910724874585867 ], [ 530086.078100949409418, 7261603.834750852547586 ], [ 530078.683442020905204, 7261610.868574090301991 ], [ 530069.677239574841224, 7261618.771082820370793 ], [ 530059.944359513698146, 7261626.297421364113688 ], [ 530049.993520701071247, 7261633.218392157927155 ], [ 530039.999553894624114, 7261639.913297906517982 ], [ 530030.0, 7261646.328929075971246 ], [ 530020.0, 7261652.205649306997657 ], [ 530010.0, 7261657.794350693002343 ], [ 530000.0, 7261663.670178715139627 ], [ 529990.0, 7261670.075974022038281 ], [ 529980.0, 7261676.700938943773508 ], [ 529970.0, 7261683.311127444729209 ], [ 529960.0, 7261690.011174176819623 ], [ 529950.0, 7261696.777805175632238 ], [ 529940.0, 7261703.757326913066208 ], [ 529930.0, 7261711.551677605137229 ], [ 529920.0, 7261720.447983889840543 ], [ 529910.0, 7261730.087148198857903 ], [ 529900.0, 7261740.011174176819623 ], [ 529890.0, 7261750.000892210751772 ], [ 529880.0, 7261760.0 ], [ 529870.0, 7261770.0 ], [ 529860.000892210751772, 7261780.0 ], [ 529850.011174176470377, 7261790.0 ], [ 529840.087148198392242, 7261800.0 ], [ 529830.447983889840543, 7261810.0 ], [ 529821.552569815889001, 7261820.0 ], [ 529813.768501089187339, 7261830.0 ], [ 529806.864953374140896, 7261840.000000000931323 ], [ 529800.45915806631092, 7261850.0 ], [ 529794.861912838649005, 7261860.0 ], [ 529790.447983889840543, 7261870.0 ], [ 529786.776912964996882, 7261880.0 ], [ 529783.310235233511776, 7261890.0 ], [ 529779.924918188713491, 7261900.0 ], [ 529776.329821285791695, 7261910.0 ], [ 529772.205649307463318, 7261920.0 ], [ 529767.793458481901325, 7261930.0 ], [ 529763.659896748373285, 7261940.0 ], [ 529760.0, 7261950.0 ], [ 529756.340103251626715, 7261960.0 ], [ 529752.206541518098675, 7261970.0 ], [ 529747.793458481901325, 7261980.0 ], [ 529743.6598967484897, 7261990.0 ], [ 529739.999107789364643, 7262000.0 ], [ 529736.329821285791695, 7262010.0 ], [ 529732.130567496176809, 7262020.0 ], [ 529727.433515001204796, 7262030.0 ], [ 529722.566484998911619, 7262040.0 ], [ 529717.869432503823191, 7262050.0 ], [ 529713.670178714208305, 7262060.0 ], [ 529710.0, 7262070.0 ], [ 529706.329821285791695, 7262080.0 ], [ 529702.130567496176809, 7262090.0 ], [ 529697.433515001088381, 7262100.0 ], [ 529692.566484998911619, 7262110.0 ], [ 529687.870324714458548, 7262120.0 ], [ 529683.680460680043325, 7262130.0 ], [ 529680.076866232673638, 7262140.0 ], [ 529676.700046732323244, 7262150.0 ], [ 529673.299953267676756, 7262160.0 ], [ 529669.924025978078134, 7262170.0 ], [ 529666.330713496543467, 7262180.0 ], [ 529662.216823483933695, 7262189.999107789248228 ], [ 529657.881498891045339, 7262199.987933613359928 ], [ 529654.118162604048848, 7262209.900785414502025 ], [ 529651.62765162717551, 7262219.453693735413253 ], [ 529650.458265855675563, 7262227.913190307095647 ], [ 529650.088040409144014, 7262234.243011592887342 ] ] } },
{ "type": "Feature", "properties": { "id": 5, "reference_id": 3, "dune_id": 3, "dune_name": "Big Mommy Dune", "acquisition_date": "2025-02-19", "length_m": 362.92143594523253 }, "geometry": { "type": "LineString", "coordinates": [ [ 529374.243011592305265, 7260695.756988408043981 ], [ 529367.91319030651357, 7260702.086809693835676 ], [ 529359.453693735180423, 7260710.546306265518069 ], [ 529349.900785414502025, 7260720.099214585497975 ], [ 529339.988825823529623, 7260730.012066388502717 ], [ 529330.01028196583502, 7260740.000892210751772 ], [ 529320.087148198508658, 7260750.0 ], [ 529310.447983889956959, 7260760.0 ], [ 529301.551677605253644, 7260770.0 ], [ 529293.757326912600547, 7260780.000000000931323 ], [ 529286.777805175632238, 7260790.0 ], [ 529280.011174176470377, 7260800.0 ], [ 529273.310235233511776, 7260810.0 ], [ 529266.690656977239996, 7260820.0 ], [ 529260.0, 7260830.0 ], [ 529253.309343022876419, 7260840.0 ], [ 529246.690656977239996, 7260850.0 ], [ 529240.0, 7260860.0 ], [ 529233.31023523339536, 7260870.0 ], [ 529226.700938943075016, 7260880.0 ], [ 529220.075974022038281, 7260890.0 ], [ 529213.670178714208305, 7260900.0 ], [ 529207.794350692536682, 7260910.0 ], [ 529202.206541518098675, 7260920.0 ], [ 529196.340995462262072, 7260930.0 ], [ 529190.012066387222148, 7260939.999553894624114 ], [ 529183.758219123352319, 7260949.993520701304078 ], [ 529178.328590570134111, 7260959.944359514862299 ], [ 529174.20531080244109, 7260969.6772395754233 ], [ 529171.638825803645886, 7260978.683442020788789 ], [ 529170.45915806631092, 7260986.078100949525833 ], [ 529170.088040409144014, 7260991.078100949525833 ] ] } },
{ "type": "Feature", "properties": { "id": 6, "reference_id": 3, "dune_id": 3, "dune_name": "Big Mommy Dune", "acquisition_date": "2025-02-19", "length_m": 215.36491028279798 }, "geometry": { "type": "LineString", "coordinates": [ [ 529405.756988407694735, 7260679.552016109228134 ], [ 529412.08680969348643, 7260678.448322394862771 ], [ 529420.546306264819577, 7260676.242673087865114 ], [ 529430.099214585614391, 7260673.222194824367762 ], [ 529440.012066387222148, 7260669.9888258241117 ], [ 529450.000892210751772, 7260666.689764766953886 ], [ 529460.0, 7260663.310235233977437 ], [ 529470.0, 7260660.011174176819623 ], [ 529480.0, 7260656.776912964880466 ], [ 529490.0, 7260653.746152736246586 ], [ 529500.000000000116415, 7260651.464529406279325 ], [ 529510.0, 7260650.0 ], [ 529520.0, 7260648.535470593720675 ], [ 529530.0, 7260646.253847264684737 ], [ 529540.0, 7260643.223979245871305 ], [ 529550.0, 7260640.0 ], [ 529560.0, 7260636.776912964880466 ], [ 529569.999107789248228, 7260633.757326912134886 ], [ 529579.987933612894267, 7260631.551677605137229 ], [ 529589.900785414502025, 7260630.447983890771866 ], [ 529599.453693735180423, 7260630.087148198857903 ], [ 529607.91319030651357, 7260630.011174176819623 ], [ 529614.243011592421681, 7260630.000892210751772 ] ] } },
{ "type": "Feature", "properties": { "id": 7, "reference_id": 3, "dune_id": 3, "dune_name": "Big Mommy Dune", "acquisition_date": "2025-02-19", "length_m": 58.486023184610531 }, "geometry": { "type": "LineString", "coordinates": [ [ 529704.243011592305265, 7260620.0 ], [ 529697.91319030651357, 7260620.0 ], [ 529689.454585945932195, 7260620.0 ], [ 529679.912851801607758, 7260620.0 ], [ 529670.087148198508658, 7260620.0 ], [ 529660.545414054067805, 7260620.0 ], [ 529652.08680969348643, 7260620.0 ], [ 529645.756988407694735, 7260620.0 ] ] } },
{ "type": "Feature", "properties": { "id": 8, "reference_id": 3, "dune_id": 3, "dune_name": "Big Mommy Dune", "acquisition_date": "2025-02-19", "length_m": 512.49404056662661 }, "geometry": { "type": "LineString", "coordinates": [ [ 529735.756988407694735, 7260610.0 ], [ 529742.08680969348643, 7260610.0 ], [ 529750.546306264819577, 7260610.0 ], [ 529760.099214585614391, 7260610.0 ], [ 529770.012066387222148, 7260610.0 ], [ 529780.000892210751772, 7260610.0 ], [ 529790.0, 7260610.0 ], [ 529800.0, 7260610.0 ], [ 529810.0, 7260610.0 ], [ 529820.0, 7260610.0 ], [ 529830.0, 7260610.0 ], [ 529840.0, 7260610.0 ], [ 529850.0, 7260610.0 ], [ 529860.0, 7260610.0 ], [ 529870.0, 7260610.0 ], [ 529880.0, 7260610.0 ], [ 529890.0, 7260610.0 ], [ 529900.0, 7260610.0 ], [ 529910.0, 7260610.0 ], [ 529920.0, 7260610.0 ], [ 529930.0, 7260610.0 ], [ 529940.0, 7260610.0 ], [ 529950.0, 7260610.0 ], [ 529960.0, 7260610.0 ], [ 529970.0, 7260610.0 ], [ 529980.0, 7260610.0 ], [ 529990.0, 7260610.0 ], [ 530000.0, 7260609.999107789248228 ], [ 530010.0, 7260609.9888258241117 ], [ 530020.0, 7260609.912851802073419 ], [ 530030.0, 7260609.552908320911229 ], [ 530040.0, 7260608.459496571682394 ], [ 530050.0, 7260606.329821286723018 ], [ 530060.0, 7260603.669286504387856 ], [ 530070.0, 7260601.529329252429307 ], [ 530080.0, 7260600.35994348116219 ], [ 530090.0, 7260599.640056519769132 ], [ 530100.0, 7260598.470670748502016 ], [ 530110.0, 7260596.329821285791695 ], [ 530120.0, 7260593.659004537388682 ], [ 530130.0, 7260591.453355230391026 ], [ 530140.0, 7260590.0 ], [ 530150.0, 7260588.546644769608974 ], [ 530160.0, 7260586.340103251859546 ], [ 530170.000000000116415, 7260583.659896748140454 ], [ 530180.0, 7260581.453355230391026 ], [ 530190.0, 7260580.0 ], [ 530199.999107789248228, 7260578.546644769608974 ], [ 530209.987933612894267, 7260576.340995462611318 ], [ 530219.900785414385609, 7260573.671070925891399 ], [ 530229.453693735180423, 7260571.540503429248929 ], [ 530237.91319030651357, 7260570.447091680020094 ], [ 530244.243011592421681, 7260570.087148198857903 ] ] } },
{ "type": "Feature", "properties": { "id": 9, "reference_id": 5, "dune_id": 5, "dune_name": "The Star Dune", "acquisition_date": "2025-02-19", "length_m": 913.78252358803616 }, "geometry": { "type": "LineString", "coordinates": [ [ 533651.628543837927282, 7262041.078100949525833 ], [ 533654.129336780519225, 7262036.078100949525833 ], [ 533657.968647089437582, 7262028.683442020788789 ], [ 533662.664807373774238, 7262019.677239574491978 ], [ 533667.881498891045339, 7262009.944359513930976 ], [ 533673.671070924960077, 7261999.993520701304078 ], [ 533680.0, 7261989.999553894624114 ], [ 533686.329821285791695, 7261980.0 ], [ 533692.129675285541452, 7261970.0 ], [ 533697.423233035369776, 7261960.0 ], [ 533702.489618766237982, 7261950.0 ], [ 533707.499207057408057, 7261940.0 ], [ 533712.499900731956586, 7261930.0 ], [ 533717.499207057291642, 7261920.0 ], [ 533722.489618766237982, 7261910.0 ], [ 533727.423233035253361, 7261900.0 ], [ 533732.128783074906096, 7261890.0 ], [ 533736.31953932007309, 7261880.0 ], [ 533739.923133767442778, 7261870.0 ], [ 533743.299953267676756, 7261860.0 ], [ 533746.700938942958601, 7261850.0 ], [ 533750.088040409144014, 7261840.000000000931323 ], [ 533753.768501089187339, 7261830.0 ], [ 533758.329482780885883, 7261820.000892210751772 ], [ 533764.205310802557506, 7261810.011174177750945 ], [ 533771.638825803645886, 7261800.088040409609675 ], [ 533780.45915806631092, 7261790.458265855908394 ], [ 533790.088040409144014, 7261781.628543838858604 ], [ 533800.011174176470377, 7261774.128444570116699 ], [ 533810.000892210635357, 7261767.958365123718977 ], [ 533820.0, 7261762.587941141799092 ], [ 533830.0, 7261757.511273443698883 ], [ 533840.0, 7261752.500792942941189 ], [ 533850.0, 7261747.500099267810583 ], [ 533860.0, 7261742.500792942941189 ], [ 533870.0, 7261737.510381234809756 ], [ 533880.0, 7261732.576766965910792 ], [ 533890.0, 7261727.871216925792396 ], [ 533900.0, 7261723.680460680276155 ], [ 533910.0, 7261720.076866232790053 ], [ 533920.0, 7261716.700938943773508 ], [ 533930.0, 7261713.311127444729209 ], [ 533940.0, 7261710.0111741758883 ], [ 533950.0, 7261706.776912964880466 ], [ 533960.0, 7261703.746152736246586 ], [ 533970.0, 7261701.464529407210648 ], [ 533980.0, 7261700.000892210751772 ], [ 533990.0, 7261698.546644769608974 ], [ 534000.0, 7261696.340995462611318 ], [ 534010.0, 7261693.671070924960077 ], [ 534020.0, 7261691.539611218497157 ], [ 534030.0, 7261690.435917503200471 ], [ 534040.0, 7261690.0 ], [ 534050.0, 7261689.564082497730851 ], [ 534060.0, 7261688.460388783365488 ], [ 534070.0, 7261686.328929075971246 ], [ 534080.0, 7261683.659004537388682 ], [ 534090.0, 7261681.453355230391026 ], [ 534100.0, 7261680.0 ], [ 534110.0, 7261678.546644769608974 ], [ 534120.0, 7261676.340103251859546 ], [ 534130.0, 7261673.659896748140454 ], [ 534140.0, 7261671.452463019639254 ], [ 534150.0, 7261669.9888258241117 ], [ 534160.0, 7261668.458604360930622 ], [ 534170.0, 7261665.881837395951152 ], [ 534180.0, 7261662.032245121896267 ], [ 534190.0, 7261657.335192626342177 ], [ 534200.0, 7261652.117608899250627 ], [ 534210.0, 7261646.317754899151623 ], [ 534220.0, 7261639.912851801142097 ], [ 534230.0, 7261633.223087035119534 ], [ 534240.0, 7261626.328929075039923 ], [ 534250.0, 7261618.895414074882865 ], [ 534260.0, 7261611.092519539408386 ], [ 534269.999107789248228, 7261603.583030516281724 ], [ 534279.987933612894267, 7261596.318647108972073 ], [ 534289.900785414502025, 7261588.458604360930622 ], [ 534299.453693735296838, 7261579.552908320911229 ], [ 534307.91319030651357, 7261569.913744012825191 ], [ 534314.243011592305265, 7261560.000892210751772 ], [ 534317.91319030651357, 7261550.098322374746203 ], [ 534319.453693735296838, 7261540.546306265518069 ], [ 534319.900785414385609, 7261532.086809693835676 ], [ 534319.987933612894267, 7261525.756988408043981 ] ] } },
{ "type": "Feature", "properties": { "id": 10, "reference_id": 5, "dune_id": 5, "dune_name": "The Star Dune", "acquisition_date": "2025-02-19", "length_m": 197.48374680778372 }, "geometry": { "type": "LineString", "coordinates": [ [ 534334.342226177919656, 7261305.756988408043981 ], [ 534328.459496571333148, 7261312.086809693835676 ], [ 534321.540503428666852, 7261320.546306264586747 ], [ 534315.657773822080344, 7261330.099214585497975 ], [ 534312.074743306264281, 7261340.012066386640072 ], [ 534310.546306264703162, 7261350.000892210751772 ], [ 534310.110388762084767, 7261360.0 ], [ 534310.099214585614391, 7261370.0 ], [ 534310.447983889840543, 7261380.0 ], [ 534311.540503428666852, 7261390.0 ], [ 534313.670178714208305, 7261400.0 ], [ 534316.329821285791695, 7261410.0 ], [ 534318.459496571216732, 7261420.0 ], [ 534319.552908320794813, 7261430.0 ], [ 534319.913744012243114, 7261440.0 ], [ 534320.0, 7261449.999107789248228 ], [ 534320.086255987756886, 7261459.987933613359928 ], [ 534320.447091679205187, 7261469.900785414502025 ], [ 534321.540503428666852, 7261479.453693735413253 ], [ 534323.670178714208305, 7261487.913190307095647 ], [ 534326.329821285791695, 7261494.243011591956019 ] ] } },
{ "type": "Feature", "properties": { "id": 11, "reference_id": 7, "dune_id": 7, "dune_name": "Inverted Y Dune", "acquisition_date": "2025-02-19", "length_m": 453.13386573862562 }, "geometry": { "type": "LineString", "coordinates": [ [ 530225.756988407694735, 7261648.459496572613716 ], [ 530232.08680969348643, 7261646.329821286723018 ], [ 530240.546306264703162, 7261643.670178715139627 ], [ 530250.099214585614391, 7261641.539611218497157 ], [ 530260.012066387105733, 7261640.435917502269149 ], [ 530270.000892210751772, 7261640.0 ], [ 530280.0, 7261639.563190286979079 ], [ 530290.0, 7261638.449214605614543 ], [ 530300.0, 7261636.242673087865114 ], [ 530310.0, 7261633.222194824367762 ], [ 530320.0, 7261629.9888258241117 ], [ 530330.0, 7261626.688872555270791 ], [ 530340.0, 7261623.299061057157815 ], [ 530350.0, 7261619.924025978893042 ], [ 530360.0, 7261616.329821286723018 ], [ 530370.0, 7261612.204757097177207 ], [ 530380.0, 7261607.783176516182721 ], [ 530390.0, 7261603.583030516281724 ], [ 530400.0, 7261599.627990132197738 ], [ 530410.0, 7261595.148369127884507 ], [ 530420.0, 7261589.541734145022929 ], [ 530430.000000000116415, 7261583.135046625509858 ], [ 530440.0, 7261576.231498911976814 ], [ 530450.0, 7261568.447430184110999 ], [ 530460.0, 7261559.552016111090779 ], [ 530469.999107789364643, 7261549.912851801142097 ], [ 530479.988825823529623, 7261539.9888258241117 ], [ 530489.912851801607758, 7261529.999107789248228 ], [ 530499.552016110159457, 7261520.0 ], [ 530508.448322394862771, 7261510.0 ], [ 530516.242673087399453, 7261500.0 ], [ 530523.222194824367762, 7261490.0 ], [ 530529.988825823529623, 7261480.0 ], [ 530536.689764766488224, 7261470.000000000931323 ], [ 530543.31023523339536, 7261460.0 ], [ 530550.01028196583502, 7261450.000892210751772 ], [ 530556.765738788526505, 7261440.012066387571394 ], [ 530563.658112327102572, 7261430.099214585497975 ], [ 530571.005371340434067, 7261420.546306264586747 ], [ 530578.361174196470529, 7261412.086809693835676 ], [ 530584.330159790813923, 7261405.756988408043981 ] ] } },
{ "type": "Feature", "properties": { "id": 12, "reference_id": 6, "dune_id": 6, "dune_name": "The Star Dune", "acquisition_date": "2025-02-19", "length_m": 893.16215808287552 }, "geometry": { "type": "LineString", "coordinates": [ [ 533550.0, 7262924.243011591956019 ], [ 533550.000892210751772, 7262917.913190307095647 ], [ 533550.011174176470377, 7262909.453693736344576 ], [ 533550.087148198392242, 7262899.900785414502025 ], [ 533550.447983889840543, 7262889.987933613359928 ], [ 533551.551677605253644, 7262879.999107789248228 ], [ 533553.757326912600547, 7262870.000000000931323 ], [ 533556.777805175632238, 7262860.0 ], [ 533560.011174176470377, 7262850.0 ], [ 533563.310235233511776, 7262840.0 ], [ 533566.690656977239996, 7262830.0 ], [ 533570.0, 7262820.0 ], [ 533573.309343022876419, 7262810.0 ], [ 533576.68976476660464, 7262800.0 ], [ 533579.988825823529623, 7262790.0 ], [ 533583.222194824367762, 7262780.0 ], [ 533586.242673087399453, 7262770.0 ], [ 533588.449214605498128, 7262760.0 ], [ 533589.563190286629833, 7262750.0 ], [ 533590.0, 7262740.0 ], [ 533590.43591750273481, 7262730.0 ], [ 533591.539611218031496, 7262720.0 ], [ 533593.670178714208305, 7262710.0 ], [ 533596.329821285791695, 7262700.0 ], [ 533598.459496571216732, 7262690.0 ], [ 533599.552908320794813, 7262680.0 ], [ 533599.913744012243114, 7262670.0 ], [ 533600.0, 7262660.0 ], [ 533600.086255987756886, 7262650.0 ], [ 533600.447091679205187, 7262640.0 ], [ 533601.540503428783268, 7262630.0 ], [ 533603.671070924960077, 7262620.0 ], [ 533606.340995462378487, 7262610.0 ], [ 533608.54664476972539, 7262600.000000000931323 ], [ 533610.0, 7262590.0 ], [ 533611.454247441026382, 7262580.0 ], [ 533613.670178714208305, 7262570.0 ], [ 533616.416077273664996, 7262560.0 ], [ 533618.907480461173691, 7262550.0 ], [ 533621.104585925932042, 7262540.0 ], [ 533623.670178714208305, 7262530.0 ], [ 533626.766630999161862, 7262520.0 ], [ 533630.01028196583502, 7262510.0 ], [ 533633.310235233511776, 7262500.0 ], [ 533636.68976476660464, 7262490.0 ], [ 533639.989718034281395, 7262480.0 ], [ 533643.233369000838138, 7262470.0 ], [ 533646.329821285791695, 7262460.0 ], [ 533648.896306284703314, 7262450.0 ], [ 533651.103693715413101, 7262440.0 ], [ 533653.670178714208305, 7262430.0 ], [ 533656.765738788526505, 7262420.0 ], [ 533659.999107789248228, 7262410.0 ], [ 533663.223087035119534, 7262400.0 ], [ 533666.242673087399453, 7262390.0 ], [ 533668.448322394862771, 7262380.0 ], [ 533669.552016110159457, 7262370.0 ], [ 533669.912851801607758, 7262360.0 ], [ 533669.988825823646039, 7262350.0 ], [ 533669.999107789364643, 7262340.000000000931323 ], [ 533670.0, 7262330.0 ], [ 533670.0, 7262320.0 ], [ 533669.999107789364643, 7262310.0 ], [ 533669.988825823646039, 7262300.0 ], [ 533669.912851801607758, 7262290.0 ], [ 533669.552908320911229, 7262280.0 ], [ 533668.459496571333148, 7262270.0 ], [ 533666.329821285791695, 7262260.0 ], [ 533663.670178714208305, 7262250.0 ], [ 533661.540503428783268, 7262240.0 ], [ 533660.447091679088771, 7262230.0 ], [ 533660.086255987756886, 7262220.0 ], [ 533660.0, 7262210.0 ], [ 533659.913744012243114, 7262200.0 ], [ 533659.552908320911229, 7262190.0 ], [ 533658.459496571216732, 7262180.0 ], [ 533656.329821285791695, 7262170.0 ], [ 533653.670178714208305, 7262160.0 ], [ 533651.540503428783268, 7262150.0 ], [ 533650.447091679205187, 7262140.0 ], [ 533650.087148198508658, 7262130.0 ], [ 533650.011174176470377, 7262120.0 ], [ 533650.000892210751772, 7262110.0 ], [ 533650.0, 7262100.000446105375886 ], [ 533650.0, 7262090.006479298695922 ], [ 533650.0, 7262080.055640487000346 ], [ 533650.0, 7262070.322760425508022 ], [ 533650.0, 7262061.316557979211211 ], [ 533650.0, 7262053.921899050474167 ], [ 533650.0, 7262048.921899050474167 ] ] } },
{ "type": "Feature", "properties": { "id": 13, "reference_id": 4, "dune_id": 4, "dune_name": "The Star Dune", "acquisition_date": "2025-02-19", "length_m": 161.73201234065226 }, "geometry": { "type": "LineString", "coordinates": [ [ 533174.243011592421681, 7261899.912851801142097 ], [ 533167.913190306629986, 7261899.552908321842551 ], [ 533159.453693735180423, 7261898.459496571682394 ], [ 533149.900785414502025, 7261896.328929075971246 ], [ 533139.987933612894267, 7261893.659004537388682 ], [ 533129.999107789364643, 7261891.453355230391026 ], [ 533120.0, 7261890.0 ], [ 533110.0, 7261888.545752558857203 ], [ 533100.0, 7261886.329821285791695 ], [ 533090.0, 7261883.583922726102173 ], [ 533080.0, 7261881.093411749228835 ], [ 533070.0, 7261878.906588250771165 ], [ 533060.000892210751772, 7261876.416969484649599 ], [ 533050.012066387105733, 7261873.681352891027927 ], [ 533040.099214585614391, 7261871.541395640000701 ], [ 533030.546306264819577, 7261870.447091680020094 ], [ 533022.08680969348643, 7261870.087148198857903 ], [ 533015.756988407694735, 7261870.011174177750945 ] ] } },
{ "type": "Feature", "properties": { "id": 14, "reference_id": 4, "dune_id": 4, "dune_name": "The Star Dune", "acquisition_date": "2025-02-19", "length_m": 204.69749713446959 }, "geometry": { "type": "LineString", "coordinates": [ [ 533215.756988407694735, 7261921.540503429248929 ], [ 533222.08680969348643, 7261923.671070925891399 ], [ 533230.546306264819577, 7261926.340995462611318 ], [ 533240.099214585730806, 7261928.546644769608974 ], [ 533250.012066387222148, 7261930.000892210751772 ], [ 533260.000892210751772, 7261931.464529407210648 ], [ 533270.0, 7261933.746152736246586 ], [ 533280.0, 7261936.776020754128695 ], [ 533290.0, 7261940.000892210751772 ], [ 533300.0, 7261943.234261211007833 ], [ 533310.0, 7261946.329821284860373 ], [ 533320.0, 7261948.895414074882865 ], [ 533330.0, 7261951.093411749228835 ], [ 533340.0, 7261953.594204692170024 ], [ 533350.0, 7261956.405795307829976 ], [ 533360.0, 7261958.905696040019393 ], [ 533369.999107789364643, 7261961.093411749228835 ], [ 533379.987933612894267, 7261963.583030516281724 ], [ 533389.900785414502025, 7261966.318647109903395 ], [ 533399.453693735296838, 7261968.458604361861944 ], [ 533407.91319030651357, 7261969.552908321842551 ], [ 533414.243011592421681, 7261969.912851802073419 ] ] } },
{ "type": "Feature", "properties": { "id": 15, "reference_id": 1, "dune_id": 1, "dune_name": "Big Mommy Dune", "acquisition_date": "2025-02-19", "length_m": 306.86037435891359 }, "geometry": { "type": "LineString", "coordinates": [ [ 529078.371456162072718, 7261915.756988408043981 ], [ 529075.870663219480775, 7261922.086809693835676 ], [ 529072.030460699927062, 7261930.546306265518069 ], [ 529067.324910660507157, 7261940.099214585497975 ], [ 529062.041634876397438, 7261950.012066386640072 ], [ 529055.958703628624789, 7261960.000892210751772 ], [ 529048.829722017748281, 7261970.0 ], [ 529041.170277982251719, 7261980.0 ], [ 529034.041296371491626, 7261990.0 ], [ 529027.957472912967205, 7262000.0 ], [ 529022.663915163138881, 7262010.0 ], [ 529017.882391101680696, 7262020.0 ], [ 529013.681352890795097, 7262030.0 ], [ 529010.075974022038281, 7262040.0 ], [ 529006.68976476660464, 7262050.0 ], [ 529003.223087035119534, 7262060.0 ], [ 528999.552908320911229, 7262070.0 ], [ 528995.149261337821372, 7262080.0 ], [ 528989.628882342833094, 7262090.0 ], [ 528983.593312481534667, 7262100.0 ], [ 528977.859150538104586, 7262110.0 ], [ 528972.564700577524491, 7262120.0 ], [ 528967.42234082473442, 7262129.999107789248228 ], [ 528962.043419297784567, 7262139.987933613359928 ], [ 528955.88362181733828, 7262149.900785414502025 ], [ 528948.470670747803524, 7262159.453693735413253 ], [ 528940.088040409144014, 7262167.913190307095647 ], [ 528931.998769284342416, 7262174.243011591956019 ], [ 528925.745814231224358, 7262177.913190307095647 ] ] } },
{ "type": "Feature", "properties": { "id": 16, "reference_id": 1, "dune_id": 1, "dune_name": "Big Mommy Dune", "acquisition_date": "2025-02-19", "length_m": 890.73245578567366 }, "geometry": { "type": "LineString", "coordinates": [ [ 529180.0, 7261025.756988408043981 ], [ 529180.0, 7261032.086809692904353 ], [ 529180.0, 7261040.546306265518069 ], [ 529180.0, 7261050.099214585497975 ], [ 529179.999107789364643, 7261060.012066387571394 ], [ 529179.988825823529623, 7261070.000892210751772 ], [ 529179.912851801607758, 7261080.0 ], [ 529179.552908320794813, 7261090.0 ], [ 529178.458604360581376, 7261100.0 ], [ 529176.318647109321319, 7261110.0 ], [ 529173.583030515816063, 7261120.000000000931323 ], [ 529171.092519538942724, 7261130.0 ], [ 529168.895414074067958, 7261140.0 ], [ 529166.328929075156339, 7261150.0 ], [ 529163.223087035119534, 7261160.0 ], [ 529159.91374401235953, 7261170.0 ], [ 529156.328929075156339, 7261180.0 ], [ 529152.205649307463318, 7261190.0 ], [ 529147.793458481901325, 7261200.0 ], [ 529143.659896748373285, 7261210.000000000931323 ], [ 529139.999107789364643, 7261220.0 ], [ 529136.329821285791695, 7261230.0 ], [ 529132.130567496176809, 7261240.0 ], [ 529127.433515001204796, 7261250.0 ], [ 529122.566484998911619, 7261260.0 ], [ 529117.870324714574963, 7261270.0 ], [ 529113.680460680043325, 7261280.0 ], [ 529110.076866232673638, 7261290.0 ], [ 529106.700046732323244, 7261300.0 ], [ 529103.299953267676756, 7261310.000000000931323 ], [ 529099.924025978078134, 7261320.0 ], [ 529096.329821285791695, 7261330.0 ], [ 529092.205649307463318, 7261340.0 ], [ 529087.793458481901325, 7261350.0 ], [ 529083.659896748373285, 7261360.0 ], [ 529079.999107789248228, 7261370.0 ], [ 529076.329821285791695, 7261380.0 ], [ 529072.130567496176809, 7261390.0 ], [ 529067.433515001088381, 7261400.0 ], [ 529062.566484998911619, 7261410.0 ], [ 529057.870324714574963, 7261420.0 ], [ 529053.681352890678681, 7261430.0 ], [ 529050.087148198508658, 7261440.0 ], [ 529046.776912964880466, 7261450.0 ], [ 529043.671070924843661, 7261460.0 ], [ 529041.103693715296686, 7261470.000000000931323 ], [ 529038.896306284703314, 7261480.0 ], [ 529036.329821285791695, 7261490.0 ], [ 529033.234261211473495, 7261500.0 ], [ 529030.000892210751772, 7261510.0 ], [ 529026.776912964996882, 7261520.0 ], [ 529023.757326912600547, 7261530.0 ], [ 529021.550785394501872, 7261540.0 ], [ 529020.436809713486582, 7261550.0 ], [ 529020.0, 7261560.000000000931323 ], [ 529019.564082497381605, 7261570.0 ], [ 529018.460388781968504, 7261580.0 ], [ 529016.330713496543467, 7261590.0 ], [ 529013.681352890795097, 7261600.0 ], [ 529011.62765162717551, 7261610.0 ], [ 529010.894183358410373, 7261620.0 ], [ 529011.62765162717551, 7261630.0 ], [ 529013.682245101314038, 7261640.0 ], [ 529016.341887672897428, 7261650.0 ], [ 529018.547536980360746, 7261660.0 ], [ 529020.011174176470377, 7261670.0 ], [ 529021.541395639418624, 7261680.0 ], [ 529024.118162604048848, 7261690.0 ], [ 529027.967754878802225, 7261700.0 ], [ 529032.664807373774238, 7261710.0 ], [ 529037.881498890928924, 7261720.0 ], [ 529043.671070924843661, 7261730.000000000931323 ], [ 529050.000892210635357, 7261740.0 ], [ 529056.340103251626715, 7261750.0 ], [ 529062.206541518098675, 7261760.0 ], [ 529067.793458481901325, 7261770.0 ], [ 529073.659896748373285, 7261780.0 ], [ 529079.999107789248228, 7261790.0 ], [ 529086.328929075156339, 7261800.0 ], [ 529092.118501109071076, 7261810.0 ], [ 529097.335192626342177, 7261819.999107789248228 ], [ 529102.031352910562418, 7261829.987933613359928 ], [ 529105.870663219480775, 7261839.900785414502025 ], [ 529108.371456162189133, 7261849.453693735413253 ], [ 529109.541734144440852, 7261857.913190307095647 ], [ 529109.911959590855986, 7261864.243011591956019 ] ] } }
]
}
