{
"type": "FeatureCollection",
"name": "crests_2018_03_2018-03-01",
"crs": { "type": "name", "properties": { "name": "urn:ogc:def:crs:EPSG::32733" } },
"features": [
{ "type": "Feature", "properties": { "id": 0, "reference_id": 3, "dune_id": 3, "dune_name": "Big Mommy Dune", "acquisition_date": "2018-03-01", "length_m": 218.69304118548567 }, "geometry": { "type": "LineString", "coordinates": [ [ 529735.756988407694735, 7260610.0 ], [ 529742.08680969348643, 7260610.0 ], [ 529750.546306264819577, 7260610.0 ], [ 529760.099214585614391, 7260610.0 ], [ 529770.012066387222148, 7260610.0 ], [ 529780.000892210751772, 7260610.0 ], [ 529790.0, 7260610.0 ], [ 529800.0, 7260610.0 ], [ 529810.0, 7260610.0 ], [ 529820.0, 7260610.0 ], [ 529830.0, 7260610.0 ], [ 529840.0, 7260610.0 ], [ 529850.0, 7260610.0 ], [ 529860.0, 7260609.999107789248228 ], [ 529870.0, 7260609.989718034863472 ], [ 529880.0, 7260609.924025978893042 ], [ 529890.0, 7260609.640056519769132 ], [ 529900.0, 7260608.906588250771165 ], [ 529909.999107789364643, 7260607.870324715040624 ], [ 529919.987933612894267, 7260607.34035742841661 ], [ 529929.900785414502025, 7260607.870324715040624 ], [ 529939.453693735180423, 7260608.906588250771165 ], [ 529947.913190306629986, 7260609.640056519769132 ], [ 529954.243011592305265, 7260609.924025978893042 ] ] } },
{ "type": "Feature", "properties": { "id": 1, "reference_id": 3, "dune_id": 3, "dune_name": "Big Mommy Dune", "acquisition_date": "2018-03-01", "length_m": 361.14233881728222 }, "geometry": { "type": "LineString", "coordinates": [ [ 529374.243011592305265, 7260695.756988408043981 ], [ 529367.91319030651357, 7260702.086809693835676 ], [ 529359.453693735180423, 7260710.546306265518069 ], [ 529349.900785414502025, 7260720.099214585497975 ], [ 529339.988825823529623, 7260730.012066388502717 ], [ 529330.01028196583502, 7260740.000892210751772 ], [ 529320.087148198508658, 7260750.0 ], [ 529310.447983889956959, 7260760.0 ], [ 529301.551677605253644, 7260770.0 ], [ 529293.758219123352319, 7260780.000000000931323 ], [ 529286.788087141467258, 7260790.0 ], [ 529280.087148198392242, 7260800.0 ], [ 529273.671070924960077, 7260810.0 ], [ 529267.794350692536682, 7260820.0 ], [ 529262.205649307463318, 7260830.0 ], [ 529256.32982128590811, 7260840.0 ], [ 529249.924025978078134, 7260850.0 ], [ 529243.299953267676756, 7260860.0 ], [ 529236.700046732323244, 7260870.0 ], [ 529230.075974021921866, 7260880.0 ], [ 529223.670178714208305, 7260890.0 ], [ 529217.794350692536682, 7260900.0 ], [ 529212.206541518098675, 7260910.0 ], [ 529206.340995462262072, 7260920.0 ], [ 529200.011174176353961, 7260930.0 ], [ 529193.747044946881942, 7260939.999553894624114 ], [ 529188.241442371741869, 7260949.993520701304078 ], [ 529183.758219123352319, 7260959.944359514862299 ], [ 529180.098322374862619, 7260969.6772395754233 ], [ 529176.788979352102615, 7260978.683442020788789 ], [ 529173.758219123352319, 7260986.078100949525833 ], [ 529171.551677605253644, 7260991.078100949525833 ] ] } },
{ "type": "Feature", "properties": { "id": 2, "reference_id": 3, "dune_id": 3, "dune_name": "Big Mommy Dune", "acquisition_date": "2018-03-01", "length_m": 214.83426852579146 }, "geometry": { "type": "LineString", "coordinates": [ [ 529405.756988407694735, 7260679.552016109228134 ], [ 529412.08680969348643, 7260678.448322394862771 ], [ 529420.546306264819577, 7260676.242673087865114 ], [ 529430.099214585614391, 7260673.223087035119534 ], [ 529440.012066387222148, 7260669.999107789248228 ], [ 529450.000892210751772, 7260666.765738788992167 ], [ 529460.0, 7260663.670178714208305 ], [ 529470.0, 7260661.10458592697978 ], [ 529480.0, 7260658.906588250771165 ], [ 529490.0, 7260656.405795307829976 ], [ 529500.000000000116415, 7260653.594204692170024 ], [ 529510.0, 7260651.094303959980607 ], [ 529520.0, 7260648.905696040019393 ], [ 529530.0, 7260646.405795307829976 ], [ 529540.0, 7260643.594204693101346 ], [ 529550.0, 7260641.094303959980607 ], [ 529560.0, 7260638.906588250771165 ], [ 529569.999107789248228, 7260636.416969483718276 ], [ 529579.987933612894267, 7260633.681352891027927 ], [ 529589.900785414502025, 7260631.541395640000701 ], [ 529599.453693735180423, 7260630.447091680020094 ], [ 529607.91319030651357, 7260630.087148198857903 ], [ 529614.243011592421681, 7260630.011174176819623 ] ] } },
{ "type": "Feature", "properties": { "id": 3, "reference_id": 3, "dune_id": 3, "dune_name": "Big Mommy Dune", "acquisition_date": "2018-03-01", "length_m": 151.75358290125732 }, "geometry": { "type": "LineString", "coordinates": [ [ 530244.243011592421681, 7260570.087148198857903 ], [ 530237.91319030651357, 7260570.447091680020094 ], [ 530229.453693735180423, 7260571.541395640000701 ], [ 530219.900785414385609, 7260573.681352891027927 ], [ 530209.987933612894267, 7260576.416969484649599 ], [ 530199.999107789248228, 7260578.906588250771165 ], [ 530190.0, 7260581.093411750160158 ], [ 530180.0, 7260583.583922727033496 ], [ 530170.000000000116415, 7260586.329821285791695 ], [ 530160.0, 7260588.545752558857203 ], [ 530150.0, 7260590.0 ], [ 530140.000892210751772, 7260591.453355230391026 ], [ 530130.012066387222148, 7260593.659004537388682 ], [ 530120.099214585614391, 7260596.328929075039923 ], [ 530110.546306264819577, 7260598.459496571682394 ], [ 530102.08680969348643, 7260599.552908321842551 ], [ 530095.756988407694735, 7260599.912851802073419 ] ] } },
{ "type": "Feature", "properties": { "id": 4, "reference_id": 8, "dune_id": 8, "dune_name": "Inverted Y Dune", "acquisition_date": "2018-03-01", "length_m": 426.8121625624874 }, "geometry": { "type": "LineString", "coordinates": [ [ 530264.243011592421681, 7261221.639718014746904 ], [ 530257.913190306629986, 7261224.216484978795052 ], [ 530249.453693735180423, 7261228.416630979627371 ], [ 530239.900785414502025, 7261234.216484978795052 ], [ 530229.987933612777852, 7261241.639718014746904 ], [ 530219.999107789248228, 7261250.459158066660166 ], [ 530210.0, 7261260.088040409609675 ], [ 530200.000892210751772, 7261270.011174176819623 ], [ 530190.012066387105733, 7261280.000892210751772 ], [ 530180.098322374862619, 7261290.0 ], [ 530170.535132088349201, 7261300.0 ], [ 530161.999661495094188, 7261310.000000000931323 ], [ 530155.309004517970607, 7261320.0 ], [ 530150.535132088349201, 7261330.0 ], [ 530146.78897935221903, 7261340.0 ], [ 530143.322301620617509, 7261350.0 ], [ 530140.011174176586792, 7261360.0 ], [ 530136.766630999278277, 7261370.0 ], [ 530133.670178714208305, 7261380.0 ], [ 530131.104585926048458, 7261390.0 ], [ 530128.907480461173691, 7261400.0 ], [ 530126.416077273664996, 7261410.0 ], [ 530123.670178714208305, 7261420.0 ], [ 530121.454247441026382, 7261430.0 ], [ 530120.0, 7261440.0 ], [ 530118.54664476972539, 7261450.0 ], [ 530116.340995462262072, 7261460.0 ], [ 530113.671070924960077, 7261470.000000000931323 ], [ 530111.540503428666852, 7261480.0 ], [ 530110.447091679205187, 7261490.0 ], [ 530110.086255987756886, 7261500.0 ], [ 530110.0, 7261510.0 ], [ 530109.913744012243114, 7261520.0 ], [ 530109.552908320911229, 7261530.0 ], [ 530108.459496571333148, 7261539.999553894624114 ], [ 530106.329821285791695, 7261549.993520701304078 ], [ 530103.670178714208305, 7261559.944359513930976 ], [ 530101.540503428783268, 7261569.6772395754233 ], [ 530100.447091679205187, 7261578.683442020788789 ], [ 530100.087148198508658, 7261586.078100949525833 ], [ 530100.011174176470377, 7261591.078100949525833 ] ] } },
{ "type": "Feature", "properties": { "id": 5, "reference_id": 8, "dune_id": 8, "dune_name": "Inverted Y Dune", "acquisition_date": "2018-03-01", "length_m": 58.578493066226351 }, "geometry": { "type": "LineString", "coordinates": [ [ 530505.756988407694735, 7261208.00033850595355 ], [ 530512.085917482851073, 7261204.690995481796563 ], [ 530520.534239877597429, 7261199.465760122984648 ], [ 530530.0, 7261193.223087035119534 ], [ 530539.465760122402571, 7261186.776912964880466 ], [ 530547.914082517265342, 7261180.534239877015352 ], [ 530554.243011592305265, 7261175.309004518203437 ] ] } },
{ "type": "Feature", "properties": { "id": 6, "reference_id": 9, "dune_id": 9, "dune_name": "Inverted Y Dune", "acquisition_date": "2018-03-01", "length_m": 743.07078553812971 }, "geometry": { "type": "LineString", "coordinates": [ [ 530097.91319030651357, 7261598.834750852547586 ], [ 530094.243011592421681, 7261603.473915160633624 ], [ 530087.913190306629986, 7261609.764880374073982 ], [ 530079.453693735180423, 7261616.565433513373137 ], [ 530069.900785414502025, 7261623.277835311368108 ], [ 530059.987933612894267, 7261629.995305122807622 ], [ 530049.999107789364643, 7261636.689318661578 ], [ 530040.0, 7261643.299061058089137 ], [ 530030.0, 7261649.924025977961719 ], [ 530020.0, 7261656.329821285791695 ], [ 530010.0, 7261662.205649307928979 ], [ 530000.0, 7261667.794350693002343 ], [ 529990.0, 7261673.670178714208305 ], [ 529980.0, 7261680.075974022038281 ], [ 529970.0, 7261686.700938943773508 ], [ 529960.0, 7261693.311127444729209 ], [ 529950.0, 7261700.011174177750945 ], [ 529940.0, 7261706.777805175632238 ], [ 529930.0, 7261713.757326913066208 ], [ 529920.0, 7261721.551677605137229 ], [ 529910.0, 7261730.447983890771866 ], [ 529900.0, 7261740.087148198857903 ], [ 529890.0, 7261750.011174176819623 ], [ 529880.0, 7261760.000892210751772 ], [ 529870.000892210751772, 7261770.0 ], [ 529860.011174176470377, 7261780.0 ], [ 529850.087148198392242, 7261790.0 ], [ 529840.447091679205187, 7261800.0 ], [ 529831.541395639418624, 7261810.0 ], [ 529823.681352890678681, 7261820.0 ], [ 529816.417861694935709, 7261830.0 ], [ 529808.918654637644067, 7261840.000000000931323 ], [ 529801.192626335192472, 7261850.0 ], [ 529794.128444569883868, 7261860.0 ], [ 529788.394282626337372, 7261870.0 ], [ 529784.128444569883868, 7261880.0 ], [ 529781.1917341244407, 7261890.0 ], [ 529778.907480461173691, 7261900.0 ], [ 529776.330713496543467, 7261910.0 ], [ 529773.233369000838138, 7261920.0 ], [ 529769.989718034281395, 7261930.0 ], [ 529766.688872555969283, 7261940.0 ], [ 529763.299061056924984, 7261950.0 ], [ 529759.923133767326362, 7261960.0 ], [ 529756.319539319956675, 7261970.0 ], [ 529752.128783074789681, 7261980.0 ], [ 529747.423233035369776, 7261990.0 ], [ 529742.490510976989754, 7262000.0 ], [ 529737.509489023126662, 7262010.0 ], [ 529732.576766964630224, 7262020.0 ], [ 529727.870324714574963, 7262030.0 ], [ 529723.670178714208305, 7262040.0 ], [ 529720.0, 7262050.0 ], [ 529716.329821285791695, 7262060.0 ], [ 529712.129675285425037, 7262070.0 ], [ 529707.423233035369776, 7262080.0 ], [ 529702.490510976873338, 7262090.0 ], [ 529697.509489023126662, 7262100.0 ], [ 529692.576766964630224, 7262110.0 ], [ 529687.871216925210319, 7262120.0 ], [ 529683.681352890678681, 7262129.999107789248228 ], [ 529680.088040409144014, 7262139.987933613359928 ], [ 529676.788087141467258, 7262149.900785414502025 ], [ 529673.758219123352319, 7262159.453693735413253 ], [ 529671.551677605253644, 7262167.913190307095647 ], [ 529670.447983889840543, 7262174.243011591956019 ] ] } },
{ "type": "Feature", "properties": { "id": 7, "reference_id": 1, "dune_id": 1, "dune_name": "Big Mommy Dune", "acquisition_date": "2018-03-01", "length_m": 1287.0055050289482 }, "geometry": { "type": "LineString", "coordinates": [ [ 529171.540503428783268, 7260998.921899050474167 ], [ 529173.670178714208305, 7261003.921899050474167 ], [ 529176.329821285791695, 7261011.316557979211211 ], [ 529178.459496571333148, 7261020.322760425508022 ], [ 529179.552908320794813, 7261030.055640487000346 ], [ 529179.912851801607758, 7261040.006479299627244 ], [ 529179.988825823529623, 7261050.000446105375886 ], [ 529179.999107789364643, 7261060.0 ], [ 529179.999107789364643, 7261070.0 ], [ 529179.988825823529623, 7261080.0 ], [ 529179.912851801607758, 7261090.0 ], [ 529179.552016110159457, 7261100.0 ], [ 529178.448322394862771, 7261110.0 ], [ 529176.242673087399453, 7261120.000000000931323 ], [ 529173.222194824367762, 7261130.0 ], [ 529169.988825823529623, 7261140.0 ], [ 529166.689764766488224, 7261150.0 ], [ 529163.309343022760004, 7261160.0 ], [ 529160.0, 7261170.0 ], [ 529156.68976476660464, 7261180.0 ], [ 529153.299061057041399, 7261190.0 ], [ 529149.923133767442778, 7261200.0 ], [ 529146.319539319956675, 7261210.000000000931323 ], [ 529142.129675285425037, 7261220.0 ], [ 529137.433515001088381, 7261230.0 ], [ 529132.566484998911619, 7261240.0 ], [ 529127.869432503939606, 7261250.0 ], [ 529123.670178714208305, 7261260.0 ], [ 529120.000000000116415, 7261270.0 ], [ 529116.329821285791695, 7261280.0 ], [ 529112.130567496176809, 7261290.0 ], [ 529107.433515001088381, 7261300.0 ], [ 529102.566484998911619, 7261310.000000000931323 ], [ 529097.870324714574963, 7261320.0 ], [ 529093.680460680043325, 7261330.0 ], [ 529090.076866232673638, 7261340.0 ], [ 529086.700046732323244, 7261350.0 ], [ 529083.299953267676756, 7261360.0 ], [ 529079.924025977961719, 7261370.0 ], [ 529076.329821285791695, 7261380.0 ], [ 529072.205649307463318, 7261390.0 ], [ 529067.793458481901325, 7261400.0 ], [ 529063.659896748373285, 7261410.0 ], [ 529060.0, 7261420.0 ], [ 529056.340995462262072, 7261430.0 ], [ 529052.216823483933695, 7261440.0 ], [ 529047.870324714458548, 7261450.0 ], [ 529044.031014405540191, 7261460.0 ], [ 529041.180559947970323, 7261470.000000000931323 ], [ 529038.916870216256939, 7261480.0 ], [ 529036.406687518465333, 7261490.0 ], [ 529033.594204692286439, 7261500.0 ], [ 529031.094303960213438, 7261510.0 ], [ 529028.906588250538334, 7261520.0 ], [ 529026.416969484183937, 7261530.0 ], [ 529023.681352890678681, 7261540.0 ], [ 529021.541395639418624, 7261550.0 ], [ 529020.44619946856983, 7261560.000000000931323 ], [ 529020.075974022038281, 7261570.0 ], [ 529019.924918188713491, 7261580.0 ], [ 529019.564974708016962, 7261590.0 ], [ 529018.54664476972539, 7261600.0 ], [ 529016.776912965113297, 7261610.0 ], [ 529015.210682142991573, 7261620.0 ], [ 529015.210682142991573, 7261630.0 ], [ 529016.777805175632238, 7261640.0 ], [ 529018.557818946195766, 7261650.0 ], [ 529019.652122906409204, 7261660.0 ], [ 529020.372009867918678, 7261670.0 ], [ 529021.61736966134049, 7261680.0 ], [ 529024.127552359132096, 7261690.0 ], [ 529027.958365123718977, 7261700.0 ], [ 529032.588833351852372, 7261710.0 ], [ 529037.521555410232395, 7261720.0 ], [ 529042.577659175381996, 7261730.000000000931323 ], [ 529047.870324714458548, 7261740.0 ], [ 529053.670178714208305, 7261750.0 ], [ 529060.0, 7261760.0 ], [ 529066.329821285791695, 7261770.0 ], [ 529072.129675285425037, 7261780.0 ], [ 529077.42234082473442, 7261790.0 ], [ 529082.478444589767605, 7261800.0 ], [ 529087.411166648147628, 7261810.0 ], [ 529092.041634876397438, 7261820.0 ], [ 529095.870663219597191, 7261830.0 ], [ 529098.360281985718757, 7261840.000000000931323 ], [ 529099.453693735413253, 7261850.0 ], [ 529099.452801524661481, 7261860.0 ], [ 529098.350000019883737, 7261870.0 ], [ 529095.793796986807138, 7261880.0 ], [ 529091.670517219230533, 7261890.0 ], [ 529086.231498910929076, 7261900.0 ], [ 529079.911959590855986, 7261910.0 ], [ 529073.298168846289627, 7261920.0 ], [ 529066.68976476660464, 7261930.0 ], [ 529060.0, 7261940.0 ], [ 529053.310235233511776, 7261950.0 ], [ 529046.700938942958601, 7261960.0 ], [ 529040.076866232673638, 7261970.0 ], [ 529033.681352890795097, 7261980.0 ], [ 529027.881498891045339, 7261990.0 ], [ 529022.653633197303861, 7262000.0 ], [ 529017.881498890928924, 7262010.0 ], [ 529013.681352890795097, 7262020.0 ], [ 529010.076866232673638, 7262030.0 ], [ 529006.700046732323244, 7262040.0 ], [ 529003.299953267676756, 7262050.0 ], [ 528999.923133767442778, 7262060.0 ], [ 528996.31953932007309, 7262070.0 ], [ 528992.128783074789681, 7262080.0 ], [ 528987.42234082473442, 7262090.0 ], [ 528982.478444589767605, 7262100.0 ], [ 528977.411166648264043, 7262110.0 ], [ 528972.041634876397438, 7262120.0 ], [ 528965.871555430116132, 7262130.0 ], [ 528958.37234837282449, 7262139.999107789248228 ], [ 528949.553800531546585, 7262149.987933613359928 ], [ 528940.011174176470377, 7262159.900785414502025 ], [ 528930.535132088349201, 7262169.453693735413253 ], [ 528922.085917482851073, 7262177.913190307095647 ], [ 528915.756988407694735, 7262184.243011591956019 ] ] } },
{ "type": "Feature", "properties": { "id": 8, "reference_id": 5, "dune_id": 5, "dune_name": "The Star Dune", "acquisition_date": "2018-03-01", "length_m": 1144.9064114484897 }, "geometry": { "type": "LineString", "coordinates": [ [ 534334.342226177919656, 7261305.756988408043981 ], [ 534328.459496571333148, 7261312.086809693835676 ], [ 534321.540503428666852, 7261320.546306264586747 ], [ 534315.658666032715701, 7261330.099214585497975 ], [ 534312.085917482734658, 7261340.012066386640072 ], [ 534310.632562252460048, 7261350.000892210751772 ], [ 534310.546306264703162, 7261360.0 ], [ 534311.552569815889001, 7261370.0 ], [ 534313.671070924960077, 7261380.0 ], [ 534316.329821285791695, 7261390.0 ], [ 534318.460388781968504, 7261400.0 ], [ 534319.56408249726519, 7261410.0 ], [ 534320.0, 7261420.0 ], [ 534320.43591750273481, 7261430.0 ], [ 534321.539611218031496, 7261440.0 ], [ 534323.670178714208305, 7261450.0 ], [ 534326.329821285791695, 7261460.0 ], [ 534328.459496571333148, 7261470.000000000931323 ], [ 534329.552908320794813, 7261480.0 ], [ 534329.912851801607758, 7261490.0 ], [ 534329.987933612894267, 7261500.0 ], [ 534329.987041402142495, 7261510.0 ], [ 534329.900785414385609, 7261520.0 ], [ 534329.453693735296838, 7261530.0 ], [ 534327.91319030651357, 7261540.0 ], [ 534324.243011592421681, 7261550.0 ], [ 534317.91319030651357, 7261559.999107790179551 ], [ 534309.453693735296838, 7261569.9888258241117 ], [ 534299.900785414502025, 7261579.912851802073419 ], [ 534289.987933612894267, 7261589.552016110159457 ], [ 534279.999107789248228, 7261598.448322394862771 ], [ 534270.0, 7261606.242673087865114 ], [ 534260.0, 7261613.222194824367762 ], [ 534250.0, 7261619.9888258241117 ], [ 534240.0, 7261626.689764766022563 ], [ 534230.0, 7261633.309343023225665 ], [ 534220.0, 7261639.999107789248228 ], [ 534210.0, 7261646.678590590134263 ], [ 534200.0, 7261653.211020648479462 ], [ 534190.0, 7261659.464867912232876 ], [ 534180.0, 7261664.691887693479657 ], [ 534170.0, 7261668.01151268184185 ], [ 534160.0, 7261669.552016110159457 ], [ 534150.0, 7261670.34876930527389 ], [ 534140.0, 7261671.528437041677535 ], [ 534130.0, 7261673.670178714208305 ], [ 534120.0, 7261676.340995462611318 ], [ 534110.0, 7261678.546644769608974 ], [ 534100.0, 7261680.0 ], [ 534090.0, 7261681.453355230391026 ], [ 534080.0, 7261683.659004537388682 ], [ 534070.0, 7261686.328929075971246 ], [ 534060.0, 7261688.460388783365488 ], [ 534050.0, 7261689.564082497730851 ], [ 534040.0, 7261690.0 ], [ 534030.0, 7261690.435917503200471 ], [ 534020.0, 7261691.539611218497157 ], [ 534010.0, 7261693.671070924960077 ], [ 534000.0, 7261696.340995462611318 ], [ 533990.0, 7261698.546644769608974 ], [ 533980.0, 7261700.000892210751772 ], [ 533970.0, 7261701.464529407210648 ], [ 533960.0, 7261703.747044946998358 ], [ 533950.0, 7261706.787194930948317 ], [ 533940.0, 7261710.088040409609675 ], [ 533930.0, 7261713.681352891027927 ], [ 533920.0, 7261717.871216924861073 ], [ 533910.0, 7261722.576766964048147 ], [ 533900.0, 7261727.509489023126662 ], [ 533890.0, 7261732.490510977804661 ], [ 533880.0, 7261737.423233035951853 ], [ 533870.0, 7261742.129675285890698 ], [ 533860.0, 7261746.33071349747479 ], [ 533850.0, 7261750.011174176819623 ], [ 533840.0, 7261753.758219122886658 ], [ 533830.0, 7261758.328590570017695 ], [ 533820.0, 7261764.205310802906752 ], [ 533810.000892210635357, 7261771.638825803995132 ], [ 533800.011174176470377, 7261780.459158066660166 ], [ 533790.088040409144014, 7261790.088040409609675 ], [ 533780.45915806631092, 7261800.011174176819623 ], [ 533771.638825803645886, 7261810.000892210751772 ], [ 533764.205310802557506, 7261820.0 ], [ 533758.329482780885883, 7261830.0 ], [ 533753.768501089187339, 7261840.000000000931323 ], [ 533750.088040409144014, 7261850.0 ], [ 533746.700938942958601, 7261860.0 ], [ 533743.299953267676756, 7261870.0 ], [ 533739.923133767442778, 7261880.0 ], [ 533736.31953932007309, 7261890.0 ], [ 533732.128783074906096, 7261900.0 ], [ 533727.423233035253361, 7261910.0 ], [ 533722.489618766237982, 7261920.0 ], [ 533717.49831484653987, 7261930.0 ], [ 533712.489618766237982, 7261940.0 ], [ 533707.423233035369776, 7261950.0 ], [ 533702.129675285541452, 7261960.0 ], [ 533696.32982128590811, 7261970.0 ], [ 533689.999107789364643, 7261980.0 ], [ 533683.659896748373285, 7261989.999553894624114 ], [ 533677.794350692536682, 7261999.993520701304078 ], [ 533672.217715694569051, 7262009.944359513930976 ], [ 533666.428143660770729, 7262019.677239574491978 ], [ 533660.45915806631092, 7262028.683442020788789 ], [ 533655.298722552019171, 7262036.078100949525833 ], [ 533651.998769284458831, 7262041.078100949525833 ] ] } },
{ "type": "Feature", "properties": { "id": 9, "reference_id": 6, "dune_id": 6, "dune_name": "The Star Dune", "acquisition_date": "2018-03-01", "length_m": 894.78204791756264 }, "geometry": { "type": "LineString", "coordinates": [ [ 533650.0, 7262048.921899050474167 ], [ 533650.0, 7262053.921899050474167 ], [ 533650.0, 7262061.316557979211211 ], [ 533650.0, 7262070.322760425508022 ], [ 533650.0, 7262080.055640487000346 ], [ 533650.0, 7262090.006479298695922 ], [ 533650.0, 7262100.000446105375886 ], [ 533650.0, 7262110.0 ], [ 533650.000892210751772, 7262120.0 ], [ 533650.011174176470377, 7262130.0 ], [ 533650.087148198508658, 7262140.0 ], [ 533650.447091679205187, 7262150.0 ], [ 533651.540503428783268, 7262160.0 ], [ 533653.670178714208305, 7262170.0 ], [ 533656.329821285791695, 7262180.0 ], [ 533658.459496571216732, 7262190.0 ], [ 533659.553800531546585, 7262200.0 ], [ 533659.924025977961719, 7262210.0 ], [ 533660.075974022038281, 7262220.0 ], [ 533660.44619946856983, 7262230.0 ], [ 533661.540503428783268, 7262240.0 ], [ 533663.671070924960077, 7262250.0 ], [ 533666.340995462378487, 7262260.0 ], [ 533668.546644769841805, 7262270.0 ], [ 533670.0, 7262280.0 ], [ 533671.453355230391026, 7262290.0 ], [ 533673.658112327102572, 7262300.0 ], [ 533676.317754898685962, 7262310.0 ], [ 533678.37234837282449, 7262320.0 ], [ 533679.105816641706042, 7262330.0 ], [ 533678.37234837282449, 7262340.000000000931323 ], [ 533676.317754898685962, 7262350.0 ], [ 533673.658112327102572, 7262360.0 ], [ 533671.453355230391026, 7262370.0 ], [ 533669.999107789364643, 7262380.0 ], [ 533668.535470593255013, 7262390.0 ], [ 533666.253847263869829, 7262400.0 ], [ 533663.223979245638475, 7262410.0 ], [ 533659.999107789248228, 7262420.0 ], [ 533656.765738788526505, 7262430.0 ], [ 533653.670178714208305, 7262440.0 ], [ 533651.103693715413101, 7262450.0 ], [ 533648.896306284703314, 7262460.0 ], [ 533646.329821285791695, 7262470.0 ], [ 533643.234261211473495, 7262480.0 ], [ 533640.000000000116415, 7262490.0 ], [ 533636.765738788526505, 7262500.0 ], [ 533633.670178714208305, 7262510.0 ], [ 533631.104585926048458, 7262520.0 ], [ 533628.906588250421919, 7262530.0 ], [ 533626.405795307713561, 7262540.0 ], [ 533623.594204692170024, 7262550.0 ], [ 533621.094303960213438, 7262560.0 ], [ 533618.906588250421919, 7262570.0 ], [ 533616.416077273664996, 7262580.0 ], [ 533613.670178714208305, 7262590.0 ], [ 533611.454247441026382, 7262600.000000000931323 ], [ 533610.0, 7262610.0 ], [ 533608.54664476972539, 7262620.0 ], [ 533606.340995462378487, 7262630.0 ], [ 533603.671070924960077, 7262640.0 ], [ 533601.540503428783268, 7262650.0 ], [ 533600.44619946856983, 7262660.0 ], [ 533600.075974022038281, 7262670.0 ], [ 533599.924025978078134, 7262680.0 ], [ 533599.553800531546585, 7262690.0 ], [ 533598.459496571216732, 7262700.0 ], [ 533596.329821285791695, 7262710.0 ], [ 533593.669286503456533, 7262720.0 ], [ 533591.529329252196476, 7262730.0 ], [ 533590.359943480696529, 7262740.0 ], [ 533589.639164308551699, 7262750.0 ], [ 533588.459496571216732, 7262760.0 ], [ 533586.24356529803481, 7262770.0 ], [ 533583.222194824367762, 7262780.0 ], [ 533579.988825823529623, 7262790.0 ], [ 533576.68976476660464, 7262800.0 ], [ 533573.309343022876419, 7262810.0 ], [ 533570.0, 7262820.0 ], [ 533566.690656977239996, 7262830.0 ], [ 533563.310235233511776, 7262840.0 ], [ 533560.011174176470377, 7262850.0 ], [ 533556.777805175632238, 7262860.0 ], [ 533553.757326912600547, 7262870.000000000931323 ], [ 533551.551677605253644, 7262879.999107789248228 ], [ 533550.447983889840543, 7262889.987933613359928 ], [ 533550.087148198392242, 7262899.900785414502025 ], [ 533550.011174176470377, 7262909.453693736344576 ], [ 533550.000892210751772, 7262917.913190307095647 ], [ 533550.0, 7262924.243011591956019 ] ] } },
{ "type": "Feature", "properties": { "id": 10, "reference_id": 7, "dune_id": 7, "dune_name": "Inverted Y Dune", "acquisition_date": "2018-03-01", "length_m": 560.10875219209413 }, "geometry": { "type": "LineString", "coordinates": [ [ 530225.756988407694735, 7261649.552908321842551 ], [ 530232.08680969348643, 7261648.459496572613716 ], [ 530240.546306264703162, 7261646.329821286723018 ], [ 530250.099214585614391, 7261643.669286504387856 ], [ 530260.012066387105733, 7261641.529329252429307 ], [ 530270.000892210751772, 7261640.35994348116219 ], [ 530280.0, 7261639.64005651883781 ], [ 530290.0, 7261638.469778537750244 ], [ 530300.0, 7261636.319539320655167 ], [ 530310.0, 7261633.582138305529952 ], [ 530320.0, 7261631.082237573340535 ], [ 530330.0, 7261628.819440051913261 ], [ 530340.0, 7261625.968985594809055 ], [ 530350.0, 7261622.128783075138927 ], [ 530360.0, 7261617.77289455011487 ], [ 530370.0, 7261613.582138305529952 ], [ 530380.0, 7261609.62888234294951 ], [ 530390.0, 7261605.159543303772807 ], [ 530400.0, 7261599.62888234294951 ], [ 530410.0, 7261593.582138305529952 ], [ 530420.0, 7261587.772002339363098 ], [ 530430.000000000116415, 7261582.117608899250627 ], [ 530440.0, 7261575.881837395951152 ], [ 530450.0, 7261568.372348373755813 ], [ 530460.0, 7261559.541734145022929 ], [ 530469.999107789364643, 7261549.911959590390325 ], [ 530479.988825823529623, 7261539.9888258241117 ], [ 530489.911959590855986, 7261529.999107789248228 ], [ 530499.541734144324437, 7261520.0 ], [ 530508.37234837282449, 7261510.0 ], [ 530515.881837395951152, 7261500.0 ], [ 530522.118501109071076, 7261490.0 ], [ 530527.783176516182721, 7261480.0 ], [ 530533.670178714208305, 7261470.000000000931323 ], [ 530540.086255987756886, 7261460.0 ], [ 530546.776912964996882, 7261450.0 ], [ 530553.671070924960077, 7261440.0 ], [ 530561.104585926048458, 7261430.0 ], [ 530568.907480461057276, 7261420.0 ], [ 530576.416969484183937, 7261410.0 ], [ 530583.681352890795097, 7261400.0 ], [ 530591.541395639418624, 7261390.0 ], [ 530600.447091679205187, 7261380.0 ], [ 530610.086255987756886, 7261370.000892210751772 ], [ 530619.999107789364643, 7261360.012066386640072 ], [ 530629.901677625137381, 7261350.099214585497975 ], [ 530639.453693735296838, 7261340.546306265518069 ], [ 530647.913190306629986, 7261332.086809693835676 ], [ 530654.243011592305265, 7261325.756988408043981 ] ] } },
{ "type": "Feature", "properties": { "id": 11, "reference_id": 2, "dune_id": 2, "dune_name": "Big Mommy Dune", "acquisition_date": "2018-03-01", "length_m": 50.766248077149754 }, "geometry": { "type": "LineString", "coordinates": [ [ 528914.243011592421681, 7260906.318647109903395 ], [ 528907.914082517148927, 7260903.583030516281724 ], [ 528899.465760122402571, 7260901.093411750160158 ], [ 528890.0, 7260898.906588250771165 ], [ 528880.534239877597429, 7260896.416969484649599 ], [ 528872.085917482734658, 7260893.681352891027927 ], [ 528865.756988407694735, 7260891.541395640000701 ] ] } },
{ "type": "Feature", "properties": { "id": 12, "reference_id": 2, "dune_id": 2, "dune_name": "Big Mommy Dune", "acquisition_date": "2018-03-01", "length_m": 338.01140800344126 }, "geometry": { "type": "LineString", "coordinates": [ [ 528724.243011592421681, 7260838.372348373755813 ], [ 528717.91319030651357, 7260835.881837395951152 ], [ 528709.453693735180423, 7260832.117608898319304 ], [ 528699.900785414502025, 7260827.772002339363098 ], [ 528689.987933612894267, 7260823.582138305529952 ], [ 528679.999107789364643, 7260819.62888234294951 ], [ 528670.0, 7260815.159543303772807 ], [ 528660.0, 7260809.629774553701282 ], [ 528650.0, 7260803.593312481418252 ], [ 528640.0, 7260797.859150538221002 ], [ 528630.0, 7260792.565592788159847 ], [ 528620.0, 7260787.433515001088381 ], [ 528610.0, 7260782.129675285890698 ], [ 528600.0, 7260776.319539319723845 ], [ 528590.0, 7260769.923133767209947 ], [ 528580.0, 7260763.299061057157815 ], [ 528570.0, 7260756.689764766953886 ], [ 528560.0, 7260750.0 ], [ 528550.0, 7260743.309343023225665 ], [ 528540.0, 7260736.689764766953886 ], [ 528530.0, 7260729.989718034863472 ], [ 528520.0, 7260723.233369001187384 ], [ 528510.0, 7260716.329821286723018 ], [ 528500.0, 7260708.896306284703314 ], [ 528490.0, 7260701.103693716228008 ], [ 528480.000892210751772, 7260693.671070925891399 ], [ 528470.012066387105733, 7260686.777805175632238 ], [ 528460.099214585614391, 7260680.098322374746203 ], [ 528450.546306264819577, 7260673.76939329970628 ], [ 528442.08680969348643, 7260668.329482780769467 ], [ 528435.756988407694735, 7260664.205310802906752 ] ] } },
{ "type": "Feature", "properties": { "id": 13, "reference_id": 4, "dune_id": 4, "dune_name": "The Star Dune", "acquisition_date": "2018-03-01", "length_m": 52.337980864591103 }, "geometry": { "type": "LineString", "coordinates": [ [ 533294.243011592305265, 7261939.901677625253797 ], [ 533287.914082517148927, 7261939.465760122984648 ], [ 533279.465760122402571, 7261938.012404892593622 ], [ 533270.0, 7261934.789317857474089 ], [ 533260.534239877597429, 7261930.0 ], [ 533252.085917482851073, 7261925.210682142525911 ], [ 533245.756988407694735, 7261921.9875951083377 ] ] } },
{ "type": "Feature", "properties": { "id": 14, "reference_id": 4, "dune_id": 4, "dune_name": "The Star Dune", "acquisition_date": "2018-03-01", "length_m": 70.879585967826713 }, "geometry": { "type": "LineString", "coordinates": [ [ 533365.756988407694735, 7261960.447091680020094 ], [ 533372.08680969348643, 7261961.541395640000701 ], [ 533380.546306264819577, 7261963.681352891027927 ], [ 533390.098322374979034, 7261966.416969484649599 ], [ 533400.000000000116415, 7261968.906588250771165 ], [ 533409.901677625020966, 7261971.093411749228835 ], [ 533419.453693735296838, 7261973.583030516281724 ], [ 533427.913190306629986, 7261976.318647109903395 ], [ 533434.243011592305265, 7261978.458604359999299 ] ] } }
]
}
