{
"type": "FeatureCollection",
"name": "crests_2017_07_2017-07-26",
"crs": { "type": "name", "properties": { "name": "urn:ogc:def:crs:EPSG::32733" } },
"features": [
{ "type": "Feature", "properties": { "id": 0, "reference_id": 5, "dune_id": 5, "dune_name": "The Star Dune", "acquisition_date": "2017-07-26", "length_m": 871.29354749053527 }, "geometry": { "type": "LineString", "coordinates": [ [ 534307.91319030651357, 7261565.745814232155681 ], [ 534304.243011592305265, 7261571.999661495909095 ], [ 534297.913190306629986, 7261580.098322374746203 ], [ 534289.453693735180423, 7261588.547536980360746 ], [ 534279.900785414502025, 7261596.254739474505186 ], [ 534269.987933612894267, 7261603.223087035119534 ], [ 534259.999107789248228, 7261609.9888258241117 ], [ 534250.0, 7261616.689764766953886 ], [ 534240.0, 7261623.309343023225665 ], [ 534230.0, 7261630.0 ], [ 534220.0, 7261636.689764766953886 ], [ 534210.0, 7261643.298168847337365 ], [ 534200.0, 7261649.911959591321647 ], [ 534190.0, 7261656.231498911976814 ], [ 534180.0, 7261661.671409429982305 ], [ 534170.0, 7261665.805863374844193 ], [ 534160.0, 7261668.448322394862771 ], [ 534150.0, 7261669.987933613359928 ], [ 534140.0, 7261671.452463019639254 ], [ 534130.0, 7261673.659004537388682 ], [ 534120.0, 7261676.329821285791695 ], [ 534110.0, 7261678.470670748502016 ], [ 534100.0, 7261679.640056519769132 ], [ 534090.0, 7261680.35994348116219 ], [ 534080.0, 7261681.529329252429307 ], [ 534070.0, 7261683.669286504387856 ], [ 534060.0, 7261686.329821286723018 ], [ 534050.0, 7261688.460388783365488 ], [ 534040.0, 7261689.564082497730851 ], [ 534030.0, 7261690.0 ], [ 534020.0, 7261690.435917503200471 ], [ 534010.0, 7261691.540503429248929 ], [ 534000.0, 7261693.681352891027927 ], [ 533990.0, 7261696.416969484649599 ], [ 533980.0, 7261698.906588250771165 ], [ 533970.0, 7261701.094303959980607 ], [ 533960.0, 7261703.594204692170024 ], [ 533950.0, 7261706.406687518581748 ], [ 533940.0, 7261708.916870215907693 ], [ 533930.0, 7261711.180559948086739 ], [ 533920.0, 7261714.031014406122267 ], [ 533910.0, 7261717.871216924861073 ], [ 533900.0, 7261722.22710544988513 ], [ 533890.0, 7261726.417861695401371 ], [ 533880.0, 7261730.371117657981813 ], [ 533870.0, 7261734.840456696227193 ], [ 533860.0, 7261740.370225446298718 ], [ 533850.0, 7261746.406687518581748 ], [ 533840.0, 7261752.140849461778998 ], [ 533830.0, 7261757.435299422591925 ], [ 533820.0, 7261762.577659174799919 ], [ 533810.0, 7261767.957472912967205 ], [ 533800.000892210751772, 7261774.128444570116699 ], [ 533790.012066387105733, 7261781.628543838858604 ], [ 533780.099214585614391, 7261790.458265855908394 ], [ 533770.545414054067805, 7261800.088040409609675 ], [ 533762.075635517016053, 7261810.011174177750945 ], [ 533755.669840209186077, 7261820.000892210751772 ], [ 533751.638825803645886, 7261830.0 ], [ 533748.994628659565933, 7261840.000000000931323 ], [ 533746.340995462262072, 7261850.0 ], [ 533743.22397924575489, 7261860.0 ], [ 533739.912851801607758, 7261870.0 ], [ 533736.318647109437734, 7261880.0 ], [ 533732.128783074906096, 7261890.0 ], [ 533727.423233035253361, 7261900.0 ], [ 533722.489618766237982, 7261910.0 ], [ 533717.499207057291642, 7261920.0 ], [ 533712.499900731956586, 7261930.0 ], [ 533707.499207057408057, 7261940.0 ], [ 533702.489618766237982, 7261950.0 ], [ 533697.423233035369776, 7261960.0 ], [ 533692.129675285541452, 7261970.0 ], [ 533686.329821285791695, 7261980.0 ], [ 533680.0, 7261989.999553894624114 ], [ 533673.671070924960077, 7261999.993520701304078 ], [ 533667.881498891045339, 7262009.944359513930976 ], [ 533662.664807373774238, 7262019.677239574491978 ], [ 533657.968647089437582, 7262028.683442020788789 ], [ 533654.129336780519225, 7262036.078100949525833 ], [ 533651.628543837927282, 7262041.078100949525833 ] ] } },
{ "type": "Feature", "properties": { "id": 1, "reference_id": 9, "dune_id": 9, "dune_name": "Inverted Y Dune", "acquisition_date": "2017-07-26", "length_m": 447.66132638748809 }, "geometry": { "type": "LineString", "coordinates": [ [ 529864.243903803057037, 7261775.756988408043981 ], [ 529857.924364482983947, 7261782.086809693835676 ], [ 529849.54084193368908, 7261790.546306265518069 ], [ 529840.347877093590796, 7261800.099214585497975 ], [ 529831.529329252196476, 7261810.012066388502717 ], [ 529823.681352890678681, 7261820.000892210751772 ], [ 529816.428143660770729, 7261830.0 ], [ 529808.994628659682348, 7261840.000000000931323 ], [ 529801.552569815889001, 7261850.0 ], [ 529795.222748530097306, 7261860.0 ], [ 529790.534239877597429, 7261870.0 ], [ 529786.864061163389124, 7261880.0 ], [ 529783.682245101314038, 7261890.0 ], [ 529781.104585926048458, 7261900.0 ], [ 529778.896306284703314, 7261910.0 ], [ 529776.328929075039923, 7261920.0 ], [ 529773.223087035119534, 7261930.0 ], [ 529769.912851801607758, 7261940.0 ], [ 529766.318647109437734, 7261950.0 ], [ 529762.128783074906096, 7261960.0 ], [ 529757.423233035253361, 7261970.0 ], [ 529752.490510976873338, 7261980.0 ], [ 529747.509489023126662, 7261990.0 ], [ 529742.576766964630224, 7262000.0 ], [ 529737.871216925210319, 7262010.0 ], [ 529733.68046067992691, 7262020.0 ], [ 529730.075974021921866, 7262030.0 ], [ 529726.68976476660464, 7262040.0 ], [ 529723.22397924575489, 7262050.0 ], [ 529719.563190286629833, 7262060.0 ], [ 529715.226127570495009, 7262070.0 ], [ 529709.999107789248228, 7262080.0 ], [ 529704.763590463786386, 7262090.0 ], [ 529700.360835691448301, 7262100.0 ], [ 529696.416077273548581, 7262110.0 ], [ 529692.216823483933695, 7262120.0 ], [ 529687.795242903288454, 7262129.999107789248228 ], [ 529683.671070924843661, 7262139.987933613359928 ], [ 529680.087148198508658, 7262149.900785414502025 ], [ 529676.788087141467258, 7262159.453693735413253 ], [ 529673.758219123352319, 7262167.913190307095647 ], [ 529671.551677605253644, 7262174.243011591956019 ] ] } },
{ "type": "Feature", "properties": { "id": 2, "reference_id": 9, "dune_id": 9, "dune_name": "Inverted Y Dune", "acquisition_date": "2017-07-26", "length_m": 267.24554085157138 }, "geometry": { "type": "LineString", "coordinates": [ [ 530092.618604378192686, 7261588.921899050474167 ], [ 530089.748279663734138, 7261593.921006840653718 ], [ 530085.013263306696899, 7261601.305383803322911 ], [ 530078.136736146174371, 7261610.234720015898347 ], [ 530069.497267834376544, 7261619.597374631091952 ], [ 530059.906372502679005, 7261628.378827672451735 ], [ 530049.988379718270153, 7261635.882283501327038 ], [ 530039.999107789364643, 7261642.118501110002398 ], [ 530030.0, 7261647.782284306362271 ], [ 530020.0, 7261653.659004537388682 ], [ 530010.0, 7261660.0 ], [ 530000.0, 7261666.340995462611318 ], [ 529990.0, 7261672.216823484748602 ], [ 529980.0, 7261677.870324714109302 ], [ 529970.0, 7261684.031014405190945 ], [ 529960.0, 7261691.180559948086739 ], [ 529950.0, 7261698.917762426659465 ], [ 529940.0, 7261706.417861695401371 ], [ 529930.000892210751772, 7261713.680460680276155 ], [ 529920.012066387222148, 7261721.529329253360629 ], [ 529910.099214585614391, 7261730.347877094522119 ], [ 529900.546306264819577, 7261739.540841934271157 ], [ 529892.08680969348643, 7261747.924364482983947 ], [ 529885.756988407578319, 7261754.243903802707791 ] ] } },
{ "type": "Feature", "properties": { "id": 3, "reference_id": 8, "dune_id": 8, "dune_name": "Inverted Y Dune", "acquisition_date": "2017-07-26", "length_m": 419.71223606260816 }, "geometry": { "type": "LineString", "coordinates": [ [ 530264.243011592421681, 7261221.628543838858604 ], [ 530257.913190306629986, 7261224.129336780868471 ], [ 530249.453693735180423, 7261227.969539299607277 ], [ 530239.900785414502025, 7261232.675981549546123 ], [ 530229.987933612777852, 7261237.969539300538599 ], [ 530220.0, 7261244.129336779937148 ], [ 530210.011174176470377, 7261251.628543837927282 ], [ 530200.087148198392242, 7261260.458265855908394 ], [ 530190.447983889840543, 7261270.088040409609675 ], [ 530181.552569815889001, 7261280.0111741758883 ], [ 530173.768501089187339, 7261290.000892210751772 ], [ 530166.864953374140896, 7261300.0 ], [ 530160.45915806631092, 7261310.000000000931323 ], [ 530154.861912838649005, 7261320.0 ], [ 530150.447983889840543, 7261330.0 ], [ 530146.777805175632238, 7261340.0 ], [ 530143.320517199346796, 7261350.0 ], [ 530140.000892210751772, 7261360.0 ], [ 530136.690656977239996, 7261370.0 ], [ 530133.310235233511776, 7261380.0 ], [ 530130.01028196583502, 7261390.0 ], [ 530126.766630999278277, 7261400.0 ], [ 530123.670178714208305, 7261410.0 ], [ 530121.104585926048458, 7261420.0 ], [ 530118.907480461173691, 7261430.0 ], [ 530116.416969484300353, 7261440.0 ], [ 530113.681352890678681, 7261450.0 ], [ 530111.540503428666852, 7261460.0 ], [ 530110.43591750273481, 7261470.000000000931323 ], [ 530110.0, 7261480.0 ], [ 530109.564082497381605, 7261490.0 ], [ 530108.460388781968504, 7261500.0 ], [ 530106.329821285791695, 7261510.0 ], [ 530103.670178714208305, 7261520.0 ], [ 530101.540057323407382, 7261529.999553894624114 ], [ 530100.441504590911791, 7261539.993520701304078 ], [ 530100.043574099196121, 7261549.944359513930976 ], [ 530099.787628336925991, 7261559.6772395754233 ], [ 530099.230640496360138, 7261568.683442020788789 ], [ 530098.164910642895848, 7261576.078100949525833 ], [ 530096.835089357104152, 7261581.078100949525833 ] ] } },
{ "type": "Feature", "properties": { "id": 4, "reference_id": 8, "dune_id": 8, "dune_name": "Inverted Y Dune", "acquisition_date": "2017-07-26", "length_m": 60.433255638092646 }, "geometry": { "type": "LineString", "coordinates": [ [ 530505.756988407694735, 7261207.914082517847419 ], [ 530512.085917482851073, 7261204.255077979527414 ], [ 530520.534239877597429, 7261198.012404892593622 ], [ 530530.0, 7261190.0 ], [ 530539.465760122402571, 7261181.987595107406378 ], [ 530547.914082517265342, 7261175.744922020472586 ], [ 530554.243011592305265, 7261172.085917483083904 ] ] } },
{ "type": "Feature", "properties": { "id": 5, "reference_id": 4, "dune_id": 4, "dune_name": "The Star Dune", "acquisition_date": "2017-07-26", "length_m": 655.68546032100153 }, "geometry": { "type": "LineString", "coordinates": [ [ 533005.756988407694735, 7261871.540503429248929 ], [ 533012.08680969348643, 7261873.670178715139627 ], [ 533020.546306264819577, 7261876.33071349747479 ], [ 533030.099214585614391, 7261878.470670748502016 ], [ 533040.012066387105733, 7261879.640056519769132 ], [ 533050.000892210751772, 7261880.35994348116219 ], [ 533060.0, 7261881.530221462249756 ], [ 533070.0, 7261883.680460680276155 ], [ 533080.0, 7261886.416969484649599 ], [ 533090.0, 7261888.906588250771165 ], [ 533100.0, 7261891.094303959980607 ], [ 533110.0, 7261893.594204692170024 ], [ 533120.0, 7261896.405795307829976 ], [ 533130.0, 7261898.906588250771165 ], [ 533140.0, 7261901.104585926048458 ], [ 533150.0, 7261903.670178715139627 ], [ 533160.0, 7261906.766630999743938 ], [ 533170.0, 7261910.010281966999173 ], [ 533180.0, 7261913.310235233977437 ], [ 533190.0, 7261916.689764766022563 ], [ 533200.0, 7261919.989718034863472 ], [ 533210.0, 7261923.233369001187384 ], [ 533220.0, 7261926.329821286723018 ], [ 533230.0, 7261928.896306285634637 ], [ 533240.0, 7261931.103693715296686 ], [ 533250.0, 7261933.670178715139627 ], [ 533260.0, 7261936.765738788992167 ], [ 533270.0, 7261940.0 ], [ 533280.0, 7261943.234261211007833 ], [ 533290.0, 7261946.329821284860373 ], [ 533300.0, 7261948.896306285634637 ], [ 533310.0, 7261951.103693716228008 ], [ 533320.0, 7261953.670178715139627 ], [ 533330.0, 7261956.765738788992167 ], [ 533340.0, 7261960.0 ], [ 533350.0, 7261963.234261211939156 ], [ 533360.0, 7261966.329821286723018 ], [ 533370.0, 7261968.896306285634637 ], [ 533380.000000000116415, 7261971.103693716228008 ], [ 533390.0, 7261973.670178714208305 ], [ 533400.000000000116415, 7261976.766630999743938 ], [ 533410.0, 7261980.010281965136528 ], [ 533420.0, 7261983.310235233977437 ], [ 533430.0, 7261986.690656976774335 ], [ 533440.0, 7261990.0 ], [ 533450.0, 7261993.310235233977437 ], [ 533460.0, 7261996.700938943773508 ], [ 533470.0, 7262000.076866233721375 ], [ 533480.0, 7262003.681352891027927 ], [ 533490.0, 7262007.881498891860247 ], [ 533500.0, 7262012.652740987017751 ], [ 533510.0, 7262017.870324715040624 ], [ 533520.0, 7262023.594204692170024 ], [ 533530.0, 7262029.62888234294951 ], [ 533540.0, 7262035.148369127884507 ], [ 533550.0, 7262039.542626354843378 ], [ 533560.0, 7262043.146220803260803 ], [ 533570.0, 7262046.318647108972073 ], [ 533579.999553894740529, 7262048.894521864131093 ], [ 533589.993520701071247, 7262051.092519538477063 ], [ 533599.94435951358173, 7262053.583030516281724 ], [ 533609.677239574841224, 7262056.318647109903395 ], [ 533618.683442020905204, 7262058.458604361861944 ], [ 533626.078100949409418, 7262059.552908321842551 ], [ 533631.078100949525833, 7262059.912851803004742 ] ] } },
{ "type": "Feature", "properties": { "id": 6, "reference_id": 7, "dune_id": 7, "dune_name": "Inverted Y Dune", "acquisition_date": "2017-07-26", "length_m": 536.81425234359631 }, "geometry": { "type": "LineString", "coordinates": [ [ 530165.756988407694735, 7261650.0 ], [ 530172.08680969348643, 7261650.0 ], [ 530180.546306264703162, 7261650.0 ], [ 530190.099214585614391, 7261650.0 ], [ 530200.012066387105733, 7261650.0 ], [ 530210.000892210751772, 7261650.0 ], [ 530220.0, 7261650.0 ], [ 530230.0, 7261649.999107790179551 ], [ 530240.0, 7261649.9888258241117 ], [ 530250.0, 7261649.912851802073419 ], [ 530260.0, 7261649.552016111090779 ], [ 530270.0, 7261648.448322394862771 ], [ 530280.0, 7261646.242673087865114 ], [ 530290.0, 7261643.222194824367762 ], [ 530300.0, 7261639.9888258241117 ], [ 530310.0, 7261636.688872556202114 ], [ 530320.0, 7261633.299061057157815 ], [ 530330.0, 7261629.924025978893042 ], [ 530340.0, 7261626.329821285791695 ], [ 530350.0, 7261622.205649307928979 ], [ 530360.0, 7261617.793458482250571 ], [ 530370.0, 7261613.659004538320005 ], [ 530380.0, 7261609.9888258241117 ], [ 530390.0, 7261606.252955053001642 ], [ 530400.0, 7261601.758557628840208 ], [ 530410.0, 7261596.241780877113342 ], [ 530420.0, 7261589.901677625253797 ], [ 530430.000000000116415, 7261583.211020648479462 ], [ 530440.0, 7261576.241780877113342 ], [ 530450.0, 7261568.448322394862771 ], [ 530460.0, 7261559.552016111090779 ], [ 530469.999107789364643, 7261549.912851801142097 ], [ 530479.988825823529623, 7261539.9888258241117 ], [ 530489.912851801607758, 7261529.999107789248228 ], [ 530499.552016110159457, 7261520.0 ], [ 530508.448322394862771, 7261510.0 ], [ 530516.242673087399453, 7261500.0 ], [ 530523.222194824367762, 7261490.0 ], [ 530529.988825823529623, 7261480.0 ], [ 530536.689764766488224, 7261470.000000000931323 ], [ 530543.309343022760004, 7261460.0 ], [ 530550.0, 7261450.0 ], [ 530556.690656977239996, 7261440.0 ], [ 530563.309343022760004, 7261430.000892210751772 ], [ 530569.999107789248228, 7261420.012066387571394 ], [ 530576.678590590134263, 7261410.099214585497975 ], [ 530583.211020647897385, 7261400.546306264586747 ], [ 530589.464867911650799, 7261392.086809693835676 ], [ 530594.690995482262224, 7261385.756988408043981 ] ] } },
{ "type": "Feature", "properties": { "id": 7, "reference_id": 3, "dune_id": 3, "dune_name": "Big Mommy Dune", "acquisition_date": "2017-07-26", "length_m": 607.17423062861394 }, "geometry": { "type": "LineString", "coordinates": [ [ 529158.83475085219834, 7260977.913190307095647 ], [ 529163.473915160750039, 7260974.243011591956019 ], [ 529169.764880373957567, 7260967.913190307095647 ], [ 529176.564541301922873, 7260959.453693736344576 ], [ 529183.267553344951011, 7260949.900785415433347 ], [ 529189.91933110053651, 7260939.987933613359928 ], [ 529196.329375180415809, 7260929.999107789248228 ], [ 529202.205649307463318, 7260920.0 ], [ 529207.794350692536682, 7260910.0 ], [ 529213.670178714208305, 7260900.0 ], [ 529220.075974022038281, 7260890.0 ], [ 529226.700938943075016, 7260880.0 ], [ 529233.31023523339536, 7260870.0 ], [ 529240.0, 7260860.0 ], [ 529246.690656977239996, 7260850.0 ], [ 529253.309343022876419, 7260840.0 ], [ 529260.0, 7260830.0 ], [ 529266.690656977239996, 7260820.0 ], [ 529273.310235233511776, 7260810.0 ], [ 529280.011174176470377, 7260800.0 ], [ 529286.777805175632238, 7260790.0 ], [ 529293.757326912600547, 7260780.000000000931323 ], [ 529301.551677605253644, 7260770.0 ], [ 529310.447983889956959, 7260760.0 ], [ 529320.087148198508658, 7260750.0 ], [ 529330.011174176470377, 7260740.0 ], [ 529340.000892210751772, 7260730.000892210751772 ], [ 529350.0, 7260720.012066386640072 ], [ 529360.0, 7260710.099214585497975 ], [ 529370.0, 7260700.545414054766297 ], [ 529380.0, 7260692.075635517016053 ], [ 529390.0, 7260685.669840209186077 ], [ 529400.0, 7260681.638825803995132 ], [ 529410.0, 7260678.994628659449518 ], [ 529420.0, 7260676.34188767336309 ], [ 529430.0, 7260673.234261211007833 ], [ 529440.000000000116415, 7260669.989718034863472 ], [ 529450.0, 7260666.689764766953886 ], [ 529460.0, 7260663.310235233977437 ], [ 529470.0, 7260660.010281966067851 ], [ 529480.0, 7260656.766630999743938 ], [ 529490.0, 7260653.670178714208305 ], [ 529500.000000000116415, 7260651.10458592697978 ], [ 529510.0, 7260648.907480461522937 ], [ 529520.0, 7260646.416077273897827 ], [ 529530.0, 7260643.670178715139627 ], [ 529540.0, 7260641.454247441142797 ], [ 529550.0, 7260640.0 ], [ 529560.0, 7260638.546644769608974 ], [ 529569.999107789248228, 7260636.340995462611318 ], [ 529579.987933612894267, 7260633.671070925891399 ], [ 529589.900785414502025, 7260631.540503429248929 ], [ 529599.453693735180423, 7260630.447091680020094 ], [ 529607.91319030651357, 7260630.087148198857903 ], [ 529614.243011592421681, 7260630.011174176819623 ] ] } },
{ "type": "Feature", "properties": { "id": 8, "reference_id": 3, "dune_id": 3, "dune_name": "Big Mommy Dune", "acquisition_date": "2017-07-26", "length_m": 399.41494234965887 }, "geometry": { "type": "LineString", "coordinates": [ [ 529645.756988407694735, 7260620.0 ], [ 529652.08680969348643, 7260620.0 ], [ 529660.546306264819577, 7260619.999107790179551 ], [ 529670.099214585614391, 7260619.9888258241117 ], [ 529680.012066387222148, 7260619.912851802073419 ], [ 529690.000892210751772, 7260619.552908320911229 ], [ 529700.0, 7260618.459496571682394 ], [ 529710.0, 7260616.329821286723018 ], [ 529720.0, 7260613.670178715139627 ], [ 529730.0, 7260611.540503429248929 ], [ 529740.0, 7260610.447091680020094 ], [ 529750.0, 7260610.087148198857903 ], [ 529760.0, 7260610.011174176819623 ], [ 529770.0, 7260610.000892210751772 ], [ 529780.0, 7260610.0 ], [ 529790.0, 7260610.0 ], [ 529800.0, 7260610.0 ], [ 529810.0, 7260610.0 ], [ 529820.0, 7260610.0 ], [ 529830.0, 7260610.0 ], [ 529840.0, 7260610.0 ], [ 529850.0, 7260610.0 ], [ 529860.0, 7260610.0 ], [ 529870.0, 7260610.0 ], [ 529880.0, 7260610.0 ], [ 529890.0, 7260610.0 ], [ 529900.0, 7260610.0 ], [ 529910.0, 7260610.0 ], [ 529920.0, 7260610.0 ], [ 529930.0, 7260610.0 ], [ 529940.0, 7260610.0 ], [ 529950.0, 7260610.0 ], [ 529960.0, 7260610.0 ], [ 529970.0, 7260610.0 ], [ 529980.0, 7260610.0 ], [ 529990.0, 7260610.0 ], [ 529999.999107789364643, 7260610.0 ], [ 530009.987933612894267, 7260610.0 ], [ 530019.900785414502025, 7260610.0 ], [ 530029.453693735180423, 7260610.0 ], [ 530037.91319030651357, 7260610.0 ], [ 530044.243011592305265, 7260610.0 ] ] } },
{ "type": "Feature", "properties": { "id": 9, "reference_id": 3, "dune_id": 3, "dune_name": "Big Mommy Dune", "acquisition_date": "2017-07-26", "length_m": 172.25968886546389 }, "geometry": { "type": "LineString", "coordinates": [ [ 530244.243011592421681, 7260570.011174176819623 ], [ 530237.91319030651357, 7260570.087148198857903 ], [ 530229.453693735180423, 7260570.447983890771866 ], [ 530219.900785414385609, 7260571.551677605137229 ], [ 530209.987933612894267, 7260573.757326913066208 ], [ 530199.999107789248228, 7260576.776912965811789 ], [ 530190.0, 7260580.000892210751772 ], [ 530180.0, 7260583.234261211007833 ], [ 530170.000000000116415, 7260586.329821285791695 ], [ 530160.0, 7260588.895414073951542 ], [ 530150.0, 7260591.092519538477063 ], [ 530140.0, 7260593.583030516281724 ], [ 530130.0, 7260596.318647108972073 ], [ 530120.000892210751772, 7260598.458604360930622 ], [ 530110.012066387222148, 7260599.552908321842551 ], [ 530100.099214585614391, 7260599.912851802073419 ], [ 530090.546306264819577, 7260599.9888258241117 ], [ 530082.08680969348643, 7260599.999107789248228 ], [ 530075.756988407694735, 7260600.0 ] ] } },
{ "type": "Feature", "properties": { "id": 10, "reference_id": 6, "dune_id": 6, "dune_name": "The Star Dune", "acquisition_date": "2017-07-26", "length_m": 71.637751488253031 }, "geometry": { "type": "LineString", "coordinates": [ [ 533560.458265855675563, 7262844.243011592887342 ], [ 533561.62765162717551, 7262837.913190307095647 ], [ 533564.117270393413492, 7262829.453693736344576 ], [ 533567.870324714574963, 7262819.901677625253797 ], [ 533572.129675285541452, 7262810.0 ], [ 533575.882729606702924, 7262800.098322374746203 ], [ 533578.37234837282449, 7262790.546306264586747 ], [ 533579.541734144440852, 7262782.086809693835676 ], [ 533579.911959590972401, 7262775.756988408043981 ] ] } },
{ "type": "Feature", "properties": { "id": 11, "reference_id": 6, "dune_id": 6, "dune_name": "The Star Dune", "acquisition_date": "2017-07-26", "length_m": 379.32641373059869 }, "geometry": { "type": "LineString", "coordinates": [ [ 533590.011174176470377, 7262744.243011592887342 ], [ 533590.087148198392242, 7262737.913190307095647 ], [ 533590.447091679205187, 7262729.453693736344576 ], [ 533591.540503428783268, 7262719.900785414502025 ], [ 533593.670178714208305, 7262709.987933613359928 ], [ 533596.329821285791695, 7262699.999107790179551 ], [ 533598.459496571216732, 7262690.0 ], [ 533599.552908320794813, 7262680.0 ], [ 533599.912851801607758, 7262670.0 ], [ 533599.98971803416498, 7262660.0 ], [ 533600.01028196583502, 7262650.0 ], [ 533600.087148198392242, 7262640.0 ], [ 533600.447091679205187, 7262630.0 ], [ 533601.541395639418624, 7262620.0 ], [ 533603.681352890678681, 7262610.0 ], [ 533606.416969484183937, 7262600.000000000931323 ], [ 533608.906588250421919, 7262590.0 ], [ 533611.094303960213438, 7262580.0 ], [ 533613.594204692170024, 7262570.0 ], [ 533616.405795307829976, 7262560.0 ], [ 533618.906588250421919, 7262550.0 ], [ 533621.104585925932042, 7262540.0 ], [ 533623.670178714208305, 7262530.0 ], [ 533626.766630999161862, 7262520.0 ], [ 533630.01028196583502, 7262510.0 ], [ 533633.310235233511776, 7262500.0 ], [ 533636.690656977239996, 7262490.0 ], [ 533640.000000000116415, 7262480.0 ], [ 533643.309343022760004, 7262470.0 ], [ 533646.690656977239996, 7262460.0 ], [ 533650.0, 7262450.0 ], [ 533653.309343022760004, 7262440.0 ], [ 533656.689764766488224, 7262430.0 ], [ 533659.988825823529623, 7262420.000892210751772 ], [ 533663.222194824367762, 7262410.012066387571394 ], [ 533666.242673087399453, 7262400.099214585497975 ], [ 533668.448322394862771, 7262390.546306265518069 ], [ 533669.552016110159457, 7262382.086809693835676 ], [ 533669.912851801607758, 7262375.756988408043981 ] ] } },
{ "type": "Feature", "properties": { "id": 12, "reference_id": 1, "dune_id": 1, "dune_name": "Big Mommy Dune", "acquisition_date": "2017-07-26", "length_m": 491.06504868505635 }, "geometry": { "type": "LineString", "coordinates": [ [ 528825.756988407694735, 7262233.135046625509858 ], [ 528832.08680969348643, 7262234.331052001565695 ], [ 528840.546306264819577, 7262233.160774019546807 ], [ 528850.099214585497975, 7262229.093750255182385 ], [ 528860.012066387222148, 7262223.484708140604198 ], [ 528870.000892210751772, 7262217.771110128611326 ], [ 528880.0, 7262212.203864886425436 ], [ 528890.0, 7262206.328929075039923 ], [ 528900.0, 7262199.912851802073419 ], [ 528909.999107789248228, 7262193.211912859231234 ], [ 528919.988825823529623, 7262186.241780877113342 ], [ 528929.911959590972401, 7262178.448322394862771 ], [ 528939.541734144440852, 7262169.552016111090779 ], [ 528948.37234837282449, 7262159.912851801142097 ], [ 528955.881837395951152, 7262149.9888258241117 ], [ 528962.118501109071076, 7262139.999107789248228 ], [ 528967.782284305430949, 7262130.0 ], [ 528973.658112327102572, 7262120.0 ], [ 528979.988825823646039, 7262110.0 ], [ 528986.252955053118058, 7262100.0 ], [ 528991.758557628258131, 7262090.0 ], [ 528996.242673087399453, 7262080.0 ], [ 528999.912851801607758, 7262070.0 ], [ 529003.298168846406043, 7262060.0 ], [ 529006.68976476660464, 7262050.0 ], [ 529010.0, 7262040.0 ], [ 529013.310235233511776, 7262030.0 ], [ 529016.701831153826788, 7262020.0 ], [ 529020.087148198508658, 7262010.0 ], [ 529023.757326912600547, 7262000.0 ], [ 529028.242334582377225, 7261990.0 ], [ 529033.758219123352319, 7261980.0 ], [ 529040.097430164227262, 7261970.0 ], [ 529046.777805175632238, 7261960.0 ], [ 529053.670178714208305, 7261950.0 ], [ 529061.093411749578081, 7261940.0 ], [ 529068.819440052029677, 7261930.0 ], [ 529075.957811417989433, 7261920.0 ], [ 529082.042527087032795, 7261910.0 ], [ 529087.336084836977534, 7261900.000892210751772 ], [ 529092.117608898319304, 7261890.012066386640072 ], [ 529096.317754898685962, 7261880.099214585497975 ], [ 529099.911959590855986, 7261870.546306265518069 ], [ 529103.211912858532742, 7261862.086809693835676 ], [ 529106.241780876647681, 7261855.756988408043981 ] ] } },
{ "type": "Feature", "properties": { "id": 13, "reference_id": 1, "dune_id": 1, "dune_name": "Big Mommy Dune", "acquisition_date": "2017-07-26", "length_m": 587.50710251825581 }, "geometry": { "type": "LineString", "coordinates": [ [ 529179.988825823529623, 7261085.756988408043981 ], [ 529179.912851801607758, 7261092.086809693835676 ], [ 529179.552016110159457, 7261100.546306265518069 ], [ 529178.448322394862771, 7261110.099214585497975 ], [ 529176.242673087399453, 7261120.012066387571394 ], [ 529173.222194824367762, 7261130.000892210751772 ], [ 529169.988825823529623, 7261140.0 ], [ 529166.689764766488224, 7261150.0 ], [ 529163.309343022760004, 7261160.0 ], [ 529160.0, 7261170.0 ], [ 529156.68976476660464, 7261180.0 ], [ 529153.299061057041399, 7261190.0 ], [ 529149.923133767442778, 7261200.0 ], [ 529146.319539319956675, 7261210.000000000931323 ], [ 529142.129675285425037, 7261220.0 ], [ 529137.433515001088381, 7261230.0 ], [ 529132.566484998911619, 7261240.0 ], [ 529127.869432503939606, 7261250.0 ], [ 529123.670178714208305, 7261260.0 ], [ 529120.000892210751772, 7261270.0 ], [ 529116.340103251626715, 7261280.0 ], [ 529112.206541518098675, 7261290.0 ], [ 529107.793458481901325, 7261300.0 ], [ 529103.659896748373285, 7261310.000000000931323 ], [ 529100.0, 7261320.0 ], [ 529096.340103251626715, 7261330.0 ], [ 529092.20654151821509, 7261340.0 ], [ 529087.794350692536682, 7261350.0 ], [ 529083.670178714208305, 7261360.0 ], [ 529080.075974022038281, 7261370.0 ], [ 529076.700046732323244, 7261380.0 ], [ 529073.299953267676756, 7261390.0 ], [ 529069.924025978078134, 7261400.0 ], [ 529066.329821285791695, 7261410.0 ], [ 529062.205649307463318, 7261420.0 ], [ 529057.794350692536682, 7261430.0 ], [ 529053.670178714208305, 7261440.0 ], [ 529050.075974021921866, 7261450.0 ], [ 529046.700938942958601, 7261460.0 ], [ 529043.311127444147132, 7261470.000000000931323 ], [ 529040.01028196583502, 7261480.0 ], [ 529036.766630999278277, 7261490.0 ], [ 529033.670178714208305, 7261500.0 ], [ 529031.104585926048458, 7261510.0 ], [ 529028.907480461173691, 7261520.0 ], [ 529026.416969484183937, 7261530.0 ], [ 529023.681352890678681, 7261540.0 ], [ 529021.540503428783268, 7261550.0 ], [ 529020.43591750273481, 7261560.000000000931323 ], [ 529020.0, 7261570.0 ], [ 529019.564082497381605, 7261580.0 ], [ 529018.460388781968504, 7261590.0 ], [ 529016.329821285791695, 7261599.999107790179551 ], [ 529013.670178714208305, 7261609.987933613359928 ], [ 529011.540503428783268, 7261619.900785414502025 ], [ 529010.447091679205187, 7261629.453693736344576 ], [ 529010.087148198508658, 7261637.913190307095647 ], [ 529010.011174176470377, 7261644.243011591956019 ] ] } },
{ "type": "Feature", "properties": { "id": 14, "reference_id": 1, "dune_id": 1, "dune_name": "Big Mommy Dune", "acquisition_date": "2017-07-26", "length_m": 133.42420576200345 }, "geometry": { "type": "LineString", "coordinates": [ [ 529088.360281985718757, 7261804.243011591956019 ], [ 529085.78440723172389, 7261797.913190307095647 ], [ 529081.595435407944024, 7261789.453693736344576 ], [ 529075.881837395951152, 7261779.900785414502025 ], [ 529068.894521863316186, 7261769.987933613359928 ], [ 529061.529329252312891, 7261759.999107789248228 ], [ 529055.134708120953292, 7261750.0 ], [ 529050.088040409144014, 7261740.0 ], [ 529045.334731911192648, 7261730.000892211683095 ], [ 529040.099214585614391, 7261720.012066386640072 ], [ 529035.222748530097306, 7261710.099214585497975 ], [ 529031.988487318623811, 7261700.546306265518069 ], [ 529030.534239877713844, 7261692.086809694766998 ], [ 529030.098322374979034, 7261685.756988408043981 ] ] } },
{ "type": "Feature", "properties": { "id": 15, "reference_id": 2, "dune_id": 2, "dune_name": "Big Mommy Dune", "acquisition_date": "2017-07-26", "length_m": 382.77917249115609 }, "geometry": { "type": "LineString", "coordinates": [ [ 528754.243011592305265, 7260848.448322394862771 ], [ 528747.91319030651357, 7260846.241780877113342 ], [ 528739.453693735180423, 7260843.211912859231234 ], [ 528729.900785414502025, 7260839.911959590390325 ], [ 528719.987933612894267, 7260836.318647108972073 ], [ 528709.999107789248228, 7260832.128783075138927 ], [ 528700.0, 7260827.423233035951853 ], [ 528690.0, 7260822.489618766121566 ], [ 528680.0, 7260817.499207057058811 ], [ 528670.0, 7260812.499900732189417 ], [ 528660.0, 7260807.500099267810583 ], [ 528650.0, 7260802.499900732189417 ], [ 528640.0, 7260797.499207057990134 ], [ 528630.0, 7260792.489618767052889 ], [ 528620.0, 7260787.423233035951853 ], [ 528610.0, 7260782.128783075138927 ], [ 528600.0, 7260776.319539319723845 ], [ 528590.0, 7260769.923133767209947 ], [ 528580.0, 7260763.299061057157815 ], [ 528570.0, 7260756.689764766953886 ], [ 528560.0, 7260750.0 ], [ 528550.0, 7260743.309343023225665 ], [ 528540.0, 7260736.689764766953886 ], [ 528530.0, 7260729.989718034863472 ], [ 528520.0, 7260723.233369001187384 ], [ 528510.0, 7260716.329821286723018 ], [ 528500.0, 7260708.896306284703314 ], [ 528490.0, 7260701.103693716228008 ], [ 528480.0, 7260693.670178715139627 ], [ 528470.000892210751772, 7260686.766630999743938 ], [ 528460.012066387105733, 7260680.0111741758883 ], [ 528450.099214585614391, 7260673.322301620617509 ], [ 528440.546306264819577, 7260666.788979352451861 ], [ 528432.08680969348643, 7260660.535132088698447 ], [ 528425.756988407694735, 7260655.309004518203437 ] ] } },
{ "type": "Feature", "properties": { "id": 16, "reference_id": 2, "dune_id": 2, "dune_name": "Big Mommy Dune", "acquisition_date": "2017-07-26", "length_m": 384.04918592603781 }, "geometry": { "type": "LineString", "coordinates": [ [ 528785.756988407694735, 7260861.551677605137229 ], [ 528792.08680969348643, 7260863.757326913066208 ], [ 528800.546306264819577, 7260866.777805175632238 ], [ 528810.099214585614391, 7260870.011174176819623 ], [ 528820.012066387222148, 7260873.310235233977437 ], [ 528830.000892210751772, 7260876.689764766953886 ], [ 528840.0, 7260879.989718034863472 ], [ 528850.0, 7260883.233369002118707 ], [ 528860.0, 7260886.329821286723018 ], [ 528870.0, 7260888.896306284703314 ], [ 528880.0, 7260891.103693716228008 ], [ 528890.0, 7260893.670178714208305 ], [ 528900.0, 7260896.765738788992167 ], [ 528910.0, 7260900.0 ], [ 528920.0, 7260903.234261211939156 ], [ 528930.0, 7260906.329821286723018 ], [ 528940.0, 7260908.895414074882865 ], [ 528950.0, 7260911.093411749228835 ], [ 528960.0, 7260913.594204692170024 ], [ 528970.0, 7260916.405795307829976 ], [ 528980.0, 7260918.906588250771165 ], [ 528990.0, 7260921.104585926048458 ], [ 529000.0, 7260923.670178715139627 ], [ 529010.0, 7260926.766630999743938 ], [ 529020.0, 7260930.010281965136528 ], [ 529030.0, 7260933.311127443797886 ], [ 529040.0, 7260936.700938942842185 ], [ 529050.0, 7260940.075974022038281 ], [ 529060.0, 7260943.670178714208305 ], [ 529070.0, 7260947.794350693002343 ], [ 529080.0, 7260952.205649308860302 ], [ 529090.0, 7260956.329821286723018 ], [ 529099.999553894624114, 7260959.924025978893042 ], [ 529109.993520701071247, 7260963.299061058089137 ], [ 529119.944359513698146, 7260966.688872555270791 ], [ 529129.677239574841224, 7260969.9888258241117 ], [ 529138.683442020905204, 7260973.222194824367762 ], [ 529146.078100949409418, 7260976.242673087865114 ], [ 529151.078100949409418, 7260978.448322394862771 ] ] } }
]
}
