{
"type": "FeatureCollection",
"name": "crests_2021_07_2021-07-18",
"crs": { "type": "name", "properties": { "name": "urn:ogc:def:crs:EPSG::32733" } },
"features": [
{ "type": "Feature", "properties": { "id": 0, "reference_id": 9, "dune_id": 9, "dune_name": "Inverted Y Dune", "acquisition_date": "2021-07-18", "length_m": 456.19301273927226 }, "geometry": { "type": "LineString", "coordinates": [ [ 529854.254185768775642, 7261785.756988408043981 ], [ 529848.000338504905812, 7261792.086809692904353 ], [ 529839.901677625020966, 7261800.546306265518069 ], [ 529831.452463019639254, 7261810.099214585497975 ], [ 529823.746152736246586, 7261820.012066387571394 ], [ 529816.787194930831902, 7261830.000892210751772 ], [ 529810.088040409144014, 7261840.000000000931323 ], [ 529803.682245101314038, 7261850.0 ], [ 529797.881498891045339, 7261860.0 ], [ 529792.653633197303861, 7261870.0 ], [ 529787.881498891045339, 7261880.0 ], [ 529783.682245101314038, 7261890.0 ], [ 529780.087148198392242, 7261900.0 ], [ 529776.776912964996882, 7261910.0 ], [ 529773.670178714208305, 7261920.0 ], [ 529771.093411749578081, 7261930.0 ], [ 529768.819440052029677, 7261940.0 ], [ 529765.958703628624789, 7261950.0 ], [ 529762.052809052867815, 7261960.0 ], [ 529757.412951069651172, 7261970.0 ], [ 529752.488726555602625, 7261980.0 ], [ 529747.499207057408057, 7261990.0 ], [ 529742.500792942708358, 7262000.0 ], [ 529737.510381233762018, 7262010.0 ], [ 529732.576766964630224, 7262020.0 ], [ 529727.870324714574963, 7262030.0 ], [ 529723.670178714208305, 7262040.0 ], [ 529720.0, 7262050.0 ], [ 529716.329821285791695, 7262060.0 ], [ 529712.130567496176809, 7262070.0 ], [ 529707.434407211840153, 7262080.0 ], [ 529702.576766964746639, 7262090.0 ], [ 529697.945406525861472, 7262100.0 ], [ 529694.030122194904834, 7262110.0 ], [ 529691.093411749578081, 7262120.0 ], [ 529688.459496571333148, 7262130.0 ], [ 529684.790210067760199, 7262140.0 ], [ 529679.564082497381605, 7262149.999107789248228 ], [ 529673.671070924960077, 7262159.987933613359928 ], [ 529668.317416393663734, 7262169.900785414502025 ], [ 529664.204418591805734, 7262179.453693735413253 ], [ 529661.638825803645886, 7262187.913190307095647 ], [ 529660.459158066427335, 7262194.243011591956019 ] ] } },
{ "type": "Feature", "properties": { "id": 1, "reference_id": 9, "dune_id": 9, "dune_name": "Inverted Y Dune", "acquisition_date": "2021-07-18", "length_m": 272.74518122603132 }, "geometry": { "type": "LineString", "coordinates": [ [ 529875.756988407694735, 7261764.243903802707791 ], [ 529882.08680969348643, 7261757.924364482983947 ], [ 529890.546306264819577, 7261749.540841933339834 ], [ 529900.099214585614391, 7261740.347877094522119 ], [ 529910.012066387222148, 7261731.529329253360629 ], [ 529920.000892210751772, 7261723.680460680276155 ], [ 529930.0, 7261716.417861695401371 ], [ 529940.0, 7261708.917762426659465 ], [ 529950.0, 7261701.180559948086739 ], [ 529960.0, 7261694.031014406122267 ], [ 529970.0, 7261687.870324714109302 ], [ 529980.0, 7261682.216823484748602 ], [ 529990.0, 7261676.340995462611318 ], [ 530000.0, 7261670.0 ], [ 530010.0, 7261663.659004537388682 ], [ 530020.0, 7261657.782284305430949 ], [ 530030.0, 7261652.118501110002398 ], [ 530039.999553894624114, 7261645.882283501327038 ], [ 530049.993520701071247, 7261638.378827672451735 ], [ 530059.944359513698146, 7261629.597374631091952 ], [ 530069.677239574841224, 7261620.234720015898347 ], [ 530078.683442020905204, 7261611.305383803322911 ], [ 530086.078100949409418, 7261603.921006839722395 ], [ 530091.078100949525833, 7261598.921899050474167 ] ] } },
{ "type": "Feature", "properties": { "id": 2, "reference_id": 5, "dune_id": 5, "dune_name": "The Star Dune", "acquisition_date": "2021-07-18", "length_m": 865.81852672181367 }, "geometry": { "type": "LineString", "coordinates": [ [ 534307.91319030651357, 7261565.756096197292209 ], [ 534304.243011592305265, 7261572.075635517947376 ], [ 534297.913190306629986, 7261580.459158066660166 ], [ 534289.453693735180423, 7261589.651230695657432 ], [ 534279.900785414502025, 7261598.460388782434165 ], [ 534269.987933612894267, 7261606.243565298616886 ], [ 534259.999107789248228, 7261613.222194824367762 ], [ 534250.0, 7261619.9888258241117 ], [ 534240.0, 7261626.689764766022563 ], [ 534230.0, 7261633.309343023225665 ], [ 534220.0, 7261639.999107789248228 ], [ 534210.0, 7261646.678590590134263 ], [ 534200.0, 7261653.211020648479462 ], [ 534190.0, 7261659.464867912232876 ], [ 534180.0, 7261664.691887693479657 ], [ 534170.0, 7261668.01151268184185 ], [ 534160.0, 7261669.552016110159457 ], [ 534150.0, 7261670.34876930527389 ], [ 534140.0, 7261671.528437041677535 ], [ 534130.0, 7261673.669286503456533 ], [ 534120.0, 7261676.330713496543467 ], [ 534110.0, 7261678.470670748502016 ], [ 534100.0, 7261679.640056519769132 ], [ 534090.0, 7261680.35994348116219 ], [ 534080.0, 7261681.529329252429307 ], [ 534070.0, 7261683.669286504387856 ], [ 534060.0, 7261686.33071349747479 ], [ 534050.0, 7261688.470670748502016 ], [ 534040.0, 7261689.64005651883781 ], [ 534030.0, 7261690.35994348116219 ], [ 534020.0, 7261691.529329253360629 ], [ 534010.0, 7261693.670178714208305 ], [ 534000.0, 7261696.340995462611318 ], [ 533990.0, 7261698.546644769608974 ], [ 533980.0, 7261700.000892210751772 ], [ 533970.0, 7261701.464529407210648 ], [ 533960.0, 7261703.747044946998358 ], [ 533950.0, 7261706.787194930948317 ], [ 533940.0, 7261710.087148198857903 ], [ 533930.0, 7261713.671070924960077 ], [ 533920.0, 7261717.794350693002343 ], [ 533910.0, 7261722.206541517749429 ], [ 533900.0, 7261726.340103251859546 ], [ 533890.0, 7261730.000892211683095 ], [ 533880.0, 7261733.670178715139627 ], [ 533870.0, 7261737.870324715040624 ], [ 533860.0, 7261742.577659175731242 ], [ 533850.0, 7261747.521555410698056 ], [ 533840.0, 7261752.588833351619542 ], [ 533830.0, 7261757.958365123718977 ], [ 533820.0, 7261764.128444569185376 ], [ 533810.000892210635357, 7261771.628543837927282 ], [ 533800.011174176470377, 7261780.458265855908394 ], [ 533790.088040409144014, 7261790.088040409609675 ], [ 533780.45915806631092, 7261800.011174176819623 ], [ 533771.638825803645886, 7261810.000892210751772 ], [ 533764.205310802557506, 7261820.0 ], [ 533758.329482780885883, 7261830.0 ], [ 533753.768501089187339, 7261840.000000000931323 ], [ 533750.088040409144014, 7261850.0 ], [ 533746.701831153710373, 7261860.0 ], [ 533743.31023523339536, 7261870.0 ], [ 533739.999107789364643, 7261880.0 ], [ 533736.679482800886035, 7261890.0 ], [ 533733.222194824367762, 7261900.0 ], [ 533729.552908320794813, 7261910.0 ], [ 533725.149261337937787, 7261920.0 ], [ 533719.628882342833094, 7261930.0 ], [ 533713.593312481534667, 7261940.0 ], [ 533707.859150538104586, 7261950.0 ], [ 533702.565592788276263, 7261960.0 ], [ 533697.433515001204796, 7261970.0 ], [ 533692.130567496176809, 7261980.0 ], [ 533686.330267391167581, 7261989.999553894624114 ], [ 533680.005587088293396, 7261999.993520701304078 ], [ 533673.714645024156198, 7262009.944359513930976 ], [ 533668.105044730589725, 7262019.677239574491978 ], [ 533663.435059088165872, 7262028.683442020788789 ], [ 533659.803736446541734, 7262036.078100949525833 ], [ 533657.294247423415072, 7262041.078100949525833 ] ] } },
{ "type": "Feature", "properties": { "id": 3, "reference_id": 5, "dune_id": 5, "dune_name": "The Star Dune", "acquisition_date": "2021-07-18", "length_m": 225.42049478598855 }, "geometry": { "type": "LineString", "coordinates": [ [ 534330.0, 7261524.243011592887342 ], [ 534330.0, 7261517.913190307095647 ], [ 534329.999107789364643, 7261509.453693735413253 ], [ 534329.988825823529623, 7261499.900785414502025 ], [ 534329.912851801607758, 7261489.987933613359928 ], [ 534329.552908320794813, 7261479.999107789248228 ], [ 534328.459496571333148, 7261470.000000000931323 ], [ 534326.329821285791695, 7261460.0 ], [ 534323.670178714208305, 7261450.0 ], [ 534321.540503428666852, 7261440.0 ], [ 534320.447091679205187, 7261430.0 ], [ 534320.087148198392242, 7261420.0 ], [ 534320.011174176470377, 7261410.0 ], [ 534320.0, 7261400.0 ], [ 534319.988825823529623, 7261390.0 ], [ 534319.913744012243114, 7261380.0 ], [ 534319.564974708016962, 7261370.0 ], [ 534318.558711156831123, 7261360.0 ], [ 534316.875235339859501, 7261350.000892210751772 ], [ 534315.744922020589001, 7261340.012066386640072 ], [ 534317.198277250863612, 7261330.099214585497975 ], [ 534321.987595107872039, 7261320.546306264586747 ], [ 534328.54664476972539, 7261312.086809693835676 ], [ 534334.353400354390033, 7261305.756988408043981 ] ] } },
{ "type": "Feature", "properties": { "id": 4, "reference_id": 1, "dune_id": 1, "dune_name": "Big Mommy Dune", "acquisition_date": "2021-07-18", "length_m": 474.98159654578063 }, "geometry": { "type": "LineString", "coordinates": [ [ 529108.361174196354114, 7261865.756988408043981 ], [ 529105.79468919755891, 7261872.086809693835676 ], [ 529101.670517219230533, 7261880.546306265518069 ], [ 529096.231498910929076, 7261890.099214585497975 ], [ 529089.911959590855986, 7261900.012066386640072 ], [ 529083.298168846289627, 7261910.000892210751772 ], [ 529076.689764766488224, 7261920.0 ], [ 529070.0, 7261930.0 ], [ 529063.309343022760004, 7261940.0 ], [ 529056.690656977239996, 7261950.0 ], [ 529050.000892210635357, 7261960.0 ], [ 529043.32051719923038, 7261970.0 ], [ 529036.777805175632238, 7261980.0 ], [ 529030.447983889840543, 7261990.0 ], [ 529024.861020627897233, 7262000.0 ], [ 529020.447983889840543, 7262010.0 ], [ 529016.777805175632238, 7262020.0 ], [ 529013.320517199346796, 7262030.0 ], [ 529010.000892210751772, 7262040.0 ], [ 529006.68976476660464, 7262050.0 ], [ 529003.299061057041399, 7262060.0 ], [ 528999.923133767442778, 7262070.0 ], [ 528996.31953932007309, 7262080.0 ], [ 528992.128783074789681, 7262090.0 ], [ 528987.42234082473442, 7262100.0 ], [ 528982.478444589767605, 7262110.0 ], [ 528977.411166648264043, 7262120.0 ], [ 528972.041634876397438, 7262130.0 ], [ 528965.871555430116132, 7262139.999107789248228 ], [ 528958.371456162189133, 7262149.9888258241117 ], [ 528949.541734144324437, 7262159.912851801142097 ], [ 528939.911959590972401, 7262169.552016111090779 ], [ 528929.988825823529623, 7262178.448322394862771 ], [ 528919.999107789364643, 7262186.241780877113342 ], [ 528910.0, 7262193.211912859231234 ], [ 528900.0, 7262199.912851802073419 ], [ 528890.0, 7262206.328929075039923 ], [ 528880.000892210751772, 7262212.204757097177207 ], [ 528870.012066387105733, 7262217.782284306362271 ], [ 528860.099214585614391, 7262223.571856339462101 ], [ 528850.546306264819577, 7262229.540841933339834 ], [ 528842.086809693370014, 7262234.701277447864413 ], [ 528835.756988407694735, 7262238.001230715774 ] ] } },
{ "type": "Feature", "properties": { "id": 5, "reference_id": 1, "dune_id": 1, "dune_name": "Big Mommy Dune", "acquisition_date": "2021-07-18", "length_m": 109.35523700341014 }, "geometry": { "type": "LineString", "coordinates": [ [ 529020.0, 7261555.756988408043981 ], [ 529020.0, 7261562.086809693835676 ], [ 529020.0, 7261570.546306264586747 ], [ 529020.0, 7261580.099214585497975 ], [ 529020.0, 7261590.012066387571394 ], [ 529020.0, 7261600.000892210751772 ], [ 529020.000892210751772, 7261610.0 ], [ 529020.011174176470377, 7261619.999107789248228 ], [ 529020.087148198508658, 7261629.987933613359928 ], [ 529020.447091679205187, 7261639.900785414502025 ], [ 529021.540503428783268, 7261649.453693735413253 ], [ 529023.670178714208305, 7261657.913190307095647 ], [ 529026.329821285791695, 7261664.243011592887342 ] ] } },
{ "type": "Feature", "properties": { "id": 6, "reference_id": 1, "dune_id": 1, "dune_name": "Big Mommy Dune", "acquisition_date": "2021-07-18", "length_m": 476.38612910858893 }, "geometry": { "type": "LineString", "coordinates": [ [ 529182.129675285541452, 7261075.756988408043981 ], [ 529182.658750360948034, 7261082.086809693835676 ], [ 529182.118501109071076, 7261090.546306265518069 ], [ 529181.006263551069424, 7261100.099214585497975 ], [ 529179.911959590855986, 7261110.012066386640072 ], [ 529178.524296416784637, 7261120.000892211683095 ], [ 529176.252955053118058, 7261130.0 ], [ 529173.223087035003118, 7261140.0 ], [ 529169.988825823529623, 7261150.0 ], [ 529166.689764766488224, 7261160.0 ], [ 529163.309343022760004, 7261170.0 ], [ 529160.0, 7261180.0 ], [ 529156.68976476660464, 7261190.0 ], [ 529153.299061057041399, 7261200.0 ], [ 529149.923133767442778, 7261210.000000000931323 ], [ 529146.319539319956675, 7261220.0 ], [ 529142.128783074906096, 7261230.0 ], [ 529137.423233035369776, 7261240.0 ], [ 529132.490510976873338, 7261250.0 ], [ 529127.509489023126662, 7261260.0 ], [ 529122.576766964630224, 7261270.0 ], [ 529117.870324714574963, 7261280.0 ], [ 529113.670178714208305, 7261290.0 ], [ 529110.0, 7261300.0 ], [ 529106.329821285791695, 7261310.000000000931323 ], [ 529102.130567496176809, 7261320.0 ], [ 529097.433515001204796, 7261330.0 ], [ 529092.566484998911619, 7261340.0 ], [ 529087.870324714574963, 7261350.0 ], [ 529083.680460680043325, 7261360.0 ], [ 529080.076866232557222, 7261370.0 ], [ 529076.700046732323244, 7261380.0 ], [ 529073.299953267676756, 7261390.0 ], [ 529069.924025978078134, 7261400.0 ], [ 529066.329821285791695, 7261410.0 ], [ 529062.205649307463318, 7261420.0 ], [ 529057.794350692536682, 7261430.0 ], [ 529053.670178714208305, 7261440.0 ], [ 529050.075974021921866, 7261450.0 ], [ 529046.700938942958601, 7261460.0 ], [ 529043.311127444147132, 7261470.000000000931323 ], [ 529040.011174176470377, 7261479.999107789248228 ], [ 529036.777805175632238, 7261489.987933613359928 ], [ 529033.757326912600547, 7261499.900785414502025 ], [ 529031.551677605253644, 7261509.453693735413253 ], [ 529030.447983889840543, 7261517.913190307095647 ], [ 529030.087148198508658, 7261524.243011592887342 ] ] } },
{ "type": "Feature", "properties": { "id": 7, "reference_id": 1, "dune_id": 1, "dune_name": "Big Mommy Dune", "acquisition_date": "2021-07-18", "length_m": 80.829211394540863 }, "geometry": { "type": "LineString", "coordinates": [ [ 529078.001230715657584, 7261784.243011591956019 ], [ 529074.701277447980829, 7261777.913190307095647 ], [ 529069.54084193368908, 7261769.453693735413253 ], [ 529063.571856339345686, 7261759.901677625253797 ], [ 529057.783176516066305, 7261750.0 ], [ 529052.216823483933695, 7261740.098322375677526 ], [ 529046.428143660654314, 7261730.546306265518069 ], [ 529040.459158066427335, 7261722.086809692904353 ], [ 529035.298722552135587, 7261715.756988408043981 ] ] } },
{ "type": "Feature", "properties": { "id": 8, "reference_id": 8, "dune_id": 8, "dune_name": "Inverted Y Dune", "acquisition_date": "2021-07-18", "length_m": 427.06642603425456 }, "geometry": { "type": "LineString", "coordinates": [ [ 530096.846263533574529, 7261591.078100949525833 ], [ 530098.25205884128809, 7261586.078100949525833 ], [ 530099.676839964813553, 7261578.683442020788789 ], [ 530101.316957589122467, 7261569.6772395754233 ], [ 530103.626604615012184, 7261559.944359513930976 ], [ 530106.324234197614715, 7261549.993520701304078 ], [ 530108.459050465957262, 7261539.999553894624114 ], [ 530109.553800531546585, 7261530.0 ], [ 530109.924025978078134, 7261520.0 ], [ 530110.075974022038281, 7261510.0 ], [ 530110.44619946856983, 7261500.0 ], [ 530111.540503428666852, 7261490.0 ], [ 530113.671070924960077, 7261480.0 ], [ 530116.340995462262072, 7261470.000000000931323 ], [ 530118.54664476972539, 7261460.0 ], [ 530120.0, 7261450.0 ], [ 530121.45335523027461, 7261440.0 ], [ 530123.659896748373285, 7261430.0 ], [ 530126.340103251626715, 7261420.0 ], [ 530128.54664476972539, 7261410.0 ], [ 530130.000892210751772, 7261400.0 ], [ 530131.464529406744987, 7261390.0 ], [ 530133.746152736246586, 7261380.0 ], [ 530136.776912964996882, 7261370.0 ], [ 530140.012066387222148, 7261360.0 ], [ 530143.322301620617509, 7261350.0 ], [ 530146.78897935221903, 7261340.0 ], [ 530150.535132088349201, 7261330.0 ], [ 530155.309004517970607, 7261320.0 ], [ 530161.999661495094188, 7261310.000000000931323 ], [ 530170.535132088349201, 7261300.0 ], [ 530180.098322374862619, 7261290.0 ], [ 530190.012066387105733, 7261280.000892210751772 ], [ 530200.000892210751772, 7261270.011174176819623 ], [ 530210.0, 7261260.088040409609675 ], [ 530219.999107789248228, 7261250.459158066660166 ], [ 530229.987933612777852, 7261241.639718014746904 ], [ 530239.900785414502025, 7261234.216484978795052 ], [ 530249.453693735180423, 7261228.416630979627371 ], [ 530257.913190306629986, 7261224.216484978795052 ], [ 530264.243011592421681, 7261221.639718014746904 ] ] } },
{ "type": "Feature", "properties": { "id": 9, "reference_id": 8, "dune_id": 8, "dune_name": "Inverted Y Dune", "acquisition_date": "2021-07-18", "length_m": 72.433118604618315 }, "geometry": { "type": "LineString", "coordinates": [ [ 530495.756988407694735, 7261208.00033850595355 ], [ 530502.08680969348643, 7261204.690103271976113 ], [ 530510.545414054067805, 7261199.454585945233703 ], [ 530520.087148198392242, 7261193.135938837192953 ], [ 530529.912851801607758, 7261186.329821286723018 ], [ 530539.454585945932195, 7261178.993736449629068 ], [ 530547.91319030651357, 7261171.638825803995132 ], [ 530554.243011592305265, 7261165.6698402101174 ] ] } },
{ "type": "Feature", "properties": { "id": 10, "reference_id": 3, "dune_id": 3, "dune_name": "Big Mommy Dune", "acquisition_date": "2021-07-18", "length_m": 359.34313596861466 }, "geometry": { "type": "LineString", "coordinates": [ [ 529374.243011592305265, 7260695.756988408043981 ], [ 529367.91319030651357, 7260702.086809693835676 ], [ 529359.453693735180423, 7260710.546306265518069 ], [ 529349.901677625253797, 7260720.099214585497975 ], [ 529339.999107789364643, 7260730.012066388502717 ], [ 529330.086255987756886, 7260740.000892210751772 ], [ 529320.447983889956959, 7260750.0 ], [ 529311.551677605253644, 7260760.0 ], [ 529303.757326912600547, 7260770.0 ], [ 529296.777805175632238, 7260780.000000000931323 ], [ 529290.011174176470377, 7260790.0 ], [ 529283.311127444263548, 7260800.0 ], [ 529276.700938943075016, 7260810.0 ], [ 529270.075974022038281, 7260820.0 ], [ 529263.670178714208305, 7260830.0 ], [ 529257.794350692653097, 7260840.0 ], [ 529252.205649307463318, 7260850.0 ], [ 529246.32982128590811, 7260860.0 ], [ 529239.924025977961719, 7260870.0 ], [ 529233.299953267676756, 7260880.0 ], [ 529226.700046732323244, 7260890.0 ], [ 529220.075974022038281, 7260900.0 ], [ 529213.670178714208305, 7260910.0 ], [ 529207.794350692536682, 7260920.0 ], [ 529202.205649307463318, 7260929.999107789248228 ], [ 529196.329375180415809, 7260939.987933613359928 ], [ 529189.91933110053651, 7260949.900785415433347 ], [ 529183.267553344951011, 7260959.453693736344576 ], [ 529176.564541301922873, 7260967.913190307095647 ], [ 529169.764880373957567, 7260974.243011591956019 ], [ 529163.473915160750039, 7260977.913190307095647 ], [ 529158.83475085219834, 7260979.453693735413253 ] ] } },
{ "type": "Feature", "properties": { "id": 11, "reference_id": 3, "dune_id": 3, "dune_name": "Big Mommy Dune", "acquisition_date": "2021-07-18", "length_m": 214.83426852579146 }, "geometry": { "type": "LineString", "coordinates": [ [ 529405.756988407694735, 7260679.552016109228134 ], [ 529412.08680969348643, 7260678.448322394862771 ], [ 529420.546306264819577, 7260676.242673087865114 ], [ 529430.099214585614391, 7260673.223087035119534 ], [ 529440.012066387222148, 7260669.999107789248228 ], [ 529450.000892210751772, 7260666.765738788992167 ], [ 529460.0, 7260663.670178714208305 ], [ 529470.0, 7260661.10458592697978 ], [ 529480.0, 7260658.906588250771165 ], [ 529490.0, 7260656.405795307829976 ], [ 529500.000000000116415, 7260653.594204692170024 ], [ 529510.0, 7260651.094303959980607 ], [ 529520.0, 7260648.905696040019393 ], [ 529530.0, 7260646.405795307829976 ], [ 529540.0, 7260643.594204693101346 ], [ 529550.0, 7260641.094303959980607 ], [ 529560.0, 7260638.906588250771165 ], [ 529569.999107789248228, 7260636.416969483718276 ], [ 529579.987933612894267, 7260633.681352891027927 ], [ 529589.900785414502025, 7260631.541395640000701 ], [ 529599.453693735180423, 7260630.447091680020094 ], [ 529607.91319030651357, 7260630.087148198857903 ], [ 529614.243011592421681, 7260630.011174176819623 ] ] } },
{ "type": "Feature", "properties": { "id": 12, "reference_id": 3, "dune_id": 3, "dune_name": "Big Mommy Dune", "acquisition_date": "2021-07-18", "length_m": 248.48602318472695 }, "geometry": { "type": "LineString", "coordinates": [ [ 529994.243011592421681, 7260610.0 ], [ 529987.91319030651357, 7260610.0 ], [ 529979.453693735296838, 7260610.0 ], [ 529969.900785414385609, 7260610.0 ], [ 529959.987933612894267, 7260610.0 ], [ 529949.999107789364643, 7260610.0 ], [ 529940.0, 7260610.0 ], [ 529930.0, 7260610.0 ], [ 529920.0, 7260610.0 ], [ 529910.0, 7260610.0 ], [ 529900.0, 7260610.0 ], [ 529890.0, 7260610.0 ], [ 529880.0, 7260610.0 ], [ 529870.0, 7260610.0 ], [ 529860.0, 7260610.0 ], [ 529850.0, 7260610.0 ], [ 529840.0, 7260610.0 ], [ 529830.0, 7260610.0 ], [ 529820.0, 7260610.0 ], [ 529810.0, 7260610.0 ], [ 529800.0, 7260610.0 ], [ 529790.000892210751772, 7260610.0 ], [ 529780.012066387105733, 7260610.0 ], [ 529770.099214585614391, 7260610.0 ], [ 529760.546306264819577, 7260610.0 ], [ 529752.08680969348643, 7260610.0 ], [ 529745.756988407694735, 7260610.0 ] ] } },
{ "type": "Feature", "properties": { "id": 13, "reference_id": 3, "dune_id": 3, "dune_name": "Big Mommy Dune", "acquisition_date": "2021-07-18", "length_m": 161.92258050230117 }, "geometry": { "type": "LineString", "coordinates": [ [ 530085.756988407694735, 7260599.999107789248228 ], [ 530092.08680969348643, 7260599.9888258241117 ], [ 530100.546306264819577, 7260599.912851802073419 ], [ 530110.099214585614391, 7260599.552908321842551 ], [ 530120.012066387222148, 7260598.458604360930622 ], [ 530130.000892210751772, 7260596.318647108972073 ], [ 530140.0, 7260593.583030516281724 ], [ 530150.0, 7260591.093411749228835 ], [ 530160.0, 7260588.905696040019393 ], [ 530170.000000000116415, 7260586.405795307829976 ], [ 530180.0, 7260583.594204692170024 ], [ 530190.0, 7260581.094303959980607 ], [ 530199.999107789248228, 7260578.906588250771165 ], [ 530209.987933612894267, 7260576.416969484649599 ], [ 530219.900785414385609, 7260573.681352891027927 ], [ 530229.453693735180423, 7260571.541395640000701 ], [ 530237.91319030651357, 7260570.447091680020094 ], [ 530244.243011592421681, 7260570.087148198857903 ] ] } },
{ "type": "Feature", "properties": { "id": 14, "reference_id": 2, "dune_id": 2, "dune_name": "Big Mommy Dune", "acquisition_date": "2021-07-18", "length_m": 800.98569437261608 }, "geometry": { "type": "LineString", "coordinates": [ [ 529151.078100949409418, 7260978.448322394862771 ], [ 529146.078100949409418, 7260976.242673087865114 ], [ 529138.683442020905204, 7260973.222194824367762 ], [ 529129.677239574841224, 7260969.9888258241117 ], [ 529119.944359513698146, 7260966.688872555270791 ], [ 529109.993520701071247, 7260963.299061058089137 ], [ 529099.999553894624114, 7260959.924025978893042 ], [ 529090.0, 7260956.329821286723018 ], [ 529080.0, 7260952.205649308860302 ], [ 529070.0, 7260947.794350693002343 ], [ 529060.0, 7260943.670178714208305 ], [ 529050.0, 7260940.075974022038281 ], [ 529040.0, 7260936.700938942842185 ], [ 529030.0, 7260933.311127443797886 ], [ 529020.0, 7260930.010281965136528 ], [ 529010.0, 7260926.766630999743938 ], [ 529000.0, 7260923.670178715139627 ], [ 528990.0, 7260921.104585926048458 ], [ 528980.0, 7260918.906588250771165 ], [ 528970.0, 7260916.405795307829976 ], [ 528960.0, 7260913.594204692170024 ], [ 528950.0, 7260911.094303959980607 ], [ 528940.0, 7260908.905696040019393 ], [ 528930.0, 7260906.405795308761299 ], [ 528920.0, 7260903.594204693101346 ], [ 528910.0, 7260901.093411750160158 ], [ 528900.0, 7260898.895414073951542 ], [ 528890.0, 7260896.329821285791695 ], [ 528880.0, 7260893.233369001187384 ], [ 528870.0, 7260889.989718034863472 ], [ 528860.0, 7260886.689764766022563 ], [ 528850.0, 7260883.309343023225665 ], [ 528840.0, 7260880.0 ], [ 528830.0, 7260876.689764766953886 ], [ 528820.0, 7260873.299061057157815 ], [ 528810.0, 7260869.924025978893042 ], [ 528800.0, 7260866.329821286723018 ], [ 528790.0, 7260862.205649307928979 ], [ 528780.0, 7260857.794350693002343 ], [ 528770.0, 7260853.670178714208305 ], [ 528760.0, 7260850.075974022038281 ], [ 528750.0, 7260846.700046733021736 ], [ 528740.0, 7260843.299953267909586 ], [ 528730.0, 7260839.92313376814127 ], [ 528720.0, 7260836.319539319723845 ], [ 528710.0, 7260832.128783075138927 ], [ 528700.0, 7260827.423233035951853 ], [ 528690.0, 7260822.489618766121566 ], [ 528680.0, 7260817.499207057058811 ], [ 528670.0, 7260812.499900732189417 ], [ 528660.0, 7260807.500099267810583 ], [ 528650.0, 7260802.499900732189417 ], [ 528640.0, 7260797.499207057990134 ], [ 528630.0, 7260792.489618767052889 ], [ 528620.0, 7260787.423233035951853 ], [ 528610.0, 7260782.128783075138927 ], [ 528600.0, 7260776.319539319723845 ], [ 528590.0, 7260769.923133767209947 ], [ 528580.0, 7260763.299061057157815 ], [ 528570.0, 7260756.689764766953886 ], [ 528560.0, 7260750.0 ], [ 528550.0, 7260743.309343023225665 ], [ 528540.0, 7260736.689764766953886 ], [ 528530.0, 7260729.989718034863472 ], [ 528520.0, 7260723.233369001187384 ], [ 528510.0, 7260716.329821286723018 ], [ 528500.0, 7260708.896306284703314 ], [ 528490.0, 7260701.103693716228008 ], [ 528480.0, 7260693.670178715139627 ], [ 528470.000892210751772, 7260686.766630999743938 ], [ 528460.012066387105733, 7260680.0111741758883 ], [ 528450.099214585614391, 7260673.322301620617509 ], [ 528440.546306264819577, 7260666.788979352451861 ], [ 528432.08680969348643, 7260660.535132088698447 ], [ 528425.756988407694735, 7260655.309004518203437 ] ] } },
{ "type": "Feature", "properties": { "id": 15, "reference_id": 4, "dune_id": 4, "dune_name": "The Star Dune", "acquisition_date": "2021-07-18", "length_m": 498.76724072008892 }, "geometry": { "type": "LineString", "coordinates": [ [ 533005.756988407694735, 7261870.447091680020094 ], [ 533012.08680969348643, 7261871.541395640000701 ], [ 533020.546306264819577, 7261873.681352891027927 ], [ 533030.099214585614391, 7261876.416969484649599 ], [ 533040.012066387105733, 7261878.906588250771165 ], [ 533050.000892210751772, 7261881.093411749228835 ], [ 533060.0, 7261883.583922726102173 ], [ 533070.0, 7261886.329821285791695 ], [ 533080.0, 7261888.545752558857203 ], [ 533090.0, 7261890.0 ], [ 533100.0, 7261891.454247441142797 ], [ 533110.0, 7261893.670178715139627 ], [ 533120.0, 7261896.416077273897827 ], [ 533130.0, 7261898.907480461522937 ], [ 533140.0, 7261901.104585926048458 ], [ 533150.0, 7261903.670178715139627 ], [ 533160.0, 7261906.766630999743938 ], [ 533170.0, 7261910.010281966999173 ], [ 533180.0, 7261913.310235233977437 ], [ 533190.0, 7261916.689764766022563 ], [ 533200.0, 7261919.989718034863472 ], [ 533210.0, 7261923.233369001187384 ], [ 533220.0, 7261926.329821286723018 ], [ 533230.0, 7261928.896306285634637 ], [ 533240.0, 7261931.103693715296686 ], [ 533250.0, 7261933.670178715139627 ], [ 533260.0, 7261936.766630999743938 ], [ 533270.0, 7261940.010281966067851 ], [ 533280.0, 7261943.310235233977437 ], [ 533290.0, 7261946.689764766022563 ], [ 533300.0, 7261949.989718034863472 ], [ 533310.0, 7261953.233369001187384 ], [ 533320.0, 7261956.329821286723018 ], [ 533330.0, 7261958.896306285634637 ], [ 533340.0, 7261961.103693716228008 ], [ 533350.0, 7261963.670178714208305 ], [ 533360.0, 7261966.765738788992167 ], [ 533370.0, 7261970.0 ], [ 533380.000000000116415, 7261973.234261211939156 ], [ 533390.0, 7261976.330713496543467 ], [ 533400.000000000116415, 7261978.906588250771165 ], [ 533410.0, 7261981.179667737334967 ], [ 533420.0, 7261984.031014405190945 ], [ 533430.0, 7261987.870324715040624 ], [ 533439.999107789364643, 7261992.21593127399683 ], [ 533449.987933612894267, 7261996.329821286723018 ], [ 533459.900785414385609, 7261999.912851801142097 ], [ 533469.453693735180423, 7262003.211912859231234 ], [ 533477.913190306629986, 7262006.241780877113342 ], [ 533484.243011592421681, 7262008.448322394862771 ] ] } },
{ "type": "Feature", "properties": { "id": 16, "reference_id": 4, "dune_id": 4, "dune_name": "The Star Dune", "acquisition_date": "2021-07-18", "length_m": 109.320040880579 }, "geometry": { "type": "LineString", "coordinates": [ [ 533525.756988407694735, 7262031.551677605137229 ], [ 533532.086809693602845, 7262033.757326913066208 ], [ 533540.546306264819577, 7262036.776912965811789 ], [ 533550.099214585614391, 7262040.000892210751772 ], [ 533560.012066387105733, 7262043.234261211007833 ], [ 533570.000892210751772, 7262046.329821285791695 ], [ 533579.999553894740529, 7262048.895414073951542 ], [ 533589.993520701071247, 7262051.092519538477063 ], [ 533599.94435951358173, 7262053.583030516281724 ], [ 533609.677239574841224, 7262056.318647109903395 ], [ 533618.683442020905204, 7262058.458604361861944 ], [ 533626.078100949409418, 7262059.552908321842551 ], [ 533631.078100949525833, 7262059.912851803004742 ] ] } },
{ "type": "Feature", "properties": { "id": 17, "reference_id": 6, "dune_id": 6, "dune_name": "The Star Dune", "acquisition_date": "2021-07-18", "length_m": 746.93054618751353 }, "geometry": { "type": "LineString", "coordinates": [ [ 533660.0, 7262115.756988408043981 ], [ 533660.0, 7262122.086809693835676 ], [ 533660.0, 7262130.546306265518069 ], [ 533660.0, 7262140.099214585497975 ], [ 533660.0, 7262150.012066386640072 ], [ 533660.000892210751772, 7262160.000892210751772 ], [ 533660.011174176470377, 7262170.0 ], [ 533660.087148198392242, 7262180.0 ], [ 533660.447091679088771, 7262190.0 ], [ 533661.540503428783268, 7262200.0 ], [ 533663.671070924960077, 7262210.0 ], [ 533666.340995462378487, 7262220.0 ], [ 533668.546644769841805, 7262230.0 ], [ 533670.0, 7262240.0 ], [ 533671.453355230391026, 7262250.0 ], [ 533673.659004537737928, 7262260.0 ], [ 533676.328929075156339, 7262270.0 ], [ 533678.459496571333148, 7262280.0 ], [ 533679.552908320911229, 7262290.0 ], [ 533679.912851801607758, 7262300.0 ], [ 533679.988825823646039, 7262310.0 ], [ 533679.998215578729287, 7262320.0 ], [ 533679.988825823646039, 7262330.0 ], [ 533679.912851801607758, 7262340.000000000931323 ], [ 533679.552016110159457, 7262350.0 ], [ 533678.448322394862771, 7262360.0 ], [ 533676.242673087399453, 7262370.0 ], [ 533673.223087035119534, 7262380.0 ], [ 533669.999107789364643, 7262390.0 ], [ 533666.765738788526505, 7262400.0 ], [ 533663.670178714208305, 7262410.0 ], [ 533661.103693715296686, 7262420.0 ], [ 533658.896306284703314, 7262430.0 ], [ 533656.329821285791695, 7262440.0 ], [ 533653.234261211473495, 7262450.0 ], [ 533650.0, 7262460.0 ], [ 533646.765738788526505, 7262470.0 ], [ 533643.670178714208305, 7262480.0 ], [ 533641.104585926048458, 7262490.0 ], [ 533638.906588250538334, 7262500.0 ], [ 533636.405795307829976, 7262510.0 ], [ 533633.594204692286439, 7262520.0 ], [ 533631.093411749578081, 7262530.0 ], [ 533628.895414073951542, 7262540.0 ], [ 533626.329821285791695, 7262550.0 ], [ 533623.234261211473495, 7262560.0 ], [ 533620.000892210635357, 7262570.0 ], [ 533616.776912964996882, 7262580.0 ], [ 533613.756434701848775, 7262590.0 ], [ 533611.540503428783268, 7262600.000000000931323 ], [ 533610.360835691448301, 7262610.0 ], [ 533609.640056519303471, 7262620.0 ], [ 533608.470670747803524, 7262630.0 ], [ 533606.330713496543467, 7262640.0 ], [ 533603.670178714208305, 7262650.0 ], [ 533601.540503428783268, 7262660.0 ], [ 533600.447091679205187, 7262670.0 ], [ 533600.086255987756886, 7262680.0 ], [ 533600.0, 7262690.0 ], [ 533599.913744012243114, 7262700.0 ], [ 533599.552908320794813, 7262710.0 ], [ 533598.458604360581376, 7262720.0 ], [ 533596.318647109321319, 7262730.0 ], [ 533593.583030515816063, 7262740.0 ], [ 533591.092519538942724, 7262750.0 ], [ 533588.895414073951542, 7262760.0 ], [ 533586.328929075156339, 7262770.0 ], [ 533583.223087035119534, 7262780.0 ], [ 533579.91374401235953, 7262790.0 ], [ 533576.32982128590811, 7262799.999107789248228 ], [ 533572.216823483933695, 7262809.987933613359928 ], [ 533567.881498891045339, 7262819.900785414502025 ], [ 533564.118162604048848, 7262829.453693736344576 ], [ 533561.62765162717551, 7262837.913190307095647 ], [ 533560.458265855675563, 7262844.243011592887342 ] ] } },
{ "type": "Feature", "properties": { "id": 18, "reference_id": 7, "dune_id": 7, "dune_name": "Inverted Y Dune", "acquisition_date": "2021-07-18", "length_m": 614.20314143556823 }, "geometry": { "type": "LineString", "coordinates": [ [ 530634.243011592421681, 7261345.756988408043981 ], [ 530627.914082517265342, 7261352.086809692904353 ], [ 530619.464867911767215, 7261360.546306265518069 ], [ 530609.987933612894267, 7261370.099214585497975 ], [ 530600.43591750273481, 7261380.012066387571394 ], [ 530591.550785394501872, 7261390.000892210751772 ], [ 530583.757326912600547, 7261400.0 ], [ 530576.777805175632238, 7261410.0 ], [ 530570.011174176470377, 7261420.0 ], [ 530563.310235233511776, 7261430.0 ], [ 530556.690656977239996, 7261440.0 ], [ 530550.0, 7261450.0 ], [ 530543.309343022760004, 7261460.0 ], [ 530536.689764766488224, 7261470.000000000931323 ], [ 530529.988825823529623, 7261480.0 ], [ 530523.222194824367762, 7261490.0 ], [ 530516.242673087399453, 7261500.0 ], [ 530508.448322394862771, 7261510.0 ], [ 530499.552016110159457, 7261520.0 ], [ 530489.912851801607758, 7261530.0 ], [ 530479.988825823529623, 7261539.999107789248228 ], [ 530469.999107789364643, 7261549.9888258241117 ], [ 530460.0, 7261559.911959591321647 ], [ 530450.0, 7261569.541734145022929 ], [ 530440.0, 7261578.371456162072718 ], [ 530430.000000000116415, 7261585.871555430814624 ], [ 530420.0, 7261592.041634876281023 ], [ 530410.0, 7261597.411166648380458 ], [ 530400.0, 7261602.478444590233266 ], [ 530390.0, 7261607.422340825200081 ], [ 530380.0, 7261612.129675285890698 ], [ 530370.0, 7261616.329821286723018 ], [ 530360.0, 7261619.999107789248228 ], [ 530350.0, 7261623.659896748140454 ], [ 530340.0, 7261627.793458482250571 ], [ 530330.0, 7261632.205649307928979 ], [ 530320.0, 7261636.328929075971246 ], [ 530310.0, 7261639.912851801142097 ], [ 530300.0, 7261643.211912859231234 ], [ 530290.0, 7261646.241780877113342 ], [ 530280.0, 7261648.448322394862771 ], [ 530270.0, 7261649.552016111090779 ], [ 530260.0, 7261649.912851802073419 ], [ 530250.0, 7261649.9888258241117 ], [ 530240.0, 7261649.999107790179551 ], [ 530230.0, 7261650.0 ], [ 530220.0, 7261650.0 ], [ 530210.0, 7261650.0 ], [ 530200.0, 7261650.0 ], [ 530190.000892210751772, 7261650.0 ], [ 530180.012066387222148, 7261650.0 ], [ 530170.099214585614391, 7261650.0 ], [ 530160.546306264819577, 7261650.0 ], [ 530152.08680969348643, 7261650.0 ], [ 530145.75698840781115, 7261650.0 ] ] } }
]
}
