{
"type": "FeatureCollection",
"name": "crests_2023_04_2023-04-24",
"crs": { "type": "name", "properties": { "name": "urn:ogc:def:crs:EPSG::32733" } },
"features": [
{ "type": "Feature", "properties": { "id": 0, "reference_id": 1, "dune_id": 1, "dune_name": "Big Mommy Dune", "acquisition_date": "2023-04-24", "length_m": 442.87601669384384 }, "geometry": { "type": "LineString", "coordinates": [ [ 528875.756988407694735, 7262215.783515021204948 ], [ 528882.08680969348643, 7262211.583369021303952 ], [ 528890.546306264819577, 7262205.783515021204948 ], [ 528900.099214585614391, 7262198.360281986184418 ], [ 528910.012066387105733, 7262189.540841933339834 ], [ 528920.0, 7262179.911959591321647 ], [ 528929.988825823529623, 7262169.9888258241117 ], [ 528939.911959590972401, 7262159.999107789248228 ], [ 528949.541734144324437, 7262150.0 ], [ 528958.371456162189133, 7262140.0 ], [ 528965.871555430116132, 7262130.0 ], [ 528972.041634876397438, 7262120.0 ], [ 528977.4120588588994, 7262110.0 ], [ 528982.488726555602625, 7262100.0 ], [ 528987.498314846656285, 7262090.0 ], [ 528992.489618766237982, 7262080.0 ], [ 528997.423233035369776, 7262070.0 ], [ 529002.129675285541452, 7262060.0 ], [ 529006.32982128590811, 7262050.0 ], [ 529010.0, 7262040.0 ], [ 529013.671070924960077, 7262030.0 ], [ 529017.880606680409983, 7262020.0 ], [ 529022.653633197303861, 7262010.0 ], [ 529027.880606680409983, 7262000.0 ], [ 529033.671070924960077, 7261990.0 ], [ 529040.000892210751772, 7261980.0 ], [ 529046.3401032515103, 7261970.0 ], [ 529052.206541518098675, 7261960.0 ], [ 529057.794350692536682, 7261950.0 ], [ 529063.670178714208305, 7261940.0 ], [ 529070.075081811286509, 7261930.0 ], [ 529076.688872555852868, 7261920.0 ], [ 529083.211912858532742, 7261910.0 ], [ 529089.464867911767215, 7261900.0 ], [ 529094.690995482262224, 7261890.000892210751772 ], [ 529098.000338505022228, 7261880.012066386640072 ], [ 529099.464867911767215, 7261870.099214585497975 ], [ 529099.901677625137381, 7261860.546306265518069 ], [ 529099.987933612894267, 7261852.086809693835676 ], [ 529099.999107789364643, 7261845.756988408043981 ] ] } },
{ "type": "Feature", "properties": { "id": 1, "reference_id": 1, "dune_id": 1, "dune_name": "Big Mommy Dune", "acquisition_date": "2023-04-24", "length_m": 262.93657610308469 }, "geometry": { "type": "LineString", "coordinates": [ [ 529085.79468919755891, 7261814.243011592887342 ], [ 529081.671409429865889, 7261807.913190307095647 ], [ 529076.241780876647681, 7261799.453693735413253 ], [ 529069.988825823529623, 7261789.900785414502025 ], [ 529063.670178714208305, 7261779.987933613359928 ], [ 529057.880606680293567, 7261769.999107789248228 ], [ 529052.653633197303861, 7261760.0 ], [ 529047.881498890928924, 7261750.0 ], [ 529043.682245101314038, 7261740.0 ], [ 529040.087148198392242, 7261730.000000000931323 ], [ 529036.776912964996882, 7261720.0 ], [ 529033.671070924960077, 7261710.0 ], [ 529031.104585926048458, 7261700.0 ], [ 529028.907480461173691, 7261690.0 ], [ 529026.416969484183937, 7261680.0 ], [ 529023.681352890678681, 7261670.0 ], [ 529021.541395639418624, 7261660.0 ], [ 529020.447091679205187, 7261650.0 ], [ 529020.087148198508658, 7261640.0 ], [ 529020.011174176470377, 7261630.0 ], [ 529020.000892210751772, 7261620.0 ], [ 529020.0, 7261610.000892210751772 ], [ 529020.0, 7261600.012066387571394 ], [ 529020.0, 7261590.099214585497975 ], [ 529020.0, 7261580.546306265518069 ], [ 529020.0, 7261572.086809693835676 ], [ 529020.0, 7261565.756988408043981 ] ] } },
{ "type": "Feature", "properties": { "id": 2, "reference_id": 1, "dune_id": 1, "dune_name": "Big Mommy Dune", "acquisition_date": "2023-04-24", "length_m": 436.45700440022017 }, "geometry": { "type": "LineString", "coordinates": [ [ 529179.911959590855986, 7261115.756988408043981 ], [ 529179.541734144324437, 7261122.086809694766998 ], [ 529178.372348372940905, 7261130.546306265518069 ], [ 529175.881837395951152, 7261140.099214585497975 ], [ 529172.118501109071076, 7261150.012066387571394 ], [ 529167.782284305430949, 7261160.000892210751772 ], [ 529163.659004537854344, 7261170.0 ], [ 529160.0, 7261180.0 ], [ 529156.340103251626715, 7261190.0 ], [ 529152.20654151821509, 7261200.0 ], [ 529147.793458481901325, 7261210.000000000931323 ], [ 529143.659896748373285, 7261220.0 ], [ 529139.999107789364643, 7261230.0 ], [ 529136.329821285791695, 7261240.0 ], [ 529132.129675285425037, 7261250.0 ], [ 529127.423233035369776, 7261260.0 ], [ 529122.489618766237982, 7261270.0 ], [ 529117.499207057291642, 7261280.0 ], [ 529112.500792942708358, 7261290.0 ], [ 529107.510381233762018, 7261300.0 ], [ 529102.576766964630224, 7261310.000000000931323 ], [ 529097.871216925210319, 7261320.0 ], [ 529093.680460680043325, 7261330.0 ], [ 529090.076866232673638, 7261340.0 ], [ 529086.700938943075016, 7261350.0 ], [ 529083.310235233511776, 7261360.0 ], [ 529080.0, 7261370.0 ], [ 529076.689764766488224, 7261380.0 ], [ 529073.299061056924984, 7261390.0 ], [ 529069.924025978078134, 7261400.0 ], [ 529066.329821285791695, 7261410.0 ], [ 529062.205649307463318, 7261420.0 ], [ 529057.794350692536682, 7261430.0 ], [ 529053.671070924960077, 7261440.0 ], [ 529050.086255987756886, 7261450.0 ], [ 529046.776912964880466, 7261460.0 ], [ 529043.671070924843661, 7261470.000000000931323 ], [ 529041.104585926048458, 7261479.999107789248228 ], [ 529038.907480461057276, 7261489.987933613359928 ], [ 529036.416969484183937, 7261499.900785414502025 ], [ 529033.681352890795097, 7261509.453693735413253 ], [ 529031.54139563953504, 7261517.913190307095647 ], [ 529030.447091679205187, 7261524.243011592887342 ] ] } },
{ "type": "Feature", "properties": { "id": 3, "reference_id": 1, "dune_id": 1, "dune_name": "Big Mommy Dune", "acquisition_date": "2023-04-24", "length_m": 76.726933984532835 }, "geometry": { "type": "LineString", "coordinates": [ [ 529189.988825823529623, 7261074.243011591956019 ], [ 529189.912851801607758, 7261067.913190307095647 ], [ 529189.552908320911229, 7261059.453693735413253 ], [ 529188.459050465957262, 7261049.901231519877911 ], [ 529186.324234197614715, 7261039.99441291205585 ], [ 529183.626604615012184, 7261030.054748276248574 ], [ 529181.316957589122467, 7261020.322760425508022 ], [ 529179.676839964813553, 7261011.316557979211211 ], [ 529178.252058841404505, 7261003.921899050474167 ], [ 529176.846263533574529, 7260998.921899050474167 ] ] } },
{ "type": "Feature", "properties": { "id": 4, "reference_id": 5, "dune_id": 5, "dune_name": "The Star Dune", "acquisition_date": "2023-04-24", "length_m": 671.8280284743015 }, "geometry": { "type": "LineString", "coordinates": [ [ 533651.998769284458831, 7262041.078100949525833 ], [ 533655.298722552019171, 7262036.078100949525833 ], [ 533660.45915806631092, 7262028.683442020788789 ], [ 533666.428143660770729, 7262019.677239574491978 ], [ 533672.217715694569051, 7262009.944359513930976 ], [ 533677.794350692536682, 7261999.993520701304078 ], [ 533683.659896748373285, 7261989.999553894624114 ], [ 533689.999107789364643, 7261980.0 ], [ 533696.32982128590811, 7261970.0 ], [ 533702.129675285541452, 7261960.0 ], [ 533707.423233035369776, 7261950.0 ], [ 533712.489618766237982, 7261940.0 ], [ 533717.49831484653987, 7261930.0 ], [ 533722.489618766237982, 7261920.0 ], [ 533727.423233035253361, 7261910.0 ], [ 533732.128783074906096, 7261900.0 ], [ 533736.31953932007309, 7261890.0 ], [ 533739.923133767442778, 7261880.0 ], [ 533743.299953267676756, 7261870.0 ], [ 533746.700046732323244, 7261860.0 ], [ 533750.076866232673638, 7261850.0 ], [ 533753.681352890678681, 7261840.000000000931323 ], [ 533757.882391101680696, 7261830.0 ], [ 533762.664807373774238, 7261820.000892210751772 ], [ 533767.968647089437582, 7261810.011174177750945 ], [ 533774.129336780519225, 7261800.088040409609675 ], [ 533781.628543837927282, 7261790.458265855908394 ], [ 533790.458265855675563, 7261781.628543838858604 ], [ 533800.088040409144014, 7261774.128444570116699 ], [ 533810.011174176470377, 7261767.958365123718977 ], [ 533820.000892210635357, 7261762.587941141799092 ], [ 533830.0, 7261757.511273443698883 ], [ 533840.0, 7261752.500792942941189 ], [ 533850.0, 7261747.500099267810583 ], [ 533860.0, 7261742.499900732189417 ], [ 533870.0, 7261737.500099267810583 ], [ 533880.0, 7261732.500792942941189 ], [ 533890.0, 7261727.510381233878434 ], [ 533900.0, 7261722.576766964048147 ], [ 533910.0, 7261717.871216924861073 ], [ 533920.0, 7261713.681352891027927 ], [ 533930.0, 7261710.087148198857903 ], [ 533940.0, 7261706.776912964880466 ], [ 533950.0, 7261703.671070924960077 ], [ 533960.0, 7261701.10458592697978 ], [ 533970.0, 7261698.907480461522937 ], [ 533980.0, 7261696.416077273897827 ], [ 533990.0, 7261693.670178714208305 ], [ 534000.0, 7261691.454247441142797 ], [ 534010.0, 7261690.0 ], [ 534020.0, 7261688.546644769608974 ], [ 534030.0, 7261686.340995462611318 ], [ 534040.0, 7261683.670178715139627 ], [ 534050.0, 7261681.529329252429307 ], [ 534060.0, 7261680.35994348116219 ], [ 534070.0, 7261679.640056519769132 ], [ 534080.0, 7261678.470670748502016 ], [ 534090.0, 7261676.330713496543467 ], [ 534099.999107789248228, 7261673.670178714208305 ], [ 534109.987933612894267, 7261671.540503429248929 ], [ 534119.900785414502025, 7261670.447091679088771 ], [ 534129.453693735296838, 7261670.087148198857903 ], [ 534137.91319030651357, 7261670.011174176819623 ], [ 534144.243011592305265, 7261670.000892210751772 ] ] } },
{ "type": "Feature", "properties": { "id": 5, "reference_id": 5, "dune_id": 5, "dune_name": "The Star Dune", "acquisition_date": "2023-04-24", "length_m": 437.56108059151427 }, "geometry": { "type": "LineString", "coordinates": [ [ 534334.713343835202977, 7261305.756988408043981 ], [ 534329.640056519303471, 7261312.086809693835676 ], [ 534324.117270393413492, 7261320.546306264586747 ], [ 534319.857919822447002, 7261330.099214585497975 ], [ 534317.874597306014039, 7261340.012066386640072 ], [ 534317.969539300189354, 7261350.000892210751772 ], [ 534318.929828814114444, 7261360.0 ], [ 534319.72809692833107, 7261370.0 ], [ 534320.371117657166906, 7261380.0 ], [ 534321.530221462948248, 7261390.0 ], [ 534323.669286503572948, 7261400.0 ], [ 534326.329821285791695, 7261410.0 ], [ 534328.459496571333148, 7261420.0 ], [ 534329.552908320794813, 7261430.0 ], [ 534329.912851801607758, 7261440.0 ], [ 534329.988825823529623, 7261450.0 ], [ 534329.999107789364643, 7261460.0 ], [ 534330.0, 7261470.000000000931323 ], [ 534330.0, 7261480.0 ], [ 534329.999107789364643, 7261490.0 ], [ 534329.988825823529623, 7261500.0 ], [ 534329.911959590855986, 7261510.0 ], [ 534329.54084193368908, 7261520.0 ], [ 534328.360281985718757, 7261530.0 ], [ 534325.783515021088533, 7261540.0 ], [ 534321.583369020721875, 7261550.0 ], [ 534315.783515021088533, 7261560.000000000931323 ], [ 534308.360281985718757, 7261569.999107789248228 ], [ 534299.54084193368908, 7261579.9888258241117 ], [ 534289.911959590855986, 7261589.912851802073419 ], [ 534279.988825823529623, 7261599.552016111090779 ], [ 534269.999107789248228, 7261608.448322394862771 ], [ 534260.0, 7261616.241780877113342 ], [ 534250.0, 7261623.211912859231234 ], [ 534240.0, 7261629.911959590390325 ], [ 534230.0, 7261636.317754899151623 ], [ 534220.000892210751772, 7261642.117608899250627 ], [ 534210.012066387105733, 7261647.335192626342177 ], [ 534200.099214585614391, 7261652.031352911144495 ], [ 534190.546306264819577, 7261655.870663220062852 ], [ 534182.08680969348643, 7261658.371456163004041 ], [ 534175.756988407694735, 7261659.541734144091606 ] ] } },
{ "type": "Feature", "properties": { "id": 6, "reference_id": 7, "dune_id": 7, "dune_name": "Inverted Y Dune", "acquisition_date": "2023-04-24", "length_m": 532.96819502914252 }, "geometry": { "type": "LineString", "coordinates": [ [ 530125.756988407694735, 7261640.0 ], [ 530132.08680969348643, 7261640.0 ], [ 530140.546306264819577, 7261640.0 ], [ 530150.099214585614391, 7261640.0 ], [ 530160.012066387222148, 7261640.000892210751772 ], [ 530170.000892210751772, 7261640.010281965136528 ], [ 530180.0, 7261640.075974022038281 ], [ 530190.0, 7261640.35994348116219 ], [ 530200.0, 7261641.093411749228835 ], [ 530210.0, 7261642.129675285890698 ], [ 530220.0, 7261642.65964257158339 ], [ 530230.0, 7261642.129675285890698 ], [ 530240.0, 7261641.092519538477063 ], [ 530250.0, 7261640.348769304342568 ], [ 530260.0, 7261639.9888258241117 ], [ 530270.0, 7261639.563190286979079 ], [ 530280.0, 7261638.459496570751071 ], [ 530290.0, 7261636.318647109903395 ], [ 530300.0, 7261633.582138305529952 ], [ 530310.0, 7261631.082237573340535 ], [ 530320.0, 7261628.819440051913261 ], [ 530330.0, 7261625.968985594809055 ], [ 530340.0, 7261622.129675285890698 ], [ 530350.0, 7261617.783176516182721 ], [ 530360.0, 7261613.659004538320005 ], [ 530370.0, 7261609.999107789248228 ], [ 530380.0, 7261606.328929075039923 ], [ 530390.0, 7261602.11939332075417 ], [ 530400.0, 7261597.346366802230477 ], [ 530410.0, 7261592.118501108139753 ], [ 530420.0, 7261586.317754898220301 ], [ 530430.000000000116415, 7261579.911959591321647 ], [ 530440.0, 7261573.211912859231234 ], [ 530449.999107789248228, 7261566.241780877113342 ], [ 530459.988825823646039, 7261558.448322394862771 ], [ 530469.912851801607758, 7261549.552016110159457 ], [ 530479.552908320794813, 7261539.912851801142097 ], [ 530488.458604360581376, 7261529.9888258241117 ], [ 530496.318647109437734, 7261519.999107789248228 ], [ 530503.582138305064291, 7261510.0 ], [ 530511.082237573107705, 7261500.0 ], [ 530518.819440052029677, 7261490.0 ], [ 530525.969877805095166, 7261480.0 ], [ 530532.139957251260057, 7261470.000000000931323 ], [ 530537.859150538104586, 7261460.000892210751772 ], [ 530544.018055807799101, 7261450.012066386640072 ], [ 530551.081345362355933, 7261440.099214585497975 ], [ 530558.371456162189133, 7261430.546306265518069 ], [ 530564.331052001449279, 7261422.086809692904353 ], [ 530567.924364482983947, 7261415.756988408043981 ] ] } },
{ "type": "Feature", "properties": { "id": 7, "reference_id": 6, "dune_id": 6, "dune_name": "The Star Dune", "acquisition_date": "2023-04-24", "length_m": 819.50708519268437 }, "geometry": { "type": "LineString", "coordinates": [ [ 533551.551677605253644, 7262874.243011591956019 ], [ 533553.758219123352319, 7262867.913190307095647 ], [ 533556.788087141467258, 7262859.453693735413253 ], [ 533560.087148198392242, 7262849.900785414502025 ], [ 533563.671070924843661, 7262839.987933613359928 ], [ 533567.794350692653097, 7262829.999107789248228 ], [ 533572.205649307463318, 7262820.0 ], [ 533576.32982128590811, 7262810.0 ], [ 533579.924025978078134, 7262800.0 ], [ 533583.299061057041399, 7262790.0 ], [ 533586.688872555969283, 7262780.0 ], [ 533589.988825823529623, 7262770.0 ], [ 533593.222194824367762, 7262760.0 ], [ 533596.242673087399453, 7262750.0 ], [ 533598.448322394862771, 7262740.0 ], [ 533599.552016110159457, 7262730.0 ], [ 533599.913744012243114, 7262720.0 ], [ 533600.0, 7262710.0 ], [ 533600.086255987756886, 7262700.0 ], [ 533600.447091679205187, 7262690.0 ], [ 533601.540503428783268, 7262680.0 ], [ 533603.670178714208305, 7262670.0 ], [ 533606.329821285791695, 7262660.0 ], [ 533608.459496571333148, 7262650.0 ], [ 533609.553800531546585, 7262640.0 ], [ 533609.924025978078134, 7262630.0 ], [ 533610.075974022038281, 7262620.0 ], [ 533610.44619946856983, 7262610.0 ], [ 533611.541395639418624, 7262600.000000000931323 ], [ 533613.681352890795097, 7262590.0 ], [ 533616.416969484183937, 7262580.0 ], [ 533618.906588250421919, 7262570.0 ], [ 533621.094303960213438, 7262560.0 ], [ 533623.594204692170024, 7262550.0 ], [ 533626.405795307713561, 7262540.0 ], [ 533628.906588250421919, 7262530.0 ], [ 533631.104585926048458, 7262520.0 ], [ 533633.670178714208305, 7262510.0 ], [ 533636.765738788526505, 7262500.0 ], [ 533640.000000000116415, 7262490.0 ], [ 533643.234261211473495, 7262480.0 ], [ 533646.329821285791695, 7262470.0 ], [ 533648.896306284703314, 7262460.0 ], [ 533651.103693715413101, 7262450.0 ], [ 533653.670178714208305, 7262440.0 ], [ 533656.765738788526505, 7262430.0 ], [ 533660.0, 7262420.0 ], [ 533663.234261211473495, 7262410.0 ], [ 533666.329821285791695, 7262400.0 ], [ 533668.895414073951542, 7262390.0 ], [ 533671.092519538942724, 7262380.0 ], [ 533673.583030515816063, 7262370.0 ], [ 533676.318647109437734, 7262360.0 ], [ 533678.457712149946019, 7262350.0 ], [ 533679.541734144324437, 7262340.000000000931323 ], [ 533679.825703603215516, 7262330.0 ], [ 533679.541734144324437, 7262320.0 ], [ 533678.458604360697791, 7262310.0 ], [ 533676.329821285791695, 7262300.0 ], [ 533673.669286503456533, 7262290.0 ], [ 533671.529329252196476, 7262280.0 ], [ 533670.359943480696529, 7262270.0 ], [ 533669.640056519303471, 7262260.0 ], [ 533668.470670747803524, 7262250.0 ], [ 533666.330713496543467, 7262240.0 ], [ 533663.670178714208305, 7262230.0 ], [ 533661.540503428783268, 7262220.0 ], [ 533660.447091679088771, 7262210.0 ], [ 533660.086255987756886, 7262200.0 ], [ 533660.0, 7262190.0 ], [ 533659.913744012243114, 7262180.0 ], [ 533659.552908320911229, 7262170.0 ], [ 533658.459496571216732, 7262160.0 ], [ 533656.329821285791695, 7262150.0 ], [ 533653.670178714208305, 7262140.0 ], [ 533651.540503428783268, 7262130.0 ], [ 533650.447091679205187, 7262120.000892210751772 ], [ 533650.087148198508658, 7262110.012066386640072 ], [ 533650.011174176470377, 7262100.099214585497975 ], [ 533650.000892210751772, 7262090.546306265518069 ], [ 533650.0, 7262082.086809693835676 ], [ 533650.0, 7262075.756988408043981 ] ] } },
{ "type": "Feature", "properties": { "id": 8, "reference_id": 3, "dune_id": 3, "dune_name": "Big Mommy Dune", "acquisition_date": "2023-04-24", "length_m": 343.99704964838634 }, "geometry": { "type": "LineString", "coordinates": [ [ 529374.243011592305265, 7260695.756988408043981 ], [ 529367.91319030651357, 7260702.086809693835676 ], [ 529359.453693735180423, 7260710.546306265518069 ], [ 529349.901677625253797, 7260720.099214585497975 ], [ 529339.999107789364643, 7260730.012066388502717 ], [ 529330.086255987756886, 7260740.000892210751772 ], [ 529320.447983889956959, 7260750.0 ], [ 529311.551677605253644, 7260760.0 ], [ 529303.757326912600547, 7260770.0 ], [ 529296.777805175632238, 7260780.000000000931323 ], [ 529290.011174176470377, 7260790.0 ], [ 529283.311127444263548, 7260800.0 ], [ 529276.700938943075016, 7260810.0 ], [ 529270.075974022038281, 7260820.0 ], [ 529263.670178714208305, 7260830.0 ], [ 529257.794350692653097, 7260840.0 ], [ 529252.205649307463318, 7260850.0 ], [ 529246.32982128590811, 7260860.0 ], [ 529239.924025977961719, 7260870.0 ], [ 529233.299953267676756, 7260880.0 ], [ 529226.700046732323244, 7260890.0 ], [ 529220.076866232557222, 7260900.0 ], [ 529213.680460680043325, 7260910.0 ], [ 529207.870324714574963, 7260920.0 ], [ 529202.566484998795204, 7260929.999107789248228 ], [ 529197.434407211840153, 7260939.987933613359928 ], [ 529192.141741672647186, 7260949.900785415433347 ], [ 529186.417861694935709, 7260959.453693736344576 ], [ 529180.458265855675563, 7260967.913190307095647 ], [ 529175.298722552019171, 7260974.243011591956019 ] ] } },
{ "type": "Feature", "properties": { "id": 9, "reference_id": 3, "dune_id": 3, "dune_name": "Big Mommy Dune", "acquisition_date": "2023-04-24", "length_m": 648.94477161052714 }, "geometry": { "type": "LineString", "coordinates": [ [ 529405.756988407694735, 7260679.552016109228134 ], [ 529412.08680969348643, 7260678.448322394862771 ], [ 529420.546306264819577, 7260676.242673087865114 ], [ 529430.099214585614391, 7260673.223087035119534 ], [ 529440.012066387222148, 7260669.999107789248228 ], [ 529450.000892210751772, 7260666.765738788992167 ], [ 529460.0, 7260663.670178714208305 ], [ 529470.0, 7260661.103693716228008 ], [ 529480.0, 7260658.896306285634637 ], [ 529490.0, 7260656.329821285791695 ], [ 529500.000000000116415, 7260653.234261211939156 ], [ 529510.0, 7260650.0 ], [ 529520.0, 7260646.765738788992167 ], [ 529530.0, 7260643.670178715139627 ], [ 529540.0, 7260641.10458592697978 ], [ 529550.0, 7260638.907480461522937 ], [ 529560.0, 7260636.416969483718276 ], [ 529570.0, 7260633.680460680276155 ], [ 529580.0, 7260631.530221463181078 ], [ 529590.0, 7260630.35994348116219 ], [ 529600.0, 7260629.64005651883781 ], [ 529610.0, 7260628.470670747570693 ], [ 529620.0, 7260626.330713496543467 ], [ 529630.0, 7260623.670178714208305 ], [ 529640.0, 7260621.540503429248929 ], [ 529650.0, 7260620.446199468336999 ], [ 529660.0, 7260620.075974022038281 ], [ 529670.0, 7260619.924025977961719 ], [ 529680.0, 7260619.553800531663001 ], [ 529690.0, 7260618.459496571682394 ], [ 529700.0, 7260616.329821286723018 ], [ 529710.0, 7260613.670178715139627 ], [ 529720.0, 7260611.540503429248929 ], [ 529730.0, 7260610.447091680020094 ], [ 529740.0, 7260610.086255988106132 ], [ 529750.0, 7260610.0 ], [ 529760.0, 7260609.913744012825191 ], [ 529770.0, 7260609.552908320911229 ], [ 529780.0, 7260608.459496571682394 ], [ 529790.0, 7260606.329821286723018 ], [ 529800.0, 7260603.670178715139627 ], [ 529810.0, 7260601.540503429248929 ], [ 529820.0, 7260600.447091680020094 ], [ 529830.0, 7260600.087148198857903 ], [ 529840.0, 7260600.011174176819623 ], [ 529850.0, 7260600.000892210751772 ], [ 529860.0, 7260600.0 ], [ 529870.0, 7260600.000892210751772 ], [ 529880.0, 7260600.011174176819623 ], [ 529890.0, 7260600.087148198857903 ], [ 529900.0, 7260600.447091680020094 ], [ 529910.0, 7260601.540503429248929 ], [ 529920.0, 7260603.670178715139627 ], [ 529930.0, 7260606.329821286723018 ], [ 529940.0, 7260608.459496571682394 ], [ 529950.0, 7260609.552908320911229 ], [ 529960.0, 7260609.912851802073419 ], [ 529970.0, 7260609.9888258241117 ], [ 529980.0, 7260609.999107789248228 ], [ 529990.0, 7260610.0 ], [ 529999.999107789364643, 7260610.0 ], [ 530009.987933612894267, 7260610.0 ], [ 530019.900785414502025, 7260610.0 ], [ 530029.453693735180423, 7260610.0 ], [ 530037.91319030651357, 7260610.0 ], [ 530044.243011592305265, 7260610.0 ] ] } },
{ "type": "Feature", "properties": { "id": 10, "reference_id": 3, "dune_id": 3, "dune_name": "Big Mommy Dune", "acquisition_date": "2023-04-24", "length_m": 173.46574805199756 }, "geometry": { "type": "LineString", "coordinates": [ [ 530075.756988407694735, 7260600.0 ], [ 530082.08680969348643, 7260599.999107789248228 ], [ 530090.546306264819577, 7260599.9888258241117 ], [ 530100.099214585614391, 7260599.912851802073419 ], [ 530110.012066387222148, 7260599.552016111090779 ], [ 530120.000892210751772, 7260598.448322394862771 ], [ 530130.0, 7260596.242673087865114 ], [ 530140.0, 7260593.223087035119534 ], [ 530150.0, 7260589.999107789248228 ], [ 530160.0, 7260586.765738788992167 ], [ 530170.000000000116415, 7260583.670178714208305 ], [ 530180.0, 7260581.104585926048458 ], [ 530190.0, 7260578.906588250771165 ], [ 530199.999107789248228, 7260576.405795307829976 ], [ 530209.987933612894267, 7260573.594204693101346 ], [ 530219.900785414385609, 7260571.094303959980607 ], [ 530229.453693735180423, 7260568.906588250771165 ], [ 530237.91319030651357, 7260566.416969484649599 ], [ 530244.243011592421681, 7260563.681352891027927 ] ] } },
{ "type": "Feature", "properties": { "id": 11, "reference_id": 8, "dune_id": 8, "dune_name": "Inverted Y Dune", "acquisition_date": "2023-04-24", "length_m": 732.6634785994861 }, "geometry": { "type": "LineString", "coordinates": [ [ 530554.243011592305265, 7261171.999661495909095 ], [ 530547.91319030651357, 7261175.309004518203437 ], [ 530539.453693735296838, 7261180.534239877015352 ], [ 530529.900785414385609, 7261186.776912964880466 ], [ 530519.987933612894267, 7261193.223087035119534 ], [ 530509.999107789248228, 7261199.465760122984648 ], [ 530500.0, 7261204.690995481796563 ], [ 530490.0, 7261208.00033850595355 ], [ 530480.0, 7261209.464867912232876 ], [ 530470.0, 7261209.900785414502025 ], [ 530460.0, 7261209.976759436540306 ], [ 530450.0, 7261209.911959591321647 ], [ 530440.0, 7261209.552908320911229 ], [ 530430.000000000116415, 7261208.459496571682394 ], [ 530420.0, 7261206.329821285791695 ], [ 530410.0, 7261203.670178713276982 ], [ 530400.0, 7261201.540503428317606 ], [ 530390.0, 7261200.447091678157449 ], [ 530380.0, 7261200.088040409609675 ], [ 530370.0, 7261200.022348353639245 ], [ 530360.0, 7261200.088040409609675 ], [ 530350.0, 7261200.447091678157449 ], [ 530340.0, 7261201.540503428317606 ], [ 530330.0, 7261203.671070924028754 ], [ 530320.0, 7261206.340995462611318 ], [ 530310.0, 7261208.547536980360746 ], [ 530300.0, 7261210.011174176819623 ], [ 530290.0, 7261211.541395640000701 ], [ 530280.0, 7261214.117270393297076 ], [ 530270.0, 7261217.957472912967205 ], [ 530260.0, 7261222.588833352550864 ], [ 530250.0, 7261227.522447621449828 ], [ 530240.0, 7261232.588833352550864 ], [ 530230.0, 7261237.958365123718977 ], [ 530220.000892210635357, 7261244.128444569185376 ], [ 530210.011174176470377, 7261251.628543837927282 ], [ 530200.088040409144014, 7261260.458265855908394 ], [ 530190.458265855675563, 7261270.088040409609675 ], [ 530181.628543837810867, 7261280.0111741758883 ], [ 530174.128444569883868, 7261290.000892210751772 ], [ 530167.958365123602562, 7261300.0 ], [ 530162.588833351852372, 7261310.000000000931323 ], [ 530157.521555410232395, 7261320.0 ], [ 530152.577659175381996, 7261330.0 ], [ 530147.871216925326735, 7261340.0 ], [ 530143.681352890678681, 7261350.0 ], [ 530140.087148198392242, 7261360.0 ], [ 530136.776912964996882, 7261370.0 ], [ 530133.671070924960077, 7261380.0 ], [ 530131.104585926048458, 7261390.0 ], [ 530128.907480461173691, 7261400.0 ], [ 530126.416077273664996, 7261410.0 ], [ 530123.670178714208305, 7261420.0 ], [ 530121.454247441026382, 7261430.0 ], [ 530120.0, 7261440.0 ], [ 530118.54664476972539, 7261450.0 ], [ 530116.340995462262072, 7261460.0 ], [ 530113.671070924960077, 7261470.000000000931323 ], [ 530111.540503428666852, 7261480.0 ], [ 530110.44619946856983, 7261490.0 ], [ 530110.075974022038281, 7261500.0 ], [ 530109.924025978078134, 7261510.0 ], [ 530109.553800531546585, 7261520.0 ], [ 530108.459496571333148, 7261530.0 ], [ 530106.329375180532224, 7261539.999553894624114 ], [ 530103.664591626031324, 7261549.993520701304078 ], [ 530101.496929329470731, 7261559.944359513930976 ], [ 530100.223545839544386, 7261569.6772395754233 ], [ 530099.316896484117024, 7261578.683442020788789 ], [ 530098.176084819366224, 7261586.078100949525833 ], [ 530096.835981567739509, 7261591.078100949525833 ] ] } },
{ "type": "Feature", "properties": { "id": 12, "reference_id": 9, "dune_id": 9, "dune_name": "Inverted Y Dune", "acquisition_date": "2023-04-24", "length_m": 800.52547793501753 }, "geometry": { "type": "LineString", "coordinates": [ [ 530091.078100949525833, 7261598.910724874585867 ], [ 530086.078100949409418, 7261603.834750852547586 ], [ 530078.683442020905204, 7261610.868574090301991 ], [ 530069.677239574841224, 7261618.771082820370793 ], [ 530059.944359513698146, 7261626.297421364113688 ], [ 530049.993520701071247, 7261633.218392157927155 ], [ 530039.999553894624114, 7261639.913297906517982 ], [ 530030.0, 7261646.328929075971246 ], [ 530020.0, 7261652.205649306997657 ], [ 530010.0, 7261657.794350693002343 ], [ 530000.0, 7261663.670178715139627 ], [ 529990.0, 7261670.075974022038281 ], [ 529980.0, 7261676.700938943773508 ], [ 529970.0, 7261683.311127444729209 ], [ 529960.0, 7261690.011174176819623 ], [ 529950.0, 7261696.777805175632238 ], [ 529940.0, 7261703.757326913066208 ], [ 529930.0, 7261711.551677605137229 ], [ 529920.0, 7261720.447983889840543 ], [ 529910.0, 7261730.087148198857903 ], [ 529900.0, 7261740.011174176819623 ], [ 529890.0, 7261750.000892210751772 ], [ 529880.0, 7261760.0 ], [ 529870.0, 7261770.0 ], [ 529860.000892210751772, 7261780.0 ], [ 529850.011174176470377, 7261790.0 ], [ 529840.088040409144014, 7261800.0 ], [ 529830.458265855675563, 7261810.0 ], [ 529821.628543837927282, 7261820.0 ], [ 529814.128444569883868, 7261830.0 ], [ 529807.958365123718977, 7261840.000000000931323 ], [ 529802.588833351852372, 7261850.0 ], [ 529797.521555410232395, 7261860.0 ], [ 529792.577659175381996, 7261870.0 ], [ 529787.871216925210319, 7261880.0 ], [ 529783.680460680043325, 7261890.0 ], [ 529780.076866232673638, 7261900.0 ], [ 529776.700046732323244, 7261910.0 ], [ 529773.299953267676756, 7261920.0 ], [ 529769.923133767442778, 7261930.0 ], [ 529766.31953932007309, 7261940.0 ], [ 529762.129675285425037, 7261950.0 ], [ 529757.433515001088381, 7261960.0 ], [ 529752.566484998911619, 7261970.0 ], [ 529747.869432503823191, 7261980.0 ], [ 529743.670178714208305, 7261990.0 ], [ 529740.000892210751772, 7262000.0 ], [ 529736.340103251626715, 7262010.0 ], [ 529732.20654151821509, 7262020.0 ], [ 529727.793458481901325, 7262030.0 ], [ 529723.6598967484897, 7262040.0 ], [ 529719.999107789248228, 7262050.0 ], [ 529716.329821285791695, 7262060.0 ], [ 529712.129675285425037, 7262070.0 ], [ 529707.423233035369776, 7262080.0 ], [ 529702.490510976873338, 7262090.0 ], [ 529697.509489023126662, 7262100.0 ], [ 529692.576766964630224, 7262110.0 ], [ 529687.871216925210319, 7262120.0 ], [ 529683.680460680043325, 7262130.0 ], [ 529680.076866232673638, 7262140.0 ], [ 529676.700046732323244, 7262150.0 ], [ 529673.299953267676756, 7262160.0 ], [ 529669.924025978078134, 7262170.0 ], [ 529666.330713496543467, 7262180.0 ], [ 529662.216823483933695, 7262189.999107789248228 ], [ 529657.881498891045339, 7262199.987933613359928 ], [ 529654.118162604048848, 7262209.900785414502025 ], [ 529651.62765162717551, 7262219.453693735413253 ], [ 529650.458265855675563, 7262227.913190307095647 ], [ 529650.088040409144014, 7262234.243011592887342 ] ] } },
{ "type": "Feature", "properties": { "id": 13, "reference_id": 2, "dune_id": 2, "dune_name": "Big Mommy Dune", "acquisition_date": "2023-04-24", "length_m": 788.11700844212089 }, "geometry": { "type": "LineString", "coordinates": [ [ 529151.078100949409418, 7260978.448322394862771 ], [ 529146.078100949409418, 7260976.242673087865114 ], [ 529138.683442020905204, 7260973.222194824367762 ], [ 529129.677239574841224, 7260969.9888258241117 ], [ 529119.944359513698146, 7260966.688872555270791 ], [ 529109.993520701071247, 7260963.299061058089137 ], [ 529099.999553894624114, 7260959.92313376814127 ], [ 529090.0, 7260956.319539320655167 ], [ 529080.0, 7260952.128783075138927 ], [ 529070.0, 7260947.423233035951853 ], [ 529060.0, 7260942.490510976873338 ], [ 529050.0, 7260937.510381233878434 ], [ 529040.0, 7260932.587048930115998 ], [ 529030.0, 7260927.947190946899354 ], [ 529020.0, 7260924.041296372190118 ], [ 529010.0, 7260921.181452158838511 ], [ 529000.0, 7260918.916870215907693 ], [ 528990.0, 7260916.406687518581748 ], [ 528980.0, 7260913.594204692170024 ], [ 528970.0, 7260911.094303959980607 ], [ 528960.0, 7260908.905696040019393 ], [ 528950.0, 7260906.405795308761299 ], [ 528940.0, 7260903.594204693101346 ], [ 528930.0, 7260901.093411750160158 ], [ 528920.0, 7260898.895414073951542 ], [ 528910.0, 7260896.329821285791695 ], [ 528900.0, 7260893.233369001187384 ], [ 528890.0, 7260889.989718034863472 ], [ 528880.0, 7260886.689764766022563 ], [ 528870.0, 7260883.310235233977437 ], [ 528860.0, 7260880.010281966999173 ], [ 528850.0, 7260876.766630999743938 ], [ 528840.0, 7260873.669286504387856 ], [ 528830.0, 7260871.093411749228835 ], [ 528820.0, 7260868.820332262665033 ], [ 528810.0, 7260865.968985594809055 ], [ 528800.0, 7260862.129675285890698 ], [ 528790.0, 7260857.784068726934493 ], [ 528780.0, 7260853.669286503456533 ], [ 528770.0, 7260850.075974022038281 ], [ 528760.0, 7260846.700046733021736 ], [ 528750.0, 7260843.299953267909586 ], [ 528740.0, 7260839.92313376814127 ], [ 528730.0, 7260836.319539319723845 ], [ 528720.0, 7260832.128783075138927 ], [ 528710.0, 7260827.422340825200081 ], [ 528700.0, 7260822.479336800985038 ], [ 528690.0, 7260817.422340825200081 ], [ 528680.0, 7260812.129675285890698 ], [ 528670.0, 7260806.329821284860373 ], [ 528660.0, 7260800.0 ], [ 528650.0, 7260793.670178715139627 ], [ 528640.0, 7260787.870324714109302 ], [ 528630.0, 7260782.576766965910792 ], [ 528620.0, 7260777.509489024057984 ], [ 528610.0, 7260772.489618767052889 ], [ 528600.0, 7260767.41295106895268 ], [ 528590.0, 7260762.052809053100646 ], [ 528580.0, 7260755.959595839492977 ], [ 528570.0, 7260748.829722017049789 ], [ 528560.0, 7260741.169385772198439 ], [ 528550.0, 7260734.030122195370495 ], [ 528540.0, 7260727.870324714109302 ], [ 528530.0, 7260722.215931273065507 ], [ 528520.0, 7260716.33071349747479 ], [ 528510.0, 7260709.924025978893042 ], [ 528500.0, 7260703.299061058089137 ], [ 528490.0, 7260696.689764766022563 ], [ 528480.000892210751772, 7260690.000892210751772 ], [ 528470.012066387105733, 7260683.321409409865737 ], [ 528460.099214585614391, 7260676.788979351520538 ], [ 528450.546306264819577, 7260670.535132087767124 ], [ 528442.08680969348643, 7260665.309004518203437 ], [ 528435.756988407694735, 7260661.999661495909095 ] ] } },
{ "type": "Feature", "properties": { "id": 14, "reference_id": 4, "dune_id": 4, "dune_name": "The Star Dune", "acquisition_date": "2023-04-24", "length_m": 657.20219041155349 }, "geometry": { "type": "LineString", "coordinates": [ [ 533005.756988407694735, 7261863.681352891027927 ], [ 533012.08680969348643, 7261866.416969484649599 ], [ 533020.546306264819577, 7261868.906588250771165 ], [ 533030.099214585614391, 7261871.094303959980607 ], [ 533040.012066387105733, 7261873.594204692170024 ], [ 533050.000892210751772, 7261876.405795307829976 ], [ 533060.0, 7261878.905696040019393 ], [ 533070.0, 7261881.093411749228835 ], [ 533080.0, 7261883.583922726102173 ], [ 533090.0, 7261886.329821285791695 ], [ 533100.0, 7261888.545752558857203 ], [ 533110.0, 7261890.000892210751772 ], [ 533120.0, 7261891.464529407210648 ], [ 533130.0, 7261893.746152736246586 ], [ 533140.0, 7261896.776912964880466 ], [ 533150.0, 7261900.0111741758883 ], [ 533160.0, 7261903.310235233977437 ], [ 533170.0, 7261906.689764766953886 ], [ 533180.0, 7261909.9888258241117 ], [ 533190.0, 7261913.223087035119534 ], [ 533200.0, 7261916.253847263753414 ], [ 533210.0, 7261918.535470593720675 ], [ 533220.0, 7261920.0 ], [ 533230.0, 7261921.464529407210648 ], [ 533240.0, 7261923.746152736246586 ], [ 533250.0, 7261926.776912964880466 ], [ 533260.0, 7261930.011174176819623 ], [ 533270.0, 7261933.310235233977437 ], [ 533280.0, 7261936.690656976774335 ], [ 533290.0, 7261940.0 ], [ 533300.0, 7261943.309343023225665 ], [ 533310.0, 7261946.689764766022563 ], [ 533320.0, 7261949.989718034863472 ], [ 533330.0, 7261953.233369001187384 ], [ 533340.0, 7261956.329821286723018 ], [ 533350.0, 7261958.896306285634637 ], [ 533360.0, 7261961.103693716228008 ], [ 533370.0, 7261963.670178714208305 ], [ 533380.000000000116415, 7261966.766630999743938 ], [ 533390.0, 7261970.010281966067851 ], [ 533400.000000000116415, 7261973.310235233977437 ], [ 533410.0, 7261976.690656977705657 ], [ 533420.0, 7261980.0 ], [ 533430.0, 7261983.310235233977437 ], [ 533440.0, 7261986.700938943773508 ], [ 533450.0, 7261990.076866232790053 ], [ 533460.0, 7261993.680460680276155 ], [ 533470.0, 7261997.871216925792396 ], [ 533480.0, 7262002.57676696497947 ], [ 533490.0, 7262007.510381234809756 ], [ 533500.0, 7262012.500792942941189 ], [ 533510.0, 7262017.499207057058811 ], [ 533520.0, 7262022.489618767052889 ], [ 533530.0, 7262027.423233035951853 ], [ 533540.0, 7262032.128783075138927 ], [ 533550.0, 7262036.318647109903395 ], [ 533560.0, 7262039.911959590390325 ], [ 533570.0, 7262043.212805069983006 ], [ 533579.999553894740529, 7262046.252955053001642 ], [ 533589.993520701071247, 7262048.535470593720675 ], [ 533599.94435951358173, 7262049.999107789248228 ], [ 533609.677239574841224, 7262051.453355230391026 ], [ 533618.683442020905204, 7262053.659004538320005 ], [ 533626.078100949409418, 7262056.328929075971246 ], [ 533631.078100949525833, 7262058.459496572613716 ] ] } }
]
}
