{
"type": "FeatureCollection",
"name": "crests_2023_01_2023-01-26",
"crs": { "type": "name", "properties": { "name": "urn:ogc:def:crs:EPSG::32733" } },
"features": [
{ "type": "Feature", "properties": { "id": 0, "reference_id": 2, "dune_id": 2, "dune_name": "Big Mommy Dune", "acquisition_date": "2023-01-26", "length_m": 107.45834688398284 }, "geometry": { "type": "LineString", "coordinates": [ [ 529035.75698840781115, 7260924.117270393297076 ], [ 529042.08680969348643, 7260927.871216925792396 ], [ 529050.546306264819577, 7260932.14174167253077 ], [ 529060.099214585614391, 7260935.981051981449127 ], [ 529070.012066387222148, 7260938.906588250771165 ], [ 529080.000892210751772, 7260941.530221462249756 ], [ 529089.999107789248228, 7260945.133815910667181 ], [ 529099.987933612894267, 7260950.075974022969604 ], [ 529109.900785414385609, 7260955.235517326742411 ], [ 529119.453693735296838, 7260959.552908321842551 ], [ 529127.91319030651357, 7260963.13593883626163 ], [ 529134.243011592421681, 7260966.231498911976814 ] ] } },
{ "type": "Feature", "properties": { "id": 1, "reference_id": 2, "dune_id": 2, "dune_name": "Big Mommy Dune", "acquisition_date": "2023-01-26", "length_m": 287.72630199141895 }, "geometry": { "type": "LineString", "coordinates": [ [ 528664.243011592421681, 7260815.870663220062852 ], [ 528657.913190306629986, 7260812.031352911144495 ], [ 528649.453693735180423, 7260807.335192626342177 ], [ 528639.900785414502025, 7260802.117608899250627 ], [ 528629.987933612894267, 7260796.318647108972073 ], [ 528619.999107789364643, 7260789.923133767209947 ], [ 528610.0, 7260783.299061057157815 ], [ 528600.0, 7260776.689764767885208 ], [ 528590.0, 7260770.0 ], [ 528580.0, 7260763.309343023225665 ], [ 528570.0, 7260756.690656976774335 ], [ 528560.0, 7260750.0 ], [ 528550.0, 7260743.309343023225665 ], [ 528540.0, 7260736.689764766953886 ], [ 528530.0, 7260729.989718034863472 ], [ 528520.0, 7260723.233369001187384 ], [ 528510.0, 7260716.329821286723018 ], [ 528500.0, 7260708.896306284703314 ], [ 528490.0, 7260701.103693716228008 ], [ 528480.0, 7260693.670178715139627 ], [ 528470.000892210751772, 7260686.766630999743938 ], [ 528460.012066387105733, 7260680.0111741758883 ], [ 528450.099214585614391, 7260673.322301620617509 ], [ 528440.546306264819577, 7260666.788979352451861 ], [ 528432.08680969348643, 7260660.535132088698447 ], [ 528425.756988407694735, 7260655.309004518203437 ] ] } },
{ "type": "Feature", "properties": { "id": 2, "reference_id": 8, "dune_id": 8, "dune_name": "Inverted Y Dune", "acquisition_date": "2023-01-26", "length_m": 421.71083532858199 }, "geometry": { "type": "LineString", "coordinates": [ [ 530264.243011592421681, 7261221.638825803995132 ], [ 530257.913190306629986, 7261224.205310802906752 ], [ 530249.453693735180423, 7261228.329482780769467 ], [ 530239.900785414502025, 7261233.76939329970628 ], [ 530229.987933612777852, 7261240.099214585497975 ], [ 530219.999107789248228, 7261246.788979351520538 ], [ 530210.000892210751772, 7261253.75821912381798 ], [ 530200.011174176586792, 7261261.551677605137229 ], [ 530190.087148198392242, 7261270.447983890771866 ], [ 530180.447983889840543, 7261280.087148198857903 ], [ 530171.552569815889001, 7261290.0111741758883 ], [ 530163.768501089070924, 7261300.000892210751772 ], [ 530156.864953374140896, 7261310.000000000931323 ], [ 530150.459158066427335, 7261320.0 ], [ 530144.861912838649005, 7261330.0 ], [ 530140.447983889840543, 7261340.0 ], [ 530136.777805175632238, 7261350.0 ], [ 530133.321409409865737, 7261360.0 ], [ 530130.012066387222148, 7261370.0 ], [ 530126.776912964996882, 7261380.0 ], [ 530123.746152736246586, 7261390.0 ], [ 530121.464529406744987, 7261400.0 ], [ 530120.000892210751772, 7261410.0 ], [ 530118.54664476972539, 7261420.0 ], [ 530116.340103251626715, 7261430.0 ], [ 530113.6598967484897, 7261440.0 ], [ 530111.45335523027461, 7261450.0 ], [ 530110.0, 7261460.0 ], [ 530108.54664476972539, 7261470.000000000931323 ], [ 530106.340995462262072, 7261480.0 ], [ 530103.671070924960077, 7261490.0 ], [ 530101.540503428783268, 7261500.0 ], [ 530100.447091679205187, 7261510.0 ], [ 530100.087148198508658, 7261520.0 ], [ 530100.010728071210906, 7261529.999553894624114 ], [ 530099.995305122458376, 7261539.993520701304078 ], [ 530099.956425900803879, 7261549.944359513930976 ], [ 530099.776454160455614, 7261559.6772395754233 ], [ 530099.229748285608366, 7261568.683442020788789 ], [ 530098.164910642895848, 7261576.078100949525833 ], [ 530096.835089357104152, 7261581.078100949525833 ] ] } },
{ "type": "Feature", "properties": { "id": 3, "reference_id": 8, "dune_id": 8, "dune_name": "Inverted Y Dune", "acquisition_date": "2023-01-26", "length_m": 158.60022234859576 }, "geometry": { "type": "LineString", "coordinates": [ [ 530395.756988407694735, 7261210.000000000931323 ], [ 530402.08680969348643, 7261210.000000000931323 ], [ 530410.546306264819577, 7261210.000000000931323 ], [ 530420.099214585614391, 7261210.000000000931323 ], [ 530430.012066387222148, 7261210.000000000931323 ], [ 530440.000892210751772, 7261210.000000000931323 ], [ 530450.0, 7261209.999107790179551 ], [ 530460.0, 7261209.9888258241117 ], [ 530470.0, 7261209.911959591321647 ], [ 530480.0, 7261209.540841934271157 ], [ 530490.0, 7261208.360281986184418 ], [ 530499.999107789248228, 7261205.78440723195672 ], [ 530509.987933612894267, 7261201.595435407944024 ], [ 530519.900785414385609, 7261195.882729606702924 ], [ 530529.453693735296838, 7261188.906588250771165 ], [ 530537.91319030651357, 7261181.627651628106833 ], [ 530544.243011592305265, 7261175.668947998434305 ] ] } },
{ "type": "Feature", "properties": { "id": 4, "reference_id": 3, "dune_id": 3, "dune_name": "Big Mommy Dune", "acquisition_date": "2023-01-26", "length_m": 365.37132596447486 }, "geometry": { "type": "LineString", "coordinates": [ [ 529374.243011592305265, 7260694.216484978795052 ], [ 529367.91319030651357, 7260698.416630979627371 ], [ 529359.454585945932195, 7260704.216484978795052 ], [ 529349.911959590972401, 7260711.639718014746904 ], [ 529340.075081811286509, 7260720.459158066660166 ], [ 529330.447091679205187, 7260730.088040409609675 ], [ 529321.551677605253644, 7260740.011174176819623 ], [ 529313.757326912716962, 7260750.000892210751772 ], [ 529306.776912964996882, 7260760.0 ], [ 529300.000892210635357, 7260770.0 ], [ 529293.234261211473495, 7260780.000000000931323 ], [ 529286.329821285791695, 7260790.0 ], [ 529278.896306284703314, 7260800.0 ], [ 529271.103693715296686, 7260810.0 ], [ 529263.670178714208305, 7260820.0 ], [ 529256.766630999278277, 7260830.0 ], [ 529250.01028196583502, 7260840.0 ], [ 529243.311127444147132, 7260850.0 ], [ 529236.700938942958601, 7260860.0 ], [ 529230.076866232673638, 7260870.0 ], [ 529223.680460680043325, 7260880.0 ], [ 529217.870324714574963, 7260890.0 ], [ 529212.566484998911619, 7260900.0 ], [ 529207.433515001088381, 7260910.0 ], [ 529202.130567496176809, 7260920.0 ], [ 529196.330713496543467, 7260930.0 ], [ 529190.011174176470377, 7260939.999553894624114 ], [ 529183.758219123352319, 7260949.993520701304078 ], [ 529178.328590570134111, 7260959.944359514862299 ], [ 529174.20531080244109, 7260969.6772395754233 ], [ 529171.638825803645886, 7260978.683442020788789 ], [ 529170.45915806631092, 7260986.078100949525833 ], [ 529170.088040409144014, 7260991.078100949525833 ] ] } },
{ "type": "Feature", "properties": { "id": 5, "reference_id": 3, "dune_id": 3, "dune_name": "Big Mommy Dune", "acquisition_date": "2023-01-26", "length_m": 214.83426852579146 }, "geometry": { "type": "LineString", "coordinates": [ [ 529405.756988407694735, 7260679.552016109228134 ], [ 529412.08680969348643, 7260678.448322394862771 ], [ 529420.546306264819577, 7260676.242673087865114 ], [ 529430.099214585614391, 7260673.223087035119534 ], [ 529440.012066387222148, 7260669.999107789248228 ], [ 529450.000892210751772, 7260666.765738788992167 ], [ 529460.0, 7260663.670178714208305 ], [ 529470.0, 7260661.10458592697978 ], [ 529480.0, 7260658.906588250771165 ], [ 529490.0, 7260656.405795307829976 ], [ 529500.000000000116415, 7260653.594204692170024 ], [ 529510.0, 7260651.094303959980607 ], [ 529520.0, 7260648.905696040019393 ], [ 529530.0, 7260646.405795307829976 ], [ 529540.0, 7260643.594204693101346 ], [ 529550.0, 7260641.094303959980607 ], [ 529560.0, 7260638.906588250771165 ], [ 529569.999107789248228, 7260636.416969483718276 ], [ 529579.987933612894267, 7260633.681352891027927 ], [ 529589.900785414502025, 7260631.541395640000701 ], [ 529599.453693735180423, 7260630.447091680020094 ], [ 529607.91319030651357, 7260630.087148198857903 ], [ 529614.243011592421681, 7260630.011174176819623 ] ] } },
{ "type": "Feature", "properties": { "id": 6, "reference_id": 3, "dune_id": 3, "dune_name": "Big Mommy Dune", "acquisition_date": "2023-01-26", "length_m": 58.486023184610531 }, "geometry": { "type": "LineString", "coordinates": [ [ 529704.243011592305265, 7260620.0 ], [ 529697.91319030651357, 7260620.0 ], [ 529689.454585945932195, 7260620.0 ], [ 529679.912851801607758, 7260620.0 ], [ 529670.087148198508658, 7260620.0 ], [ 529660.545414054067805, 7260620.0 ], [ 529652.08680969348643, 7260620.0 ], [ 529645.756988407694735, 7260620.0 ] ] } },
{ "type": "Feature", "properties": { "id": 7, "reference_id": 3, "dune_id": 3, "dune_name": "Big Mommy Dune", "acquisition_date": "2023-01-26", "length_m": 308.48602318461053 }, "geometry": { "type": "LineString", "coordinates": [ [ 529735.756988407694735, 7260610.0 ], [ 529742.08680969348643, 7260610.0 ], [ 529750.546306264819577, 7260610.0 ], [ 529760.099214585614391, 7260610.0 ], [ 529770.012066387222148, 7260610.0 ], [ 529780.000892210751772, 7260610.0 ], [ 529790.0, 7260610.0 ], [ 529800.0, 7260610.0 ], [ 529810.0, 7260610.0 ], [ 529820.0, 7260610.0 ], [ 529830.0, 7260610.0 ], [ 529840.0, 7260610.0 ], [ 529850.0, 7260610.0 ], [ 529860.0, 7260610.0 ], [ 529870.0, 7260610.0 ], [ 529880.0, 7260610.0 ], [ 529890.0, 7260610.0 ], [ 529900.0, 7260610.0 ], [ 529910.0, 7260610.0 ], [ 529920.0, 7260610.0 ], [ 529930.0, 7260610.0 ], [ 529940.0, 7260610.0 ], [ 529950.0, 7260610.0 ], [ 529960.0, 7260610.0 ], [ 529970.0, 7260610.0 ], [ 529980.0, 7260610.0 ], [ 529990.0, 7260610.0 ], [ 529999.999107789364643, 7260610.0 ], [ 530009.987933612894267, 7260610.0 ], [ 530019.900785414502025, 7260610.0 ], [ 530029.453693735180423, 7260610.0 ], [ 530037.91319030651357, 7260610.0 ], [ 530044.243011592305265, 7260610.0 ] ] } },
{ "type": "Feature", "properties": { "id": 8, "reference_id": 3, "dune_id": 3, "dune_name": "Big Mommy Dune", "acquisition_date": "2023-01-26", "length_m": 171.71072276667854 }, "geometry": { "type": "LineString", "coordinates": [ [ 530244.243011592421681, 7260570.011174176819623 ], [ 530237.91319030651357, 7260570.087148198857903 ], [ 530229.453693735180423, 7260570.447091680020094 ], [ 530219.900785414385609, 7260571.540503429248929 ], [ 530209.987933612894267, 7260573.671070925891399 ], [ 530199.999107789248228, 7260576.340995462611318 ], [ 530190.0, 7260578.546644769608974 ], [ 530180.0, 7260580.0 ], [ 530170.000000000116415, 7260581.454247441142797 ], [ 530160.0, 7260583.670178714208305 ], [ 530150.0, 7260586.416077273897827 ], [ 530140.0, 7260588.906588250771165 ], [ 530130.0, 7260591.093411749228835 ], [ 530120.000892210751772, 7260593.583030516281724 ], [ 530110.012066387222148, 7260596.318647108972073 ], [ 530100.099214585614391, 7260598.458604360930622 ], [ 530090.546306264819577, 7260599.552908321842551 ], [ 530082.08680969348643, 7260599.912851802073419 ], [ 530075.756988407694735, 7260599.9888258241117 ] ] } },
{ "type": "Feature", "properties": { "id": 9, "reference_id": 4, "dune_id": 4, "dune_name": "The Star Dune", "acquisition_date": "2023-01-26", "length_m": 142.28901068358337 }, "geometry": { "type": "LineString", "coordinates": [ [ 533005.756988407694735, 7261870.011174177750945 ], [ 533012.08680969348643, 7261870.087148198857903 ], [ 533020.546306264819577, 7261870.447091680020094 ], [ 533030.099214585614391, 7261871.541395640000701 ], [ 533040.012066387105733, 7261873.681352891027927 ], [ 533050.000892210751772, 7261876.416969484649599 ], [ 533060.0, 7261878.907480461522937 ], [ 533070.0, 7261881.104585925117135 ], [ 533080.0, 7261883.670178714208305 ], [ 533090.0, 7261886.765738788992167 ], [ 533099.999107789364643, 7261889.999107789248228 ], [ 533109.987933612894267, 7261893.223087035119534 ], [ 533119.900785414385609, 7261896.242673087865114 ], [ 533129.453693735296838, 7261898.448322394862771 ], [ 533137.91319030651357, 7261899.552016111090779 ], [ 533144.243011592305265, 7261899.912851801142097 ] ] } },
{ "type": "Feature", "properties": { "id": 10, "reference_id": 5, "dune_id": 5, "dune_name": "The Star Dune", "acquisition_date": "2023-01-26", "length_m": 915.34430451034007 }, "geometry": { "type": "LineString", "coordinates": [ [ 533650.535132088349201, 7262041.078100949525833 ], [ 533651.999661495094188, 7262036.078100949525833 ], [ 533655.309004517737776, 7262028.683442020788789 ], [ 533660.535132088232785, 7262019.677239574491978 ], [ 533666.788087141467258, 7262009.944359513930976 ], [ 533673.311127444263548, 7261999.993520701304078 ], [ 533679.924025978078134, 7261989.999553894624114 ], [ 533686.31953932007309, 7261980.0 ], [ 533692.128783074789681, 7261970.0 ], [ 533697.423233035369776, 7261960.0 ], [ 533702.489618766237982, 7261950.0 ], [ 533707.498314846656285, 7261940.0 ], [ 533712.489618766237982, 7261930.0 ], [ 533717.423233035253361, 7261920.0 ], [ 533722.128783074906096, 7261910.0 ], [ 533726.319539319956675, 7261900.0 ], [ 533729.923133767326362, 7261890.0 ], [ 533733.299061057041399, 7261880.0 ], [ 533736.689764766488224, 7261870.0 ], [ 533740.000892210751772, 7261860.0 ], [ 533743.321409409865737, 7261850.0 ], [ 533746.788979352102615, 7261840.000000000931323 ], [ 533750.535132088349201, 7261830.0 ], [ 533755.309004517854191, 7261820.000892210751772 ], [ 533761.999661495094188, 7261810.011174177750945 ], [ 533770.535132088349201, 7261800.088040409609675 ], [ 533780.098322374979034, 7261790.458265855908394 ], [ 533790.012066387105733, 7261781.628543838858604 ], [ 533800.000892210751772, 7261774.128444570116699 ], [ 533810.0, 7261767.958365123718977 ], [ 533820.0, 7261762.587941141799092 ], [ 533830.0, 7261757.511273443698883 ], [ 533840.0, 7261752.500792942941189 ], [ 533850.0, 7261747.500099267810583 ], [ 533860.0, 7261742.500792942941189 ], [ 533870.0, 7261737.510381234809756 ], [ 533880.0, 7261732.576766965910792 ], [ 533890.0, 7261727.871216925792396 ], [ 533900.0, 7261723.681352891027927 ], [ 533910.0, 7261720.087148198857903 ], [ 533920.0, 7261716.776912964880466 ], [ 533930.0, 7261713.671070924960077 ], [ 533940.0, 7261711.10458592697978 ], [ 533950.0, 7261708.906588250771165 ], [ 533960.0, 7261706.405795307829976 ], [ 533970.0, 7261703.594204692170024 ], [ 533980.0, 7261701.094303959980607 ], [ 533990.0, 7261698.906588250771165 ], [ 534000.0, 7261696.416969484649599 ], [ 534010.0, 7261693.681352891027927 ], [ 534020.0, 7261691.540503429248929 ], [ 534030.0, 7261690.435917503200471 ], [ 534040.0, 7261690.0 ], [ 534050.0, 7261689.564082497730851 ], [ 534060.0, 7261688.460388783365488 ], [ 534070.0, 7261686.329821286723018 ], [ 534080.0, 7261683.670178715139627 ], [ 534090.0, 7261681.539611218497157 ], [ 534100.0, 7261680.435917503200471 ], [ 534110.0, 7261680.0 ], [ 534120.0, 7261679.563190286979079 ], [ 534130.0, 7261678.449214605614543 ], [ 534140.0, 7261676.241780877113342 ], [ 534150.0, 7261673.211020648479462 ], [ 534160.0, 7261669.901677625253797 ], [ 534170.0, 7261666.241780877113342 ], [ 534180.0, 7261661.757665418088436 ], [ 534190.0, 7261656.242673087865114 ], [ 534200.0, 7261649.912851802073419 ], [ 534210.0, 7261643.298168847337365 ], [ 534220.0, 7261636.689764766953886 ], [ 534230.0, 7261630.0 ], [ 534240.0, 7261623.309343023225665 ], [ 534250.0, 7261616.689764766953886 ], [ 534260.0, 7261609.9888258241117 ], [ 534269.999107789248228, 7261603.222194825299084 ], [ 534279.987933612894267, 7261596.242673087865114 ], [ 534289.900785414502025, 7261588.448322394862771 ], [ 534299.453693735296838, 7261579.552016110159457 ], [ 534307.91319030651357, 7261569.913744012825191 ], [ 534314.243011592305265, 7261560.000892210751772 ], [ 534317.91319030651357, 7261550.098322374746203 ], [ 534319.453693735296838, 7261540.546306265518069 ], [ 534319.900785414385609, 7261532.086809693835676 ], [ 534319.987933612894267, 7261525.756988408043981 ] ] } },
{ "type": "Feature", "properties": { "id": 11, "reference_id": 5, "dune_id": 5, "dune_name": "The Star Dune", "acquisition_date": "2023-01-26", "length_m": 95.687187792080934 }, "geometry": { "type": "LineString", "coordinates": [ [ 534334.342226177919656, 7261305.756988408043981 ], [ 534328.459496571333148, 7261312.086809693835676 ], [ 534321.540503428666852, 7261320.546306264586747 ], [ 534315.657773822080344, 7261330.099214585497975 ], [ 534312.074743306264281, 7261340.012066386640072 ], [ 534310.545414054067805, 7261350.0 ], [ 534310.099214585614391, 7261359.987933613359928 ], [ 534310.012066387222148, 7261369.900785414502025 ], [ 534310.000892210751772, 7261379.453693735413253 ], [ 534310.0, 7261387.913190307095647 ], [ 534310.0, 7261394.243011592887342 ] ] } },
{ "type": "Feature", "properties": { "id": 12, "reference_id": 5, "dune_id": 5, "dune_name": "The Star Dune", "acquisition_date": "2023-01-26", "length_m": 58.486023183912039 }, "geometry": { "type": "LineString", "coordinates": [ [ 534320.0, 7261425.756988408043981 ], [ 534320.0, 7261432.086809692904353 ], [ 534320.0, 7261440.545414054766297 ], [ 534320.0, 7261450.087148198857903 ], [ 534320.0, 7261459.912851801142097 ], [ 534320.0, 7261469.454585947096348 ], [ 534320.0, 7261477.913190307095647 ], [ 534320.0, 7261484.243011591956019 ] ] } },
{ "type": "Feature", "properties": { "id": 13, "reference_id": 7, "dune_id": 7, "dune_name": "Inverted Y Dune", "acquisition_date": "2023-01-26", "length_m": 558.22045963246092 }, "geometry": { "type": "LineString", "coordinates": [ [ 530225.756988407694735, 7261649.9888258241117 ], [ 530232.08680969348643, 7261649.912851802073419 ], [ 530240.546306264703162, 7261649.552908321842551 ], [ 530250.099214585614391, 7261648.459496572613716 ], [ 530260.012066387105733, 7261646.328929075971246 ], [ 530270.000892210751772, 7261643.659004538320005 ], [ 530280.0, 7261641.452463019639254 ], [ 530290.0, 7261639.9888258241117 ], [ 530300.0, 7261638.459496570751071 ], [ 530310.0, 7261635.893011572770774 ], [ 530320.0, 7261632.119393319822848 ], [ 530330.0, 7261627.782284305430949 ], [ 530340.0, 7261623.659004537388682 ], [ 530350.0, 7261619.999107789248228 ], [ 530360.0, 7261616.329821286723018 ], [ 530370.0, 7261612.129675285890698 ], [ 530380.0, 7261607.422340825200081 ], [ 530390.0, 7261602.478444590233266 ], [ 530400.0, 7261597.411166648380458 ], [ 530410.0, 7261592.041634876281023 ], [ 530420.0, 7261585.871555430814624 ], [ 530430.000000000116415, 7261578.371456162072718 ], [ 530440.0, 7261569.541734145022929 ], [ 530450.0, 7261559.911959591321647 ], [ 530460.0, 7261549.9888258241117 ], [ 530470.0, 7261539.999107789248228 ], [ 530479.999107789364643, 7261530.0 ], [ 530489.988825823529623, 7261520.0 ], [ 530499.912851801607758, 7261510.0 ], [ 530509.552016110159457, 7261500.0 ], [ 530518.448322394862771, 7261490.0 ], [ 530526.242673087399453, 7261480.0 ], [ 530533.222194824367762, 7261470.000000000931323 ], [ 530539.988825823529623, 7261460.0 ], [ 530546.68976476660464, 7261450.0 ], [ 530553.310235233511776, 7261440.0 ], [ 530560.011174176470377, 7261430.0 ], [ 530566.777805175632238, 7261420.0 ], [ 530573.757326912600547, 7261410.0 ], [ 530581.551677605253644, 7261400.0 ], [ 530590.447983889840543, 7261390.0 ], [ 530600.087148198392242, 7261380.0 ], [ 530610.01028196583502, 7261370.000892210751772 ], [ 530619.988825823646039, 7261360.012066386640072 ], [ 530629.900785414502025, 7261350.099214585497975 ], [ 530639.453693735296838, 7261340.546306265518069 ], [ 530647.913190306629986, 7261332.086809693835676 ], [ 530654.243011592305265, 7261325.756988408043981 ] ] } },
{ "type": "Feature", "properties": { "id": 14, "reference_id": 9, "dune_id": 9, "dune_name": "Inverted Y Dune", "acquisition_date": "2023-01-26", "length_m": 806.75780871099334 }, "geometry": { "type": "LineString", "coordinates": [ [ 529640.087148198392242, 7262264.243011591956019 ], [ 529640.447091679205187, 7262257.913190307095647 ], [ 529641.541395639418624, 7262249.453693735413253 ], [ 529643.681352890678681, 7262239.900785414502025 ], [ 529646.417861694935709, 7262229.987933613359928 ], [ 529648.917762426892295, 7262219.999107789248228 ], [ 529651.181452158722095, 7262210.0 ], [ 529654.041296371491626, 7262200.0 ], [ 529657.946298736613244, 7262190.0 ], [ 529662.576766964746639, 7262180.0 ], [ 529667.434407211840153, 7262170.0 ], [ 529672.129675285541452, 7262160.0 ], [ 529676.31953932007309, 7262150.0 ], [ 529679.923133767442778, 7262140.0 ], [ 529683.299953267676756, 7262130.0 ], [ 529686.700046732323244, 7262120.0 ], [ 529690.076866232673638, 7262110.0 ], [ 529693.680460680043325, 7262100.0 ], [ 529697.870324714574963, 7262090.0 ], [ 529702.566484998911619, 7262080.0 ], [ 529707.433515001088381, 7262070.0 ], [ 529712.130567496176809, 7262060.0 ], [ 529716.329821285791695, 7262050.0 ], [ 529720.0, 7262040.0 ], [ 529723.670178714208305, 7262030.0 ], [ 529727.870324714574963, 7262020.0 ], [ 529732.576766964630224, 7262010.0 ], [ 529737.509489023126662, 7262000.0 ], [ 529742.490510976989754, 7261990.0 ], [ 529747.423233035369776, 7261980.0 ], [ 529752.128783074789681, 7261970.0 ], [ 529756.319539319956675, 7261960.0 ], [ 529759.923133767326362, 7261950.0 ], [ 529763.299061056924984, 7261940.0 ], [ 529766.689764766488224, 7261930.0 ], [ 529770.0, 7261920.0 ], [ 529773.310235233511776, 7261910.0 ], [ 529776.700938943075016, 7261900.0 ], [ 529780.076866232673638, 7261890.0 ], [ 529783.681352890678681, 7261880.0 ], [ 529787.881498891045339, 7261870.0 ], [ 529792.653633197303861, 7261860.0 ], [ 529797.881498891045339, 7261850.0 ], [ 529803.682245101314038, 7261840.000000000931323 ], [ 529810.088040409144014, 7261830.0 ], [ 529816.788087141467258, 7261820.0 ], [ 529823.758219123352319, 7261810.0 ], [ 529831.551677605137229, 7261800.0 ], [ 529840.447983889840543, 7261790.0 ], [ 529850.087148198392242, 7261780.000892210751772 ], [ 529860.011174176470377, 7261770.0111741758883 ], [ 529870.000892210751772, 7261760.087148198857903 ], [ 529880.0, 7261750.447091680020094 ], [ 529890.0, 7261741.541395640000701 ], [ 529900.0, 7261733.681352891027927 ], [ 529910.0, 7261726.416969484649599 ], [ 529920.0, 7261718.907480461522937 ], [ 529930.0, 7261711.10458592697978 ], [ 529940.0, 7261703.670178714208305 ], [ 529950.0, 7261696.766630999743938 ], [ 529960.0, 7261690.010281966067851 ], [ 529970.0, 7261683.311127444729209 ], [ 529980.0, 7261676.700938943773508 ], [ 529990.0, 7261670.075974022038281 ], [ 530000.0, 7261663.670178715139627 ], [ 530010.0, 7261657.794350693002343 ], [ 530019.999107789248228, 7261652.205649306997657 ], [ 530029.987933612894267, 7261646.329821286723018 ], [ 530039.900785414385609, 7261639.924918189644814 ], [ 530049.453693735180423, 7261633.311127444729209 ], [ 530057.91319030651357, 7261626.788087141700089 ], [ 530064.243011592305265, 7261620.535132087767124 ], [ 530067.913190306629986, 7261615.309004518203437 ] ] } },
{ "type": "Feature", "properties": { "id": 15, "reference_id": 1, "dune_id": 1, "dune_name": "Big Mommy Dune", "acquisition_date": "2023-01-26", "length_m": 1202.5033890059015 }, "geometry": { "type": "LineString", "coordinates": [ [ 528945.668947998667136, 7262154.243011591956019 ], [ 528951.628543837927282, 7262147.913190307095647 ], [ 528958.917762426892295, 7262139.453693735413253 ], [ 528965.970770015846938, 7262129.900785414502025 ], [ 528972.053701263619587, 7262119.987933613359928 ], [ 528977.4120588588994, 7262109.999107789248228 ], [ 528982.478444589767605, 7262100.0 ], [ 528987.42234082473442, 7262090.0 ], [ 528992.128783074789681, 7262080.0 ], [ 528996.31953932007309, 7262070.0 ], [ 528999.923133767442778, 7262060.0 ], [ 529003.299953267676756, 7262050.0 ], [ 529006.700938943075016, 7262040.0 ], [ 529010.087148198508658, 7262030.0 ], [ 529013.757326912600547, 7262020.0 ], [ 529018.242334582377225, 7262010.0 ], [ 529023.757326912600547, 7262000.0 ], [ 529030.087148198508658, 7261990.0 ], [ 529036.700938943075016, 7261980.0 ], [ 529043.299953267676756, 7261970.0 ], [ 529049.924025978078134, 7261960.0 ], [ 529056.329821285791695, 7261950.0 ], [ 529062.205649307463318, 7261940.0 ], [ 529067.793458481901325, 7261930.0 ], [ 529073.659896748373285, 7261920.0 ], [ 529079.999107789248228, 7261910.0 ], [ 529086.328036864520982, 7261900.0 ], [ 529092.107326932600699, 7261890.0 ], [ 529097.247152217198163, 7261880.0 ], [ 529101.573087055003271, 7261870.0 ], [ 529104.242119381669909, 7261860.0 ], [ 529104.243011592421681, 7261850.0 ], [ 529101.58336902083829, 7261840.000000000931323 ], [ 529097.324018449871801, 7261830.0 ], [ 529092.477552379132248, 7261820.0 ], [ 529087.497422636020929, 7261810.0 ], [ 529082.488726555602625, 7261800.0 ], [ 529077.412951069651172, 7261790.0 ], [ 529072.052809052867815, 7261780.0 ], [ 529065.959595839260146, 7261770.0 ], [ 529058.830614228500053, 7261760.0 ], [ 529051.180559947970323, 7261750.0 ], [ 529044.117270393297076, 7261740.0 ], [ 529038.318308604415506, 7261730.000000000931323 ], [ 529033.767608878435567, 7261720.0 ], [ 529030.088040409144014, 7261710.0 ], [ 529026.701831153710373, 7261700.0 ], [ 529023.311127444263548, 7261690.0 ], [ 529020.011174176470377, 7261680.0 ], [ 529016.777805175632238, 7261670.0 ], [ 529013.757326912600547, 7261660.0 ], [ 529011.551677605253644, 7261650.0 ], [ 529010.447983889840543, 7261640.0 ], [ 529010.088040409144014, 7261630.0 ], [ 529010.022348352940753, 7261620.0 ], [ 529010.088040409144014, 7261610.0 ], [ 529010.447091679205187, 7261600.0 ], [ 529011.540503428783268, 7261590.0 ], [ 529013.670178714208305, 7261580.0 ], [ 529016.330713496543467, 7261570.0 ], [ 529018.470670747803524, 7261560.000000000931323 ], [ 529019.640056519303471, 7261550.0 ], [ 529020.360835691448301, 7261540.0 ], [ 529021.540503428783268, 7261530.0 ], [ 529023.75643470196519, 7261520.0 ], [ 529026.777805175632238, 7261510.0 ], [ 529030.011174176586792, 7261500.0 ], [ 529033.310235233511776, 7261490.0 ], [ 529036.690656977239996, 7261480.0 ], [ 529040.0, 7261470.000000000931323 ], [ 529043.31023523339536, 7261460.0 ], [ 529046.700938942958601, 7261450.0 ], [ 529050.075974021921866, 7261440.0 ], [ 529053.669286503572948, 7261430.0 ], [ 529057.784068726818077, 7261420.0 ], [ 529062.129675285541452, 7261410.0 ], [ 529065.969877805095166, 7261400.0 ], [ 529068.830614228500053, 7261390.0 ], [ 529071.170277982251719, 7261380.0 ], [ 529074.040404160739854, 7261370.0 ], [ 529077.947190947132185, 7261360.0 ], [ 529082.587048930465244, 7261350.0 ], [ 529087.510381233878434, 7261340.0 ], [ 529092.490510976989754, 7261330.0 ], [ 529097.423233035369776, 7261320.0 ], [ 529102.129675285541452, 7261310.000000000931323 ], [ 529106.329821285791695, 7261300.0 ], [ 529110.0, 7261290.0 ], [ 529113.670178714208305, 7261280.0 ], [ 529117.869432503939606, 7261270.0 ], [ 529122.566484998911619, 7261260.0 ], [ 529127.433515001204796, 7261250.0 ], [ 529132.129675285425037, 7261240.0 ], [ 529136.319539319956675, 7261230.0 ], [ 529139.923133767326362, 7261220.0 ], [ 529143.299061056924984, 7261210.000000000931323 ], [ 529146.689764766488224, 7261200.0 ], [ 529150.0, 7261190.0 ], [ 529153.309343022760004, 7261180.0 ], [ 529156.690656977239996, 7261170.0 ], [ 529160.0, 7261160.0 ], [ 529163.309343022760004, 7261150.0 ], [ 529166.689764766488224, 7261140.0 ], [ 529169.988825823529623, 7261130.0 ], [ 529173.222194824367762, 7261120.000000000931323 ], [ 529176.242673087399453, 7261110.0 ], [ 529178.448322394862771, 7261100.0 ], [ 529179.552016110159457, 7261090.000892210751772 ], [ 529179.912851801607758, 7261080.012066387571394 ], [ 529179.988825823529623, 7261070.099214585497975 ], [ 529179.999107789364643, 7261060.546306265518069 ], [ 529180.0, 7261052.086809693835676 ], [ 529180.0, 7261045.756988408043981 ] ] } },
{ "type": "Feature", "properties": { "id": 16, "reference_id": 6, "dune_id": 6, "dune_name": "The Star Dune", "acquisition_date": "2023-01-26", "length_m": 306.77245912998131 }, "geometry": { "type": "LineString", "coordinates": [ [ 533670.0, 7262285.756988408043981 ], [ 533670.0, 7262292.086809692904353 ], [ 533670.0, 7262300.546306265518069 ], [ 533670.0, 7262310.099214585497975 ], [ 533670.0, 7262320.012066386640072 ], [ 533669.999107789364643, 7262330.000892210751772 ], [ 533669.988825823646039, 7262340.000000000931323 ], [ 533669.912851801607758, 7262350.0 ], [ 533669.552908320911229, 7262360.0 ], [ 533668.458604360697791, 7262370.0 ], [ 533666.318647109437734, 7262380.0 ], [ 533663.583030515816063, 7262390.0 ], [ 533661.092519538942724, 7262400.0 ], [ 533658.895414073951542, 7262410.0 ], [ 533656.329821285791695, 7262420.0 ], [ 533653.233369000838138, 7262430.0 ], [ 533649.989718034281395, 7262440.0 ], [ 533646.689764766488224, 7262450.0 ], [ 533643.309343022760004, 7262460.0 ], [ 533640.000000000116415, 7262470.0 ], [ 533636.690656977239996, 7262480.0 ], [ 533633.310235233511776, 7262490.0 ], [ 533630.01028196583502, 7262500.0 ], [ 533626.766630999161862, 7262510.0 ], [ 533623.670178714208305, 7262520.0 ], [ 533621.104585925932042, 7262530.0 ], [ 533618.907480461173691, 7262539.999107789248228 ], [ 533616.416969484183937, 7262549.987933613359928 ], [ 533613.681352890795097, 7262559.900785414502025 ], [ 533611.541395639418624, 7262569.453693736344576 ], [ 533610.447091679205187, 7262577.913190307095647 ], [ 533610.087148198392242, 7262584.243011591956019 ] ] } },
{ "type": "Feature", "properties": { "id": 17, "reference_id": 6, "dune_id": 6, "dune_name": "The Star Dune", "acquisition_date": "2023-01-26", "length_m": 145.32111254148185 }, "geometry": { "type": "LineString", "coordinates": [ [ 533650.0, 7262194.243011591956019 ], [ 533650.0, 7262187.913190307095647 ], [ 533650.0, 7262179.453693735413253 ], [ 533650.0, 7262169.900785414502025 ], [ 533650.0, 7262159.987933613359928 ], [ 533650.0, 7262149.999107789248228 ], [ 533650.0, 7262140.0 ], [ 533650.0, 7262130.0 ], [ 533650.0, 7262120.0 ], [ 533650.0, 7262110.0 ], [ 533650.0, 7262100.000446105375886 ], [ 533650.0, 7262090.006479298695922 ], [ 533650.0, 7262080.055640487000346 ], [ 533650.0, 7262070.322760425508022 ], [ 533650.0, 7262061.316557979211211 ], [ 533650.0, 7262053.921899050474167 ], [ 533650.0, 7262048.921899050474167 ] ] } }
]
}
