{
"type": "FeatureCollection",
"name": "crests_2023_02_2023-02-08",
"crs": { "type": "name", "properties": { "name": "urn:ogc:def:crs:EPSG::32733" } },
"features": [
{ "type": "Feature", "properties": { "id": 0, "reference_id": 7, "dune_id": 7, "dune_name": "Inverted Y Dune", "acquisition_date": "2023-02-08", "length_m": 485.80886718033264 }, "geometry": { "type": "LineString", "coordinates": [ [ 530295.756988407694735, 7261629.552908320911229 ], [ 530302.08680969348643, 7261628.458604359999299 ], [ 530310.546306264819577, 7261626.318647108972073 ], [ 530320.099214585614391, 7261623.583030516281724 ], [ 530330.012066387105733, 7261621.092519538477063 ], [ 530340.000892210751772, 7261618.895414074882865 ], [ 530350.0, 7261616.328929075971246 ], [ 530360.0, 7261613.223087035119534 ], [ 530370.0, 7261609.912851801142097 ], [ 530380.0, 7261606.318647109903395 ], [ 530390.0, 7261602.128783075138927 ], [ 530400.0, 7261597.422340825200081 ], [ 530410.0, 7261592.478444589301944 ], [ 530420.0, 7261587.411166649311781 ], [ 530430.000000000116415, 7261582.041634876281023 ], [ 530440.0, 7261575.871555430814624 ], [ 530450.0, 7261568.371456163004041 ], [ 530460.0, 7261559.541734145022929 ], [ 530469.999107789364643, 7261549.911959590390325 ], [ 530479.988825823529623, 7261539.9888258241117 ], [ 530489.912851801607758, 7261529.999107789248228 ], [ 530499.552016110159457, 7261520.0 ], [ 530508.448322394862771, 7261510.0 ], [ 530516.242673087399453, 7261500.0 ], [ 530523.222194824367762, 7261490.0 ], [ 530529.988825823529623, 7261480.0 ], [ 530536.689764766488224, 7261470.000000000931323 ], [ 530543.309343022760004, 7261460.0 ], [ 530550.0, 7261450.0 ], [ 530556.690656977239996, 7261440.0 ], [ 530563.310235233511776, 7261430.0 ], [ 530570.011174176470377, 7261420.0 ], [ 530576.777805175632238, 7261410.0 ], [ 530583.757326912600547, 7261400.0 ], [ 530591.551677605137229, 7261390.0 ], [ 530600.447983889840543, 7261380.0 ], [ 530610.086255987756886, 7261370.000892210751772 ], [ 530619.999107789364643, 7261360.012066386640072 ], [ 530629.901677625137381, 7261350.099214585497975 ], [ 530639.453693735296838, 7261340.546306265518069 ], [ 530647.913190306629986, 7261332.086809693835676 ], [ 530654.243011592305265, 7261325.756988408043981 ] ] } },
{ "type": "Feature", "properties": { "id": 1, "reference_id": 8, "dune_id": 8, "dune_name": "Inverted Y Dune", "acquisition_date": "2023-02-08", "length_m": 93.875588566835134 }, "geometry": { "type": "LineString", "coordinates": [ [ 530475.756988407694735, 7261209.987933613359928 ], [ 530482.08680969348643, 7261209.900785414502025 ], [ 530490.546306264819577, 7261209.453693735413253 ], [ 530500.099214585497975, 7261207.913190307095647 ], [ 530510.011174176470377, 7261204.243903803639114 ], [ 530519.988825823529623, 7261197.925256693735719 ], [ 530529.900785414385609, 7261189.552908321842551 ], [ 530539.453693735296838, 7261180.447091680020094 ], [ 530547.91319030651357, 7261172.074743307195604 ], [ 530554.243011592305265, 7261165.756096197292209 ] ] } },
{ "type": "Feature", "properties": { "id": 2, "reference_id": 8, "dune_id": 8, "dune_name": "Inverted Y Dune", "acquisition_date": "2023-02-08", "length_m": 402.77330578239099 }, "geometry": { "type": "LineString", "coordinates": [ [ 530244.243011592421681, 7261232.086809693835676 ], [ 530237.91319030651357, 7261235.756988408043981 ], [ 530229.453693735180423, 7261242.086809693835676 ], [ 530219.900785414385609, 7261250.546306264586747 ], [ 530209.988825823646039, 7261260.099214585497975 ], [ 530200.01028196583502, 7261270.012066387571394 ], [ 530190.088040409144014, 7261280.000892210751772 ], [ 530180.45915806631092, 7261290.0 ], [ 530171.638825803645886, 7261300.0 ], [ 530164.20531080244109, 7261310.000000000931323 ], [ 530158.329482780885883, 7261320.0 ], [ 530153.768501089187339, 7261330.0 ], [ 530150.088040409144014, 7261340.0 ], [ 530146.701831153710373, 7261350.0 ], [ 530143.311127444263548, 7261360.0 ], [ 530140.01028196583502, 7261370.0 ], [ 530136.766630999278277, 7261380.0 ], [ 530133.670178714208305, 7261390.0 ], [ 530131.104585926048458, 7261400.0 ], [ 530128.907480461173691, 7261410.0 ], [ 530126.416969484183937, 7261420.0 ], [ 530123.680460680043325, 7261430.0 ], [ 530121.530221462948248, 7261440.0 ], [ 530120.359943480812944, 7261450.0 ], [ 530119.640056519303471, 7261460.0 ], [ 530118.470670747803524, 7261470.000000000931323 ], [ 530116.330713496543467, 7261480.0 ], [ 530113.670178714208305, 7261490.0 ], [ 530111.540503428666852, 7261500.0 ], [ 530110.447091679205187, 7261510.0 ], [ 530110.086255987756886, 7261520.0 ], [ 530110.0, 7261530.0 ], [ 530109.913744012243114, 7261539.999553894624114 ], [ 530109.552908320911229, 7261549.993520701304078 ], [ 530108.459496571333148, 7261559.944359513930976 ], [ 530106.329821285791695, 7261569.6772395754233 ], [ 530103.670178714208305, 7261578.683442020788789 ], [ 530101.540503428783268, 7261586.078100949525833 ], [ 530100.447091679205187, 7261591.078100949525833 ] ] } },
{ "type": "Feature", "properties": { "id": 3, "reference_id": 3, "dune_id": 3, "dune_name": "Big Mommy Dune", "acquisition_date": "2023-02-08", "length_m": 110.68799225394127 }, "geometry": { "type": "LineString", "coordinates": [ [ 530085.756988407694735, 7260599.912851802073419 ], [ 530092.08680969348643, 7260599.552908321842551 ], [ 530100.546306264819577, 7260598.458604360930622 ], [ 530110.099214585614391, 7260596.318647108972073 ], [ 530120.012066387222148, 7260593.583030516281724 ], [ 530130.000892210751772, 7260591.093411749228835 ], [ 530140.0, 7260588.906588250771165 ], [ 530149.999107789364643, 7260586.416969484649599 ], [ 530159.987933612894267, 7260583.681352891027927 ], [ 530169.900785414385609, 7260581.541395640000701 ], [ 530179.453693735296838, 7260580.447091679088771 ], [ 530187.91319030651357, 7260580.087148198857903 ], [ 530194.243011592421681, 7260580.0111741758883 ] ] } },
{ "type": "Feature", "properties": { "id": 4, "reference_id": 3, "dune_id": 3, "dune_name": "Big Mommy Dune", "acquisition_date": "2023-02-08", "length_m": 357.41222097906206 }, "geometry": { "type": "LineString", "coordinates": [ [ 529374.243011592305265, 7260695.756988408043981 ], [ 529367.91319030651357, 7260702.086809693835676 ], [ 529359.453693735180423, 7260710.546306265518069 ], [ 529349.901677625253797, 7260720.099214585497975 ], [ 529339.999107789364643, 7260730.012066388502717 ], [ 529330.086255987756886, 7260740.000892210751772 ], [ 529320.447983889956959, 7260750.0 ], [ 529311.551677605253644, 7260760.0 ], [ 529303.757326912600547, 7260770.0 ], [ 529296.777805175632238, 7260780.000000000931323 ], [ 529290.011174176470377, 7260790.0 ], [ 529283.311127444263548, 7260800.0 ], [ 529276.700938943075016, 7260810.0 ], [ 529270.075974022038281, 7260820.0 ], [ 529263.670178714208305, 7260830.0 ], [ 529257.794350692653097, 7260840.0 ], [ 529252.20654151821509, 7260850.0 ], [ 529246.340103251626715, 7260860.0 ], [ 529240.0, 7260870.0 ], [ 529233.659896748373285, 7260880.0 ], [ 529227.79345848178491, 7260890.0 ], [ 529222.206541518098675, 7260900.0 ], [ 529216.340103251626715, 7260910.0 ], [ 529210.000892210751772, 7260920.0 ], [ 529203.671070924843661, 7260930.0 ], [ 529197.881498890928924, 7260939.999553894624114 ], [ 529192.664807373774238, 7260949.993520701304078 ], [ 529187.968647089437582, 7260959.944359514862299 ], [ 529184.129336780519225, 7260969.6772395754233 ], [ 529181.628543837927282, 7260978.683442020788789 ], [ 529180.458265855675563, 7260986.078100949525833 ], [ 529180.088040409144014, 7260991.078100949525833 ] ] } },
{ "type": "Feature", "properties": { "id": 5, "reference_id": 3, "dune_id": 3, "dune_name": "Big Mommy Dune", "acquisition_date": "2023-02-08", "length_m": 100.57188801067427 }, "geometry": { "type": "LineString", "coordinates": [ [ 529515.75698840781115, 7260649.552908321842551 ], [ 529522.08680969348643, 7260648.459496571682394 ], [ 529530.546306264819577, 7260646.328929075971246 ], [ 529540.099214585614391, 7260643.659004538320005 ], [ 529550.012066387105733, 7260641.453355230391026 ], [ 529560.000892210751772, 7260640.0 ], [ 529569.999107789248228, 7260638.546644769608974 ], [ 529579.987933612894267, 7260636.340995462611318 ], [ 529589.900785414502025, 7260633.671070925891399 ], [ 529599.453693735180423, 7260631.540503429248929 ], [ 529607.91319030651357, 7260630.447091680020094 ], [ 529614.243011592421681, 7260630.087148198857903 ] ] } },
{ "type": "Feature", "properties": { "id": 6, "reference_id": 3, "dune_id": 3, "dune_name": "Big Mommy Dune", "acquisition_date": "2023-02-08", "length_m": 69.355252956159347 }, "geometry": { "type": "LineString", "coordinates": [ [ 529704.243011592305265, 7260620.0 ], [ 529697.91319030651357, 7260620.0 ], [ 529689.453693735296838, 7260619.999107790179551 ], [ 529679.901677625137381, 7260619.9888258241117 ], [ 529670.0, 7260619.912851802073419 ], [ 529660.098322374979034, 7260619.552908320911229 ], [ 529650.546306264819577, 7260618.459496571682394 ], [ 529642.08680969348643, 7260616.329821286723018 ], [ 529635.756988407578319, 7260613.670178715139627 ] ] } },
{ "type": "Feature", "properties": { "id": 7, "reference_id": 3, "dune_id": 3, "dune_name": "Big Mommy Dune", "acquisition_date": "2023-02-08", "length_m": 148.48602318472695 }, "geometry": { "type": "LineString", "coordinates": [ [ 529894.243011592421681, 7260610.0 ], [ 529887.91319030651357, 7260610.0 ], [ 529879.453693735180423, 7260610.0 ], [ 529869.900785414385609, 7260610.0 ], [ 529859.987933612894267, 7260610.0 ], [ 529849.999107789364643, 7260610.0 ], [ 529840.0, 7260610.0 ], [ 529830.0, 7260610.0 ], [ 529820.0, 7260610.0 ], [ 529810.0, 7260610.0 ], [ 529800.0, 7260610.0 ], [ 529790.000892210751772, 7260610.0 ], [ 529780.012066387105733, 7260610.0 ], [ 529770.099214585614391, 7260610.0 ], [ 529760.546306264819577, 7260610.0 ], [ 529752.08680969348643, 7260610.0 ], [ 529745.756988407694735, 7260610.0 ] ] } },
{ "type": "Feature", "properties": { "id": 8, "reference_id": 1, "dune_id": 1, "dune_name": "Big Mommy Dune", "acquisition_date": "2023-02-08", "length_m": 687.7666856170116 }, "geometry": { "type": "LineString", "coordinates": [ [ 528925.745814231224358, 7262184.243011591956019 ], [ 528931.998769284342416, 7262177.913190307095647 ], [ 528940.088040409144014, 7262169.453693735413253 ], [ 528948.470670747803524, 7262159.900785414502025 ], [ 528955.88362181733828, 7262149.987933613359928 ], [ 528962.043419297784567, 7262139.999107789248228 ], [ 528967.42234082473442, 7262130.0 ], [ 528972.564700577524491, 7262120.0 ], [ 528977.859150538104586, 7262110.0 ], [ 528983.593312481534667, 7262100.0 ], [ 528989.628882342833094, 7262090.0 ], [ 528995.148369127186015, 7262080.0 ], [ 528999.542626355076209, 7262070.0 ], [ 529003.146220802445896, 7262060.0 ], [ 529006.31953932007309, 7262050.0 ], [ 529008.906588250421919, 7262040.0 ], [ 529011.190841913805343, 7262030.0 ], [ 529014.118162604048848, 7262020.0 ], [ 529018.318308604415506, 7262010.0 ], [ 529023.767608878435567, 7262000.0 ], [ 529030.088040409144014, 7261990.0 ], [ 529036.701831153710373, 7261980.0 ], [ 529043.31023523339536, 7261970.0 ], [ 529050.0, 7261960.0 ], [ 529056.690656977239996, 7261950.0 ], [ 529063.309343022760004, 7261940.0 ], [ 529069.999107789364643, 7261930.0 ], [ 529076.67948280076962, 7261920.0 ], [ 529083.222194824367762, 7261910.0 ], [ 529089.551123899407685, 7261900.0 ], [ 529095.126912984997034, 7261890.0 ], [ 529099.453693735413253, 7261880.0 ], [ 529102.687062736134976, 7261870.0 ], [ 529104.679821305791847, 7261860.0 ], [ 529104.689211060875095, 7261850.0 ], [ 529102.763928968692198, 7261840.000000000931323 ], [ 529099.824811392463744, 7261830.0 ], [ 529096.306580722215585, 7261820.0 ], [ 529092.117608898319304, 7261810.0 ], [ 529087.346366802696139, 7261800.0 ], [ 529082.118501109071076, 7261790.0 ], [ 529076.318647109321319, 7261780.0 ], [ 529069.923133767326362, 7261770.0 ], [ 529063.299953267676756, 7261760.0 ], [ 529056.700938943075016, 7261750.0 ], [ 529050.088040409144014, 7261740.0 ], [ 529043.767608878435567, 7261730.000000000931323 ], [ 529038.318308604415506, 7261720.0 ], [ 529034.118162604048848, 7261710.0 ], [ 529031.1917341244407, 7261700.0 ], [ 529028.918654637644067, 7261690.0 ], [ 529026.417861694935709, 7261680.0 ], [ 529023.681352890678681, 7261670.0 ], [ 529021.541395639418624, 7261660.0 ], [ 529020.447091679205187, 7261650.0 ], [ 529020.087148198508658, 7261640.0 ], [ 529020.011174176470377, 7261630.0 ], [ 529020.000892210751772, 7261620.0 ], [ 529020.0, 7261610.000892210751772 ], [ 529020.0, 7261600.012066387571394 ], [ 529020.0, 7261590.099214585497975 ], [ 529020.0, 7261580.546306265518069 ], [ 529020.0, 7261572.086809693835676 ], [ 529020.0, 7261565.756988408043981 ] ] } },
{ "type": "Feature", "properties": { "id": 9, "reference_id": 1, "dune_id": 1, "dune_name": "Big Mommy Dune", "acquisition_date": "2023-02-08", "length_m": 445.75576717721611 }, "geometry": { "type": "LineString", "coordinates": [ [ 529179.912851801607758, 7261105.756988408043981 ], [ 529179.552016110159457, 7261112.086809692904353 ], [ 529178.448322394862771, 7261120.546306265518069 ], [ 529176.242673087399453, 7261130.099214586429298 ], [ 529173.222194824367762, 7261140.012066387571394 ], [ 529169.988825823529623, 7261150.000892210751772 ], [ 529166.688872555969283, 7261160.0 ], [ 529163.299061057041399, 7261170.0 ], [ 529159.924025978078134, 7261180.0 ], [ 529156.329821285791695, 7261190.0 ], [ 529152.205649307463318, 7261200.0 ], [ 529147.793458481901325, 7261210.000000000931323 ], [ 529143.659896748373285, 7261220.0 ], [ 529140.0, 7261230.0 ], [ 529136.340103251626715, 7261240.0 ], [ 529132.20654151821509, 7261250.0 ], [ 529127.793458481901325, 7261260.0 ], [ 529123.6598967484897, 7261270.0 ], [ 529120.000000000116415, 7261280.0 ], [ 529116.340103251626715, 7261290.0 ], [ 529112.205649307463318, 7261300.0 ], [ 529107.783176516066305, 7261310.000000000931323 ], [ 529103.583922726451419, 7261320.0 ], [ 529099.639164308551699, 7261330.0 ], [ 529095.236409536330029, 7261340.0 ], [ 529090.000892210751772, 7261350.0 ], [ 529084.773872429504991, 7261360.0 ], [ 529080.436809713370167, 7261370.0 ], [ 529076.776020754361525, 7261380.0 ], [ 529073.310235233511776, 7261390.0 ], [ 529069.924918188713491, 7261400.0 ], [ 529066.329821285791695, 7261410.0 ], [ 529062.205649307463318, 7261420.0 ], [ 529057.794350692536682, 7261430.0 ], [ 529053.671070924960077, 7261440.0 ], [ 529050.086255987756886, 7261450.0 ], [ 529046.776912964880466, 7261460.0 ], [ 529043.671070924843661, 7261470.000000000931323 ], [ 529041.104585926048458, 7261479.999107789248228 ], [ 529038.907480461057276, 7261489.987933613359928 ], [ 529036.416969484183937, 7261499.900785414502025 ], [ 529033.681352890795097, 7261509.453693735413253 ], [ 529031.54139563953504, 7261517.913190307095647 ], [ 529030.447091679205187, 7261524.243011592887342 ] ] } },
{ "type": "Feature", "properties": { "id": 10, "reference_id": 1, "dune_id": 1, "dune_name": "Big Mommy Dune", "acquisition_date": "2023-02-08", "length_m": 76.273361026106286 }, "geometry": { "type": "LineString", "coordinates": [ [ 529180.011174176470377, 7260998.921899050474167 ], [ 529180.087148198392242, 7261003.921899050474167 ], [ 529180.447091679205187, 7261011.316557979211211 ], [ 529181.540503428783268, 7261020.322760425508022 ], [ 529183.670178714208305, 7261030.054748276248574 ], [ 529186.329821285791695, 7261039.99441291205585 ], [ 529188.459496571333148, 7261049.901231519877911 ], [ 529189.552908320911229, 7261059.453693735413253 ], [ 529189.912851801607758, 7261067.913190307095647 ], [ 529189.988825823529623, 7261074.243011591956019 ] ] } },
{ "type": "Feature", "properties": { "id": 11, "reference_id": 5, "dune_id": 5, "dune_name": "The Star Dune", "acquisition_date": "2023-02-08", "length_m": 1135.7990749645626 }, "geometry": { "type": "LineString", "coordinates": [ [ 534334.789317857124843, 7261305.756988408043981 ], [ 534330.0, 7261312.086809693835676 ], [ 534325.210682142991573, 7261320.546306264586747 ], [ 534321.987595107872039, 7261330.099214585497975 ], [ 534320.534239877597429, 7261340.012066386640072 ], [ 534320.098322374862619, 7261350.000892210751772 ], [ 534320.012066387105733, 7261360.0 ], [ 534320.001784421387129, 7261370.0 ], [ 534320.011174176470377, 7261380.0 ], [ 534320.087148198392242, 7261390.0 ], [ 534320.447091679205187, 7261400.0 ], [ 534321.540503428666852, 7261410.0 ], [ 534323.670178714208305, 7261420.0 ], [ 534326.329821285791695, 7261430.0 ], [ 534328.459496571333148, 7261440.0 ], [ 534329.552908320794813, 7261450.0 ], [ 534329.912851801607758, 7261460.0 ], [ 534329.988825823529623, 7261470.000000000931323 ], [ 534329.999107789364643, 7261480.0 ], [ 534330.0, 7261490.0 ], [ 534329.999107789364643, 7261500.0 ], [ 534329.987933612894267, 7261510.0 ], [ 534329.900785414385609, 7261520.0 ], [ 534329.453693735296838, 7261530.0 ], [ 534327.91319030651357, 7261540.0 ], [ 534324.243011592421681, 7261550.0 ], [ 534317.91319030651357, 7261560.000000000931323 ], [ 534309.453693735296838, 7261569.999107789248228 ], [ 534299.900785414502025, 7261579.9888258241117 ], [ 534289.987933612894267, 7261589.912851802073419 ], [ 534279.999107789248228, 7261599.552016111090779 ], [ 534270.0, 7261608.448322394862771 ], [ 534260.0, 7261616.242673087865114 ], [ 534250.0, 7261623.222194824367762 ], [ 534240.0, 7261629.987933613359928 ], [ 534230.0, 7261636.677698379382491 ], [ 534220.0, 7261643.211912859231234 ], [ 534210.0, 7261649.476042089052498 ], [ 534200.0, 7261654.779035892337561 ], [ 534190.0, 7261658.458604359999299 ], [ 534180.0, 7261661.092519539408386 ], [ 534170.0, 7261664.018948018550873 ], [ 534160.0, 7261667.85825832746923 ], [ 534150.0, 7261672.128783075138927 ], [ 534140.0, 7261675.882729606702924 ], [ 534130.0, 7261678.373240583576262 ], [ 534120.0, 7261679.552908320911229 ], [ 534110.0, 7261679.999107789248228 ], [ 534100.0, 7261680.435917503200471 ], [ 534090.0, 7261681.539611218497157 ], [ 534080.0, 7261683.670178715139627 ], [ 534070.0, 7261686.329821286723018 ], [ 534060.0, 7261688.460388783365488 ], [ 534050.0, 7261689.564082497730851 ], [ 534040.0, 7261690.0 ], [ 534030.0, 7261690.435917503200471 ], [ 534020.0, 7261691.540503429248929 ], [ 534010.0, 7261693.681352891027927 ], [ 534000.0, 7261696.416969484649599 ], [ 533990.0, 7261698.906588250771165 ], [ 533980.0, 7261701.094303959980607 ], [ 533970.0, 7261703.594204692170024 ], [ 533960.0, 7261706.406687518581748 ], [ 533950.0, 7261708.916870215907693 ], [ 533940.0, 7261711.181452158838511 ], [ 533930.0, 7261714.041296371258795 ], [ 533920.0, 7261717.947190947830677 ], [ 533910.0, 7261722.58704893104732 ], [ 533900.0, 7261727.511273444630206 ], [ 533890.0, 7261732.500792942941189 ], [ 533880.0, 7261737.500099267810583 ], [ 533870.0, 7261742.499900732189417 ], [ 533860.0, 7261747.500099267810583 ], [ 533850.0, 7261752.500792942941189 ], [ 533840.0, 7261757.511273443698883 ], [ 533830.0, 7261762.587941141799092 ], [ 533820.0, 7261767.958365123718977 ], [ 533810.000892210635357, 7261774.128444570116699 ], [ 533800.012066387105733, 7261781.628543838858604 ], [ 533790.098322374979034, 7261790.458265855908394 ], [ 533780.535132088232785, 7261800.088040409609675 ], [ 533771.999661495094188, 7261810.011174177750945 ], [ 533765.309004517854191, 7261820.000892210751772 ], [ 533760.535132088349201, 7261830.0 ], [ 533756.78897935221903, 7261840.000000000931323 ], [ 533753.321409409982152, 7261850.0 ], [ 533750.000892210751772, 7261860.0 ], [ 533746.689764766488224, 7261870.0 ], [ 533743.299061057041399, 7261880.0 ], [ 533739.923133767442778, 7261890.0 ], [ 533736.31953932007309, 7261900.0 ], [ 533732.128783074906096, 7261910.0 ], [ 533727.42234082473442, 7261920.0 ], [ 533722.479336800519377, 7261930.0 ], [ 533717.42234082473442, 7261940.0 ], [ 533712.129675285425037, 7261950.0 ], [ 533706.329821285791695, 7261960.0 ], [ 533699.999107789364643, 7261970.0 ], [ 533693.6598967484897, 7261980.0 ], [ 533687.794350692536682, 7261989.999553894624114 ], [ 533682.217715694569051, 7261999.993520701304078 ], [ 533676.428143660770729, 7262009.944359513930976 ], [ 533670.45915806631092, 7262019.677239574491978 ], [ 533665.298722552135587, 7262028.683442020788789 ], [ 533661.998769284458831, 7262036.078100949525833 ], [ 533660.535132088232785, 7262041.078100949525833 ] ] } },
{ "type": "Feature", "properties": { "id": 12, "reference_id": 6, "dune_id": 6, "dune_name": "The Star Dune", "acquisition_date": "2023-02-08", "length_m": 855.4349022522839 }, "geometry": { "type": "LineString", "coordinates": [ [ 533658.546644769841805, 7262048.921899050474167 ], [ 533656.776912964996882, 7262053.921899050474167 ], [ 533655.210682142991573, 7262061.316557979211211 ], [ 533655.210682142991573, 7262070.322760425508022 ], [ 533656.776912964996882, 7262080.055640487000346 ], [ 533658.546644769841805, 7262090.006479298695922 ], [ 533659.56408249726519, 7262100.000446105375886 ], [ 533659.913744012243114, 7262110.0 ], [ 533659.988825823529623, 7262120.0 ], [ 533659.999107789248228, 7262130.0 ], [ 533660.0, 7262140.0 ], [ 533660.0, 7262150.0 ], [ 533660.0, 7262160.0 ], [ 533660.000892210751772, 7262170.0 ], [ 533660.011174176470377, 7262180.0 ], [ 533660.087148198392242, 7262190.0 ], [ 533660.447091679088771, 7262200.0 ], [ 533661.540503428783268, 7262210.0 ], [ 533663.671070924960077, 7262220.0 ], [ 533666.340995462378487, 7262230.0 ], [ 533668.546644769841805, 7262240.0 ], [ 533670.0, 7262250.0 ], [ 533671.453355230391026, 7262260.0 ], [ 533673.659004537737928, 7262270.0 ], [ 533676.328929075156339, 7262280.0 ], [ 533678.459496571333148, 7262290.0 ], [ 533679.552908320911229, 7262300.0 ], [ 533679.912851801607758, 7262310.0 ], [ 533679.987933612894267, 7262320.0 ], [ 533679.987933612894267, 7262330.0 ], [ 533679.912851801607758, 7262340.000000000931323 ], [ 533679.552908320911229, 7262350.0 ], [ 533678.458604360697791, 7262360.0 ], [ 533676.318647109437734, 7262370.0 ], [ 533673.583030515816063, 7262380.0 ], [ 533671.092519538942724, 7262390.0 ], [ 533668.895414073951542, 7262400.0 ], [ 533666.329821285791695, 7262410.0 ], [ 533663.234261211473495, 7262420.0 ], [ 533660.0, 7262430.0 ], [ 533656.765738788526505, 7262440.0 ], [ 533653.670178714208305, 7262450.0 ], [ 533651.103693715413101, 7262460.0 ], [ 533648.896306284703314, 7262470.0 ], [ 533646.329821285791695, 7262480.0 ], [ 533643.234261211473495, 7262490.0 ], [ 533640.000000000116415, 7262500.0 ], [ 533636.765738788526505, 7262510.0 ], [ 533633.670178714208305, 7262520.0 ], [ 533631.104585926048458, 7262530.0 ], [ 533628.906588250421919, 7262540.0 ], [ 533626.405795307713561, 7262550.0 ], [ 533623.594204692170024, 7262560.0 ], [ 533621.094303960213438, 7262570.0 ], [ 533618.906588250421919, 7262580.0 ], [ 533616.416969484183937, 7262590.0 ], [ 533613.681352890795097, 7262600.000000000931323 ], [ 533611.540503428783268, 7262610.0 ], [ 533610.43591750273481, 7262620.0 ], [ 533610.0, 7262630.0 ], [ 533609.56408249726519, 7262640.0 ], [ 533608.460388781968504, 7262650.0 ], [ 533606.329821285791695, 7262660.0 ], [ 533603.670178714208305, 7262670.0 ], [ 533601.539611218031496, 7262680.0 ], [ 533600.43591750273481, 7262690.0 ], [ 533600.0, 7262700.0 ], [ 533599.56408249726519, 7262710.0 ], [ 533598.459496571216732, 7262720.0 ], [ 533596.318647109321319, 7262730.0 ], [ 533593.583030515816063, 7262740.0 ], [ 533591.092519538942724, 7262750.0 ], [ 533588.895414073951542, 7262760.0 ], [ 533586.328929075156339, 7262770.0 ], [ 533583.223087035119534, 7262780.0 ], [ 533579.91374401235953, 7262790.0 ], [ 533576.32982128590811, 7262800.0 ], [ 533572.215931273298338, 7262810.0 ], [ 533567.870324714574963, 7262820.0 ], [ 533564.031014405656606, 7262830.0 ], [ 533561.180559947970323, 7262839.999107789248228 ], [ 533558.917762426892295, 7262849.987933613359928 ], [ 533556.417861694935709, 7262859.900785414502025 ], [ 533553.681352890795097, 7262869.453693735413253 ], [ 533551.54139563953504, 7262877.913190307095647 ], [ 533550.447091679205187, 7262884.243011591956019 ] ] } },
{ "type": "Feature", "properties": { "id": 13, "reference_id": 2, "dune_id": 2, "dune_name": "Big Mommy Dune", "acquisition_date": "2023-02-08", "length_m": 486.22961472348004 }, "geometry": { "type": "LineString", "coordinates": [ [ 528435.756988407694735, 7260664.205310802906752 ], [ 528442.08680969348643, 7260668.329482780769467 ], [ 528450.546306264819577, 7260673.768501089885831 ], [ 528460.099214585614391, 7260680.088040409609675 ], [ 528470.012066387105733, 7260686.70183115452528 ], [ 528480.000892210751772, 7260693.311127444729209 ], [ 528490.0, 7260700.010281966067851 ], [ 528500.0, 7260706.766630999743938 ], [ 528510.0, 7260713.669286504387856 ], [ 528520.0, 7260721.093411750160158 ], [ 528530.0, 7260728.820332262665033 ], [ 528540.0, 7260735.968985594809055 ], [ 528550.0, 7260742.129675285890698 ], [ 528560.0, 7260747.783176516182721 ], [ 528570.0, 7260753.659004537388682 ], [ 528580.0, 7260760.0 ], [ 528590.0, 7260766.340103251859546 ], [ 528600.0, 7260772.206541518680751 ], [ 528610.0, 7260777.793458482250571 ], [ 528620.0, 7260783.659896748140454 ], [ 528630.0, 7260789.999107789248228 ], [ 528640.0, 7260796.328929075971246 ], [ 528650.0, 7260802.119393319822848 ], [ 528660.0, 7260807.346366802230477 ], [ 528670.0, 7260812.11939332075417 ], [ 528680.0, 7260816.328929075971246 ], [ 528690.0, 7260820.0 ], [ 528700.0, 7260823.670178714208305 ], [ 528710.0, 7260827.869432504288852 ], [ 528720.0, 7260832.566484998911619 ], [ 528730.0, 7260837.433515001088381 ], [ 528740.0, 7260842.13056749664247 ], [ 528750.0, 7260846.329821285791695 ], [ 528760.0, 7260849.999107789248228 ], [ 528770.0, 7260853.659896748140454 ], [ 528780.0, 7260857.793458482250571 ], [ 528790.0, 7260862.205649307928979 ], [ 528800.0, 7260866.329821286723018 ], [ 528810.0, 7260869.924025978893042 ], [ 528819.999107789364643, 7260873.299061057157815 ], [ 528829.987933612894267, 7260876.688872556202114 ], [ 528839.900785414502025, 7260879.9888258241117 ], [ 528849.453693735296838, 7260883.222194824367762 ], [ 528857.91319030651357, 7260886.242673087865114 ], [ 528864.243011592305265, 7260888.448322394862771 ] ] } },
{ "type": "Feature", "properties": { "id": 14, "reference_id": 9, "dune_id": 9, "dune_name": "Inverted Y Dune", "acquisition_date": "2023-02-08", "length_m": 743.34891541428112 }, "geometry": { "type": "LineString", "coordinates": [ [ 529660.534239877713844, 7262194.243011591956019 ], [ 529661.988487318623811, 7262187.913190307095647 ], [ 529665.221856319345534, 7262179.453693735413253 ], [ 529670.087148198508658, 7262169.900785414502025 ], [ 529675.237301746965386, 7262159.987933613359928 ], [ 529679.564082497381605, 7262149.999107789248228 ], [ 529683.22397924575489, 7262140.0 ], [ 529686.690656977239996, 7262130.0 ], [ 529690.086255987756886, 7262120.0 ], [ 529693.75643470196519, 7262110.0 ], [ 529698.231160406023264, 7262100.0 ], [ 529703.670178714208305, 7262090.0 ], [ 529709.640056519303471, 7262080.0 ], [ 529715.160435514291748, 7262070.0 ], [ 529719.628882342716679, 7262060.0 ], [ 529723.583030515816063, 7262050.0 ], [ 529727.783176516182721, 7262040.0 ], [ 529732.205649307463318, 7262030.0 ], [ 529736.340103251626715, 7262020.0 ], [ 529740.000892210751772, 7262010.0 ], [ 529743.670178714208305, 7262000.0 ], [ 529747.869432503823191, 7261990.0 ], [ 529752.566484998911619, 7261980.0 ], [ 529757.433515001088381, 7261970.0 ], [ 529762.129675285425037, 7261960.0 ], [ 529766.31953932007309, 7261950.0 ], [ 529769.923133767442778, 7261940.0 ], [ 529773.299061056924984, 7261930.0 ], [ 529776.689764766488224, 7261920.0 ], [ 529780.0, 7261910.0 ], [ 529783.310235233511776, 7261900.0 ], [ 529786.701831153710373, 7261890.0 ], [ 529790.087148198392242, 7261880.0 ], [ 529793.757326912600547, 7261870.0 ], [ 529798.242334582377225, 7261860.0 ], [ 529803.758219123352319, 7261850.0 ], [ 529810.098322374979034, 7261840.000000000931323 ], [ 529816.78897935221903, 7261830.0 ], [ 529823.758219123352319, 7261820.0 ], [ 529831.551677605137229, 7261810.0 ], [ 529840.447983889840543, 7261800.0 ], [ 529850.087148198392242, 7261790.0 ], [ 529860.011174176470377, 7261780.0 ], [ 529870.000892210751772, 7261770.0 ], [ 529880.0, 7261760.000892210751772 ], [ 529890.0, 7261750.011174176819623 ], [ 529900.0, 7261740.087148198857903 ], [ 529910.0, 7261730.447983890771866 ], [ 529920.0, 7261721.551677605137229 ], [ 529930.0, 7261713.757326913066208 ], [ 529940.0, 7261706.777805175632238 ], [ 529950.0, 7261700.011174177750945 ], [ 529960.0, 7261693.311127444729209 ], [ 529970.0, 7261686.700938943773508 ], [ 529980.0, 7261680.075974022038281 ], [ 529990.0, 7261673.670178714208305 ], [ 530000.0, 7261667.794350693002343 ], [ 530010.0, 7261662.206541518680751 ], [ 530020.0, 7261656.340103251859546 ], [ 530030.0, 7261650.0 ], [ 530039.999107789364643, 7261643.659896749071777 ], [ 530049.987933612894267, 7261637.794350693002343 ], [ 530059.900785414502025, 7261632.217715695500374 ], [ 530069.453693735180423, 7261626.428143661469221 ], [ 530077.91319030651357, 7261620.459158066660166 ], [ 530084.243011592421681, 7261615.298722552135587 ] ] } },
{ "type": "Feature", "properties": { "id": 15, "reference_id": 4, "dune_id": 4, "dune_name": "The Star Dune", "acquisition_date": "2023-02-08", "length_m": 83.265766864826162 }, "geometry": { "type": "LineString", "coordinates": [ [ 533005.756988407694735, 7261863.75821912381798 ], [ 533012.08680969348643, 7261866.788087142631412 ], [ 533020.546306264819577, 7261870.087148198857903 ], [ 533030.099214585614391, 7261873.670178715139627 ], [ 533040.011174176470377, 7261877.783176517114043 ], [ 533049.988825823646039, 7261882.118501109071076 ], [ 533059.900785414502025, 7261885.881837395951152 ], [ 533069.453693735296838, 7261888.372348373755813 ], [ 533077.91319030651357, 7261889.541734144091606 ], [ 533084.243011592421681, 7261889.911959590390325 ] ] } }
]
}
