{
"type": "FeatureCollection",
"name": "GNSS_crest_lines",
"crs": { "type": "name", "properties": { "name": "urn:ogc:def:crs:EPSG::32733" } },
"features": [
{ "type": "Feature", "properties": { "name": "SOS1_E_crest", "num_points": 136, "length_m": 1200.5204203337876, "group": "SOS1", "direction": "E", "type": "crest" }, "geometry": { "type": "LineString", "coordinates": [ [ 533750.436319589731283, 7261839.767981443554163, 744.161373718580649 ], [ 533745.134320060024038, 7261855.619549352675676, 745.029107628517409 ], [ 533740.057601660955697, 7261871.869071312248707, 745.347754139420431 ], [ 533738.40768181940075, 7261876.405195692554116, 745.587623825521291 ], [ 533732.556089107645676, 7261894.084807516075671, 745.978941249111017 ], [ 533726.024413048406132, 7261910.253576887771487, 746.392507086041178 ], [ 533721.75014585594181, 7261920.304614474996924, 746.626702718487195 ], [ 533721.694594128988683, 7261920.344602873548865, 746.466063574863824 ], [ 533717.393411559984088, 7261930.042965792119503, 746.503002861032428 ], [ 533707.723445903975517, 7261948.905221638269722, 746.543512019548757 ], [ 533700.007828692556359, 7261962.617422625422478, 746.518979419080779 ], [ 533697.448165864916518, 7261966.992587295360863, 746.492913722666117 ], [ 533755.483694794820622, 7261827.02887508738786, 743.768213400524928 ], [ 533759.305352248484269, 7261818.333331847563386, 743.267970235505686 ], [ 533762.684701905585825, 7261811.504578212276101, 743.12984650543865 ], [ 533765.860348505317234, 7261806.439379472285509, 742.951854784776515 ], [ 533770.104332143673673, 7261800.583750605583191, 742.758016002456543 ], [ 533775.33923749672249, 7261794.861606691032648, 742.536707287246713 ], [ 533782.426478303968906, 7261787.855470960959792, 742.738268706364011 ], [ 533786.88512194424402, 7261784.22555928491056, 742.891935680107849 ], [ 533792.961089954595082, 7261779.765167895704508, 743.323707578543463 ], [ 533799.240644853911363, 7261775.662974455393851, 743.930318191134234 ], [ 533805.631672538584098, 7261771.602545311674476, 744.803893125873174 ], [ 533812.657111970009282, 7261768.104585643857718, 745.259356883567648 ], [ 533817.181198931182735, 7261765.329316209070385, 745.985463485517243 ], [ 533824.053310824325308, 7261761.548641958273947, 746.759418207619888 ], [ 533831.156807604362257, 7261757.854735533706844, 747.444541745045285 ], [ 533837.688156023272313, 7261754.399802476167679, 748.141195684989611 ], [ 533844.548047044314444, 7261750.906284932978451, 748.748311869502572 ], [ 533849.192610368714668, 7261748.587643787264824, 749.155750596437883 ], [ 533853.141075751977041, 7261746.294034450314939, 749.692819833206499 ], [ 533858.146151263616048, 7261743.737895414233208, 750.190294479570298 ], [ 533863.602128122816794, 7261741.290370160713792, 750.610555158032412 ], [ 533868.906290549784899, 7261738.673716997727752, 751.140369320005675 ], [ 533873.969266987289302, 7261736.159971265122294, 751.729342830529049 ], [ 533880.195942661724985, 7261733.429270210675895, 752.208323328021834 ], [ 533885.745983554632403, 7261730.699367927387357, 752.737420422849596 ], [ 533891.342942567076534, 7261728.208897364325821, 753.268653954308434 ], [ 533897.408812274225056, 7261725.68721826095134, 753.88434044591645 ], [ 533903.33060705428943, 7261723.364192418754101, 754.428325322789988 ], [ 533910.302668519201688, 7261720.856502376496792, 755.02946482080938 ], [ 533915.931876485119574, 7261718.757916521281004, 755.654760852843651 ], [ 533919.774123865296133, 7261717.81120859272778, 756.130688429900601 ], [ 533926.340452132862993, 7261715.757721591740847, 756.859097553019637 ], [ 533932.539139355765656, 7261713.625081251375377, 757.572793111087094 ], [ 533939.718877417733893, 7261711.385781101882458, 758.295499729503945 ], [ 533946.593179179355502, 7261709.643314938992262, 758.906598885213043 ], [ 533953.610942784580402, 7261708.11454944126308, 759.619601643766373 ], [ 533960.726101492298767, 7261706.379786021076143, 760.475584050726638 ], [ 533968.655290890717879, 7261704.585511825978756, 761.266261293651155 ], [ 533976.890589713701047, 7261702.737668580375612, 762.212870714669634 ], [ 533983.274008395150304, 7261701.523102237842977, 762.778002767593875 ], [ 533991.850511726574041, 7261699.770234418101609, 763.60670916218919 ], [ 533999.543220011750236, 7261697.981332615017891, 764.405420093853763 ], [ 534008.521696665673517, 7261696.175850208848715, 765.154738119212084 ], [ 534018.610981338424608, 7261694.403915304690599, 765.990460754881951 ], [ 534028.866682564024813, 7261692.826936785131693, 766.952201745393495 ], [ 534035.582501610624604, 7261691.894406846724451, 767.515262420585827 ], [ 534045.569445685716346, 7261690.396260914392769, 768.467980165865015 ], [ 534052.367348749772646, 7261689.510147890076041, 769.110789186816419 ], [ 534059.639735979260877, 7261688.722380146384239, 769.657191159353943 ], [ 534066.323877453687601, 7261687.695404073223472, 770.091357047012139 ], [ 534066.346238238620572, 7261687.743181824684143, 770.22334594261531 ], [ 534073.424719947623089, 7261686.494796251878142, 770.808707472996048 ], [ 534081.599450733163394, 7261685.161523318849504, 771.188433447827379 ], [ 534088.610355389886536, 7261683.244956598617136, 771.710502999163282 ], [ 534096.346569402026944, 7261681.705922849476337, 771.846548598084382 ], [ 534102.557084032450803, 7261680.19243492744863, 772.172178243400936 ], [ 534109.142632333445363, 7261678.875315287150443, 772.492767591776555 ], [ 534115.442740076570772, 7261678.06360783521086, 772.638589836159213 ], [ 534124.14562308206223, 7261676.989825973287225, 773.062315498395378 ], [ 534132.250578930252232, 7261675.937618434429169, 773.611012987484628 ], [ 534140.383254594053142, 7261675.614779511466622, 773.861762269328551 ], [ 534148.494681946351193, 7261675.138134814798832, 774.273722876143097 ], [ 534153.882038932410069, 7261675.275188399478793, 774.144003746921726 ], [ 534158.514487946638837, 7261675.274229815229774, 774.21478352024053 ], [ 534163.385334767168388, 7261674.353436890989542, 774.597724067507556 ], [ 534163.781658885651268, 7261674.067082137800753, 774.34270275607696 ], [ 534171.643409638316371, 7261670.040886715985835, 773.292287633636647 ], [ 534179.880400144145824, 7261665.22827048972249, 772.751868987410035 ], [ 534187.763097634073347, 7261660.880678748711944, 772.038333016783668 ], [ 534195.885918972664513, 7261655.821766726672649, 771.360571703300366 ], [ 534204.597790247760713, 7261650.751576657406986, 770.716595406719648 ], [ 534212.111424710368738, 7261646.464227309450507, 770.208901870287946 ], [ 534219.527022964903153, 7261642.190815913490951, 769.670473903528659 ], [ 534228.588404456502758, 7261636.80635604634881, 769.220196634883337 ], [ 534236.072030458366498, 7261632.040304436348379, 768.911428385140653 ], [ 534244.323448495357297, 7261626.642221493646502, 768.621880008707535 ], [ 534252.322747193276882, 7261621.472966933622956, 768.214411401560028 ], [ 534259.17671068070922, 7261616.525730008259416, 768.017550807626662 ], [ 534266.691669203923084, 7261611.385815204121172, 767.592557112942131 ], [ 534274.765459153801203, 7261605.356094293296337, 767.195252186706512 ], [ 534281.756111274589784, 7261599.30440709926188, 767.011878293368682 ], [ 534288.461315120337531, 7261593.92233700491488, 766.448632546201566 ], [ 534295.942567737190984, 7261588.432383237406611, 765.38591371593759 ], [ 534302.83513882686384, 7261582.463278144598007, 764.535716039717158 ], [ 534310.833652817411348, 7261575.770983174443245, 763.023693253858823 ], [ 534316.648011035867967, 7261568.58794304728508, 762.138550058851365 ], [ 534319.762652998557314, 7261560.583303793333471, 762.69810371834069 ], [ 534320.744123276439495, 7261554.712271954864264, 763.95431552510604 ], [ 534321.508908408111893, 7261549.239415030926466, 765.167488207483871 ], [ 534323.038832981139421, 7261541.709232376888394, 766.738629930334696 ], [ 534323.594453129568137, 7261536.319403141736984, 767.823415692852222 ], [ 534324.094942120253108, 7261530.554346900433302, 768.922069651046854 ], [ 534324.495365088572726, 7261523.423509249463677, 770.012793145578826 ], [ 534325.462344085448422, 7261516.869537042453885, 771.485477383438024 ], [ 534325.061381668434478, 7261509.22082307934761, 771.771400111294042 ], [ 534325.085691160173155, 7261501.538612741976976, 772.530856410679235 ], [ 534324.585625215666369, 7261493.274101410061121, 773.1415899411586 ], [ 534324.144162316108122, 7261486.518917099572718, 773.587549045034962 ], [ 534324.19341454631649, 7261486.510702254250646, 773.378609904569316 ], [ 534323.35933319281321, 7261477.960800003260374, 773.992760977888452 ], [ 534322.640087567968294, 7261470.911656362935901, 774.235868944506024 ], [ 534321.466792070306838, 7261461.737513797357678, 774.610364247848224 ], [ 534320.495003832736984, 7261452.966638090088964, 774.822153847042841 ], [ 534319.271277745836414, 7261443.002513779327273, 774.988517860865954 ], [ 534318.114168811705895, 7261434.525047496892512, 775.12179296221052 ], [ 534316.718429102678783, 7261424.244627201929688, 775.196845167865831 ], [ 534315.36611487774644, 7261415.054449496790767, 775.188875180229388 ], [ 534314.063863709452562, 7261406.390892880037427, 775.235252154070508 ], [ 534312.67841432755813, 7261396.613516164943576, 775.306850159047372 ], [ 534311.342084583593532, 7261386.360347721725702, 775.604437259318956 ], [ 534310.345288444426842, 7261377.251364400610328, 775.77185561689862 ], [ 534309.419605696690269, 7261368.128486629575491, 776.148164901222685 ], [ 534308.733759097289294, 7261360.078126110136509, 776.632040711838727 ], [ 534308.404665376991034, 7261351.387365136295557, 777.232362396023746 ], [ 534308.56933660316281, 7261343.351010045036674, 777.903473044567704 ], [ 534309.032077057869174, 7261335.772651057690382, 778.780301351115554 ], [ 534309.359469024464488, 7261328.707174025475979, 780.204691090670622 ], [ 534309.395246738684364, 7261328.729774394072592, 780.157477962198982 ], [ 534310.606828365474939, 7261324.980972599238157, 780.778456748648068 ], [ 534313.063312802813016, 7261320.731186887249351, 781.155321903787808 ], [ 534316.903171701589599, 7261315.912605027668178, 781.59832099750588 ], [ 534321.325004862272181, 7261311.805100180208683, 781.928570985860802 ], [ 534326.3326448246371, 7261307.87736519984901, 782.216564635153759 ], [ 534328.948375676292926, 7261305.918744029477239, 782.245536892283553 ] ] } },
{ "type": "Feature", "properties": { "name": "SOS1_N_CREST", "num_points": 706, "length_m": 1158.2018689497138, "group": "SOS1", "direction": "N", "type": "CREST" }, "geometry": { "type": "LineString", "coordinates": [ [ 533754.775705368840136, 7261829.101685041561723, 743.898856283985765 ], [ 533753.439350631320849, 7261829.598857413977385, 743.342731526965167 ], [ 533753.873331213137135, 7261831.366831654682755, 744.030429517526386 ], [ 533753.034146974561736, 7261833.382650153711438, 744.159167163512393 ], [ 533751.936611157376319, 7261836.469230674207211, 744.355777351031406 ], [ 533750.919817867921665, 7261839.234213901683688, 744.457531445905033 ], [ 533749.939218760002404, 7261841.925298472866416, 744.57502821513458 ], [ 533749.337038311758079, 7261842.897056640125811, 744.583637635287459 ], [ 533748.953396744909696, 7261844.602596936747432, 744.739045936869957 ], [ 533747.740838167606853, 7261847.919092489406466, 744.85903732623467 ], [ 533746.821750035625882, 7261850.757120358757675, 744.935190532029537 ], [ 533745.778210534132086, 7261853.872808961197734, 745.017289234996269 ], [ 533744.84947722335346, 7261856.46555932611227, 745.165502528349975 ], [ 533744.066446163342334, 7261858.625385503284633, 745.263930926818944 ], [ 533742.880719870561734, 7261862.072068569250405, 745.368012668997039 ], [ 533742.020499758073129, 7261865.088713590055704, 745.390709277567339 ], [ 533741.24476236407645, 7261868.089414239861071, 745.402156516518062 ], [ 533740.382487387512811, 7261871.113571412861347, 745.397349643012831 ], [ 533739.382894782931544, 7261873.931332031264901, 745.534315600977266 ], [ 533738.343159220996313, 7261876.750014220364392, 745.705332206558978 ], [ 533737.414991843514144, 7261879.521826561540365, 745.78575574926424 ], [ 533736.595896974205971, 7261882.426515641622245, 745.804301789737451 ], [ 533736.025121137150563, 7261884.440083524212241, 745.812409636102529 ], [ 533735.397414501057938, 7261886.507834061048925, 745.815929298011724 ], [ 533734.491044787690043, 7261889.159491425380111, 745.903756324136111 ], [ 533733.690312847378664, 7261891.191455950960517, 745.961743096885016 ], [ 533732.900797882932238, 7261892.143208007328212, 745.79388850969076 ], [ 533732.69145776971709, 7261893.810223396867514, 746.085483326364624 ], [ 533731.668689065147191, 7261896.531949318945408, 746.15590607063757 ], [ 533730.44571360712871, 7261899.580203669145703, 746.243242254714232 ], [ 533729.629015410901047, 7261901.616474886424839, 746.292733020232163 ], [ 533728.77293226623442, 7261903.67627458460629, 746.354696709001928 ], [ 533727.951729741296731, 7261905.647782252170146, 746.39972746299236 ], [ 533727.26446509885136, 7261907.311822962015867, 746.422099278104383 ], [ 533726.470840060967021, 7261909.200767496600747, 746.493315889032033 ], [ 533725.7046680158237, 7261911.010809453204274, 746.527673806512666 ], [ 533724.546612025238574, 7261913.647808685898781, 746.57744458193838 ], [ 533723.504658200894482, 7261916.246666060760617, 746.563984974994696 ], [ 533722.42177200759761, 7261918.758385306224227, 746.572484138080426 ], [ 533721.520388647331856, 7261920.813526180572808, 746.591452723148109 ], [ 533720.518996160244569, 7261922.889276497066021, 746.608705081579046 ], [ 533719.278764944756404, 7261925.682960217818618, 746.635965849387389 ], [ 533718.038157008588314, 7261928.607907242141664, 746.59846120818986 ], [ 533716.598349497886375, 7261931.788293844088912, 746.631674437537754 ], [ 533715.311846359632909, 7261934.31951692327857, 746.658457631376905 ], [ 533714.06256670167204, 7261936.719705171883106, 746.679341160720355 ], [ 533712.935111818136647, 7261938.995757982134819, 746.641594482324194 ], [ 533711.786223456496373, 7261941.320915814489126, 746.610902663155457 ], [ 533711.150135740637779, 7261942.553186697885394, 746.619037113183481 ], [ 533709.73637028306257, 7261945.190186573192477, 746.613163999321614 ], [ 533708.336032309336588, 7261947.799210539087653, 746.637608604524758 ], [ 533706.906045989249833, 7261950.486528776586056, 746.643625544824431 ], [ 533705.493156749173068, 7261953.06928944028914, 746.648389339604137 ], [ 533704.097609661286697, 7261955.592503500171006, 746.658169006865137 ], [ 533703.029799560667016, 7261957.451134563423693, 746.658647481136654 ], [ 533701.562218585168011, 7261960.057337156496942, 746.67752416201597 ], [ 533700.099981340346858, 7261962.519413936883211, 746.650053478017981 ], [ 533698.714076160336845, 7261964.877574108541012, 746.640950386260329 ], [ 533697.185727579402737, 7261967.545025506056845, 746.622063756372768 ], [ 533696.783313189167529, 7261967.91390105523169, 746.684630945328536 ], [ 533695.626736450009048, 7261969.991768995299935, 746.572917835428257 ], [ 533694.391479795565829, 7261971.700932737439871, 746.669320467889747 ], [ 533694.021802816074342, 7261972.439916678704321, 746.524797690907121 ], [ 533692.323080961126834, 7261975.028974143788218, 746.49751037134763 ], [ 533692.02585202571936, 7261975.450664304196835, 746.586438860040516 ], [ 533690.882854325231165, 7261977.343647940084338, 746.483503757882772 ], [ 533689.666099846013822, 7261979.034798452630639, 746.51056406268367 ], [ 533689.743057353422046, 7261979.167929355055094, 746.452094502495015 ], [ 533688.697872664663009, 7261980.762851767241955, 746.427460909430465 ], [ 533687.632029283442535, 7261982.307597694918513, 746.393578707659344 ], [ 533687.534776074811816, 7261982.591236596927047, 746.352120879807103 ], [ 533686.461364158429205, 7261984.275201495736837, 746.2948150466882 ], [ 533686.024173256475478, 7261984.698722051456571, 746.309889485671988 ], [ 533685.33071249187924, 7261985.915265176445246, 746.21462415582937 ], [ 533684.328125300700776, 7261987.211415618658066, 746.259560675447574 ], [ 533683.778356985771097, 7261988.229512351565063, 746.132914321129988 ], [ 533682.400598831358366, 7261990.126372412778437, 746.133460191161817 ], [ 533682.497258199728094, 7261990.127916749566793, 746.038840508570161 ], [ 533681.144918708479963, 7261992.101881767623127, 745.99381043637743 ], [ 533680.573381141759455, 7261992.877893676050007, 745.98630453976682 ], [ 533680.119282945757732, 7261993.796699554659426, 745.902463036875815 ], [ 533679.06588240514975, 7261995.458429679274559, 745.8100490266105 ], [ 533678.770567138446495, 7261995.690216260962188, 745.874961274235034 ], [ 533677.729955586837605, 7261997.600668890401721, 745.703532220150237 ], [ 533676.843997715506703, 7261998.786907574161887, 745.722182581671063 ], [ 533676.215168222784996, 7261999.956451946869493, 745.562634406989559 ], [ 533674.670910486252978, 7262002.39782493840903, 745.491315339191942 ], [ 533674.58036696841009, 7262002.676289893686771, 745.448026654533464 ], [ 533672.980386511888355, 7262005.31652956828475, 745.285606246993325 ], [ 533672.765217698877677, 7262005.539983604103327, 745.305303449971802 ], [ 533671.49512235482689, 7262007.827668819576502, 745.130814088304987 ], [ 533670.796749978791922, 7262008.903416794724762, 745.138172552565152 ], [ 533670.153527008718811, 7262010.119700544513762, 744.956764437743004 ], [ 533669.099092394462787, 7262011.77209965325892, 744.894364882109471 ], [ 533668.635163535713218, 7262012.870393333956599, 744.801601834998451 ], [ 533667.951235886081122, 7262013.718223230913281, 744.776929036302477 ], [ 533666.920027348096482, 7262015.715904492884874, 744.608398536422897 ], [ 533665.334127867361531, 7262018.173015705309808, 744.503852458076835 ], [ 533665.345117640332319, 7262018.368837896734476, 744.455890962779449 ], [ 533664.724235372268595, 7262019.683399621397257, 744.564741850458745 ], [ 533664.282841222826391, 7262020.205971762537956, 744.358113981409133 ], [ 533663.274097013636492, 7262021.968540033325553, 744.246286592562342 ], [ 533662.781737294048071, 7262022.621531931683421, 744.2856730312335 ], [ 533661.92405123973731, 7262024.415366915985942, 744.118166962686587 ], [ 533660.85438507294748, 7262026.387653509154916, 743.971234634952111 ], [ 533660.614696290111169, 7262026.528827750124037, 744.010552996861406 ], [ 533659.72902184294071, 7262028.446542406454682, 743.846876383939502 ], [ 533658.646408671862446, 7262030.345238095149398, 743.709277086957513 ], [ 533658.511929869302548, 7262030.381351635791361, 743.757141028762248 ], [ 533657.228347350144759, 7262032.976465908810496, 743.535619341357005 ], [ 533656.208523879293352, 7262034.610547678545117, 743.490278871186433 ], [ 533655.795844353735447, 7262035.545807580463588, 743.416062775491241 ], [ 533654.68597300327383, 7262037.638858746737242, 743.24044783492468 ], [ 533653.914067998644896, 7262038.781845338642597, 743.238325884482265 ], [ 533653.369689250714146, 7262040.029496527276933, 743.099666415542174 ], [ 533652.456699801492505, 7262042.005466938018799, 742.997495268007015 ], [ 533651.854561498970725, 7262042.91283649019897, 742.972610729687403 ], [ 533651.433657315676101, 7262044.071581836789846, 742.87008062600728 ], [ 533650.875843006768264, 7262044.986159411258996, 742.80291157834472 ], [ 533650.87765607109759, 7262044.992033290676773, 742.805870234074632 ], [ 533650.658062606118619, 7262045.817615712061524, 742.749779410884685 ], [ 533649.699073343304917, 7262048.070066215470433, 742.587743247918525 ], [ 533649.288804853218608, 7262048.739382409490645, 742.577041180629408 ], [ 533648.685909471008927, 7262050.539003428071737, 742.421296232885425 ], [ 533647.939667720114812, 7262052.253094648942351, 742.313342749696972 ], [ 533647.764148636255413, 7262053.114459091797471, 742.244803328906528 ], [ 533646.944367417600006, 7262055.708076681941748, 742.085725506130075 ], [ 533646.688612992991693, 7262056.328675469383597, 742.057713512768942 ], [ 533646.359437923296355, 7262057.832001147791743, 741.930092002782089 ], [ 533645.670676539186388, 7262060.69127353746444, 741.693194477339603 ], [ 533645.46165692131035, 7262061.335441825911403, 741.71226634198581 ], [ 533645.303307915804908, 7262062.905311333015561, 741.516874954080322 ], [ 533645.032174034276977, 7262065.133071802556515, 741.300213006274248 ], [ 533644.874455613316968, 7262066.553826526738703, 741.19191907507593 ], [ 533644.936896097380668, 7262067.009501410648227, 741.056586707581005 ], [ 533644.548550374805927, 7262067.599003911018372, 740.670299301939963 ], [ 533644.894204568117857, 7262067.745319228619337, 740.991656513985731 ], [ 533645.02219445258379, 7262069.14411604590714, 740.740261008611469 ], [ 533645.141062434064224, 7262070.221021754667163, 740.746923917142112 ], [ 533645.140649705659598, 7262070.367238780483603, 740.511346734900712 ], [ 533645.264526093844324, 7262070.563998430967331, 740.379363783336657 ], [ 533645.290944889304228, 7262070.607843590900302, 740.423692153108959 ], [ 533646.084725298685953, 7262073.3138199262321, 739.675563649235642 ], [ 533645.973794677411206, 7262073.371980046853423, 739.719879701020773 ], [ 533646.950102984905243, 7262076.084430523216724, 738.866829669261733 ], [ 533647.170064148143865, 7262077.554042219184339, 738.586356174693833 ], [ 533647.924498523934744, 7262079.724289167672396, 737.944489348043817 ], [ 533648.153648796724156, 7262082.324980040080845, 737.477503680085306 ], [ 533648.536270765587687, 7262083.316585908643901, 737.252902117049075 ], [ 533648.961721709114499, 7262087.260938568040729, 736.570018528536821 ], [ 533648.849023309187032, 7262087.692060448229313, 736.471857994369657 ], [ 533649.289361228817143, 7262090.968483144417405, 735.883296977812506 ], [ 533649.295845047105104, 7262092.654890865087509, 735.630488007940698 ], [ 533649.632027176907286, 7262094.646196810528636, 735.218493092384278 ], [ 533649.723805083427578, 7262097.551399885676801, 734.649532197933581 ], [ 533649.960604096995667, 7262098.748872800730169, 734.442191027439662 ], [ 533650.042489424813539, 7262102.286394156515598, 733.826668421861314 ], [ 533650.227110109408386, 7262102.729448726400733, 733.719455652806914 ], [ 533650.406260137329809, 7262106.811769138090312, 732.999595671292695 ], [ 533650.293694924563169, 7262108.113622173666954, 732.755748113694153 ], [ 533650.589792677899823, 7262110.564493066631258, 732.29509387278199 ], [ 533650.60020899772644, 7262112.152425118722022, 731.974575336074963 ], [ 533650.829278074088506, 7262114.107566211372614, 731.672278764754651 ], [ 533651.000003697001375, 7262116.867454757913947, 731.100381071224319 ], [ 533650.864257504348643, 7262117.002360694110394, 731.099225650255789 ], [ 533651.145127720199525, 7262120.571427289396524, 730.396864581081445 ], [ 533651.034816365106963, 7262121.080996865406632, 730.293564393546035 ], [ 533651.336997511214577, 7262124.437414884567261, 729.653627749892166 ], [ 533651.218214918510057, 7262125.190884251147509, 729.549751604760559 ], [ 533651.428674834547564, 7262127.171850621700287, 729.17663235573923 ], [ 533651.348746795440093, 7262129.744273504242301, 728.694869904841539 ], [ 533651.529132581315935, 7262130.971047850325704, 728.44838144540438 ], [ 533651.619190725497901, 7262134.722262541763484, 727.762338157148179 ], [ 533651.505322633543983, 7262135.439150774851441, 727.573190125265 ], [ 533651.729980296920985, 7262138.070148127153516, 727.215577254580012 ], [ 533651.573741797823459, 7262139.483708745799959, 726.936785245116766 ], [ 533651.66149219381623, 7262141.63971209153533, 726.572919459732248 ], [ 533651.565689479466528, 7262144.25646979175508, 726.086303357301063 ], [ 533651.667476038914174, 7262145.137129480019212, 725.979647281509301 ], [ 533651.752623622654937, 7262148.805860821157694, 725.342301552735421 ], [ 533651.645073955296539, 7262150.386057781986892, 725.054650783121588 ], [ 533651.849490010528825, 7262152.137971763499081, 724.715503444582964 ], [ 533651.919903235975653, 7262155.831954864785075, 724.021561513738561 ], [ 533651.778296712320298, 7262156.50281388964504, 723.837553192909013 ], [ 533651.968105404055677, 7262159.823546048253775, 723.338622946848886 ], [ 533651.830112579162233, 7262161.23339869081974, 723.123800865839485 ], [ 533652.004634705022909, 7262163.209883127361536, 722.796492348720221 ], [ 533651.921047272742726, 7262165.977198580279946, 722.410090746735477 ], [ 533652.035017110873014, 7262166.404095524922013, 722.306006727019962 ], [ 533652.13160450803116, 7262169.765387156046927, 721.787722742076085 ], [ 533651.99482995539438, 7262170.067007430829108, 721.735878906775497 ], [ 533652.191749806632288, 7262172.894240093417466, 721.294378932971085 ], [ 533652.194077417254448, 7262175.706849601119757, 720.805949176667809 ], [ 533652.351285131881014, 7262176.185212580487132, 720.815636487239885 ], [ 533652.496028146706522, 7262179.46804772131145, 720.319725479238969 ], [ 533652.499047785415314, 7262180.913389690220356, 720.110586074913158 ], [ 533652.664543422870338, 7262181.956441789865494, 719.971305909566922 ], [ 533652.83298225235194, 7262184.518439363688231, 719.593396708317186 ], [ 533652.916389307938516, 7262186.277419428341091, 719.271133947025419 ], [ 533653.041822048136964, 7262187.204582674428821, 719.216427920623801 ], [ 533653.392191584920511, 7262190.625874625518918, 718.755359853422078 ], [ 533653.309159232769161, 7262190.853547015227377, 718.681150036653207 ], [ 533653.667253911145963, 7262194.252943584695458, 718.231350725882066 ], [ 533653.773541301838122, 7262195.909864939749241, 717.98014099745626 ], [ 533654.062917837523855, 7262197.990053782239556, 717.734015794595507 ], [ 533654.105086334631778, 7262199.022278854623437, 717.552416346525433 ], [ 533654.434030136559159, 7262200.906852966174483, 717.377526611002054 ], [ 533654.513727978570387, 7262202.20179089717567, 717.193908333936747 ], [ 533653.760042092879303, 7262202.444292610511184, 716.543858642020041 ], [ 533654.807824041694403, 7262204.918543355539441, 716.832046260737911 ], [ 533655.036395139759406, 7262206.804039240814745, 716.624082878978925 ], [ 533655.380076446104795, 7262209.465605211444199, 716.301406951423814 ], [ 533655.27094819478225, 7262209.670754179358482, 716.157766594051964 ], [ 533655.834868090460077, 7262213.25981754437089, 715.838234647675904 ], [ 533655.875473135150969, 7262214.077200641855597, 715.656450691478881 ], [ 533656.332536198198795, 7262216.850331006571651, 715.413255214134551 ], [ 533656.502187971142121, 7262218.817541980184615, 715.202192955454166 ], [ 533656.772062144242227, 7262220.385989295318723, 714.959635374934578 ], [ 533657.2038028833922, 7262224.069372633472085, 714.497030070286769 ], [ 533657.203975899843499, 7262224.07231012545526, 714.49584543246317 ], [ 533657.310989530174993, 7262224.297147260978818, 714.525023660324337 ], [ 533657.457377816317603, 7262228.102907188236713, 714.004697341673591 ], [ 533657.814260843442753, 7262228.226079342886806, 713.954805554544691 ], [ 533658.525396894197911, 7262231.905920955352485, 713.644477807080648 ], [ 533658.453092216164805, 7262232.128527123481035, 713.582696566913569 ], [ 533659.129839894012548, 7262235.659312384203076, 713.163749483654897 ], [ 533659.250872830511071, 7262236.229228097945452, 713.084818553320588 ], [ 533659.918271064292639, 7262240.261965497396886, 712.587809741187471 ], [ 533659.939703420270234, 7262240.735745909623802, 712.498020594942318 ], [ 533660.670837005600333, 7262244.402619002386928, 712.098391452109809 ], [ 533660.713173053925857, 7262245.084869941696525, 712.004739723068838 ], [ 533661.463557414710522, 7262248.908992603421211, 711.607163965413974 ], [ 533661.544919047271833, 7262249.809516698122025, 711.52876587401056 ], [ 533662.163438991410658, 7262252.601583556272089, 711.23400439417378 ], [ 533662.395115695893764, 7262254.058129177428782, 711.013438218177612 ], [ 533662.966784104472026, 7262256.56304132938385, 710.731208950430641 ], [ 533663.37778170814272, 7262258.921714123338461, 710.396961304997262 ], [ 533663.728366973809898, 7262260.101369965821505, 710.280065634255493 ], [ 533664.209826270816848, 7262262.973454657942057, 709.842092292302937 ], [ 533664.491850079852156, 7262263.75889147259295, 709.804621899932272 ], [ 533665.224978022626601, 7262267.745154525153339, 709.315181000445136 ], [ 533665.164556195726618, 7262267.839588273316622, 709.276905887780117 ], [ 533666.026448169955984, 7262271.784258099272847, 708.787759051971761 ], [ 533666.244041308760643, 7262273.491243680939078, 708.586228764050702 ], [ 533666.562939243973233, 7262274.673859683796763, 708.396600284316719 ], [ 533666.992795791011304, 7262277.166322148405015, 708.028955941402955 ], [ 533667.040449515683576, 7262278.20497677475214, 707.863194574040676 ], [ 533667.538745709811337, 7262280.094585966318846, 707.617867676168544 ], [ 533667.863755323458463, 7262282.547188971191645, 707.152849288778725 ], [ 533668.100170234800316, 7262283.594718059524894, 707.041306746653277 ], [ 533668.617739839013666, 7262286.804241204634309, 706.546478616306217 ], [ 533668.756903411238454, 7262287.302797949872911, 706.459758729756686 ], [ 533669.158071912126616, 7262290.200093431398273, 705.991763034227688 ], [ 533669.390684637241066, 7262290.969222038984299, 705.919691531401213 ], [ 533669.748909170273691, 7262294.071273446083069, 705.366500974358701 ], [ 533669.942931972793303, 7262294.818083312362432, 705.240637546992389 ], [ 533670.348336636205204, 7262297.494587845169008, 704.770119029152738 ], [ 533670.448514156509191, 7262298.900437422096729, 704.483800220657145 ], [ 533670.764141779858619, 7262300.461767296306789, 704.237677731206077 ], [ 533671.044817815884016, 7262303.292032942175865, 703.668480245829414 ], [ 533671.051553849829361, 7262303.297136287204921, 703.654941582363449 ], [ 533671.064865113352425, 7262303.349099315702915, 703.662033433737179 ], [ 533671.410221676807851, 7262306.025738943368196, 703.172723443155633 ], [ 533671.394620736595243, 7262307.315880933776498, 702.859753054604198 ], [ 533671.642023049877025, 7262309.261804349720478, 702.592240294998192 ], [ 533671.714399859658442, 7262311.031370149925351, 702.195130231416101 ], [ 533671.931645662989467, 7262312.290451286360621, 701.983020531391617 ], [ 533671.987304245354608, 7262314.875932939350605, 701.505132655846865 ], [ 533672.140681787161157, 7262315.164969271048903, 701.400236560269605 ], [ 533672.166859347722493, 7262318.015751454047859, 700.802190960495295 ], [ 533672.219483696506359, 7262318.448609583079815, 700.725840400703419 ], [ 533672.359696622705087, 7262321.159453177824616, 700.225487476440321 ], [ 533672.281624927418306, 7262322.301444106735289, 699.93952077561255 ], [ 533672.439001917140558, 7262323.913001676090062, 699.71240742307134 ], [ 533672.369973541470245, 7262326.307788454927504, 699.19022968518118 ], [ 533672.449137022485957, 7262326.686314515769482, 699.130836118069851 ], [ 533672.557700301520526, 7262329.580388400703669, 698.582661010186143 ], [ 533672.410082884947769, 7262329.728123707696795, 698.518502559536046 ], [ 533672.571032069856301, 7262332.472544713877141, 697.945402454788336 ], [ 533672.485783952986822, 7262334.19720137771219, 697.570915205883693 ], [ 533672.556434300844558, 7262336.139927688986063, 697.186007961888436 ], [ 533672.406664567766711, 7262338.423996198922396, 696.748780803954332 ], [ 533672.497404513414949, 7262339.565212008543313, 696.484143764664736 ], [ 533672.34925141162239, 7262341.846774963662028, 695.9822663234022 ], [ 533672.414779047016054, 7262342.505621280521154, 695.903415002782367 ], [ 533672.14057424699422, 7262345.298461811617017, 695.168761843870016 ], [ 533672.153023567399941, 7262346.66833714582026, 694.971716645279798 ], [ 533671.877606780733913, 7262348.710641231387854, 694.524175528680189 ], [ 533671.780765981064178, 7262350.102650312706828, 694.267552082877387 ], [ 533671.407319882884622, 7262352.833764880895615, 693.670600196780128 ], [ 533671.380992946913466, 7262353.631474371999502, 693.484732640709581 ], [ 533670.980153533630073, 7262357.020757708698511, 692.74911805961608 ], [ 533670.909886042354628, 7262357.049217656254768, 692.678113693540695 ], [ 533670.600497888401151, 7262360.199966043233871, 692.066417902989201 ], [ 533670.443843466578983, 7262361.052707710303366, 691.805862920346613 ], [ 533670.371773601626046, 7262362.571706665679812, 691.11847601044326 ], [ 533670.080388449016027, 7262364.186216188594699, 691.1456907635677 ], [ 533669.855497632175684, 7262366.182247480377555, 690.25739086425051 ], [ 533669.590841666678898, 7262367.626651950180531, 690.398148154062255 ], [ 533669.307176532689482, 7262370.098609544336796, 689.376127478658532 ], [ 533668.965242622187361, 7262371.188295852392912, 689.583479105445122 ], [ 533668.692604956799187, 7262373.930329575203359, 688.558709074635544 ], [ 533668.317286128993146, 7262374.536161935888231, 688.809765257665276 ], [ 533668.046393667464145, 7262377.020446070469916, 687.868543868846245 ], [ 533667.642524457070976, 7262378.254621629603207, 687.908688735094643 ], [ 533667.275441325386055, 7262381.119550572708249, 686.893302004618818 ], [ 533667.008698522928171, 7262381.435783123597503, 687.171719032721398 ], [ 533666.466094189672731, 7262384.327112110331655, 686.151624010514638 ], [ 533666.132258058409207, 7262385.325060395523906, 686.350702136190989 ], [ 533665.627326564397663, 7262388.164837546646595, 685.246944384153721 ], [ 533665.34289360162802, 7262388.293159270659089, 685.628503626845713 ], [ 533665.066666805418208, 7262389.799762966111302, 684.850040454366876 ], [ 533664.682872286532074, 7262391.346672454848886, 684.924553947859749 ], [ 533664.626877525472082, 7262392.125626162625849, 684.433250788511259 ], [ 533663.856020458042622, 7262394.641551751643419, 683.743571273613838 ], [ 533663.849941089632921, 7262394.642199890688062, 684.222869099441596 ], [ 533663.085742449038662, 7262397.927848810330033, 683.093475614440081 ], [ 533662.939539063372649, 7262398.114587490446866, 683.40547142638718 ], [ 533662.195356217911467, 7262401.142922229133546, 682.297102727975357 ], [ 533662.067964690737426, 7262401.22274075075984, 682.655908110779365 ], [ 533661.286072467686608, 7262404.417714925482869, 681.572517129127277 ], [ 533660.864703646744601, 7262405.664414413273335, 681.672036326890861 ], [ 533660.197488206787966, 7262409.110773395746946, 680.562317202206827 ], [ 533659.699910253169946, 7262410.320945279672742, 680.666786548173377 ], [ 533659.536172789055854, 7262410.910603366792202, 679.99388201266504 ], [ 533659.04833849996794, 7262412.516105452552438, 680.112727033716624 ], [ 533659.012590199359693, 7262413.184149609878659, 679.689104936274703 ], [ 533658.474554427317344, 7262415.2449841350317, 679.187066157687127 ], [ 533658.152610026998445, 7262415.826858663931489, 679.381820925752436 ], [ 533657.777215953217819, 7262417.490409404970706, 678.560261251863494 ], [ 533657.250244572060183, 7262419.183277887292206, 678.579919587457084 ], [ 533656.782341871643439, 7262421.437860934063792, 677.735477588190975 ], [ 533656.269450700259767, 7262422.586707564070821, 677.840980971211138 ], [ 533656.069717421894893, 7262423.98785956390202, 677.142258523091186 ], [ 533655.14544195367489, 7262426.613500183448195, 676.486021004831855 ], [ 533654.933726315503009, 7262426.837888484820724, 676.839007441568128 ], [ 533654.276358642615378, 7262429.530913640744984, 675.902003239464307 ], [ 533653.943546150578186, 7262429.970614030957222, 676.154428238301762 ], [ 533653.262207412160933, 7262432.401954621076584, 675.195376329528813 ], [ 533652.964636732474901, 7262433.131593339145184, 675.471538753681784 ], [ 533652.341502005816437, 7262435.146723734214902, 674.608438145389982 ], [ 533651.790132457390428, 7262436.831336388364434, 674.615133302672234 ], [ 533651.919313360122032, 7262436.895344844087958, 674.308173027118187 ], [ 533651.358598931343295, 7262438.813887035474181, 673.870848380824896 ], [ 533650.971911452827044, 7262439.423736188560724, 674.053903359317133 ], [ 533650.49832984758541, 7262441.725729640573263, 673.255112663372984 ], [ 533649.980320915929042, 7262442.832408710382879, 673.365097432077278 ], [ 533649.650619900552556, 7262444.611289970576763, 672.542449107610082 ], [ 533649.086189714609645, 7262446.048942629247904, 672.628877673143847 ], [ 533648.849892246653326, 7262447.465688491240144, 672.03319415863848 ], [ 533648.078484837547876, 7262449.538158133625984, 671.898368531203914 ], [ 533648.163957217475399, 7262449.648812046274543, 671.523084381870035 ], [ 533647.479913993971422, 7262452.008951385505497, 670.943838097845628 ], [ 533646.900784353376366, 7262453.440783460624516, 671.0913854946009 ], [ 533646.693794976919889, 7262454.618337825872004, 670.497316361354706 ], [ 533646.134922842145897, 7262455.9583920231089, 670.572977675371021 ], [ 533645.999208996654488, 7262457.265626104548573, 669.993411842617434 ], [ 533645.155057214316912, 7262459.365694387815893, 669.860818205164492 ], [ 533645.261002761078998, 7262459.518471802584827, 669.467750824202767 ], [ 533644.601589106721804, 7262461.854298978112638, 668.991153608956211 ], [ 533644.309302632929757, 7262462.612738698720932, 669.151603302937588 ], [ 533643.9231193063315, 7262464.230732392519712, 668.361788377800622 ], [ 533643.25095280224923, 7262466.174556255340576, 668.36224584803324 ], [ 533643.340180381201208, 7262466.521809032186866, 667.975359704416178 ], [ 533642.612442100420594, 7262469.036913528107107, 667.400665497776231 ], [ 533642.285145505564287, 7262469.494656185619533, 667.599654814457722 ], [ 533641.814751057419926, 7262471.577737607061863, 666.792194431309895 ], [ 533640.98809096578043, 7262473.543164825066924, 666.72167137961344 ], [ 533640.970866548013873, 7262474.111852057278156, 666.189154422443266 ], [ 533639.982381890411489, 7262476.395499672740698, 666.076701633168 ], [ 533640.116091521573253, 7262476.509787583723664, 665.633151666040931 ], [ 533639.436963381012902, 7262477.817696454003453, 665.779146909886776 ], [ 533639.040606142021716, 7262478.603491448797286, 665.264311595294544 ], [ 533639.040396864409558, 7262478.604644051752985, 665.273599015305081 ], [ 533639.425636223750189, 7262478.748246317729354, 665.22323582732929 ], [ 533638.848227730952203, 7262479.890587142668664, 665.299390913167485 ], [ 533638.34187141736038, 7262481.107855278998613, 665.053763065771818 ], [ 533637.664112440543249, 7262483.287120763212442, 664.45010137961242 ], [ 533637.602142082643695, 7262483.796913648024201, 664.495005438999442 ], [ 533637.564815498190001, 7262483.840095484629273, 664.472670836197381 ], [ 533636.787702046567574, 7262486.157911138609052, 664.020594917378276 ], [ 533636.267423554789275, 7262487.922652510926127, 663.604303181085925 ], [ 533635.936534679029137, 7262488.919205421581864, 663.389995388603324 ], [ 533635.33509300777223, 7262490.836228588595986, 662.94068709749115 ], [ 533634.991984723019414, 7262492.089385120198131, 662.742082337876468 ], [ 533634.478045684169047, 7262493.670981250703335, 662.338194679038679 ], [ 533633.659695466049016, 7262496.166362716816366, 661.887203020560037 ], [ 533633.56142103811726, 7262496.60911569558084, 661.784841547465021 ], [ 533632.93566673877649, 7262498.599756099283695, 661.352714820356255 ], [ 533632.481077163014561, 7262500.296926928684115, 661.002706196288955 ], [ 533632.220014870516025, 7262500.933796716853976, 660.799962717331368 ], [ 533631.595054615871049, 7262502.985395685769618, 660.414274061261608 ], [ 533631.259089876664802, 7262504.367285192012787, 660.148490286101037 ], [ 533630.912345771212131, 7262505.249591363593936, 659.92927911058996 ], [ 533630.076858942629769, 7262507.834432190284133, 659.343427775136888 ], [ 533629.986379284993745, 7262508.146540257148445, 659.442341009232905 ], [ 533629.452153990627266, 7262509.826479773968458, 658.887771680953506 ], [ 533628.807028700015508, 7262511.731095302850008, 658.510963428122182 ], [ 533628.831817418104038, 7262512.137092680670321, 658.53720129828605 ], [ 533628.20888148562517, 7262513.851486626081169, 658.154427215790065 ], [ 533627.783365735900588, 7262515.383387997746468, 657.826255205936263 ], [ 533627.532894183765166, 7262516.055988496169448, 657.57325067842487 ], [ 533626.995811016182415, 7262517.71044410020113, 657.195879980474274 ], [ 533626.842498962767422, 7262518.760135913267732, 657.144249162933079 ], [ 533626.550520281074569, 7262519.308048513717949, 656.972670111565435 ], [ 533625.902755948947743, 7262521.787882616743445, 656.404635027437962 ], [ 533625.82459583459422, 7262522.145674198865891, 656.453435729040052 ], [ 533625.175712680793367, 7262524.30614763405174, 655.916104773607344 ], [ 533624.938580697053112, 7262525.306023123674095, 655.837768688038409 ], [ 533624.488702594768256, 7262526.627955825999379, 655.599679754821523 ], [ 533623.919945973437279, 7262528.725999420508742, 655.169505518124197 ], [ 533623.892818987951614, 7262528.827854564413428, 655.086276998855055 ], [ 533622.965834462083876, 7262531.81513961777091, 654.474844274279121 ], [ 533622.777717075077817, 7262532.636653398163617, 654.425813255160165 ], [ 533622.504421845194884, 7262533.531378595158458, 654.196665907707484 ], [ 533622.162369227153249, 7262535.100445412099361, 653.953446753451885 ], [ 533622.087218470638618, 7262535.313017390668392, 653.965525904174456 ], [ 533621.603791919304058, 7262537.152954928576946, 653.524534776562746 ], [ 533621.039236148237251, 7262539.152952305972576, 653.140714046922312 ], [ 533620.958874094998464, 7262539.625503279268742, 653.113749533762871 ], [ 533620.544352311873809, 7262540.945545902475715, 652.837721524661561 ], [ 533620.157535681733862, 7262542.416004875674844, 652.493695008941017 ], [ 533619.986514293588698, 7262543.124120080843568, 652.4311945202885 ], [ 533619.651898544514552, 7262544.346289215609431, 652.047082412104601 ], [ 533619.1672123814933, 7262546.322879493236542, 651.736023833538752 ], [ 533618.800387780065648, 7262547.549882281571627, 651.553923987312146 ], [ 533618.302041769959033, 7262548.997592460364103, 651.264137250608997 ], [ 533617.819847180740908, 7262551.025888781994581, 650.752849833749679 ], [ 533617.818564398679882, 7262551.556653667241335, 650.739138147856238 ], [ 533617.441569542861544, 7262552.694429188966751, 650.347206753524119 ], [ 533616.760349734919146, 7262555.435035380534828, 649.878309454936129 ], [ 533616.53071883728262, 7262556.729436656460166, 649.68791752908669 ], [ 533616.173849373240955, 7262557.973849730566144, 649.400139060350511 ], [ 533615.699490608880296, 7262560.213660434819758, 649.055325856636728 ], [ 533615.611671760911122, 7262560.386777460575104, 648.868855705471105 ], [ 533614.971372385160066, 7262563.077784392982721, 648.389902953929436 ], [ 533614.739161733421497, 7262564.098713532090187, 648.319280838550071 ], [ 533614.354259602725506, 7262565.649166909977794, 647.973495388024958 ], [ 533613.91120839829091, 7262567.560661750845611, 647.619370066248052 ], [ 533613.661439106334001, 7262568.716642947867513, 647.485704023602011 ], [ 533613.470817365217954, 7262569.383682219311595, 647.220181417687968 ], [ 533612.676100624958053, 7262571.346629858016968, 646.903443883382351 ], [ 533613.004224280361086, 7262571.755328617058694, 646.911502045562543 ], [ 533612.036479018861428, 7262572.554302338510752, 646.188503158311732 ], [ 533612.586117233498953, 7262573.380605063401163, 646.503521905616935 ], [ 533612.111169281881303, 7262575.463911682367325, 646.148392419852939 ], [ 533612.102536576217972, 7262575.802173083648086, 646.113915166799302 ], [ 533611.716383679187857, 7262577.575856601819396, 645.760859323102864 ], [ 533611.438716846634634, 7262579.011937541887164, 645.542010373569042 ], [ 533611.269681711331941, 7262579.887745773419738, 645.438240026891549 ], [ 533610.806169486255385, 7262581.930689050816, 645.048615117363511 ], [ 533610.867533166194335, 7262581.949606545269489, 645.024337337753536 ], [ 533610.308850184781477, 7262584.358434412628412, 644.62747264073198 ], [ 533609.999370681587607, 7262586.022736635990441, 644.310997434460091 ], [ 533609.854410062544048, 7262586.480919852852821, 644.231625486675739 ], [ 533609.466097027994692, 7262588.399684731848538, 643.933605320554989 ], [ 533609.181891587097198, 7262590.173888988792896, 643.653861714248251 ], [ 533609.018882705830038, 7262590.729506928473711, 643.531165920576996 ], [ 533608.579008619533852, 7262593.246317186392844, 643.00939139575371 ], [ 533608.463416945654899, 7262594.025649485178292, 642.968683431305976 ], [ 533608.215735052712262, 7262595.019104655832052, 642.758861870639407 ], [ 533607.855311816674657, 7262596.953989073634148, 642.369464128375853 ], [ 533607.677039437345229, 7262598.111079588532448, 642.190830457785523 ], [ 533607.384839945822023, 7262599.360808851197362, 641.974398365303841 ], [ 533606.937251359224319, 7262601.818895930424333, 641.501787070104911 ], [ 533607.011569706257433, 7262601.906110605224967, 641.525770095319444 ], [ 533606.559529341524467, 7262604.022788304835558, 641.139854114197078 ], [ 533606.455388808739372, 7262605.310104746371508, 640.939096528282789 ], [ 533606.308020095922984, 7262605.775500318035483, 640.783026450355692 ], [ 533605.909765743883327, 7262608.232681696303189, 640.360840180644345 ], [ 533605.875442335964181, 7262609.15408974327147, 640.278103867521963 ], [ 533605.607423369772732, 7262610.074891947209835, 640.073477320228449 ], [ 533605.313788624713197, 7262612.291837399825454, 639.644541251525311 ], [ 533605.071801809943281, 7262614.140723314136267, 639.322109514561134 ], [ 533604.935582676203921, 7262614.727690555155277, 639.136889272583744 ], [ 533604.517750135855749, 7262617.094543053768575, 638.699753735441504 ], [ 533604.455917562823743, 7262617.969583328813314, 638.583825748188474 ], [ 533604.219837391749024, 7262619.32216577604413, 638.313663845983797 ], [ 533603.959920406457968, 7262620.834515069611371, 638.060523472562863 ], [ 533603.709588918020017, 7262620.916917001828551, 637.789883414795554 ], [ 533603.830404608859681, 7262622.262057721614838, 637.790579751721339 ], [ 533603.650494891218841, 7262622.89531522244215, 637.601366958978247 ], [ 533603.382201818283647, 7262624.9258201867342, 637.276427248327195 ], [ 533603.364090365590528, 7262625.486249465495348, 637.132730242574894 ], [ 533603.158376206411049, 7262626.690417046658695, 636.982971519974967 ], [ 533602.929140940192156, 7262628.34794219955802, 636.61472688055369 ], [ 533602.633215713198297, 7262630.522437138482928, 636.199756026122145 ], [ 533602.565076686325483, 7262630.712745116092265, 636.221283035749252 ], [ 533602.300733824959025, 7262632.480479606427252, 635.844949971066967 ], [ 533601.965887784957886, 7262634.866587422788143, 635.320731207696895 ], [ 533601.99408107472118, 7262635.255471392534673, 635.266843949313056 ], [ 533601.644839636748657, 7262637.12847176194191, 634.911632166948039 ], [ 533601.422558148857206, 7262639.606688620522618, 634.38918307981146 ], [ 533601.343817487824708, 7262639.863441720604897, 634.372109670433019 ], [ 533601.137224505888298, 7262642.022238722071052, 633.906173223005339 ], [ 533600.878186689224094, 7262644.419435397721827, 633.399202340225088 ], [ 533600.824199949507602, 7262645.015073552727699, 633.329475981302494 ], [ 533600.496410970692523, 7262648.094761362299323, 632.678090398407107 ], [ 533600.332998538156971, 7262649.532634269446135, 632.448407074428133 ], [ 533600.34241808752995, 7262649.569815495982766, 632.416661638851679 ], [ 533599.97299215150997, 7262652.18414696957916, 631.913775025963673 ], [ 533599.027789344079792, 7262653.273674486204982, 631.882079110570771 ], [ 533599.772811895236373, 7262654.548651842400432, 631.45113698919954 ], [ 533599.515610733884387, 7262657.02341809310019, 630.936746684342666 ], [ 533599.291898562340066, 7262659.143680377863348, 630.430056636290828 ], [ 533599.243045875686221, 7262659.416490534320474, 630.424530086842537 ], [ 533599.071108361938968, 7262661.099072681739926, 630.075436935946641 ], [ 533599.001547863474116, 7262662.443145983852446, 629.833426500773044 ], [ 533598.761852854397148, 7262664.406877690926194, 629.480650101425908 ], [ 533598.759676894289441, 7262664.70052282512188, 629.326235993619548 ], [ 533598.53787556453608, 7262666.759743221104145, 628.939743492210937 ], [ 533598.321403330308385, 7262668.498944524675608, 628.54452572256173 ], [ 533598.026769053307362, 7262671.416060594841838, 627.892709253029693 ], [ 533597.87316210148856, 7262673.224833232350647, 627.549645982684183 ], [ 533597.717692814418115, 7262674.2809455730021, 627.268564911257045 ], [ 533597.509131935774349, 7262676.303425931371748, 626.893457283866042 ], [ 533597.438616940635256, 7262677.997780162841082, 626.477120937697691 ], [ 533597.322736185975373, 7262678.361965667456388, 626.406452996766575 ], [ 533597.112356239580549, 7262680.60051136277616, 625.87833067087422 ], [ 533596.923675531055778, 7262682.046740560792387, 625.634415816270234 ], [ 533596.758942480897531, 7262683.412167980335653, 625.391540887583346 ], [ 533596.767894721473567, 7262684.21063095703721, 625.143817519845129 ], [ 533596.551999841467477, 7262685.268479384481907, 624.969718224690496 ], [ 533596.293843128834851, 7262687.877358503639698, 624.331213275442337 ], [ 533596.218843860202469, 7262688.775185216218233, 624.172651274638497 ], [ 533596.088340140064247, 7262689.802493086084723, 623.952081799224175 ], [ 533595.865081910509616, 7262692.759410839527845, 623.362770915532678 ], [ 533595.722975946497172, 7262693.802584927529097, 623.035005582118174 ], [ 533595.602793185855262, 7262694.428192948922515, 622.946523477582332 ], [ 533595.360552702797577, 7262696.844864960759878, 622.395302089397205 ], [ 533595.098272720002569, 7262699.146423330530524, 621.950757012327472 ], [ 533595.159424038138241, 7262699.28767872415483, 621.896702324284433 ], [ 533594.79587680392433, 7262701.597031820565462, 621.422180775478409 ], [ 533594.536068745190278, 7262703.610801579430699, 621.027716832380179 ], [ 533594.539477222599089, 7262704.285474736243486, 620.884419848692232 ], [ 533594.351773941423744, 7262705.28430703189224, 620.677415503607904 ], [ 533594.115541402134113, 7262707.131614860147238, 620.264500849530009 ], [ 533593.913640492595732, 7262708.881505722180009, 619.958506639102438 ], [ 533593.915626456029713, 7262708.913032208569348, 619.891918938784443 ], [ 533593.686767988954671, 7262710.585242850705981, 619.49711167538328 ], [ 533593.482089790864848, 7262712.32073581404984, 619.169715135253455 ], [ 533593.494601639336906, 7262713.396243788301945, 618.956736048953985 ], [ 533593.337915057898499, 7262713.969484463334084, 618.813480510973704 ], [ 533593.132542541949078, 7262716.158263918012381, 618.313309262955272 ], [ 533592.891464485903271, 7262718.294403146952391, 617.846075789325482 ], [ 533592.820437159040011, 7262719.861721765249968, 617.477787699536066 ], [ 533592.64103008271195, 7262720.512597749009728, 617.294119140140424 ], [ 533592.511628510081209, 7262722.92166212759912, 616.736539190866438 ], [ 533592.350000742590055, 7262724.625369872897863, 616.384122721572112 ], [ 533592.306489937473089, 7262726.364282559603453, 615.877637405122073 ], [ 533592.266302462317981, 7262726.652565357275307, 615.828883372288146 ], [ 533592.109960992704146, 7262728.890171692706645, 615.258668788796967 ], [ 533592.0743465682026, 7262728.924474196508527, 615.222156511683352 ], [ 533591.986963247647509, 7262731.362607194110751, 614.664687955917771 ], [ 533591.832532792002894, 7262732.547409677878022, 614.286897459880606 ], [ 533591.799183034920134, 7262733.216620855033398, 614.10108501362231 ], [ 533591.584276261273772, 7262736.08124141767621, 613.279498054470878 ], [ 533591.492603805614635, 7262736.653161182999611, 613.231097515075135 ], [ 533591.220952858799137, 7262739.21807546634227, 612.502394851306576 ], [ 533591.225336658651941, 7262739.227258939296007, 612.500902691309079 ], [ 533591.056961890892126, 7262740.444193536415696, 612.268439777315621 ], [ 533590.866130731534213, 7262741.225673906505108, 612.018673582592555 ], [ 533590.573549277964048, 7262743.612408827990294, 611.419197332881254 ], [ 533590.355145465931855, 7262745.170286890119314, 611.04801226865402 ], [ 533590.286239474546164, 7262745.623440071940422, 610.95916282839039 ], [ 533590.254485699348152, 7262745.701923176646233, 610.928850389001127 ], [ 533590.08965854474809, 7262747.598155344836414, 610.349404122635519 ], [ 533589.691631379420869, 7262749.774252884089947, 609.760578243613281 ], [ 533589.659548765397631, 7262749.936444532126188, 609.839130024293468 ], [ 533589.356146012665704, 7262752.265632761642337, 609.155264031073671 ], [ 533589.0195820229128, 7262754.105011406354606, 608.761516905375402 ], [ 533588.883324212976731, 7262754.571608079597354, 608.592483619297923 ], [ 533588.578993709990755, 7262756.493506759405136, 608.177911397267508 ], [ 533588.496192349586636, 7262757.201295898295939, 607.998147082582477 ], [ 533588.253875184804201, 7262758.2776765730232, 607.71648971811851 ], [ 533587.833675209083594, 7262760.623924775980413, 607.219964786999981 ], [ 533587.790797316352837, 7262761.202750939875841, 607.000948235076748 ], [ 533587.334945477894507, 7262763.106672442518175, 606.588243979261961 ], [ 533586.868920660577714, 7262765.043271685019135, 606.050536772110831 ], [ 533586.854411698295735, 7262765.221816212870181, 606.074628300218478 ], [ 533586.370529517298564, 7262767.120489630848169, 605.563423076769936 ], [ 533585.889314086991362, 7262769.141868016682565, 605.149130219728022 ], [ 533585.777647329261526, 7262769.666047859936953, 604.945197362951603 ], [ 533585.126100529101677, 7262772.127984905615449, 604.408328755060097 ], [ 533584.744284034240991, 7262773.606177171692252, 604.10388077058019 ], [ 533584.097210819483735, 7262774.259959853254259, 603.867986582305321 ], [ 533584.421360350912437, 7262774.729513354599476, 603.822396451008103 ], [ 533583.753125821589492, 7262777.198094645515084, 603.299195755679648 ], [ 533583.626558830030262, 7262777.796420955099165, 603.122211894365705 ], [ 533583.064724341500551, 7262780.07035360019654, 602.613342953368601 ], [ 533582.731222033500671, 7262781.664788717404008, 602.247401639659188 ], [ 533582.436315947910771, 7262782.256059621460736, 602.079331163730785 ], [ 533581.842204580898397, 7262784.841955387033522, 601.411127408577954 ], [ 533581.203901673550718, 7262787.013584831729531, 600.855905256570964 ], [ 533581.231297116377391, 7262787.134831394068897, 600.886614323499543 ], [ 533580.70454551151488, 7262788.902857917360961, 600.372693867488465 ], [ 533580.248576596030034, 7262790.866242283955216, 599.885768139156653 ], [ 533580.042945571243763, 7262791.90265597961843, 599.690761904345891 ], [ 533579.67979271709919, 7262793.131944793276489, 599.357590546750657 ], [ 533579.019681707490236, 7262795.609149805270135, 598.717425267378076 ], [ 533579.054215287440456, 7262795.684256886132061, 598.733918623156342 ], [ 533578.178855607286096, 7262798.233807945623994, 598.028249172532924 ], [ 533577.698860113392584, 7262799.863308077678084, 597.674916506304612 ], [ 533577.371933860355057, 7262800.805968360975385, 597.448748171302441 ], [ 533576.743138500954956, 7262802.866381866857409, 596.948379518295155 ], [ 533576.349991680122912, 7262804.197427011094987, 596.676696535501492 ], [ 533576.088641441194341, 7262805.011574063450098, 596.436041147380024 ], [ 533575.474639261141419, 7262806.809264602139592, 596.010325923827509 ], [ 533574.932136456482112, 7262808.67776783183217, 595.581690875331674 ], [ 533574.761692425236106, 7262808.838120921514928, 595.595374815091532 ], [ 533573.909436242771335, 7262811.83323871716857, 594.852809356900934 ], [ 533573.595527668716386, 7262812.660117974504828, 594.698022170970603 ], [ 533573.068332006107084, 7262814.199661919847131, 594.299111846012124 ], [ 533572.565553550841287, 7262815.904210532084107, 593.911054209901295 ], [ 533572.078151635592803, 7262817.343379642814398, 593.636538955129026 ], [ 533571.192411540076137, 7262819.909703309647739, 593.055500216697169 ], [ 533571.064487291732803, 7262820.33789031393826, 592.943790252822964 ], [ 533570.135334674851038, 7262823.19141336157918, 592.380971230952241 ], [ 533569.993352729361504, 7262823.660331934690475, 592.204588172811327 ], [ 533569.155271402560174, 7262825.710920246317983, 591.83000868560714 ], [ 533568.556493595126085, 7262827.632315778173506, 591.295636265089001 ], [ 533568.378097748267464, 7262828.374067703261971, 591.142227715130389 ], [ 533567.640545006841421, 7262830.230850204825401, 590.728136368443074 ], [ 533565.713113112258725, 7262831.795081211254001, 590.12321948604199 ], [ 533566.940988467773423, 7262832.182459253817797, 590.256494257860709 ], [ 533566.819656955660321, 7262832.477766631171107, 590.193940318430123 ], [ 533565.943897302029654, 7262834.936636241152883, 589.565198064983178 ], [ 533565.691513493773527, 7262835.944511719048023, 589.385916476517536 ], [ 533565.059105416643433, 7262837.419624602422118, 588.966125172990587 ], [ 533564.526825834182091, 7262839.199099991470575, 588.62084593209795 ], [ 533564.27747339697089, 7262840.115780993364751, 588.363790999544449 ], [ 533563.495511851389892, 7262842.281031182035804, 587.864474689733811 ], [ 533563.394448379985988, 7262842.760803086683154, 587.777882535554113 ], [ 533562.803088985849172, 7262844.329958071000874, 587.400058139215275 ], [ 533562.213523667887785, 7262846.263678785413504, 586.958729163626231 ], [ 533562.098955703317188, 7262846.558432921767235, 586.84064215573926 ], [ 533561.543707853415981, 7262848.337013744749129, 586.36872088384996 ], [ 533561.094446697970852, 7262850.012519184499979, 585.988362878892531 ], [ 533560.971520008286461, 7262850.135310180485249, 585.98232875039389 ], [ 533560.316553197219037, 7262852.313592610880733, 585.505750676777325 ], [ 533559.915489293285646, 7262853.978852193802595, 585.027353575997722 ], [ 533559.695242736139335, 7262854.672833072021604, 584.891817664180508 ], [ 533558.934570349403657, 7262856.951163753867149, 584.384693693951704 ], [ 533558.732856858870946, 7262857.868782436475158, 584.064861952117781 ], [ 533558.202428031945601, 7262859.62287075445056, 583.687275430208388 ], [ 533557.493564534932375, 7262861.820787217468023, 583.181967890127794 ], [ 533557.578404085128568, 7262862.045488206669688, 583.070996675123524 ], [ 533557.030656599090435, 7262863.886622628197074, 582.579483669987439 ], [ 533556.358079527388327, 7262866.334934961982071, 581.999502102524502 ], [ 533556.393043510382995, 7262866.520154404453933, 581.946907716336455 ], [ 533555.762821341049857, 7262868.506113167852163, 581.464480045922073 ], [ 533555.359000345459208, 7262870.225217369385064, 581.074998887441893 ], [ 533555.045584202511236, 7262871.333935029804707, 580.727656423945859 ], [ 533554.307349449023604, 7262873.909337022341788, 580.178613254446987 ], [ 533554.428245197050273, 7262873.955510528758168, 580.119808122583095 ], [ 533553.79122217989061, 7262876.044292652979493, 579.627289157631935 ], [ 533553.532902903156355, 7262877.298456283286214, 579.324858419911493 ], [ 533553.157300590770319, 7262878.45547935180366, 579.00573516958741 ], [ 533552.654057306004688, 7262880.765809834003448, 578.478120246391882 ], [ 533552.538898120168597, 7262880.77081994805485, 578.493824857224354 ], [ 533552.03740001283586, 7262882.960682747885585, 577.973969481130666 ], [ 533551.768909137346782, 7262884.445727329701185, 577.59699450975927 ], [ 533551.456354444846511, 7262885.230099904350936, 577.40909558271062 ], [ 533550.959404067951255, 7262887.595385458320379, 576.900980796834688 ], [ 533550.761946523212828, 7262888.84457874391228, 576.61238717559263 ], [ 533550.325625515310094, 7262890.4048254461959, 576.298590917010415 ], [ 533549.997426666668616, 7262892.161389896646142, 575.842820312624326 ], [ 533549.695818129810505, 7262893.04689684510231, 575.652025766373981 ], [ 533549.193619254278019, 7262895.532764719799161, 575.091015893274061 ], [ 533549.323804916697554, 7262895.536605326458812, 575.027089370653925 ], [ 533548.703230620711111, 7262897.700310807675123, 574.5714086432165 ], [ 533548.646359909558669, 7262898.959620256908238, 574.278457071076332 ], [ 533548.223617770592682, 7262900.062483889050782, 574.010372425813443 ], [ 533547.708466171636246, 7262902.365190928801894, 573.510928770814303 ], [ 533547.778468912933022, 7262902.726982016116381, 573.410848366542837 ], [ 533547.198364044190384, 7262904.666420247405767, 573.013454509028293 ], [ 533547.012787827639841, 7262906.356040608137846, 572.623478339667145 ], [ 533546.715021571028046, 7262906.689167791046202, 572.564400412749137 ], [ 533546.231745168217458, 7262908.73386163637042, 572.160012719429687 ], [ 533546.230304761324078, 7262909.552989337593317, 571.90590381355878 ], [ 533545.92577308579348, 7262910.441033236682415, 571.711099785242368 ], [ 533545.284389092121273, 7262912.577650276944041, 571.26291368371767 ], [ 533545.426764880656265, 7262912.981296055018902, 571.181783683438539 ], [ 533544.787314065848477, 7262914.84228827804327, 570.811993991140298 ], [ 533544.068274937919341, 7262917.335277539677918, 570.359910653895781 ], [ 533543.756436031544581, 7262917.749438790604472, 570.276559857988218 ], [ 533543.744147895253263, 7262917.762277108617127, 570.273966616849748 ], [ 533542.811669127084315, 7262920.592411188408732, 569.877387774373801 ], [ 533542.870090860757045, 7262920.764608999714255, 569.892975000381171 ], [ 533542.118110111448914, 7262922.385246153920889, 569.687025026957485 ], [ 533541.757276888005435, 7262923.640803787857294, 569.640009320037279 ], [ 533541.652960810344666, 7262923.656913984566927, 569.586711581151008 ], [ 533541.489858444780111, 7262924.405157227069139, 569.471658247569508 ], [ 533541.121713532600552, 7262926.04089829325676, 569.289686819214126 ], [ 533540.803526143892668, 7262927.223827546462417, 569.248709101219447 ], [ 533540.73246024211403, 7262927.739825842902064, 569.046987710020971 ], [ 533540.519400879275054, 7262928.684745205566287, 569.031931109530433 ], [ 533540.251009504660033, 7262929.169847218319774, 568.941050246816758 ], [ 533540.205269079771824, 7262929.27789930254221, 568.869097658023975 ], [ 533539.910351580940187, 7262930.244942141696811, 568.797428851374093 ], [ 533539.886486354167573, 7262930.29826926253736, 568.799219298414187 ], [ 533539.574881531530991, 7262931.160848688334227, 568.701065444911933 ], [ 533539.584019469795749, 7262931.166454317048192, 568.68186689647348 ], [ 533539.300786701380275, 7262931.67386469617486, 568.733213837129142 ], [ 533539.177297659451142, 7262931.999508799985051, 568.638649910554363 ], [ 533539.339549691299908, 7262932.022849993780255, 568.709661246758174 ] ] } },
{ "type": "Feature", "properties": { "name": "SOS1_W_CREST", "num_points": 369, "length_m": 687.65985054232169, "group": "SOS1", "direction": "W", "type": "CREST" }, "geometry": { "type": "LineString", "coordinates": [ [ 532995.225032143178396, 7261872.079857254400849, 658.008231274141508 ], [ 532997.084167099557817, 7261872.567661853507161, 658.096021834938256 ], [ 533000.509905738756061, 7261873.359083987772465, 658.253303825539774 ], [ 533003.27390167536214, 7261873.921666236594319, 658.444043018021262 ], [ 533004.326632841606624, 7261874.149780285544693, 658.311816763858019 ], [ 533005.976090399781242, 7261874.526418449357152, 658.622561817914516 ], [ 533008.29410692374222, 7261875.005155758932233, 658.767525216445847 ], [ 533010.66108485404402, 7261875.388516042381525, 658.923968433830169 ], [ 533012.955363677931018, 7261875.854595014825463, 659.087275364235097 ], [ 533015.047138976748101, 7261876.283459635451436, 659.272777387264114 ], [ 533016.817965099937283, 7261876.634805390611291, 659.361995167810733 ], [ 533020.723636688897386, 7261877.427119451574981, 659.596606257438452 ], [ 533024.289913526270539, 7261878.234182953834534, 659.82684211027788 ], [ 533027.739993959083222, 7261878.931971625424922, 660.05348803924835 ], [ 533031.856742969481274, 7261879.80594920180738, 660.317088231906155 ], [ 533034.642405827762559, 7261880.346966531127691, 660.506465243117304 ], [ 533036.893195363692939, 7261880.788022797554731, 660.632253588499225 ], [ 533040.205217792652547, 7261881.466313492506742, 660.846254055572444 ], [ 533043.705777275608853, 7261882.192684337496758, 661.102309045682773 ], [ 533046.628919170703739, 7261882.820739829912782, 661.277212076597493 ], [ 533049.503160001477227, 7261883.395392892882228, 661.479429362511723 ], [ 533054.221177391009405, 7261884.423922887071967, 661.794594062067972 ], [ 533058.066486413357779, 7261885.223625801503658, 662.040771740043283 ], [ 533062.993102404638194, 7261886.25722, 662.382818114442216 ], [ 533066.663369835820049, 7261887.040722701698542, 662.644211746682004 ], [ 533071.030594678479247, 7261887.982193972915411, 662.935594020150006 ], [ 533074.530245518079028, 7261888.801636040210724, 663.190241622186818 ], [ 533076.057088206522167, 7261889.136626943014562, 663.290862607342888 ], [ 533079.48217690247111, 7261889.898155374452472, 663.508105871625162 ], [ 533082.880893755936995, 7261890.682770479470491, 663.755103865640876 ], [ 533085.38079841947183, 7261891.220119627192616, 663.976647018494873 ], [ 533087.996390626067296, 7261891.734870264306664, 664.069759710259518 ], [ 533088.459106370806694, 7261891.837380767799914, 664.242150976815992 ], [ 533090.802691331715323, 7261892.310726627707481, 664.32067161776547 ], [ 533093.975683718337677, 7261892.983949088491499, 664.605645126191916 ], [ 533097.730037589441054, 7261893.715701131150126, 664.952863260681511 ], [ 533102.488833590177819, 7261894.659138927236199, 665.369346789956921 ], [ 533105.665783886797726, 7261895.271983867511153, 665.646457189192802 ], [ 533109.066224853275344, 7261895.972598142921925, 665.919071256488905 ], [ 533112.250568606075831, 7261896.651659406721592, 666.202294169306697 ], [ 533115.109135474544019, 7261897.242005210369825, 666.420716251564954 ], [ 533118.641701215296052, 7261898.036875845864415, 666.643741675791262 ], [ 533122.016956578358077, 7261898.826749287545681, 666.861139697162002 ], [ 533125.456092167296447, 7261899.639420226216316, 667.152159970282582 ], [ 533127.767877957317978, 7261900.22302926518023, 667.303492968172691 ], [ 533129.998478837544098, 7261900.789367793127894, 667.431522357370795 ], [ 533133.321040720911697, 7261901.637004539370537, 667.65956521083865 ], [ 533136.341304971720092, 7261902.41264911647886, 667.938178131311815 ], [ 533138.936513036140241, 7261903.158598823472857, 667.964325284548636 ], [ 533141.429170172195882, 7261903.889305091463029, 668.11229359973288 ], [ 533143.598309166962281, 7261904.521076248958707, 668.172402182538008 ], [ 533146.732463594293222, 7261905.427209695801139, 668.317935939017389 ], [ 533149.765024730237201, 7261906.374256916344166, 668.465549378317178 ], [ 533151.325731189921498, 7261906.88817622885108, 668.517679456685755 ], [ 533154.443250821903348, 7261907.897166485898197, 668.602257989759096 ], [ 533157.649639016366564, 7261908.920781191438437, 668.74299586050347 ], [ 533160.767030021059327, 7261909.90145568549633, 668.830679448916271 ], [ 533162.724619843182154, 7261910.574083937332034, 668.825326003513169 ], [ 533165.531743693049066, 7261911.477385237812996, 668.90787635736433 ], [ 533167.904244073783047, 7261912.269954551011324, 668.990419621081855 ], [ 533170.841026031994261, 7261913.264726843684912, 669.048566837929911 ], [ 533173.564859467791393, 7261914.172007959336042, 669.099409108913619 ], [ 533176.146159592084587, 7261915.119323302060366, 669.166899628383703 ], [ 533179.318893538438715, 7261916.284573000855744, 669.268508530633312 ], [ 533182.650324848247692, 7261917.450469357892871, 669.31968310993534 ], [ 533186.101349422940984, 7261918.694904206320643, 669.344728519562295 ], [ 533189.989695480442606, 7261920.078778974711895, 669.407327834750959 ], [ 533193.771436652750708, 7261921.423236854374409, 669.543110688555089 ], [ 533197.239846103359014, 7261922.466832572594285, 669.694112822500415 ], [ 533198.683562052086927, 7261922.790367473848164, 669.792888675380595 ], [ 533201.090763990301639, 7261923.462354646995664, 669.964466047829319 ], [ 533202.543006141902879, 7261923.70320357568562, 670.126463395429596 ], [ 533205.773569119977765, 7261924.424461212009192, 670.447192422327134 ], [ 533205.910003820084967, 7261924.586958127096295, 670.432674740762764 ], [ 533208.655094868503511, 7261925.054959231987596, 670.734070991949807 ], [ 533209.512418875703588, 7261925.401689195074141, 670.79002791998073 ], [ 533212.433977222302929, 7261925.963364629074931, 671.078477392756781 ], [ 533214.066450375365093, 7261926.440627552568913, 671.240693412948758 ], [ 533216.174825766473077, 7261926.844762789085507, 671.428330073774077 ], [ 533218.638331692083739, 7261927.506702035665512, 671.67960520750637 ], [ 533219.256162039586343, 7261927.555435201153159, 671.693683157700434 ], [ 533222.569892901461571, 7261928.317960584536195, 672.030990398885024 ], [ 533223.342899073264562, 7261928.614577380940318, 672.118679830274914 ], [ 533225.937171668861993, 7261929.182442645542324, 672.383199811953432 ], [ 533228.271630022441968, 7261929.83200887683779, 672.589555982910952 ], [ 533228.415730996173806, 7261929.74728221911937, 672.598585579529413 ], [ 533230.858109687338583, 7261930.336925061419606, 672.822754051059519 ], [ 533232.363180059706792, 7261930.831175399944186, 672.95412379364177 ], [ 533233.33912195940502, 7261930.98908419907093, 673.076962517479842 ], [ 533236.756206064485013, 7261931.938237195834517, 673.343312688694027 ], [ 533237.056252303998917, 7261931.919427988119423, 673.38746949424592 ], [ 533240.364919185056351, 7261932.848058363422751, 673.69222665178745 ], [ 533240.913958726567216, 7261932.881618480198085, 673.717066125126166 ], [ 533243.898251363541931, 7261933.757364638149738, 673.9850300385541 ], [ 533244.452796552330256, 7261933.838007007725537, 674.006677399205842 ], [ 533247.65094540535938, 7261934.758562751114368, 674.326675132875152 ], [ 533247.795977725414559, 7261934.717796901240945, 674.31395454073845 ], [ 533250.886690670391545, 7261935.630177639424801, 674.844690305670838 ], [ 533251.03835315851029, 7261935.643218839541078, 674.577359956457826 ], [ 533253.923760159872472, 7261936.396400412544608, 674.812582029136934 ], [ 533254.077054579858668, 7261936.521684505045414, 674.823582820705042 ], [ 533257.667862138478085, 7261937.597831320017576, 675.037314778201903 ], [ 533258.227887041401118, 7261937.842649574391544, 675.027067678153571 ], [ 533261.286636778502725, 7261938.750764656811953, 675.243295561366494 ], [ 533261.913469602237456, 7261939.021667340770364, 675.224502985353865 ], [ 533265.071612528874539, 7261940.115586459636688, 675.388155606657278 ], [ 533265.364383260603063, 7261940.141976417973638, 675.439612920549393 ], [ 533268.670405358541757, 7261941.280043907463551, 675.555915704933 ], [ 533269.450773479533382, 7261941.59117859788239, 675.57092171112015 ], [ 533272.275239489972591, 7261942.522247184067965, 675.739775299383155 ], [ 533273.72690731252078, 7261943.104828711599112, 675.809164511997892 ], [ 533275.977884420659393, 7261943.816443607211113, 675.912013058368871 ], [ 533278.247209239285439, 7261944.57094716001302, 676.036489026574372 ], [ 533279.486179830739275, 7261944.891377865336835, 676.166126986276709 ], [ 533282.701682123821229, 7261945.919296579435468, 676.353495026467272 ], [ 533282.967229330446571, 7261945.898684121668339, 676.442723694454457 ], [ 533287.228266668040305, 7261947.190212476067245, 676.77769195900828 ], [ 533287.413378442404792, 7261947.169356422498822, 676.81003821565605 ], [ 533291.116580560104921, 7261948.247182761318982, 677.120960827630029 ], [ 533291.359616133966483, 7261948.387871922925115, 677.146974999405074 ], [ 533293.514505767147057, 7261948.911727605387568, 677.304306608438992 ], [ 533295.917871118173935, 7261949.721750528551638, 677.503795192946882 ], [ 533296.727771838312037, 7261949.870275193825364, 677.581614207432949 ], [ 533299.412419473286718, 7261950.786622041836381, 677.787979195411708 ], [ 533299.891321084578522, 7261950.852882793173194, 677.835557287107463 ], [ 533302.669724216335453, 7261951.70267765969038, 678.028853710606086 ], [ 533304.019058899139054, 7261952.196037450805306, 678.141413438340237 ], [ 533305.117774373502471, 7261952.503712562844157, 678.232368099289488 ], [ 533306.788980407174677, 7261953.107809785753489, 678.361146781321509 ], [ 533307.942355558276176, 7261953.43654553219676, 678.407200120593075 ], [ 533308.317702041822486, 7261953.489273142069578, 678.43941390235841 ], [ 533311.082243392593227, 7261954.372085718438029, 678.615272648393557 ], [ 533311.80075995833613, 7261954.630898451432586, 678.646212156096112 ], [ 533314.385255841072649, 7261955.419951437041163, 678.866745975544859 ], [ 533317.03208411228843, 7261956.330853991210461, 679.015111753599854 ], [ 533317.245701308711432, 7261956.337720816023648, 679.026339143495989 ], [ 533319.324348938534968, 7261957.067175647243857, 679.187901157532224 ], [ 533321.449930779868737, 7261957.752667615190148, 679.389097423968906 ], [ 533321.56945563305635, 7261957.693374715745449, 679.356048203478736 ], [ 533324.042083509964868, 7261958.536896467208862, 679.537990746037849 ], [ 533325.960794192738831, 7261959.224617056548595, 679.722909546934375 ], [ 533326.787705864058807, 7261959.436432976275682, 679.774438080232017 ], [ 533329.717564594000578, 7261960.30498745944351, 679.984822172821737 ], [ 533330.551945445826277, 7261960.663553727790713, 680.058415177995812 ], [ 533332.092534225666896, 7261961.016325167380273, 680.212581594703465 ], [ 533334.748432194581255, 7261961.777161493897438, 680.471056899162022 ], [ 533336.05123207194265, 7261962.238641653209925, 680.592189789593476 ], [ 533337.815027119126171, 7261962.588617563247681, 680.753652326232213 ], [ 533340.589409888023511, 7261963.285611815750599, 681.135492002261344 ], [ 533340.893964866409078, 7261963.426399403251708, 681.167957499754039 ], [ 533343.923622396425344, 7261964.060157926753163, 681.533724887574181 ], [ 533345.507080965675414, 7261964.52777011692524, 681.693207885881748 ], [ 533347.622910430887714, 7261964.935067633166909, 681.959000941868226 ], [ 533350.194695920334198, 7261965.575514431111515, 682.259785659911813 ], [ 533351.365001309663057, 7261965.74159992672503, 682.43087696564271 ], [ 533354.714887747308239, 7261966.649365819990635, 682.856403819291927 ], [ 533354.866385598201305, 7261966.596404008567333, 682.879805371840234 ], [ 533357.867613968090154, 7261967.278024889528751, 683.201768133838186 ], [ 533360.15939841826912, 7261967.954074119217694, 683.484167297184854 ], [ 533361.68482817907352, 7261968.204414669424295, 683.653531835635022 ], [ 533364.884706332930364, 7261969.00334751419723, 684.038005293932997 ], [ 533365.773118086974137, 7261969.225806440226734, 684.125844944597702 ], [ 533365.891895203967579, 7261969.32953095715493, 684.103378670223378 ], [ 533369.306657768553123, 7261970.133627876639366, 684.51512615457716 ], [ 533372.828615930862725, 7261971.222695874981582, 684.902767945838491 ], [ 533373.12122699234169, 7261971.222857967950404, 684.866230340957259 ], [ 533376.378925390657969, 7261972.185623370110989, 685.191157461922671 ], [ 533377.291083016432822, 7261972.54874337092042, 685.304330436083092 ], [ 533379.870403958600946, 7261973.236677285283804, 685.566048178069082 ], [ 533381.625804834649898, 7261973.872584335505962, 685.663450603612887 ], [ 533383.193205375922844, 7261974.34500951692462, 685.767397971705009 ], [ 533385.9485026007751, 7261975.290925040841103, 686.045940366123432 ], [ 533386.460942335776053, 7261975.386857623234391, 686.059777003865179 ], [ 533389.355164104839787, 7261976.31034751329571, 686.334365369292755 ], [ 533390.234645772143267, 7261976.660952714271843, 686.464171417464172 ], [ 533392.25173078791704, 7261977.1517064711079, 686.70865013847606 ], [ 533394.276005283463746, 7261977.807467853650451, 686.880620250539323 ], [ 533394.856064765714109, 7261977.895948460325599, 686.943274400573159 ], [ 533397.862908485927619, 7261978.710557488724589, 687.262744873076826 ], [ 533398.864435900235549, 7261979.081210614182055, 687.400547074170618 ], [ 533400.880703775794245, 7261979.533413726836443, 687.627472459524256 ], [ 533403.053736626636237, 7261980.174173885025084, 687.915166477853177 ], [ 533404.015142651391216, 7261980.348549235612154, 688.048036181159318 ], [ 533407.177771236165427, 7261981.197837963700294, 688.439521637579901 ], [ 533407.626473214942962, 7261981.357247183099389, 688.501277470240439 ], [ 533410.112601028173231, 7261981.987461183220148, 688.725984041785637 ], [ 533412.204751457669772, 7261982.660528076812625, 689.008687124364201 ], [ 533412.99785693269223, 7261982.841488992795348, 689.112787340535533 ], [ 533416.035267864586785, 7261983.826453847810626, 689.418803102952779 ], [ 533416.455602068337612, 7261984.027723392471671, 689.431935836119806 ], [ 533418.504888084949926, 7261984.635255725122988, 689.680609188806443 ], [ 533419.421815145178698, 7261984.970890011638403, 689.77396252131507 ], [ 533421.378631805418991, 7261985.566972360946238, 689.95977452813338 ], [ 533423.06741541181691, 7261986.215555683709681, 690.130709627386977 ], [ 533424.009846493951045, 7261986.496880606748164, 690.233913684272238 ], [ 533424.079992164974101, 7261986.677012361586094, 690.960255884819162 ], [ 533426.913338060141541, 7261987.521476723253727, 690.525712653314486 ], [ 533426.936419497011229, 7261987.554325038567185, 690.517595274727796 ], [ 533428.743241834687069, 7261988.107568711973727, 690.671510107212839 ], [ 533430.597015971899964, 7261988.835350904613733, 690.853825360968585 ], [ 533430.734730246127583, 7261988.817231627181172, 690.882676042866137 ], [ 533433.053031288553029, 7261989.659152413718402, 691.095198378585792 ], [ 533434.108521896414459, 7261990.071603756397963, 691.198413763097733 ], [ 533435.867818899219856, 7261990.640695459209383, 691.40883958763493 ], [ 533437.707403741544113, 7261991.372092032805085, 691.550452888797963 ], [ 533438.419664582237601, 7261991.571747715584934, 691.672004788853997 ], [ 533440.966897980426438, 7261992.508785092271864, 691.968429201335539 ], [ 533441.215688401600346, 7261992.530985411256552, 691.930981302864325 ], [ 533443.906904599047266, 7261993.521661289036274, 692.271199455074793 ], [ 533444.439369000028819, 7261993.655571503564715, 692.313792700128261 ], [ 533447.116169242886826, 7261994.695233926177025, 692.639437787453744 ], [ 533447.776057959999889, 7261994.823778346180916, 692.684628184394114 ], [ 533450.508482236764394, 7261995.863304726779461, 693.018180721589033 ], [ 533451.225136709399521, 7261996.066332219168544, 693.107716460414849 ], [ 533453.965708281728439, 7261997.094787549227476, 693.404991811457876 ], [ 533454.310510108014569, 7261997.134347380138934, 693.430401523429168 ], [ 533457.071137310820632, 7261998.123206816613674, 693.744049758604888 ], [ 533457.116278170491569, 7261998.245799877680838, 693.794940069455379 ], [ 533459.749707478331402, 7261999.096786707639694, 694.01632062225201 ], [ 533460.780915940413252, 7261999.533219191245735, 694.237162917003843 ], [ 533462.500771925202571, 7262000.07912330608815, 694.35845159193866 ], [ 533464.539893248816952, 7262000.932996049523354, 694.662707220039238 ], [ 533465.034813151927665, 7262001.055420738644898, 694.64937196962137 ], [ 533468.204020000994205, 7262002.297997292131186, 695.005472368192159 ], [ 533469.096130690304562, 7262002.642234834842384, 695.112056080785464 ], [ 533471.191769599216059, 7262003.422525713220239, 695.361586394211486 ], [ 533472.695550741278566, 7262004.024807309731841, 695.503473469146911 ], [ 533474.07308993046172, 7262004.48445718549192, 695.685138269866457 ], [ 533476.144039982464164, 7262005.324034012854099, 695.976807503890996 ], [ 533476.538182489806786, 7262005.393209013156593, 695.958731423697031 ], [ 533478.953215343412012, 7262006.323547471314669, 696.228401216923203 ], [ 533479.207971685682423, 7262006.467068349942565, 696.337724173566244 ], [ 533481.679417287232354, 7262007.339599711820483, 696.563654053102937 ], [ 533482.669006297132, 7262007.802817276678979, 696.677319090812034 ], [ 533484.438320886110887, 7262008.455215717665851, 696.871269714574169 ], [ 533486.333411759696901, 7262009.257236570119858, 697.003607832697071 ], [ 533487.708730014739558, 7262009.72428038995713, 697.189888278556396 ], [ 533489.531399097526446, 7262010.590524101629853, 697.409005423483336 ], [ 533489.835871885181405, 7262010.598753387108445, 697.483967472958852 ], [ 533492.233500636531971, 7262011.709596391767263, 697.73803812975143 ], [ 533492.593310458236374, 7262011.798318729735911, 697.806250115384046 ], [ 533495.689127331133932, 7262013.112821288406849, 698.149967080850843 ], [ 533495.999929323559627, 7262013.277483922429383, 698.140427172128852 ], [ 533498.366431203321554, 7262014.304947452619672, 698.360059742958356 ], [ 533499.529136767843738, 7262014.873407458886504, 698.479244556420781 ], [ 533501.039534366107546, 7262015.480187211185694, 698.777560216740198 ], [ 533502.829435001011007, 7262016.436161996796727, 698.802796431695583 ], [ 533503.093711034627631, 7262016.526371861808002, 698.841079029956177 ], [ 533505.197076148819178, 7262017.774645142257214, 698.971428296361296 ], [ 533506.07603500818368, 7262018.258535062894225, 699.048460433350101 ], [ 533507.498874306445941, 7262019.221423003822565, 699.061889102726923 ], [ 533509.539106341893785, 7262020.522895324975252, 699.108101768958704 ], [ 533510.151623027166352, 7262020.966610051691532, 699.127507376292101 ], [ 533512.205623910645954, 7262022.204375986009836, 699.162408609368299 ], [ 533513.111346504883841, 7262022.785620135255158, 699.27376696542899 ], [ 533514.842038722475991, 7262023.784384736791253, 699.362496571176052 ], [ 533516.076886454829946, 7262024.558334317058325, 699.488339111547589 ], [ 533517.156709764269181, 7262025.106108862906694, 699.593051094677435 ], [ 533519.222137958742678, 7262026.32550960034132, 699.755802050872603 ], [ 533519.334358967840672, 7262026.46992024872452, 699.781505454405647 ], [ 533521.366498304530978, 7262027.575305707752705, 699.953847048541661 ], [ 533522.252807454904541, 7262028.108166955411434, 700.102665771067336 ], [ 533523.797027537366375, 7262028.910586718469858, 700.216985650625702 ], [ 533525.541195851168595, 7262029.946608752012253, 700.48785349183936 ], [ 533525.714797950000502, 7262029.989528067409992, 700.509342144523771 ], [ 533527.542763107689098, 7262030.910624338313937, 700.716962169514659 ], [ 533529.422322453930974, 7262031.83777542412281, 700.998427509748467 ], [ 533529.909491020604037, 7262032.059042965993285, 701.050750105428619 ], [ 533532.620476943091489, 7262033.225753273814917, 701.664960550776186 ], [ 533532.654778434778564, 7262033.218075962737203, 701.593773903584065 ], [ 533535.157618538709357, 7262034.144380206242204, 702.134505649896141 ], [ 533535.819477656041272, 7262034.402691265568137, 702.249902681594676 ], [ 533537.441661744145676, 7262034.938983056694269, 702.644710726875928 ], [ 533538.567016320070252, 7262035.35959180817008, 702.939764851054065 ], [ 533539.787389999139123, 7262035.743883335031569, 703.185221163945812 ], [ 533541.630441808025353, 7262036.434027215465903, 703.676283207528058 ], [ 533541.960119396098889, 7262036.500867357477546, 703.704868577791899 ], [ 533544.252515854663216, 7262037.274483968503773, 704.270821885522992 ], [ 533544.935757453786209, 7262037.536478921771049, 704.426738047623758 ], [ 533546.010076743434183, 7262037.888048375956714, 704.702896832165493 ], [ 533548.081487240619026, 7262038.695850415155292, 705.135721942123723 ], [ 533548.563750250963494, 7262038.914388416334987, 705.23473093275129 ], [ 533550.602065908140503, 7262039.816924378275871, 705.698569933358613 ], [ 533551.617428411380388, 7262040.356222335249186, 705.920519153332179 ], [ 533552.786946102161892, 7262040.970434999093413, 706.165548359729087 ], [ 533554.4553213249892, 7262041.870924213901162, 706.457286117267472 ], [ 533554.829963337979279, 7262042.081697929650545, 706.515121705198681 ], [ 533556.480427795206197, 7262042.970124883577228, 706.869746200464533 ], [ 533556.83957356994506, 7262043.181592881679535, 706.878938720635688 ], [ 533558.617361238808371, 7262044.067860529758036, 707.28704974248933 ], [ 533559.8644680371508, 7262044.710666157305241, 707.511579605085217 ], [ 533560.900037262355909, 7262045.192781342193484, 707.764931765385541 ], [ 533562.137246730970219, 7262045.808728953823447, 708.088404935520657 ], [ 533563.087669109925628, 7262046.189131138846278, 708.325958452970099 ], [ 533564.992304267827421, 7262046.991418885067105, 708.848910129566889 ], [ 533565.595774823101237, 7262047.228505281731486, 709.046657496664579 ], [ 533567.655894421972334, 7262047.952529031783342, 709.669097621730884 ], [ 533567.845656569581479, 7262048.051629893481731, 709.691768985315093 ], [ 533567.850234782439657, 7262048.054488147608936, 709.694857199898706 ], [ 533569.305741643416695, 7262048.429041459225118, 710.189968409218295 ], [ 533571.023187035811134, 7262048.967513738200068, 710.798688088005065 ], [ 533571.580892062862404, 7262048.997000513598323, 711.013561815781031 ], [ 533573.473441225476563, 7262049.335300422273576, 711.77035820362687 ], [ 533573.909891650080681, 7262049.591994758695364, 711.892115887581213 ], [ 533575.60934230289422, 7262049.626576599664986, 712.620659532632203 ], [ 533577.710319915786386, 7262050.346218531951308, 713.374361901198995 ], [ 533577.76455910934601, 7262050.077657327055931, 713.436437047194545 ], [ 533579.581465599825606, 7262050.555555084720254, 714.138331399435174 ], [ 533581.723623950965703, 7262051.189102685078979, 714.856448796208838 ], [ 533581.939034789334983, 7262051.432314794510603, 714.981171304951431 ], [ 533583.909912887727842, 7262051.809937940910459, 715.600895516987293 ], [ 533585.29165651043877, 7262052.422914896160364, 716.158592797315691 ], [ 533585.750899405917153, 7262052.353569768369198, 716.295569230643196 ], [ 533588.207165034487844, 7262053.042981090024114, 717.196336938138529 ], [ 533589.061552371247672, 7262053.501040222123265, 717.503409030558373 ], [ 533590.575667628902011, 7262053.757863156497478, 718.036949927470346 ], [ 533591.857627855148166, 7262054.379121167585254, 718.491244610985518 ], [ 533592.731613707845099, 7262054.514947455376387, 718.827519032360669 ], [ 533594.741726728272624, 7262055.278490528464317, 719.520950336223223 ], [ 533595.021488903556019, 7262055.520120738074183, 719.626005397972563 ], [ 533597.027962530730292, 7262056.191234361380339, 720.365480232332061 ], [ 533597.456736252875999, 7262056.486492518335581, 720.508115836530123 ], [ 533598.848663332406431, 7262056.875640550628304, 721.048507996641888 ], [ 533600.358484455151483, 7262057.585136810317636, 721.601970609351952 ], [ 533600.578971713548526, 7262057.483673989772797, 721.695247287368943 ], [ 533602.506836662534624, 7262058.136214822530746, 722.410440038726392 ], [ 533603.125910676433705, 7262058.569091624580324, 722.681426306417848 ], [ 533604.144925550324842, 7262058.677585744298995, 723.057152317516966 ], [ 533605.666942283511162, 7262059.158778864890337, 723.635198998090232 ], [ 533605.975690477527678, 7262059.532691208645701, 723.78663538054218 ], [ 533607.470078416052274, 7262059.778390736319125, 724.358706726900209 ], [ 533608.696210266789421, 7262060.452446727082133, 724.877951841953291 ], [ 533608.87401732255239, 7262060.232128076255322, 724.927459761152477 ], [ 533610.182008932577446, 7262060.640700733289123, 725.448773825875151 ], [ 533611.428483466617763, 7262061.377849414944649, 725.990722448585188 ], [ 533612.764934661914594, 7262061.453169325366616, 726.466161267076359 ], [ 533614.522382112569176, 7262061.927971818484366, 727.215710312176611 ], [ 533614.716549918754026, 7262062.396692147478461, 727.353521257494322 ], [ 533616.392518985900097, 7262062.54277447797358, 727.968403310735425 ], [ 533617.305341105908155, 7262063.245343531481922, 728.440439770188163 ], [ 533618.033968456438743, 7262063.021267356351018, 728.640658618513044 ], [ 533619.945130768464878, 7262063.598743105307221, 729.464213179811736 ], [ 533620.156797843286768, 7262064.247319104149938, 729.605215737902313 ], [ 533621.646377166733146, 7262064.072015454992652, 730.181890023459687 ], [ 533622.27215477952268, 7262064.913094453513622, 730.44300801610359 ], [ 533623.923608017736115, 7262064.790886735543609, 731.144241771419274 ], [ 533625.011372445733286, 7262065.066050868481398, 731.630766031702706 ], [ 533625.238136511412449, 7262065.824628245085478, 731.772123381510823 ], [ 533626.41987931355834, 7262065.58888665959239, 732.219962010337667 ], [ 533627.695751872612163, 7262065.840887758880854, 732.739596620578595 ], [ 533627.824064052896574, 7262066.754596841521561, 732.744796693551393 ], [ 533628.868591371923685, 7262066.262414060533047, 733.261139892311917 ], [ 533630.24570475879591, 7262066.640804570168257, 733.886290268166363 ], [ 533630.510292483493686, 7262067.507927346974611, 733.94387715406242 ], [ 533631.889847394661047, 7262066.918641965836287, 734.629450286666383 ], [ 533632.600195101229474, 7262068.022814881056547, 734.944550126132299 ], [ 533634.01033913239371, 7262067.646833516657352, 735.59609024189524 ], [ 533635.380555482464842, 7262067.930121133103967, 736.23524634153398 ], [ 533636.04272985260468, 7262067.961053262464702, 736.577246511084127 ], [ 533636.634761321241967, 7262068.299926083534956, 736.769845811739515 ], [ 533637.901358038303442, 7262068.610267827287316, 737.327617605089472 ], [ 533639.025998204480857, 7262068.767703258432448, 737.840782772902912 ], [ 533639.839010887546465, 7262068.844420341774821, 738.222487866994129 ], [ 533639.840293755754828, 7262068.846025701612234, 738.22297722748408 ], [ 533640.757204930996522, 7262068.784868916496634, 738.738565116514678 ], [ 533641.140075346804224, 7262068.914047606289387, 738.872100425661984 ], [ 533644.842542497441173, 7262069.369759717956185, 740.703224703644537 ], [ 533644.962502992828377, 7262069.339087697677314, 740.68003195043093 ], [ 533645.167592823621817, 7262069.891683631576598, 740.547217331465276 ] ] } },
{ "type": "Feature", "properties": { "name": "SOS1_W2_CREST", "num_points": 63, "length_m": 482.11428803948303, "group": "SOS1", "direction": "W2", "type": "CREST" }, "geometry": { "type": "LineString", "coordinates": [ [ 533905.118822400690988, 7261066.336580190807581, 643.700964367881852 ], [ 533912.89397028228268, 7261069.365571049973369, 644.433643763887517 ], [ 533921.517632328555919, 7261072.990331286564469, 645.290220643193607 ], [ 533930.398721294128336, 7261077.129840473644435, 646.076746431036781 ], [ 533939.206961032468826, 7261081.734212810173631, 646.915337796540257 ], [ 533945.738422614871524, 7261085.225698662921786, 647.612147614740024 ], [ 533953.545445759547874, 7261089.556680245324969, 648.510061476679311 ], [ 533960.406966820009984, 7261093.499983327463269, 649.430270242751817 ], [ 533966.239190990338102, 7261096.01645346544683, 650.476682536852195 ], [ 533973.877895042998716, 7261099.882192982360721, 651.763208251862352 ], [ 533981.713364535360597, 7261103.760899284854531, 653.380832347420323 ], [ 533990.228701464133337, 7261108.132446214556694, 655.051088151411705 ], [ 533999.528977377340198, 7261113.493415923789144, 656.982111278554839 ], [ 534006.409488775301725, 7261117.490584603510797, 658.504174549501613 ], [ 534015.290072219446301, 7261123.00617678463459, 660.494135792725956 ], [ 534023.50744206411764, 7261128.654232233762741, 662.436402820193621 ], [ 534030.732989924727008, 7261133.847141465172172, 664.088535161196432 ], [ 534040.142599762417376, 7261140.846176411956549, 666.509517646395693 ], [ 534048.443096714210697, 7261146.646395931020379, 668.803639557783072 ], [ 534056.058326250873506, 7261151.948898058384657, 670.986522324243424 ], [ 534063.643490180140361, 7261157.455624721944332, 673.111914364492918 ], [ 534075.271285468828864, 7261166.352348197251558, 676.628958057452905 ], [ 534082.438974249409512, 7261172.035199508070946, 678.898955612015016 ], [ 534089.857313565677032, 7261178.101427745074034, 681.273176933399668 ], [ 534098.058319689123891, 7261184.863678622990847, 683.968543391233766 ], [ 534105.399219977669418, 7261191.115037059411407, 686.500966562002759 ], [ 534112.041420564753935, 7261196.588606011122465, 688.8542309357249 ], [ 534118.747307470301166, 7261201.805798606947064, 691.344116590940303 ], [ 534125.067139218444936, 7261206.602755439467728, 693.77153056755435 ], [ 534132.7177993087098, 7261212.523196568712592, 696.761360366360805 ], [ 534138.740674037951976, 7261217.198343018069863, 699.15555888801407 ], [ 534144.676635165000334, 7261221.810844535939395, 701.500491012573548 ], [ 534151.547947478131391, 7261227.120603639632463, 704.247424267245947 ], [ 534157.984615610796027, 7261232.181896777823567, 706.874165443680567 ], [ 534164.754275367013179, 7261237.462147533893585, 709.716635804553334 ], [ 534171.309841251233593, 7261242.640840072184801, 712.610519030832506 ], [ 534172.837579300976358, 7261243.858208471909165, 713.093684995488957 ], [ 534172.938328901072964, 7261243.821601334959269, 713.308022233552606 ], [ 534179.73141188849695, 7261248.998897777870297, 716.287379995782544 ], [ 534185.969908650266007, 7261253.710226965136826, 719.061254699459482 ], [ 534193.131507568527013, 7261258.786753492429852, 722.332134502711256 ], [ 534199.931442083325237, 7261263.555601762607694, 725.468085168555376 ], [ 534206.771446864935569, 7261268.234773624688387, 728.602076622056529 ], [ 534212.983097518910654, 7261272.397631741128862, 731.578865932969848 ], [ 534219.79990428534802, 7261277.04839345626533, 734.809375911803045 ], [ 534226.650981333106756, 7261281.536167208105326, 738.106171633981376 ], [ 534232.522465467802249, 7261285.504674704745412, 741.011434361329975 ], [ 534238.822600739076734, 7261289.558926364406943, 744.044938238457689 ], [ 534244.993221501703374, 7261293.400323988869786, 747.147943287354792 ], [ 534251.477786732022651, 7261297.413111275061965, 750.385233426443051 ], [ 534257.671485679340549, 7261301.226242956705391, 753.479796990605223 ], [ 534263.377160018426366, 7261304.814604669809341, 756.420580784192225 ], [ 534268.700600627111271, 7261307.998798305168748, 759.233844231322223 ], [ 534274.773067300207913, 7261311.636986803263426, 762.295692783445588 ], [ 534279.693664363818243, 7261314.537467293441296, 764.864630184232283 ], [ 534284.133992084767669, 7261316.765952239744365, 767.146693611460591 ], [ 534288.157544766436331, 7261318.769236842170358, 769.208079882642096 ], [ 534291.475052778259851, 7261320.328332842327654, 770.799022787733293 ], [ 534294.538313724799082, 7261322.030008014291525, 772.462606631246672 ], [ 534297.315453511895612, 7261323.497333955951035, 773.963886462250343 ], [ 534300.5665986899985, 7261325.098127923905849, 775.668629776588773 ], [ 534304.03151927376166, 7261327.02270149346441, 777.462671093959671 ], [ 534307.378119285800494, 7261328.867253216914833, 779.132146762418529 ] ] } }
]
}
