{
"type": "FeatureCollection",
"name": "GNSS_edge_bowl_lines",
"crs": { "type": "name", "properties": { "name": "urn:ogc:def:crs:EPSG::32733" } },
"features": [
{ "type": "Feature", "properties": { "name": "SOS1_N_bowl", "num_points": 76, "length_m": 1284.3857829871974, "group": "SOS1", "direction": "N", "type": "bowl" }, "geometry": { "type": "LineString", "coordinates": [ [ 533901.203546370612457, 7261067.206690282560885, 642.224045443944647 ], [ 533899.679906233213842, 7261070.358700132928789, 640.230843912700266 ], [ 533896.684236063621938, 7261076.255304089747369, 636.315887800802557 ], [ 533892.868406092748046, 7261083.434744697064161, 631.545959746091739 ], [ 533887.075335708796047, 7261093.532559985294938, 624.782391449920397 ], [ 533878.029587958939373, 7261110.765828799456358, 613.846401783298688 ], [ 533873.039460790809244, 7261119.076974073424935, 609.055482209792672 ], [ 533868.969773235265166, 7261128.537090551108122, 604.536874812276437 ], [ 533858.597946434631012, 7261143.379654073156416, 598.251056059209077 ], [ 533847.33162290987093, 7261155.905897437594831, 593.730233884861377 ], [ 533806.128774900222197, 7261193.93814885802567, 583.986832812708599 ], [ 533787.89301127102226, 7261210.176778100430965, 581.091574069897547 ], [ 533769.82764019316528, 7261228.895912945270538, 578.145847592441669 ], [ 533749.265054026385769, 7261247.007060286588967, 575.780087554849501 ], [ 533731.585687755490653, 7261261.610889231786132, 574.263146375710221 ], [ 533709.673450397676788, 7261280.523205157369375, 572.437949360156153 ], [ 533688.278414230793715, 7261299.103783506900072, 570.507141490822505 ], [ 533669.613979087793268, 7261320.053027600981295, 567.640900352488984 ], [ 533654.694876354536973, 7261336.215240936726332, 565.854795697433133 ], [ 533624.626759249134921, 7261366.070572566241026, 565.807070007550692 ], [ 533606.900300779030658, 7261380.814223339781165, 565.805397526532829 ], [ 533572.944673203863204, 7261409.026558447629213, 566.011079617165819 ], [ 533539.401819857652299, 7261436.909410357475281, 566.25021666144039 ], [ 533518.544314012862742, 7261454.962196290493011, 566.091061393300947 ], [ 533472.416478459374048, 7261504.70109872892499, 565.90678538997588 ], [ 533466.303250471013598, 7261524.005991032347083, 566.125872128834772 ], [ 533451.810090659651905, 7261557.036549707874656, 566.357399365068773 ], [ 533407.117950118728913, 7261582.522608699277043, 567.332577708542431 ], [ 533338.292479978641495, 7261580.250406391918659, 563.237547127622634 ], [ 533314.90749880601652, 7261595.223819028586149, 565.047842247767335 ], [ 533305.150462203077041, 7261601.075439100153744, 565.991321848716098 ], [ 533300.240712950238958, 7261603.112620687112212, 566.534136568811846 ], [ 533294.748330268543214, 7261606.170537965372205, 567.343106318007472 ], [ 533285.505479064537212, 7261608.503919188864529, 568.378303465376916 ], [ 533275.423092723358423, 7261612.474819332361221, 569.804322781161886 ], [ 533268.304937747889198, 7261617.386718146502972, 570.995983044404738 ], [ 533260.305741395335644, 7261621.897098967805505, 572.371043749412252 ], [ 533254.461017427965999, 7261626.091000044718385, 573.623494164425097 ], [ 533247.50655170227401, 7261629.893901757895947, 574.870449891293447 ], [ 533242.185261366073973, 7261633.479996059089899, 576.069064319319523 ], [ 533231.708348218235187, 7261641.938638562336564, 578.8795542501216 ], [ 533220.93315132020507, 7261653.310052372515202, 582.331477518820975 ], [ 533213.205395977245644, 7261661.166047492995858, 584.827418902179147 ], [ 533207.740208860603161, 7261666.111392231658101, 586.474424933361092 ], [ 533198.900771949673072, 7261674.050451776012778, 589.38003588973811 ], [ 533191.77955431852024, 7261678.638000411912799, 591.28740196677586 ], [ 533187.630556982941926, 7261681.890412754379213, 592.528555219091913 ], [ 533176.98899319046177, 7261689.742235964164138, 595.445001825758482 ], [ 533167.608643891522661, 7261696.243767332285643, 597.432264984734616 ], [ 533149.182703799568117, 7261707.809730472043157, 600.886749237833328 ], [ 533141.77090248989407, 7261714.196224338375032, 603.047210091479201 ], [ 533135.651950900559314, 7261718.562039847485721, 604.674120911374757 ], [ 533135.659918871708214, 7261718.576723353005946, 604.665292310971154 ], [ 533125.185381199349649, 7261723.46284618973732, 606.944764636816672 ], [ 533117.613310418091714, 7261726.16743429005146, 608.356936162651095 ], [ 533108.490751327946782, 7261731.335112118162215, 610.597093640445564 ], [ 533095.966309417970479, 7261735.939814941957593, 612.71524810495066 ], [ 533088.408507323008962, 7261739.161880621686578, 613.964629213362628 ], [ 533075.130457933060825, 7261744.900077914819121, 616.271687696952199 ], [ 533060.622528404579498, 7261754.891780338250101, 619.73733204109169 ], [ 533048.895668093580753, 7261763.706307165324688, 622.511719882603074 ], [ 533038.339188874815591, 7261770.922866279259324, 624.515883602946701 ], [ 533031.868283104617149, 7261777.016452424228191, 626.390533577206384 ], [ 533023.374117209808901, 7261786.17572202719748, 629.290228221332882 ], [ 533014.272290620836429, 7261794.772465657442808, 631.914395574414016 ], [ 533004.795979380840436, 7261800.924600046128035, 633.462956046907379 ], [ 532998.619141416973434, 7261805.464715087786317, 635.229976470678935 ], [ 532994.174569018185139, 7261808.774302622303367, 636.561461147824502 ], [ 533000.101379233645275, 7261817.952092276886106, 639.397286510940944 ], [ 533006.188813447370194, 7261830.63075933791697, 643.250206054447062 ], [ 533003.931593017885461, 7261839.553333926014602, 646.587427184182957 ], [ 532998.238358824397437, 7261845.841630657203496, 649.105263111162913 ], [ 532995.113656569854356, 7261855.892640504054725, 652.631351478755732 ], [ 532998.26779252581764, 7261860.789055919274688, 654.134965621845367 ], [ 533001.279188398970291, 7261865.986935164779425, 655.79966366594499 ], [ 533004.31466998544056, 7261874.149557828903198, 658.412778200427397 ] ] } }
]
}
