{
"type": "FeatureCollection",
"name": "star_dune_crsts",
"crs": { "type": "name", "properties": { "name": "urn:ogc:def:crs:EPSG::32733" } },
"features": [
{ "type": "Feature", "properties": { "id": 1, "length": "1424.6473584390264", "name": "Big Mommy Dune" }, "geometry": { "type": "MultiLineString", "coordinates": [ [ [ 528823.96246814483311, 7262238.150808286853135 ], [ 528863.675987934693694, 7262219.462093091569841 ], [ 528908.061686523258686, 7262203.109467294998467 ], [ 528959.455653310054913, 7262147.043321710079908 ], [ 528992.160904901567847, 7262081.63281852658838 ], [ 529013.185709496261552, 7262018.558404742740095 ], [ 529055.235318685416132, 7261960.156169758178294 ], [ 529090.276659676339477, 7261908.762202970683575 ], [ 529101.957106673391536, 7261838.679520988836884 ], [ 529041.218782288953662, 7261745.235945013351738 ], [ 529017.85788829496596, 7261698.514157025143504 ], [ 529010.84962009685114, 7261640.111922040581703 ], [ 529013.185709496261552, 7261544.332256664521992 ], [ 529038.882692889659666, 7261471.91348528303206 ], [ 529076.260123279993422, 7261362.117283511906862 ], [ 529118.309732469148003, 7261266.337618135847151 ], [ 529162.69543105782941, 7261168.221863361075521 ], [ 529179.048056853585877, 7261067.77001918759197 ], [ 529179.048056853585877, 7261018.712141799740493 ], [ 529179.048056853585877, 7261018.712141799740493 ], [ 529165.031520457123406, 7260983.670800808817148 ] ] ] } },
{ "type": "Feature", "properties": { "id": 2, "length": "826.809305312592", "name": "Big Mommy Dune" }, "geometry": { "type": "MultiLineString", "coordinates": [ [ [ 529164.041465770336799, 7260983.875046485103667 ], [ 529073.924033880583011, 7260950.965549217537045 ], [ 528987.488726102747023, 7260920.596387024968863 ], [ 528849.659451538231224, 7260890.227224833332002 ], [ 528753.879786162870005, 7260848.17761564347893 ], [ 528655.764031387981959, 7260813.136274652555585 ], [ 528590.353528204839677, 7260768.750576063990593 ], [ 528496.909952228888869, 7260705.676162280142307 ], [ 528417.482912649284117, 7260649.610016695223749 ] ] ] } },
{ "type": "Feature", "properties": { "id": 3, "length": "1250.037640047788", "name": "Big Mommy Dune" }, "geometry": { "type": "MultiLineString", "coordinates": [ [ [ 529165.031520457123406, 7260983.670800808817148 ], [ 529230.442023640265688, 7260876.210688436403871 ], [ 529293.516437424113974, 7260766.414486665278673 ], [ 529365.935208805487491, 7260689.323536484502256 ], [ 529496.756215171888471, 7260651.946106094866991 ], [ 529627.577221538173035, 7260623.91303330194205 ], [ 529760.734317303984426, 7260609.896496905013919 ], [ 529910.244038865552284, 7260609.896496905013919 ], [ 530013.031972439144738, 7260609.896496905013919 ], [ 530120.4920848114416, 7260595.87996050901711 ], [ 530244.304822979611345, 7260567.846887716092169 ] ] ] } },
{ "type": "Feature", "properties": { "id": 4, "length": "716.421051972129", "name": "The Star Dune" }, "geometry": { "type": "MultiLineString", "coordinates": [ [ [ 533645.167592823621817, 7262069.891683631576598 ], [ 533640.757204930996522, 7262068.784868916496634 ], [ 533636.04272985260468, 7262067.961053262464702 ], [ 533632.600195101229474, 7262068.022814881056547 ], [ 533630.510292483493686, 7262067.507927346974611 ], [ 533627.824064052896574, 7262066.754596841521561 ], [ 533625.238136511412449, 7262065.824628245085478 ], [ 533622.27215477952268, 7262064.913094453513622 ], [ 533620.156797843286768, 7262064.247319104149938 ], [ 533617.305341105908155, 7262063.245343531481922 ], [ 533614.716549918754026, 7262062.396692147478461 ], [ 533611.428483466617763, 7262061.377849414944649 ], [ 533608.696210266789421, 7262060.452446727082133 ], [ 533605.975690477527678, 7262059.532691208645701 ], [ 533603.125910676433705, 7262058.569091624580324 ], [ 533600.358484455151483, 7262057.585136810317636 ], [ 533597.456736252875999, 7262056.486492518335581 ], [ 533595.021488903556019, 7262055.520120738074183 ], [ 533591.857627855148166, 7262054.379121167585254 ], [ 533589.061552371247672, 7262053.501040222123265 ], [ 533585.29165651043877, 7262052.422914896160364 ], [ 533581.939034789334983, 7262051.432314794510603 ], [ 533577.710319915786386, 7262050.346218531951308 ], [ 533573.909891650080681, 7262049.591994758695364 ], [ 533571.023187035811134, 7262048.967513738200068 ], [ 533567.850234782439657, 7262048.054488147608936 ], [ 533567.845656569581479, 7262048.051629893481731 ], [ 533564.992304267827421, 7262046.991418885067105 ], [ 533562.137246730970219, 7262045.808728953823447 ], [ 533559.8644680371508, 7262044.710666157305241 ], [ 533556.83957356994506, 7262043.181592881679535 ], [ 533554.4553213249892, 7262041.870924213901162 ], [ 533551.617428411380388, 7262040.356222335249186 ], [ 533548.563750250963494, 7262038.914388416334987 ], [ 533544.935757453786209, 7262037.536478921771049 ], [ 533541.630441808025353, 7262036.434027215465903 ], [ 533538.567016320070252, 7262035.35959180817008 ], [ 533535.819477656041272, 7262034.402691265568137 ], [ 533532.654778434778564, 7262033.218075962737203 ], [ 533529.422322453930974, 7262031.83777542412281 ], [ 533525.541195851168595, 7262029.946608752012253 ], [ 533522.252807454904541, 7262028.108166955411434 ], [ 533519.334358967840672, 7262026.46992024872452 ], [ 533516.076886454829946, 7262024.558334317058325 ], [ 533513.111346504883841, 7262022.785620135255158 ], [ 533510.151623027166352, 7262020.966610051691532 ], [ 533507.498874306445941, 7262019.221423003822565 ], [ 533505.197076148819178, 7262017.774645142257214 ], [ 533502.829435001011007, 7262016.436161996796727 ], [ 533499.529136767843738, 7262014.873407458886504 ], [ 533495.999929323559627, 7262013.277483922429383 ], [ 533492.233500636531971, 7262011.709596391767263 ], [ 533489.531399097526446, 7262010.590524101629853 ], [ 533486.333411759696901, 7262009.257236570119858 ], [ 533482.669006297132, 7262007.802817276678979 ], [ 533479.207971685682423, 7262006.467068349942565 ], [ 533476.144039982464164, 7262005.324034012854099 ], [ 533472.695550741278566, 7262004.024807309731841 ], [ 533469.096130690304562, 7262002.642234834842384 ], [ 533464.539893248816952, 7262000.932996049523354 ], [ 533460.780915940413252, 7261999.533219191245735 ], [ 533457.116278170491569, 7261998.245799877680838 ], [ 533453.965708281728439, 7261997.094787549227476 ], [ 533450.508482236764394, 7261995.863304726779461 ], [ 533447.116169242886826, 7261994.695233926177025 ], [ 533443.906904599047266, 7261993.521661289036274 ], [ 533440.966897980426438, 7261992.508785092271864 ], [ 533437.707403741544113, 7261991.372092032805085 ], [ 533434.108521896414459, 7261990.071603756397963 ], [ 533430.597015971899964, 7261988.835350904613733 ], [ 533426.936419497011229, 7261987.554325038567185 ], [ 533423.06741541181691, 7261986.215555683709681 ], [ 533419.421815145178698, 7261984.970890011638403 ], [ 533416.455602068337612, 7261984.027723392471671 ], [ 533412.204751457669772, 7261982.660528076812625 ], [ 533407.626473214942962, 7261981.357247183099389 ], [ 533403.053736626636237, 7261980.174173885025084 ], [ 533398.864435900235549, 7261979.081210614182055 ], [ 533394.276005283463746, 7261977.807467853650451 ], [ 533390.234645772143267, 7261976.660952714271843 ], [ 533385.9485026007751, 7261975.290925040841103 ], [ 533381.625804834649898, 7261973.872584335505962 ], [ 533377.291083016432822, 7261972.54874337092042 ], [ 533372.828615930862725, 7261971.222695874981582 ], [ 533365.891895203967579, 7261969.32953095715493 ], [ 533360.15939841826912, 7261967.954074119217694 ], [ 533354.714887747308239, 7261966.649365819990635 ], [ 533350.194695920334198, 7261965.575514431111515 ], [ 533345.507080965675414, 7261964.52777011692524 ], [ 533340.893964866409078, 7261963.426399403251708 ], [ 533336.05123207194265, 7261962.238641653209925 ], [ 533330.551945445826277, 7261960.663553727790713 ], [ 533325.960794192738831, 7261959.224617056548595 ], [ 533321.449930779868737, 7261957.752667615190148 ], [ 533317.03208411228843, 7261956.330853991210461 ], [ 533311.80075995833613, 7261954.630898451432586 ], [ 533307.942355558276176, 7261953.43654553219676 ], [ 533304.019058899139054, 7261952.196037450805306 ], [ 533299.412419473286718, 7261950.786622041836381 ], [ 533295.917871118173935, 7261949.721750528551638 ], [ 533291.359616133966483, 7261948.387871922925115 ], [ 533287.228266668040305, 7261947.190212476067245 ], [ 533282.701682123821229, 7261945.919296579435468 ], [ 533278.247209239285439, 7261944.57094716001302 ], [ 533273.72690731252078, 7261943.104828711599112 ], [ 533269.450773479533382, 7261941.59117859788239 ], [ 533265.071612528874539, 7261940.115586459636688 ], [ 533261.913469602237456, 7261939.021667340770364 ], [ 533258.227887041401118, 7261937.842649574391544 ], [ 533254.077054579858668, 7261936.521684505045414 ], [ 533251.03835315851029, 7261935.643218839541078 ], [ 533247.65094540535938, 7261934.758562751114368 ], [ 533243.898251363541931, 7261933.757364638149738 ], [ 533240.364919185056351, 7261932.848058363422751 ], [ 533236.756206064485013, 7261931.938237195834517 ], [ 533232.363180059706792, 7261930.831175399944186 ], [ 533228.271630022441968, 7261929.83200887683779 ], [ 533223.342899073264562, 7261928.614577380940318 ], [ 533218.638331692083739, 7261927.506702035665512 ], [ 533214.066450375365093, 7261926.440627552568913 ], [ 533209.512418875703588, 7261925.401689195074141 ], [ 533205.910003820084967, 7261924.586958127096295 ], [ 533201.090763990301639, 7261923.462354646995664 ], [ 533197.239846103359014, 7261922.466832572594285 ], [ 533193.771436652750708, 7261921.423236854374409 ], [ 533189.989695480442606, 7261920.078778974711895 ], [ 533186.101349422940984, 7261918.694904206320643 ], [ 533182.650324848247692, 7261917.450469357892871 ], [ 533179.318893538438715, 7261916.284573000855744 ], [ 533176.146159592084587, 7261915.119323302060366 ], [ 533173.564859467791393, 7261914.172007959336042 ], [ 533170.841026031994261, 7261913.264726843684912 ], [ 533167.904244073783047, 7261912.269954551011324 ], [ 533165.531743693049066, 7261911.477385237812996 ], [ 533162.724619843182154, 7261910.574083937332034 ], [ 533160.767030021059327, 7261909.90145568549633 ], [ 533157.649639016366564, 7261908.920781191438437 ], [ 533154.443250821903348, 7261907.897166485898197 ], [ 533151.325731189921498, 7261906.88817622885108 ], [ 533149.765024730237201, 7261906.374256916344166 ], [ 533146.732463594293222, 7261905.427209695801139 ], [ 533143.598309166962281, 7261904.521076248958707 ], [ 533141.429170172195882, 7261903.889305091463029 ], [ 533138.936513036140241, 7261903.158598823472857 ], [ 533136.341304971720092, 7261902.41264911647886 ], [ 533133.321040720911697, 7261901.637004539370537 ], [ 533129.998478837544098, 7261900.789367793127894 ], [ 533127.767877957317978, 7261900.22302926518023 ], [ 533125.456092167296447, 7261899.639420226216316 ], [ 533122.016956578358077, 7261898.826749287545681 ], [ 533118.641701215296052, 7261898.036875845864415 ], [ 533115.109135474544019, 7261897.242005210369825 ], [ 533112.250568606075831, 7261896.651659406721592 ], [ 533109.066224853275344, 7261895.972598142921925 ], [ 533105.665783886797726, 7261895.271983867511153 ], [ 533102.488833590177819, 7261894.659138927236199 ], [ 533097.730037589441054, 7261893.715701131150126 ], [ 533093.975683718337677, 7261892.983949088491499 ], [ 533090.802691331715323, 7261892.310726627707481 ], [ 533087.996390626067296, 7261891.734870264306664 ], [ 533088.459106370806694, 7261891.837380767799914 ], [ 533085.38079841947183, 7261891.220119627192616 ], [ 533082.880893755936995, 7261890.682770479470491 ], [ 533079.48217690247111, 7261889.898155374452472 ], [ 533076.057088206522167, 7261889.136626943014562 ], [ 533074.530245518079028, 7261888.801636040210724 ], [ 533071.030594678479247, 7261887.982193972915411 ], [ 533066.663369835820049, 7261887.040722701698542 ], [ 533062.993102404638194, 7261886.25722 ], [ 533058.066486413357779, 7261885.223625801503658 ], [ 533054.221177391009405, 7261884.423922887071967 ], [ 533049.503160001477227, 7261883.395392892882228 ], [ 533046.628919170703739, 7261882.820739829912782 ], [ 533043.705777275608853, 7261882.192684337496758 ], [ 533040.205217792652547, 7261881.466313492506742 ], [ 533036.893195363692939, 7261880.788022797554731 ], [ 533034.642405827762559, 7261880.346966531127691 ], [ 533031.856742969481274, 7261879.80594920180738 ], [ 533027.739993959083222, 7261878.931971625424922 ], [ 533024.289913526270539, 7261878.234182953834534 ], [ 533004.326632841606624, 7261874.149780285544693 ], [ 533020.723636688897386, 7261877.427119451574981 ], [ 533016.817965099937283, 7261876.634805390611291 ], [ 533015.047138976748101, 7261876.283459635451436 ], [ 533012.955363677931018, 7261875.854595014825463 ], [ 533010.66108485404402, 7261875.388516042381525 ], [ 533008.29410692374222, 7261875.005155758932233 ], [ 533005.976090399781242, 7261874.526418449357152 ], [ 533003.27390167536214, 7261873.921666236594319 ], [ 533000.509905738756061, 7261873.359083987772465 ], [ 532997.084167099557817, 7261872.567661853507161 ], [ 532995.225032143178396, 7261872.079857254400849 ] ] ] } },
{ "type": "Feature", "properties": { "id": 5, "length": "1200.9836435633272", "name": "The Star Dune" }, "geometry": { "type": "MultiLineString", "coordinates": [ [ [ 533645.210981146548875, 7262069.584653689526021 ], [ 533644.896410373155959, 7262067.111607972532511 ], [ 533646.340006749844179, 7262057.418889443390071 ], [ 533651.908164202934131, 7262042.364241514354944 ], [ 533673.562109853490256, 7262004.830735720694065 ], [ 533690.397311801789328, 7261978.446509269066155 ], [ 533698.824220725684427, 7261965.059895165264606 ], [ 533719.515098267002031, 7261925.826373268850148 ], [ 533729.464809871627949, 7261902.082743305712938 ], [ 533754.565218692179769, 7261829.382009649649262 ], [ 533759.305352248484269, 7261818.333331847563386 ], [ 533762.684701905585825, 7261811.504578212276101 ], [ 533765.860348505317234, 7261806.439379472285509 ], [ 533770.104332143673673, 7261800.583750605583191 ], [ 533775.33923749672249, 7261794.861606691032648 ], [ 533782.426478303968906, 7261787.855470960959792 ], [ 533786.88512194424402, 7261784.22555928491056 ], [ 533792.961089954595082, 7261779.765167895704508 ], [ 533799.240644853911363, 7261775.662974455393851 ], [ 533805.631672538584098, 7261771.602545311674476 ], [ 533812.657111970009282, 7261768.104585643857718 ], [ 533817.181198931182735, 7261765.329316209070385 ], [ 533824.053310824325308, 7261761.548641958273947 ], [ 533831.156807604362257, 7261757.854735533706844 ], [ 533837.688156023272313, 7261754.399802476167679 ], [ 533844.548047044314444, 7261750.906284932978451 ], [ 533849.192610368714668, 7261748.587643787264824 ], [ 533853.141075751977041, 7261746.294034450314939 ], [ 533858.146151263616048, 7261743.737895414233208 ], [ 533863.602128122816794, 7261741.290370160713792 ], [ 533868.906290549784899, 7261738.673716997727752 ], [ 533873.969266987289302, 7261736.159971265122294 ], [ 533880.195942661724985, 7261733.429270210675895 ], [ 533885.745983554632403, 7261730.699367927387357 ], [ 533891.342942567076534, 7261728.208897364325821 ], [ 533897.408812274225056, 7261725.68721826095134 ], [ 533903.33060705428943, 7261723.364192418754101 ], [ 533910.302668519201688, 7261720.856502376496792 ], [ 533915.931876485119574, 7261718.757916521281004 ], [ 533919.774123865296133, 7261717.81120859272778 ], [ 533926.340452132862993, 7261715.757721591740847 ], [ 533932.539139355765656, 7261713.625081251375377 ], [ 533939.718877417733893, 7261711.385781101882458 ], [ 533946.593179179355502, 7261709.643314938992262 ], [ 533953.610942784580402, 7261708.11454944126308 ], [ 533960.726101492298767, 7261706.379786021076143 ], [ 533968.655290890717879, 7261704.585511825978756 ], [ 533976.890589713701047, 7261702.737668580375612 ], [ 533983.274008395150304, 7261701.523102237842977 ], [ 533991.850511726574041, 7261699.770234418101609 ], [ 533999.543220011750236, 7261697.981332615017891 ], [ 534008.521696665673517, 7261696.175850208848715 ], [ 534018.610981338424608, 7261694.403915304690599 ], [ 534028.866682564024813, 7261692.826936785131693 ], [ 534035.582501610624604, 7261691.894406846724451 ], [ 534045.569445685716346, 7261690.396260914392769 ], [ 534052.367348749772646, 7261689.510147890076041 ], [ 534059.639735979260877, 7261688.722380146384239 ], [ 534066.323877453687601, 7261687.695404073223472 ], [ 534066.346238238620572, 7261687.743181824684143 ], [ 534073.424719947623089, 7261686.494796251878142 ], [ 534081.599450733163394, 7261685.161523318849504 ], [ 534088.610355389886536, 7261683.244956598617136 ], [ 534096.346569402026944, 7261681.705922849476337 ], [ 534102.557084032450803, 7261680.19243492744863 ], [ 534109.142632333445363, 7261678.875315287150443 ], [ 534115.442740076570772, 7261678.06360783521086 ], [ 534124.14562308206223, 7261676.989825973287225 ], [ 534132.250578930252232, 7261675.937618434429169 ], [ 534140.383254594053142, 7261675.614779511466622 ], [ 534148.494681946351193, 7261675.138134814798832 ], [ 534153.882038932410069, 7261675.275188399478793 ], [ 534158.514487946638837, 7261675.274229815229774 ], [ 534163.385334767168388, 7261674.353436890989542 ], [ 534163.781658885651268, 7261674.067082137800753 ], [ 534171.643409638316371, 7261670.040886715985835 ], [ 534179.880400144145824, 7261665.22827048972249 ], [ 534187.763097634073347, 7261660.880678748711944 ], [ 534195.885918972664513, 7261655.821766726672649 ], [ 534204.597790247760713, 7261650.751576657406986 ], [ 534212.111424710368738, 7261646.464227309450507 ], [ 534219.527022964903153, 7261642.190815913490951 ], [ 534228.588404456502758, 7261636.80635604634881 ], [ 534236.072030458366498, 7261632.040304436348379 ], [ 534244.323448495357297, 7261626.642221493646502 ], [ 534252.322747193276882, 7261621.472966933622956 ], [ 534259.17671068070922, 7261616.525730008259416 ], [ 534266.691669203923084, 7261611.385815204121172 ], [ 534274.765459153801203, 7261605.356094293296337 ], [ 534281.756111274589784, 7261599.30440709926188 ], [ 534288.461315120337531, 7261593.92233700491488 ], [ 534295.942567737190984, 7261588.432383237406611 ], [ 534302.83513882686384, 7261582.463278144598007 ], [ 534310.833652817411348, 7261575.770983174443245 ], [ 534316.648011035867967, 7261568.58794304728508 ], [ 534319.762652998557314, 7261560.583303793333471 ], [ 534320.744123276439495, 7261554.712271954864264 ], [ 534321.508908408111893, 7261549.239415030926466 ], [ 534323.038832981139421, 7261541.709232376888394 ], [ 534323.594453129568137, 7261536.319403141736984 ], [ 534324.094942120253108, 7261530.554346900433302 ], [ 534324.495365088572726, 7261523.423509249463677 ], [ 534325.462344085448422, 7261516.869537042453885 ], [ 534325.061381668434478, 7261509.22082307934761 ], [ 534325.085691160173155, 7261501.538612741976976 ], [ 534324.585625215666369, 7261493.274101410061121 ], [ 534324.144162316108122, 7261486.518917099572718 ], [ 534324.19341454631649, 7261486.510702254250646 ], [ 534323.35933319281321, 7261477.960800003260374 ], [ 534322.640087567968294, 7261470.911656362935901 ], [ 534321.466792070306838, 7261461.737513797357678 ], [ 534320.495003832736984, 7261452.966638090088964 ], [ 534319.271277745836414, 7261443.002513779327273 ], [ 534318.114168811705895, 7261434.525047496892512 ], [ 534316.718429102678783, 7261424.244627201929688 ], [ 534315.36611487774644, 7261415.054449496790767 ], [ 534314.063863709452562, 7261406.390892880037427 ], [ 534312.67841432755813, 7261396.613516164943576 ], [ 534311.342084583593532, 7261386.360347721725702 ], [ 534310.345288444426842, 7261377.251364400610328 ], [ 534309.419605696690269, 7261368.128486629575491 ], [ 534308.733759097289294, 7261360.078126110136509 ], [ 534308.404665376991034, 7261351.387365136295557 ], [ 534308.56933660316281, 7261343.351010045036674 ], [ 534309.032077057869174, 7261335.772651057690382 ], [ 534309.359469024464488, 7261328.707174025475979 ], [ 534309.395246738684364, 7261328.729774394072592 ], [ 534310.606828365474939, 7261324.980972599238157 ], [ 534313.063312802813016, 7261320.731186887249351 ], [ 534316.903171701589599, 7261315.912605027668178 ], [ 534321.325004862272181, 7261311.805100180208683 ], [ 534326.3326448246371, 7261307.87736519984901 ], [ 534328.948375676292926, 7261305.918744029477239 ] ] ] } },
{ "type": "Feature", "properties": { "id": 6, "length": "1219.1614651746054", "name": "The Star Dune" }, "geometry": { "type": "MultiLineString", "coordinates": [ [ [ 533539.339549691299908, 7262932.022849993780255 ], [ 533540.519400879275054, 7262928.684745205566287 ], [ 533541.757276888005435, 7262923.640803787857294 ], [ 533541.652960810344666, 7262923.656913984566927 ], [ 533542.870090860757045, 7262920.764608999714255 ], [ 533544.068274937919341, 7262917.335277539677918 ], [ 533545.426764880656265, 7262912.981296055018902 ], [ 533546.230304761324078, 7262909.552989337593317 ], [ 533547.012787827639841, 7262906.356040608137846 ], [ 533547.778468912933022, 7262902.726982016116381 ], [ 533548.646359909558669, 7262898.959620256908238 ], [ 533549.323804916697554, 7262895.536605326458812 ], [ 533549.997426666668616, 7262892.161389896646142 ], [ 533550.761946523212828, 7262888.84457874391228 ], [ 533551.768909137346782, 7262884.445727329701185 ], [ 533552.654057306004688, 7262880.765809834003448 ], [ 533553.532902903156355, 7262877.298456283286214 ], [ 533554.428245197050273, 7262873.955510528758168 ], [ 533555.359000345459208, 7262870.225217369385064 ], [ 533556.393043510382995, 7262866.520154404453933 ], [ 533557.578404085128568, 7262862.045488206669688 ], [ 533558.732856858870946, 7262857.868782436475158 ], [ 533559.915489293285646, 7262853.978852193802595 ], [ 533561.094446697970852, 7262850.012519184499979 ], [ 533562.098955703317188, 7262846.558432921767235 ], [ 533563.394448379985988, 7262842.760803086683154 ], [ 533564.526825834182091, 7262839.199099991470575 ], [ 533565.691513493773527, 7262835.944511719048023 ], [ 533566.940988467773423, 7262832.182459253817797 ], [ 533568.378097748267464, 7262828.374067703261971 ], [ 533569.993352729361504, 7262823.660331934690475 ], [ 533571.064487291732803, 7262820.33789031393826 ], [ 533572.565553550841287, 7262815.904210532084107 ], [ 533573.595527668716386, 7262812.660117974504828 ], [ 533574.932136456482112, 7262808.67776783183217 ], [ 533576.349991680122912, 7262804.197427011094987 ], [ 533577.698860113392584, 7262799.863308077678084 ], [ 533579.019681707490236, 7262795.609149805270135 ], [ 533580.042945571243763, 7262791.90265597961843 ], [ 533581.231297116377391, 7262787.134831394068897 ], [ 533582.731222033500671, 7262781.664788717404008 ], [ 533583.626558830030262, 7262777.796420955099165 ], [ 533584.744284034240991, 7262773.606177171692252 ], [ 533585.889314086991362, 7262769.141868016682565 ], [ 533586.854411698295735, 7262765.221816212870181 ], [ 533587.833675209083594, 7262760.623924775980413 ], [ 533588.496192349586636, 7262757.201295898295939 ], [ 533589.0195820229128, 7262754.105011406354606 ], [ 533589.659548765397631, 7262749.936444532126188 ], [ 533590.355145465931855, 7262745.170286890119314 ], [ 533591.056961890892126, 7262740.444193536415696 ], [ 533591.492603805614635, 7262736.653161182999611 ], [ 533591.832532792002894, 7262732.547409677878022 ], [ 533592.109960992704146, 7262728.890171692706645 ], [ 533592.306489937473089, 7262726.364282559603453 ], [ 533592.820437159040011, 7262719.861721765249968 ], [ 533593.494601639336906, 7262713.396243788301945 ], [ 533593.915626456029713, 7262708.913032208569348 ], [ 533594.539477222599089, 7262704.285474736243486 ], [ 533595.159424038138241, 7262699.28767872415483 ], [ 533595.722975946497172, 7262693.802584927529097 ], [ 533596.218843860202469, 7262688.775185216218233 ], [ 533596.767894721473567, 7262684.21063095703721 ], [ 533597.438616940635256, 7262677.997780162841082 ], [ 533597.87316210148856, 7262673.224833232350647 ], [ 533598.759676894289441, 7262664.70052282512188 ], [ 533599.291898562340066, 7262659.143680377863348 ], [ 533599.027789344079792, 7262653.273674486204982 ], [ 533600.34241808752995, 7262649.569815495982766 ], [ 533600.824199949507602, 7262645.015073552727699 ], [ 533601.422558148857206, 7262639.606688620522618 ], [ 533601.99408107472118, 7262635.255471392534673 ], [ 533602.633215713198297, 7262630.522437138482928 ], [ 533603.364090365590528, 7262625.486249465495348 ], [ 533603.830404608859681, 7262622.262057721614838 ], [ 533604.455917562823743, 7262617.969583328813314 ], [ 533605.071801809943281, 7262614.140723314136267 ], [ 533605.875442335964181, 7262609.15408974327147 ], [ 533606.455388808739372, 7262605.310104746371508 ], [ 533607.011569706257433, 7262601.906110605224967 ], [ 533607.677039437345229, 7262598.111079588532448 ], [ 533608.463416945654899, 7262594.025649485178292 ], [ 533609.181891587097198, 7262590.173888988792896 ], [ 533609.999370681587607, 7262586.022736635990441 ], [ 533610.867533166194335, 7262581.949606545269489 ], [ 533611.438716846634634, 7262579.011937541887164 ], [ 533612.102536576217972, 7262575.802173083648086 ], [ 533613.004224280361086, 7262571.755328617058694 ], [ 533612.036479018861428, 7262572.554302338510752 ], [ 533613.661439106334001, 7262568.716642947867513 ], [ 533614.739161733421497, 7262564.098713532090187 ], [ 533615.699490608880296, 7262560.213660434819758 ], [ 533616.53071883728262, 7262556.729436656460166 ], [ 533617.818564398679882, 7262551.556653667241335 ], [ 533618.800387780065648, 7262547.549882281571627 ], [ 533619.986514293588698, 7262543.124120080843568 ], [ 533620.958874094998464, 7262539.625503279268742 ], [ 533622.087218470638618, 7262535.313017390668392 ], [ 533622.777717075077817, 7262532.636653398163617 ], [ 533623.919945973437279, 7262528.725999420508742 ], [ 533624.938580697053112, 7262525.306023123674095 ], [ 533625.82459583459422, 7262522.145674198865891 ], [ 533626.842498962767422, 7262518.760135913267732 ], [ 533627.783365735900588, 7262515.383387997746468 ], [ 533628.831817418104038, 7262512.137092680670321 ], [ 533629.986379284993745, 7262508.146540257148445 ], [ 533631.259089876664802, 7262504.367285192012787 ], [ 533632.481077163014561, 7262500.296926928684115 ], [ 533633.56142103811726, 7262496.60911569558084 ], [ 533634.991984723019414, 7262492.089385120198131 ], [ 533636.267423554789275, 7262487.922652510926127 ], [ 533637.602142082643695, 7262483.796913648024201 ], [ 533637.564815498190001, 7262483.840095484629273 ], [ 533638.848227730952203, 7262479.890587142668664 ], [ 533639.982381890411489, 7262476.395499672740698 ], [ 533640.98809096578043, 7262473.543164825066924 ], [ 533642.285145505564287, 7262469.494656185619533 ], [ 533643.25095280224923, 7262466.174556255340576 ], [ 533644.309302632929757, 7262462.612738698720932 ], [ 533645.155057214316912, 7262459.365694387815893 ], [ 533646.134922842145897, 7262455.9583920231089 ], [ 533646.900784353376366, 7262453.440783460624516 ], [ 533648.078484837547876, 7262449.538158133625984 ], [ 533649.086189714609645, 7262446.048942629247904 ], [ 533649.980320915929042, 7262442.832408710382879 ], [ 533650.971911452827044, 7262439.423736188560724 ], [ 533651.790132457390428, 7262436.831336388364434 ], [ 533652.964636732474901, 7262433.131593339145184 ], [ 533653.943546150578186, 7262429.970614030957222 ], [ 533654.933726315503009, 7262426.837888484820724 ], [ 533656.269450700259767, 7262422.586707564070821 ], [ 533657.250244572060183, 7262419.183277887292206 ], [ 533658.152610026998445, 7262415.826858663931489 ], [ 533659.04833849996794, 7262412.516105452552438 ], [ 533659.699910253169946, 7262410.320945279672742 ], [ 533660.864703646744601, 7262405.664414413273335 ], [ 533662.067964690737426, 7262401.22274075075984 ], [ 533662.939539063372649, 7262398.114587490446866 ], [ 533663.849941089632921, 7262394.642199890688062 ], [ 533664.682872286532074, 7262391.346672454848886 ], [ 533665.34289360162802, 7262388.293159270659089 ], [ 533666.132258058409207, 7262385.325060395523906 ], [ 533667.008698522928171, 7262381.435783123597503 ], [ 533667.642524457070976, 7262378.254621629603207 ], [ 533668.317286128993146, 7262374.536161935888231 ], [ 533668.965242622187361, 7262371.188295852392912 ], [ 533669.590841666678898, 7262367.626651950180531 ], [ 533670.080388449016027, 7262364.186216188594699 ], [ 533670.600497888401151, 7262360.199966043233871 ], [ 533670.980153533630073, 7262357.020757708698511 ], [ 533671.380992946913466, 7262353.631474371999502 ], [ 533671.780765981064178, 7262350.102650312706828 ], [ 533672.153023567399941, 7262346.66833714582026 ], [ 533672.414779047016054, 7262342.505621280521154 ], [ 533672.497404513414949, 7262339.565212008543313 ], [ 533672.556434300844558, 7262336.139927688986063 ], [ 533672.571032069856301, 7262332.472544713877141 ], [ 533672.557700301520526, 7262329.580388400703669 ], [ 533672.449137022485957, 7262326.686314515769482 ], [ 533672.439001917140558, 7262323.913001676090062 ], [ 533672.359696622705087, 7262321.159453177824616 ], [ 533672.219483696506359, 7262318.448609583079815 ], [ 533672.140681787161157, 7262315.164969271048903 ], [ 533671.931645662989467, 7262312.290451286360621 ], [ 533671.642023049877025, 7262309.261804349720478 ], [ 533671.410221676807851, 7262306.025738943368196 ], [ 533671.064865113352425, 7262303.349099315702915 ], [ 533670.764141779858619, 7262300.461767296306789 ], [ 533670.348336636205204, 7262297.494587845169008 ], [ 533669.942931972793303, 7262294.818083312362432 ], [ 533669.390684637241066, 7262290.969222038984299 ], [ 533668.756903411238454, 7262287.302797949872911 ], [ 533668.100170234800316, 7262283.594718059524894 ], [ 533667.538745709811337, 7262280.094585966318846 ], [ 533666.992795791011304, 7262277.166322148405015 ], [ 533666.562939243973233, 7262274.673859683796763 ], [ 533666.026448169955984, 7262271.784258099272847 ], [ 533665.224978022626601, 7262267.745154525153339 ], [ 533664.491850079852156, 7262263.75889147259295 ], [ 533663.728366973809898, 7262260.101369965821505 ], [ 533662.966784104472026, 7262256.56304132938385 ], [ 533662.163438991410658, 7262252.601583556272089 ], [ 533661.463557414710522, 7262248.908992603421211 ], [ 533660.670837005600333, 7262244.402619002386928 ], [ 533659.918271064292639, 7262240.261965497396886 ], [ 533659.129839894012548, 7262235.659312384203076 ], [ 533658.525396894197911, 7262231.905920955352485 ], [ 533657.457377816317603, 7262228.102907188236713 ], [ 533657.310989530174993, 7262224.297147260978818 ], [ 533656.772062144242227, 7262220.385989295318723 ], [ 533656.332536198198795, 7262216.850331006571651 ], [ 533655.834868090460077, 7262213.25981754437089 ], [ 533655.380076446104795, 7262209.465605211444199 ], [ 533655.036395139759406, 7262206.804039240814745 ], [ 533654.513727978570387, 7262202.20179089717567 ], [ 533653.760042092879303, 7262202.444292610511184 ], [ 533654.434030136559159, 7262200.906852966174483 ], [ 533654.062917837523855, 7262197.990053782239556 ], [ 533653.667253911145963, 7262194.252943584695458 ], [ 533653.392191584920511, 7262190.625874625518918 ], [ 533653.041822048136964, 7262187.204582674428821 ], [ 533652.83298225235194, 7262184.518439363688231 ], [ 533652.664543422870338, 7262181.956441789865494 ], [ 533652.496028146706522, 7262179.46804772131145 ], [ 533652.351285131881014, 7262176.185212580487132 ], [ 533652.191749806632288, 7262172.894240093417466 ], [ 533652.13160450803116, 7262169.765387156046927 ], [ 533652.035017110873014, 7262166.404095524922013 ], [ 533652.004634705022909, 7262163.209883127361536 ], [ 533651.968105404055677, 7262159.823546048253775 ], [ 533651.919903235975653, 7262155.831954864785075 ], [ 533651.849490010528825, 7262152.137971763499081 ], [ 533651.752623622654937, 7262148.805860821157694 ], [ 533651.667476038914174, 7262145.137129480019212 ], [ 533651.66149219381623, 7262141.63971209153533 ], [ 533651.729980296920985, 7262138.070148127153516 ], [ 533651.619190725497901, 7262134.722262541763484 ], [ 533651.529132581315935, 7262130.971047850325704 ], [ 533651.428674834547564, 7262127.171850621700287 ], [ 533651.336997511214577, 7262124.437414884567261 ], [ 533651.145127720199525, 7262120.571427289396524 ], [ 533651.000003697001375, 7262116.867454757913947 ], [ 533650.829278074088506, 7262114.107566211372614 ], [ 533650.589792677899823, 7262110.564493066631258 ], [ 533650.406260137329809, 7262106.811769138090312 ], [ 533650.227110109408386, 7262102.729448726400733 ], [ 533649.960604096995667, 7262098.748872800730169 ], [ 533649.632027176907286, 7262094.646196810528636 ], [ 533649.289361228817143, 7262090.968483144417405 ], [ 533648.961721709114499, 7262087.260938568040729 ], [ 533648.536270765587687, 7262083.316585908643901 ], [ 533647.924498523934744, 7262079.724289167672396 ], [ 533646.950102984905243, 7262076.084430523216724 ], [ 533646.084725298685953, 7262073.3138199262321 ], [ 533645.224132403032854, 7262069.803841770626605 ] ] ] } },
{ "type": "Feature", "properties": { "id": 7, "length": "715.3849483240065", "name": "Inverted Y Dune" }, "geometry": { "type": "MultiLineString", "coordinates": [ [ [ 530081.127043504151516, 7261613.837287268601358 ], [ 530110.752299149869941, 7261642.053603800944984 ], [ 530153.560571032110602, 7261650.133335676975548 ], [ 530278.676686149439774, 7261648.115333819761872 ], [ 530371.504771559149958, 7261615.82730411272496 ], [ 530448.18884211499244, 7261573.44926512055099 ], [ 530498.638888533227146, 7261520.981216846033931 ], [ 530545.052931238082238, 7261446.315148146823049 ], [ 530599.538981369812973, 7261365.595073877833784 ], [ 530645.953024074668065, 7261325.23503674287349 ] ] ] } },
{ "type": "Feature", "properties": { "id": 8, "length": "767.0468713714199", "name": "Inverted Y Dune" }, "geometry": { "type": "MultiLineString", "coordinates": [ [ [ 530080.912504189647734, 7261613.809302255511284 ], [ 530095.038517186767422, 7261591.611281831748784 ], [ 530101.092522757011466, 7261527.035222415812314 ], [ 530111.182532040635124, 7261438.24314071983099 ], [ 530135.398554321494885, 7261351.46906088013202 ], [ 530163.65058031573426, 7261292.947007034905255 ], [ 530208.046621163841337, 7261248.550966187380254 ], [ 530264.550673152320087, 7261212.22693276591599 ], [ 530361.414762275409885, 7261204.154925338923931 ], [ 530498.638888533227146, 7261210.208930908702314 ], [ 530553.124938665074296, 7261171.866895630955696 ] ] ] } },
{ "type": "Feature", "properties": { "id": 9, "length": "828.6383574452781", "name": "Inverted Y Dune" }, "geometry": { "type": "MultiLineString", "coordinates": [ [ [ 529630.898090138332918, 7262269.659905693493783 ], [ 529640.988099422072992, 7262215.173855561763048 ], [ 529681.34813655668404, 7262130.417777579277754 ], [ 529723.726175548043102, 7262037.589692169800401 ], [ 529758.032207112526521, 7261946.779608616605401 ], [ 529784.266231250017881, 7261870.095538061112165 ], [ 529796.374242390389554, 7261843.861513922922313 ], [ 529846.824288808740675, 7261781.303456364199519 ], [ 529889.202327800099738, 7261734.889413659460843 ], [ 529980.012411353061907, 7261676.367359814234078 ], [ 530080.912504189647734, 7261613.809302255511284 ] ] ] } }
]
}
